{"type":"FeatureCollection","features":[{"type":"Feature","properties":{"ma":185,"type":"gpml:TopologicalNetwork","name":"Amer_anyui_mesh","pid":101,"deforming":true},"geometry":{"type":"Polygon","coordinates":[[[-3.1,50.45],[-4.41,50.49],[-5.72,50.53],[-7.03,50.54],[-8.47,50.41],[-9.89,50.25],[-11.15,50.32],[-12.42,50.37],[-13.5,50.53],[-14.58,50.68],[-15.67,50.82],[-16.85,51.03],[-18.05,51.24],[-19.26,51.43],[-20.43,51.37],[-21.6,51.29],[-23.03,50.99],[-24.44,50.68],[-25.32,50.46],[-26.19,50.23],[-26.97,50.05],[-27.75,49.87],[-28.49,49.68],[-29.23,49.49],[-30.11,49.37],[-30.42,49.35],[-30.42,49.35],[-30.29,49.45],[-29.88,49.96],[-28.91,50.56],[-28.68,50.78],[-27.93,51.45],[-27.64,51.65],[-27.03,51.9],[-26.3,52.35],[-25.55,52.8],[-24.53,53.55],[-23.84,53.78],[-23.27,53.94],[-22.17,54.13],[-21.59,54.16],[-20.92,54.32],[-20.2,54.48],[-19.39,54.52],[-18.45,54.57],[-17.67,54.6],[-16.64,54.63],[-15.77,54.65],[-14.72,54.67],[-13.73,54.67],[-12.38,54.66],[-11.03,54.64],[-9.46,54.46],[-7.91,54.26],[-6.38,54.04],[-5,53.76],[-3.63,53.45],[-3.63,53.45],[-3.41,52.61],[-3.19,51.77],[-2.98,50.93],[-3.1,50.45]]]}},{"type":"Feature","properties":{"ma":185,"type":"gpml:TopologicalClosedPlateBoundary","name":"East Gondwana Plate","pid":801,"deforming":false},"geometry":{"type":"Polygon","coordinates":[[[180,-77.22],[180,-78.2],[180,-79.18],[180,-80.17],[180,-81.15],[180,-82.13],[180,-83.12],[180,-84.1],[180,-85.08],[180,-86.07],[180,-87.05],[180,-88.03],[180,-89.02],[180,-90],[-180,-90],[-180,-89.02],[-180,-88.03],[-180,-87.05],[-180,-86.07],[-180,-85.08],[-180,-84.1],[-180,-83.12],[-180,-82.13],[-180,-81.15],[-180,-80.17],[-180,-79.18],[-180,-78.2],[-180,-77.22],[-180,-76.23],[-175.89,-76.29],[-171.77,-76.27],[-167.68,-76.19],[-163.66,-76.04],[-159.74,-75.83],[-155.94,-75.55],[-152.3,-75.22],[-148.49,-75.36],[-144.62,-75.44],[-140.73,-75.45],[-136.84,-75.4],[-133,-75.29],[-129.47,-75.27],[-125.95,-75.2],[-122.48,-75.08],[-119.08,-74.91],[-115.76,-74.69],[-112.86,-74.45],[-110.06,-74.17],[-107.36,-73.85],[-104.76,-73.51],[-102.26,-73.13],[-99.87,-72.72],[-97.59,-72.29],[-95.42,-71.83],[-93.43,-71.39],[-91.53,-70.94],[-89.72,-70.46],[-88,-69.97],[-85.91,-69.58],[-83.9,-69.17],[-81.97,-68.73],[-80.11,-68.27],[-78,-67.76],[-75.98,-67.22],[-74.05,-66.66],[-72.21,-66.07],[-70.45,-65.47],[-69.22,-64.7],[-68.06,-63.93],[-68.06,-63.93],[-68.09,-63.91],[-68.09,-63.91],[-66.09,-64.32],[-64.02,-64.7],[-61.9,-65.06],[-59.73,-65.38],[-57.5,-65.67],[-55.72,-65.82],[-53.91,-65.94],[-52.22,-66.01],[-50.53,-66.05],[-49.08,-66.19],[-48.08,-66.22],[-47.05,-66.34],[-45.66,-66.41],[-45,-66.4],[-44.48,-66.38],[-43.21,-66.35],[-41.77,-66.28],[-40.35,-66.21],[-39.41,-66.13],[-38.65,-66.07],[-37.26,-66.01],[-35.81,-65.84],[-34.6,-65.72],[-33.5,-65.59],[-32.41,-65.44],[-31.11,-65.24],[-30.36,-65.13],[-30,-65.08],[-28.87,-64.95],[-28.26,-64.88],[-27.92,-64.82],[-27.38,-64.73],[-27.04,-64.67],[-26.87,-64.62],[-26.59,-64.59],[-26.21,-64.48],[-26,-64.42],[-25.74,-64.37],[-25.49,-64.36],[-25.23,-64.31],[-24.9,-64.24],[-23.69,-64.03],[-22.5,-63.81],[-22.63,-62.97],[-22.75,-62.13],[-22.75,-62.13],[-24.05,-62.09],[-25.35,-62.04],[-26.93,-61.97],[-28.51,-61.88],[-28.51,-61.88],[-28.28,-61.27],[-28.06,-60.65],[-27.33,-59.8],[-26.64,-58.94],[-26.53,-58.26],[-26.42,-57.58],[-25.39,-57.16],[-24.38,-56.74],[-23.3,-57.02],[-22.2,-57.28],[-21.18,-56.57],[-20.19,-55.85],[-18.68,-55.84],[-17.18,-55.81],[-15.68,-55.76],[-14.21,-56.19],[-12.7,-56.6],[-11.16,-56.99],[-9.59,-57.36],[-8.47,-56.8],[-7.38,-56.23],[-5.77,-56.12],[-4.18,-55.98],[-2.92,-56.03],[-2.32,-55.57],[-1.74,-55.12],[-1.63,-54.55],[-1.52,-53.98],[-0.72,-53.52],[0.07,-53.05],[0.19,-52.27],[0.31,-51.49],[1.13,-50.91],[2.06,-50.48],[2.98,-50.04],[2.67,-49.2],[3.02,-48.35],[3.37,-47.5],[2.39,-46.84],[2.06,-46.25],[1.75,-45.65],[1.2,-45.23],[0.65,-44.81],[0.67,-43.97],[0.68,-43.14],[1.41,-42.32],[1.46,-41.67],[1.5,-41.01],[2.03,-40.3],[2.55,-39.58],[3.19,-39.29],[3.81,-38.99],[4.53,-38.53],[5.24,-38.05],[6.07,-37.65],[6.89,-37.23],[7.77,-37.01],[8.65,-36.78],[8.6,-36.72],[8.08,-36.33],[7.57,-35.94],[8.01,-35.35],[8.45,-34.75],[9.42,-34.88],[10.25,-34.55],[11.08,-34.2],[11.89,-34.68],[12.72,-35.15],[13.56,-35.62],[14.41,-36.08],[15.26,-36.54],[15.85,-36.24],[16.43,-35.94],[17.19,-36.2],[17.69,-35.84],[18.18,-35.47],[18.99,-35.09],[19.79,-34.7],[20.58,-34.31],[21.58,-33.88],[22.58,-33.45],[23.36,-32.78],[24.12,-32.12],[24.88,-31.45],[25.64,-30.85],[26.39,-30.25],[27.13,-29.65],[27.86,-29.04],[28.58,-28.43],[28.58,-28.43],[27.86,-29.04],[27.13,-29.65],[26.39,-30.25],[25.64,-30.85],[24.88,-31.45],[24.12,-32.12],[23.36,-32.78],[22.58,-33.45],[21.94,-33.73],[21.94,-33.73],[23.11,-33.74],[24.28,-33.73],[25.48,-33.8],[26.67,-33.85],[27.87,-33.88],[29.06,-33.9],[30.26,-33.91],[31.46,-33.91],[32.65,-33.89],[33.77,-33.81],[34.89,-33.73],[36,-33.63],[37.12,-33.52],[38.23,-33.4],[39.33,-33.27],[39.61,-33.23],[39.61,-33.23],[40.54,-32.65],[41.46,-32.06],[42.37,-31.47],[43.27,-30.87],[44.16,-30.27],[45.04,-29.65],[45.9,-29.04],[46.76,-28.41],[46.82,-28.37],[46.82,-28.37],[47.52,-27.65],[48.21,-26.93],[48.89,-26.21],[49.59,-25.64],[50.28,-25.07],[50.97,-24.5],[51.65,-23.92],[52.33,-23.34],[53,-22.76],[53.64,-22.06],[54.27,-21.36],[54.9,-20.66],[55.52,-19.95],[56.14,-19.24],[56.75,-18.53],[57.36,-17.82],[57.96,-17.11],[58.56,-16.4],[59.15,-15.68],[59.68,-14.83],[60.2,-13.98],[60.72,-13.12],[61.24,-12.27],[61.75,-11.41],[62.26,-10.56],[62.76,-9.7],[63.27,-8.84],[63.67,-8.01],[64.06,-7.17],[64.46,-6.33],[64.46,-6.33],[65.26,-6.59],[66.07,-6.85],[66.87,-7.11],[67.68,-7.37],[68.49,-7.62],[69.3,-7.88],[69.03,-8.78],[68.77,-9.68],[68.5,-10.59],[68.5,-10.59],[69.41,-10.94],[70.32,-11.29],[71.24,-11.64],[72.15,-11.98],[73.07,-12.32],[73.99,-12.66],[74.92,-12.99],[75.84,-13.32],[76.77,-13.65],[77.7,-13.97],[78.63,-14.29],[79.57,-14.61],[80.51,-14.92],[81.45,-15.23],[82.39,-15.53],[82.3,-16.04],[82.21,-16.55],[83.19,-16.67],[84.16,-16.78],[85.13,-16.89],[86.11,-16.99],[87.08,-17.09],[88.06,-17.18],[89.04,-17.27],[90.05,-17.38],[91.06,-17.49],[92.07,-17.6],[93.08,-17.7],[93.72,-16.91],[94.35,-16.12],[94.98,-15.33],[95.6,-14.54],[96.21,-13.74],[96.83,-12.95],[97.44,-12.15],[98.37,-12.53],[99.31,-12.9],[100.25,-13.27],[100.62,-12.53],[100.98,-11.79],[101.34,-11.05],[101.7,-10.3],[102.6,-10.47],[103.51,-10.63],[104.42,-10.79],[105.33,-10.95],[106.23,-11.1],[106.59,-10.28],[106.94,-9.46],[107.29,-8.63],[107.64,-7.81],[107.99,-6.99],[108.33,-6.16],[109.29,-6.4],[110.25,-6.65],[111.21,-6.88],[111.56,-6.01],[111.91,-5.14],[112.26,-4.27],[112.6,-3.39],[112.95,-2.52],[113.91,-2.72],[114.86,-2.92],[114.86,-2.92],[115.4,-3.21],[115.94,-3.5],[116.77,-3.95],[117.61,-4.39],[118.44,-4.83],[119.28,-5.28],[120.11,-5.72],[119.81,-6.19],[119.51,-6.67],[120.31,-7.09],[121.11,-7.51],[121.9,-7.92],[122.7,-8.34],[123.5,-8.75],[124.31,-9.16],[125.11,-9.57],[124.81,-10.1],[124.51,-10.64],[125.3,-11.05],[126.1,-11.46],[126.89,-11.87],[127.69,-12.27],[128.49,-12.67],[129.29,-13.07],[130.1,-13.47],[130.91,-13.87],[130.57,-14.42],[130.22,-14.98],[131.02,-15.31],[131.82,-15.64],[132.63,-15.96],[133.43,-16.28],[134.24,-16.6],[135.06,-16.91],[135.13,-16.96],[135.13,-16.96],[135.16,-17.93],[135.19,-18.91],[135.21,-19.88],[135.18,-20.75],[135.15,-21.63],[135.12,-22.5],[135.09,-23.37],[135.06,-24.25],[135.03,-25.12],[134.99,-26],[134.97,-26.94],[134.95,-27.88],[134.93,-28.82],[134.9,-29.76],[134.88,-30.7],[134.86,-31.64],[134.83,-32.58],[134.81,-33.53],[134.8,-34.39],[134.79,-35.25],[134.78,-36.12],[134.77,-36.98],[134.76,-37.84],[135.41,-38.62],[136.08,-39.4],[136.76,-40.17],[137.46,-40.94],[137.92,-41.59],[138.4,-42.24],[138.85,-42.72],[139.3,-43.19],[139.95,-43.47],[140.6,-43.75],[141.76,-44.18],[142.93,-44.6],[143.98,-45.19],[145.05,-45.78],[146.14,-46.36],[147.26,-46.92],[147.26,-46.92],[147.39,-47.66],[147.52,-48.4],[147.65,-49.14],[147.85,-49.94],[148.05,-50.74],[148.25,-51.54],[148.47,-52.34],[148.69,-53.14],[148.82,-54.01],[148.95,-54.89],[149.1,-55.76],[149.24,-56.63],[149.4,-57.5],[150.06,-58.41],[150.75,-59.31],[151.48,-60.21],[152.25,-61.11],[153.06,-62],[153.69,-62.77],[154.36,-63.54],[155.06,-64.31],[155.8,-65.07],[155.92,-65.66],[156.05,-66.24],[155.73,-66.81],[155.4,-67.37],[154.45,-68.29],[153.43,-69.22],[152.24,-70.13],[150.95,-71.03],[150.56,-71.54],[152.07,-72.37],[152.63,-73.2],[153.25,-74.02],[153.93,-74.84],[153.93,-74.84],[156.91,-75.11],[159.99,-75.34],[163.16,-75.54],[166.4,-75.69],[169.7,-75.79],[173.06,-75.99],[176.5,-76.13],[180,-76.23],[180,-77.22]]]}},{"type":"Feature","properties":{"ma":185,"type":"gpml:TopologicalClosedPlateBoundary","name":"Eurasia","pid":301,"deforming":false},"geometry":{"type":"Polygon","coordinates":[[[8,40.71],[7.76,41.42],[7.51,42.13],[7.42,42.82],[7.33,43.51],[6.85,44.34],[6.35,45.17],[5.52,45.51],[4.68,45.84],[3.5,45.65],[2.33,45.45],[1.21,45.7],[0.08,45.94],[-1.06,46.17],[-1.99,46.46],[-2.94,46.74],[-3.89,47.02],[-3.68,48],[-3.46,48.97],[-3.23,49.95],[-2.98,50.93],[-3.22,51.89],[-3.47,52.85],[-3.74,53.82],[-4.01,54.78],[-4.3,55.74],[-3.69,56.31],[-3.97,57.03],[-4.25,57.75],[-4.54,58.47],[-4.76,59.32],[-4.98,60.16],[-5.22,61.01],[-5.47,61.85],[-5.74,62.69],[-5.96,63.48],[-6.19,64.27],[-6.43,65.06],[-6.69,65.84],[-6.69,65.84],[-6.81,66.59],[-6.85,66.88],[-6.87,67.04],[-6.88,67.16],[-6.94,67.5],[-6.96,67.56],[-7.15,68.46],[-7.37,69.35],[-7.6,70.24],[-7.86,71.13],[-8.4,71.99],[-8.99,72.85],[-9.65,73.7],[-10.38,74.55],[-10.38,74.55],[-13.19,74.24],[-15.9,73.89],[-18.49,73.51],[-21.79,73.22],[-24.97,72.88],[-27.71,72.79],[-30.42,72.66],[-33.08,72.49],[-35.04,72.18],[-36.94,71.85],[-38.77,71.5],[-41.14,71.16],[-43.43,70.78],[-45.63,70.38],[-47.48,70.15],[-49.28,69.89],[-51.04,69.61],[-53.54,69.24],[-55.95,68.84],[-57.6,68.46],[-59.2,68.07],[-60.74,67.66],[-62.22,67.15],[-62.22,67.15],[-63.68,67.97],[-65.24,68.79],[-66.3,69.46],[-67.44,70.12],[-68.65,70.78],[-69.94,71.43],[-70.95,72.18],[-72.06,72.93],[-73.26,73.68],[-74.57,74.41],[-75.48,75.25],[-76.5,76.09],[-76.5,76.09],[-75.86,76.52],[-74.82,77.33],[-73.64,78.14],[-72.29,78.94],[-71.34,79.58],[-70.25,80.22],[-70.32,80.95],[-70.41,81.67],[-70.84,82.38],[-71.37,83.09],[-70.86,83.7],[-70.25,84.32],[-69.3,85.02],[-68.03,85.71],[-66.28,86.4],[-62.31,87.22],[-55.13,88.01],[-35.74,88.73],[9.48,89.07],[45.45,89.05],[70.75,88.72],[70.75,88.72],[76.76,88.23],[80.15,87.74],[82.61,86.89],[84.02,86.05],[84.93,85.2],[85.57,84.35],[82.65,83.48],[80.42,82.6],[78.66,81.7],[77.25,80.81],[76.08,79.9],[75.1,79],[74.28,78.09],[73.56,77.18],[72.94,76.27],[73.87,75.49],[74.7,74.71],[75.45,73.93],[76.14,73.15],[74.45,72.52],[72.88,71.88],[71.41,71.22],[71.24,70.53],[71.08,69.84],[70.93,69.14],[71.31,68.28],[71.66,67.42],[71.99,66.56],[72.3,65.7],[71.59,64.97],[70.92,64.23],[70.28,63.5],[69.68,62.76],[69.68,62.76],[69.1,62],[68.56,61.24],[68.04,60.48],[67.54,59.72],[68.7,59.22],[69.83,58.72],[70.92,58.21],[71.98,57.68],[73.24,57.3],[74.47,56.91],[75.67,56.51],[76.85,56.1],[77.01,55.52],[77.16,54.94],[76.45,54.26],[75.76,53.57],[74.86,52.97],[73.98,52.37],[73.13,51.76],[72.3,51.14],[71.32,50.4],[70.37,49.66],[69.44,48.9],[68.93,48.3],[68.44,47.7],[67.95,47.1],[67.46,46.21],[66.99,45.32],[66.54,44.43],[66.1,43.54],[65.67,42.64],[66.14,41.84],[66.59,41.03],[67.13,40.37],[67.65,39.71],[67.85,38.99],[68.04,38.28],[68.22,37.56],[68.09,36.75],[67.96,35.93],[67.83,35.12],[67.71,34.31],[67.59,33.49],[66.88,32.76],[66.18,32.02],[65.5,31.27],[64.82,30.52],[64.16,29.77],[63.5,29.01],[62.86,28.25],[62.22,27.49],[61.9,27.22],[61.9,27.22],[61.39,27.58],[60.87,27.93],[60.32,28.28],[59.77,28.63],[59.11,29.19],[58.45,29.74],[57.64,30.32],[56.83,30.89],[56.11,30.74],[55.39,30.59],[54.98,29.86],[54.57,29.12],[54.07,28.5],[53.57,27.89],[53.08,27.27],[52.09,26.92],[51.1,26.57],[50.13,26.21],[49.27,25.6],[48.42,24.99],[47.68,24.36],[46.95,23.73],[46.23,23.09],[45.77,22.37],[45.32,21.65],[44.94,20.97],[44.56,20.29],[44.36,19.8],[44.16,19.31],[43.78,18.78],[43.4,18.25],[42.7,18.02],[42.01,17.78],[41.31,17.54],[40.36,17.55],[39.41,17.56],[38.46,17.56],[37.49,17.36],[36.52,17.16],[35.82,17.01],[35.12,16.87],[34.43,16.72],[33.5,16.69],[32.58,16.66],[31.65,16.62],[30.85,16.8],[30.06,16.98],[29.26,17.16],[29.26,17.16],[29.9,17.76],[30.54,18.36],[31.19,18.96],[31.78,19.53],[32.37,20.09],[32.96,20.66],[33.56,21.22],[34.05,21.83],[34.55,22.44],[35.05,23.04],[35.55,23.65],[35.74,24.03],[35.74,24.03],[34.7,24.04],[33.67,24.04],[32.63,24.03],[31.59,24.02],[30.56,24],[29.52,23.97],[28.49,23.93],[27.45,23.89],[26.42,23.84],[25.39,23.79],[25.39,23.79],[24.51,23.31],[23.64,22.84],[22.77,22.36],[22.37,21.81],[21.96,21.27],[22.17,21.12],[21.59,20.31],[21.01,19.5],[21.17,19.45],[20.6,18.68],[20.03,17.91],[20.23,17.75],[19.73,16.97],[19.24,16.19],[18.75,15.4],[18.26,14.62],[17.77,13.84],[17.05,13.22],[16.33,12.61],[16.33,12.61],[16.2,12.69],[16.2,12.69],[15.62,12.26],[15.04,11.83],[14.46,11.39],[14.46,11.39],[14.72,10.99],[14.72,10.99],[14.15,10.59],[13.58,10.2],[13.02,9.79],[13.02,9.79],[13.13,9.18],[13.13,9.18],[12.41,8.91],[11.68,8.64],[10.96,8.37],[10.23,8.1],[10.19,7.4],[9.31,7.12],[8.43,6.84],[7.56,6.56],[6.6,6.34],[5.64,6.13],[4.68,5.91],[3.72,5.69],[3.72,5.69],[3.26,5.91],[2.8,6.12],[2.29,6.35],[1.78,6.59],[1.12,6.89],[0.36,7.46],[-0.37,8.01],[-0.8,8.33],[-1.05,8.52],[-1.06,8.53],[-1.06,8.53],[-0.91,8.67],[-0.68,8.89],[-0.46,9.1],[-0.24,9.44],[-0.16,9.84],[-0.09,10.17],[0.03,10.41],[0.39,10.83],[0.78,11.13],[0.98,11.35],[1.22,11.72],[1.36,11.92],[1.5,12.25],[1.64,12.56],[1.81,12.85],[1.93,13.11],[2.02,13.37],[2.1,13.58],[2.16,13.71],[2.26,13.84],[2.36,14],[2.44,14.22],[2.56,14.37],[2.6,14.42],[2.6,14.42],[2.87,14.5],[3.39,14.58],[4.04,14.68],[4.61,14.8],[5.16,15.18],[5.41,15.35],[5.41,15.35],[5.58,15.65],[6,15.89],[6.59,16.18],[6.9,16.49],[7.24,16.68],[7.77,17.08],[8.22,17.46],[8.47,17.75],[8.7,17.97],[8.86,18.2],[9.01,18.42],[9.26,18.62],[9.6,18.72],[9.98,18.87],[10.4,18.92],[10.87,18.9],[11.32,18.8],[11.69,18.7],[12,18.52],[12.59,18.39],[13.12,18.3],[13.64,18.3],[13.93,18.31],[14.22,18.37],[14.57,18.51],[14.82,18.94],[15.03,19.27],[15.25,19.57],[15.49,19.95],[15.77,20.38],[15.91,20.71],[15.91,20.71],[15.62,20.81],[15.52,20.85],[15.22,21.01],[14.73,21.2],[14.17,21.46],[13.63,21.67],[13.09,21.91],[12.64,22.11],[12.45,22.28],[12.32,22.38],[12.13,22.6],[11.96,22.98],[11.8,23.29],[11.76,23.67],[11.7,24.22],[11.57,24.63],[11.34,25.13],[10.75,25.56],[10.52,25.82],[10.13,25.95],[9.75,25.88],[9.28,26.04],[9.07,26.17],[8.84,26.43],[8.82,26.63],[8.78,26.85],[8.71,27.1],[8.58,27.4],[8.56,27.64],[8.44,28.1],[8.26,28.67],[8.12,29.11],[7.94,29.59],[7.88,30.05],[7.83,30.16],[7.83,30.16],[7.86,30.24],[7.86,30.35],[7.84,30.51],[7.86,30.66],[7.87,30.89],[7.89,31.11],[8.03,31.41],[8.17,31.56],[8.28,31.8],[8.3,31.84],[8.38,31.95],[8.43,32.01],[8.47,32.16],[8.48,32.22],[8.33,32.37],[8.23,32.48],[8.14,32.75],[8.08,32.86],[8.01,33.02],[8.19,33.28],[8.27,33.49],[8.23,33.75],[8.09,33.97],[7.97,34.17],[7.81,34.45],[7.58,34.64],[7.43,34.81],[7.33,34.95],[7.35,35.11],[7.49,35.29],[7.54,35.46],[7.68,35.69],[7.74,35.92],[7.93,36.12],[8.08,36.32],[8.29,36.5],[8.37,36.83],[8.28,37.2],[8.23,37.4],[8.2,37.79],[8.18,38.07],[8.3,38.59],[8.33,38.86],[8.33,39.12],[8.5,39.44],[8.42,39.52],[8.42,39.52],[8.44,39.62],[8.4,39.87],[8.38,40.31],[8.23,40.63],[8,40.71]]]}},{"type":"Feature","properties":{"ma":185,"type":"gpml:TopologicalClosedPlateBoundary","name":"Mongol-Okhotsk Ocean","pid":380,"deforming":false},"geometry":{"type":"Polygon","coordinates":[[[-180,80.68],[-180,81.61],[-180,82.54],[-180,83.48],[-180,84.41],[-180,85.34],[-180,86.27],[-180,87.2],[-180,88.14],[-180,89.07],[-180,90],[180,90],[180,89.07],[180,88.14],[180,87.2],[180,86.27],[180,85.34],[180,84.41],[180,83.48],[180,82.54],[180,81.61],[180,80.68],[180,79.75],[175.94,79.65],[173.75,78.84],[171.85,78.03],[170.19,77.2],[168.73,76.36],[167.43,75.52],[166.28,74.67],[165.44,74.09],[164.66,73.51],[163.68,72.82],[162.77,72.13],[161.79,71.52],[160.86,70.91],[159.99,70.29],[158.71,69.41],[157.53,68.52],[156.76,67.89],[156.03,67.26],[154.9,66.38],[153.85,65.5],[152.8,64.8],[151.8,64.09],[151.18,63.52],[150.58,62.94],[150,62.5],[149.43,62.07],[148.84,61.53],[148.27,60.99],[147.66,60.37],[147.07,59.75],[146.46,59.14],[145.87,58.54],[145.31,57.93],[144.81,57.39],[144.33,56.84],[143.87,56.28],[143.42,55.71],[142.88,55.11],[142.35,54.5],[141.83,53.97],[141.33,53.45],[140.88,52.96],[140.44,52.47],[139.71,51.68],[139.27,51.24],[138.85,50.8],[138.37,50.31],[137.9,49.82],[137.37,49.11],[136.85,48.4],[136.4,47.83],[135.95,47.26],[135.45,46.52],[134.96,45.78],[134.39,45.04],[133.83,44.3],[133.26,43.45],[132.71,42.61],[132.23,41.86],[131.75,41.11],[131.29,40.35],[130.77,39.48],[130.27,38.6],[129.77,37.71],[129.33,36.89],[128.9,36.06],[128.48,35.23],[127.92,34.38],[127.37,33.53],[126.84,32.67],[126.31,31.81],[125.7,31.12],[125.09,30.42],[124.5,29.72],[123.91,29.02],[123.33,28.31],[122.76,27.61],[122.19,26.9],[122.19,26.9],[122.23,26.85],[122.94,26.15],[123.65,25.46],[124.09,24.92],[124.53,24.38],[124.97,23.83],[125.58,23.11],[126.17,22.39],[126.79,21.62],[127.39,20.85],[127.46,20.14],[127.68,19.5],[127.89,18.86],[128.29,18.22],[128.69,17.57],[129.42,17.25],[130.14,16.92],[130.86,16.59],[130.86,16.59],[130.47,15.87],[130.08,15.15],[129.69,14.43],[129.31,13.71],[128.7,12.93],[128.09,12.16],[127.49,11.39],[127.45,11.34],[127.45,11.34],[126.51,11.69],[125.56,12.03],[124.61,12.36],[123.94,12.92],[123.28,13.48],[122.6,14.03],[121.93,14.58],[121.25,15.13],[120.57,15.68],[119.65,16.03],[118.73,16.38],[117.8,16.72],[116.87,17.06],[115.94,17.4],[115.06,17.74],[114.17,18.09],[113.29,18.43],[112.39,18.77],[111.5,19.1],[110.6,19.43],[109.69,19.75],[108.82,20.3],[107.94,20.84],[107.06,21.38],[106.17,21.92],[105.27,22.45],[104.53,23.01],[103.77,23.58],[103.02,24.14],[102.25,24.69],[101.48,25.25],[100.51,25.73],[100.51,25.73],[100.26,25.21],[99.48,25.52],[98.69,25.82],[97.9,26.11],[97.1,26.48],[96.29,26.84],[95.48,27.2],[94.67,27.55],[93.77,27.95],[92.87,28.35],[91.93,28.71],[91,29.07],[90.39,28.94],[89.8,28.8],[88.87,28.64],[87.95,28.48],[86.91,28.24],[85.86,27.99],[85.14,27.79],[84.42,27.58],[83.7,27.37],[82.86,27.16],[82.02,26.94],[81.18,26.71],[80.35,26.48],[79.6,26.49],[78.85,26.49],[78.06,26.51],[77.28,26.53],[76.51,26.23],[75.75,25.93],[75.02,25.5],[74.29,25.06],[73.7,24.83],[73.1,24.59],[72.39,24.58],[71.67,24.56],[70.79,24.55],[69.9,24.54],[69.28,24.68],[68.66,24.82],[67.64,25.06],[66.69,25.35],[66.15,25.6],[65.6,25.85],[64.85,26.08],[64.09,26.31],[63.26,26.25],[62.58,26.74],[61.9,27.22],[61.9,27.22],[62.22,27.49],[62.86,28.25],[63.5,29.01],[64.16,29.77],[64.82,30.52],[65.5,31.27],[66.18,32.02],[66.88,32.76],[67.59,33.49],[67.71,34.31],[67.83,35.12],[67.96,35.93],[68.09,36.75],[68.22,37.56],[68.04,38.28],[67.85,38.99],[67.65,39.71],[67.13,40.37],[66.59,41.03],[66.14,41.84],[65.67,42.64],[66.1,43.54],[66.54,44.43],[66.99,45.32],[67.46,46.21],[67.95,47.1],[68.44,47.7],[68.93,48.3],[69.44,48.9],[70.37,49.66],[71.32,50.4],[72.3,51.14],[73.13,51.76],[73.98,52.37],[74.86,52.97],[75.76,53.57],[76.45,54.26],[77.16,54.94],[77.01,55.52],[76.85,56.1],[75.67,56.51],[74.47,56.91],[73.24,57.3],[71.98,57.68],[70.92,58.21],[69.83,58.72],[68.7,59.22],[67.54,59.72],[68.04,60.48],[68.56,61.24],[69.1,62],[69.68,62.76],[69.68,62.76],[70.28,63.5],[70.92,64.23],[71.59,64.97],[72.3,65.7],[71.99,66.56],[71.66,67.42],[71.31,68.28],[70.93,69.14],[71.08,69.84],[71.24,70.53],[71.41,71.22],[72.88,71.88],[74.45,72.52],[76.14,73.15],[75.45,73.93],[74.7,74.71],[73.87,75.49],[72.94,76.27],[73.56,77.18],[74.28,78.09],[75.1,79],[76.08,79.9],[77.25,80.81],[78.66,81.7],[80.42,82.6],[82.65,83.48],[85.57,84.35],[84.93,85.2],[84.02,86.05],[82.61,86.89],[80.15,87.74],[76.76,88.23],[70.75,88.72],[70.75,88.72],[45.45,89.05],[9.48,89.07],[-35.74,88.73],[-55.13,88.01],[-62.31,87.22],[-66.28,86.4],[-68.03,85.71],[-69.3,85.02],[-70.25,84.32],[-70.86,83.7],[-71.37,83.09],[-71.08,82.72],[-71.08,82.72],[-75.62,83.33],[-81.04,83.9],[-87.5,84.4],[-95.1,84.82],[-104.56,85.06],[-114.71,85.16],[-124.95,85.11],[-135.48,84.91],[-144.91,84.55],[-153.01,84.07],[-159.77,83.48],[-165.37,82.82],[-169.99,82.11],[-173.83,81.35],[-177.04,80.57],[-179.76,79.75],[-180,79.75],[-180,80.68]]]}},{"type":"Feature","properties":{"ma":185,"type":"gpml:TopologicalClosedPlateBoundary","name":"North America","pid":101,"deforming":false},"geometry":{"type":"Polygon","coordinates":[[[-3.1,50.45],[-3.31,49.59],[-3.51,48.73],[-3.71,47.88],[-3.89,47.02],[-2.94,46.74],[-1.99,46.46],[-1.06,46.17],[0.08,45.94],[1.21,45.7],[2.33,45.45],[3.5,45.65],[4.68,45.84],[5.52,45.51],[6.35,45.17],[6.85,44.34],[7.33,43.51],[7.42,42.82],[7.51,42.13],[7.76,41.42],[8,40.71],[8.23,40.63],[8.23,40.63],[8.38,40.31],[8.4,39.87],[8.44,39.64],[8.44,39.64],[8.3,39.51],[8.05,39.31],[7.81,38.79],[7.62,38.36],[7.5,38.22],[7.42,38.02],[7.42,37.83],[7.44,37.64],[7.4,37.3],[7.33,37.04],[7.15,36.76],[7.01,36.61],[6.57,36.26],[6.34,35.84],[6.16,35.62],[6.03,35.47],[5.96,35.3],[6,35.13],[6.03,34.91],[6.02,34.72],[5.98,34.56],[5.94,34.39],[5.96,34.15],[6.06,33.99],[6.38,33.79],[6.58,33.72],[6.78,33.51],[6.73,33.36],[6.68,33.12],[6.64,32.45],[6.65,32.39],[6.96,32.06],[6.98,31.87],[6.69,31.37],[6.41,31.05],[5.96,30.43],[5.58,29.86],[5.34,29.15],[5.22,28.79],[4.86,28.23],[4.19,27.74],[3.76,27.35],[3.18,27.04],[2.7,26.66],[2,26.26],[1.26,25.98],[0.9,25.85],[0.74,25.05],[1.08,24.55],[1.42,24.04],[1.55,23.36],[1.34,22.68],[1.12,22],[0.77,21.51],[0.41,21.02],[-0.04,20.61],[-0.6,19.96],[-0.88,19.43],[-1.23,19.05],[-1.62,18.34],[-1.83,17.63],[-1.93,17.1],[-1.93,17.1],[-1.91,16.98],[-1.84,16.68],[-1.84,16.31],[-1.87,15.94],[-1.92,15.68],[-1.96,15.39],[-1.94,15.17],[-1.89,15.04],[-1.86,14.85],[-1.82,14.71],[-1.82,14.71],[-1.67,14.59],[-1.57,14.5],[-1.49,14.44],[-1.38,14.32],[-1.29,14.22],[-1.2,14.09],[-1.12,13.93],[-1.06,13.79],[-0.99,13.61],[-1.06,13.37],[-1.2,13.17],[-1.28,13],[-1.38,12.84],[-1.51,12.66],[-1.62,12.5],[-1.72,12.37],[-1.84,12.25],[-1.97,12.12],[-2.09,12.03],[-2.18,11.95],[-2.32,11.89],[-2.47,11.81],[-2.72,11.67],[-2.72,11.67],[-2.7,11.66],[-2.42,11.61],[-2.18,11.69],[-2.09,11.73],[-2.01,11.75],[-1.89,11.86],[-1.8,11.95],[-1.71,12.03],[-1.59,12.1],[-1.46,12.19],[-1.37,12.26],[-1.29,12.41],[-1.23,12.53],[-1.14,12.63],[-1.02,12.75],[-0.9,12.85],[-0.77,12.96],[-0.69,13.03],[-0.62,13.1],[-0.57,13.17],[-0.51,13.24],[-0.44,13.33],[-0.37,13.41],[-0.37,13.41],[-0.37,13.35],[-0.35,13.28],[-0.33,13.19],[-0.31,13.15],[-0.31,13.15],[-0.35,13.13],[-0.44,13.12],[-0.51,13.11],[-0.54,13.08],[-0.61,13.03],[-0.65,12.98],[-0.77,12.87],[-0.84,12.78],[-0.9,12.72],[-1.02,12.62],[-1.1,12.57],[-1.14,12.49],[-1.27,12.29],[-1.41,12.14],[-1.53,12.02],[-1.65,11.91],[-1.82,11.76],[-2.06,11.54],[-2.12,11.44],[-2.2,11.27],[-2.2,11.13],[-2.19,10.96],[-2.22,10.81],[-2.26,10.68],[-2.47,10.47],[-2.59,10.36],[-2.75,10.2],[-2.75,10.2],[-3.24,10.72],[-3.73,11.06],[-3.95,11.31],[-3.95,11.31],[-4.06,11.4],[-4.23,11.59],[-4.35,11.69],[-4.47,11.83],[-4.69,11.94],[-4.85,12.15],[-5.19,12.27],[-5.96,12.42],[-6.63,12.62],[-7.35,12.81],[-7.99,12.88],[-8.52,12.92],[-9.02,12.93],[-9.51,12.92],[-10.09,12.89],[-10.75,12.98],[-11.23,13.11],[-11.57,13.1],[-12.21,13],[-12.76,12.89],[-13.37,12.66],[-14.08,12.29],[-14.6,12.02],[-15.39,11.92],[-15.91,11.8],[-16.71,11.7],[-17.48,11.67],[-17.95,11.68],[-18.48,11.44],[-18.86,11.59],[-19.11,11.52],[-19.34,10.96],[-19.71,10.66],[-20.18,10.56],[-20.52,10.31],[-20.85,10.06],[-21.03,10.07],[-21.28,10.05],[-21.75,9.93],[-22.03,9.95],[-22.33,10.04],[-22.57,10.07],[-22.71,9.97],[-23.13,9.84],[-23.32,9.41],[-23.61,8.98],[-24.11,8.53],[-24.61,8.08],[-24.97,7.8],[-25.76,7.3],[-26.4,7.01],[-26.6,6.4],[-26.84,5.65],[-27.32,5.23],[-27.89,4.83],[-28.52,4.72],[-29.16,4.62],[-29.68,4.49],[-30,4.42],[-30.34,4.34],[-30.46,4.15],[-30.84,3.88],[-31.23,3.58],[-31.65,3.21],[-31.95,2.93],[-32.15,2.81],[-32.15,2.81],[-32.16,2.83],[-32.86,3.5],[-33.35,3.99],[-33.84,4.48],[-34.56,4.95],[-35.27,5.41],[-35.9,5.96],[-36.56,6.35],[-37.05,6.64],[-37.54,6.94],[-38.02,7.19],[-38.51,7.44],[-38.97,7.71],[-39.43,7.99],[-40.23,8.57],[-40.95,8.77],[-41.67,8.97],[-42.18,9.14],[-42.69,9.3],[-43.7,9.3],[-44.23,9.35],[-44.75,9.39],[-45.45,9],[-46.15,8.6],[-46.84,8.21],[-47.57,7.56],[-48.3,6.9],[-49.03,6.25],[-49.3,5.56],[-49.69,5.19],[-50.08,4.82],[-50.73,4.08],[-51.34,3.71],[-52.01,3.2],[-52.68,2.7],[-53.47,2.53],[-54.26,2.37],[-55.21,2.16],[-56.15,1.95],[-56.91,1.75],[-57.67,1.56],[-58.61,1.36],[-59.55,1.16],[-60.44,1.04],[-60.44,1.04],[-60.38,1.71],[-60.32,2.38],[-60.18,3.14],[-60.05,3.9],[-59.92,4.66],[-59.74,5.46],[-59.56,6.25],[-59.38,7.05],[-59.13,7.78],[-58.87,8.51],[-58.61,9.23],[-58.22,9.6],[-57.82,9.97],[-57.29,10.44],[-56.75,10.9],[-56.31,11.39],[-55.87,11.88],[-55.83,11.94],[-55.83,11.94],[-55.92,12.79],[-56.01,13.63],[-56.1,14.47],[-56.2,15.32],[-56.29,16.16],[-56.43,17.11],[-56.56,18.05],[-56.7,19],[-56.85,19.95],[-56.99,20.89],[-57.14,21.84],[-57.28,22.79],[-57.34,23.56],[-57.39,24.33],[-57.45,25.1],[-57.51,25.87],[-57.11,26.65],[-56.7,27.44],[-56.29,28.22],[-55.87,29],[-55.45,29.78],[-54.79,30.52],[-54.12,31.26],[-53.44,31.99],[-52.75,32.72],[-52.55,32.93],[-52.55,32.93],[-52.74,33.86],[-52.93,34.79],[-53.13,35.73],[-53.09,36.52],[-53.04,37.31],[-52.99,38.09],[-52.94,38.88],[-52.83,39.84],[-52.71,40.8],[-52.59,41.76],[-52.58,42.72],[-52.57,43.67],[-52.11,44.51],[-51.65,45.34],[-51.17,46.18],[-50.67,47.01],[-50.41,47.84],[-50.13,48.66],[-49.85,49.49],[-49.57,50.27],[-49.28,51.05],[-48.98,51.83],[-49.07,52.59],[-49.16,53.35],[-49.25,54.11],[-49.35,54.86],[-49.52,55.1],[-49.52,55.1],[-47.99,55.09],[-46.45,55.07],[-44.92,55.02],[-43.25,54.8],[-41.61,54.55],[-39.99,54.29],[-38.76,53.75],[-37.55,53.21],[-36.38,52.65],[-35.24,52.08],[-34.13,51.5],[-33.09,51.05],[-32.08,50.6],[-31.08,50.14],[-30.11,49.68],[-30.11,49.68],[-30.29,49.45],[-30.42,49.35],[-30.42,49.35],[-30.11,49.37],[-29.23,49.49],[-28.49,49.68],[-27.75,49.87],[-26.97,50.05],[-26.19,50.23],[-25.32,50.46],[-24.44,50.68],[-23.03,50.99],[-21.6,51.29],[-20.43,51.37],[-19.26,51.43],[-18.05,51.24],[-16.85,51.03],[-15.67,50.82],[-14.58,50.68],[-13.5,50.53],[-12.42,50.37],[-11.15,50.32],[-9.89,50.25],[-8.47,50.41],[-7.03,50.54],[-5.72,50.53],[-4.41,50.49],[-3.1,50.45]]]}},{"type":"Feature","properties":{"ma":185,"type":"gpml:TopologicalClosedPlateBoundary","name":"Pacific Plate","pid":901,"deforming":false},"geometry":{"type":"Polygon","coordinates":[[[-145.86,3.98],[-145.59,3.41],[-145.32,2.85],[-145.09,2.37],[-144.87,1.89],[-144.22,1.37],[-143.57,0.85],[-142.92,0.33],[-142.27,-0.2],[-141.62,-0.72],[-140.97,-1.24],[-140.97,-1.24],[-141.94,-1.17],[-142.92,-1.1],[-143.89,-1.02],[-144.86,-0.95],[-145.83,-0.87],[-146.81,-0.8],[-147.74,-0.79],[-148.67,-0.78],[-149.6,-0.77],[-150.44,-0.71],[-151.28,-0.66],[-152.13,-0.6],[-152.97,-0.55],[-153.81,-0.49],[-154.66,-0.44],[-154.66,-0.44],[-153.79,0.07],[-152.93,0.57],[-152.07,1.08],[-151.21,1.59],[-150.35,2.1],[-149.57,2.39],[-148.79,2.69],[-148.01,2.98],[-147.29,3.31],[-146.58,3.64],[-145.86,3.98]]]}},{"type":"Feature","properties":{"ma":185,"type":"gpml:TopologicalClosedPlateBoundary","name":"Phoenix Plate","pid":919,"deforming":false},"geometry":{"type":"MultiPolygon","coordinates":[[[[180,-4.46],[180,-5.46],[180,-6.45],[180,-7.45],[180,-8.45],[180,-9.44],[180,-10.44],[180,-11.44],[180,-12.43],[180,-13.43],[180,-14.43],[180,-15.43],[180,-16.42],[180,-17.42],[180,-18.42],[180,-19.41],[180,-20.41],[180,-21.41],[180,-22.4],[180,-23.4],[180,-24.4],[180,-25.39],[180,-26.39],[180,-27.39],[180,-28.38],[180,-29.38],[180,-30.38],[180,-31.38],[180,-32.37],[180,-33.37],[180,-34.37],[180,-35.36],[180,-36.36],[180,-37.36],[180,-38.35],[180,-39.35],[180,-40.35],[180,-41.34],[180,-42.34],[180,-43.34],[180,-44.33],[180,-45.33],[180,-46.33],[180,-47.33],[180,-48.32],[180,-49.32],[180,-50.32],[180,-51.31],[180,-52.31],[180,-53.31],[180,-54.3],[180,-55.3],[180,-56.3],[180,-57.29],[180,-58.29],[180,-59.29],[180,-60.28],[180,-61.28],[180,-62.28],[180,-63.28],[180,-64.27],[180,-65.27],[180,-66.27],[180,-67.26],[180,-68.26],[180,-69.26],[180,-70.25],[180,-71.25],[180,-72.25],[180,-73.24],[180,-74.24],[180,-75.24],[180,-76.23],[176.5,-76.13],[173.06,-75.99],[169.7,-75.79],[166.4,-75.69],[163.16,-75.54],[159.99,-75.34],[156.91,-75.11],[153.93,-74.84],[153.93,-74.84],[153.25,-74.02],[152.63,-73.2],[152.07,-72.37],[150.56,-71.54],[150.95,-71.03],[152.24,-70.13],[153.43,-69.22],[154.45,-68.29],[155.4,-67.37],[155.73,-66.81],[156.05,-66.24],[155.92,-65.66],[155.8,-65.07],[155.06,-64.31],[154.36,-63.54],[153.69,-62.77],[153.06,-62],[152.25,-61.11],[151.48,-60.21],[150.75,-59.31],[150.06,-58.41],[149.4,-57.5],[149.24,-56.63],[149.1,-55.76],[148.95,-54.89],[148.82,-54.01],[148.69,-53.14],[148.47,-52.34],[148.25,-51.54],[148.05,-50.74],[147.85,-49.94],[147.65,-49.14],[147.52,-48.4],[147.39,-47.66],[147.26,-46.92],[147.26,-46.92],[146.14,-46.36],[145.05,-45.78],[143.98,-45.19],[142.93,-44.6],[141.76,-44.18],[140.6,-43.75],[139.95,-43.47],[139.3,-43.19],[138.85,-42.72],[138.4,-42.24],[137.92,-41.59],[137.46,-40.94],[136.76,-40.17],[136.08,-39.4],[135.41,-38.62],[134.76,-37.84],[134.77,-36.98],[134.78,-36.12],[134.79,-35.25],[134.8,-34.39],[134.81,-33.53],[134.83,-32.58],[134.86,-31.64],[134.88,-30.7],[134.9,-29.76],[134.93,-28.82],[134.95,-27.88],[134.97,-26.94],[134.99,-26],[135.03,-25.12],[135.06,-24.25],[135.09,-23.37],[135.12,-22.5],[135.15,-21.63],[135.18,-20.75],[135.21,-19.88],[135.19,-18.99],[135.16,-18.09],[135.14,-17.2],[135.12,-16.31],[135.09,-15.42],[135.07,-14.53],[135.05,-13.63],[135.02,-12.74],[135.08,-12.02],[135.08,-12.02],[135.91,-11.56],[136.74,-11.11],[137.57,-10.65],[138.4,-10.2],[139.22,-9.73],[140.04,-9.27],[140.86,-8.81],[141.67,-8.34],[142.49,-7.87],[143.3,-7.4],[143.72,-8.22],[144.13,-9.03],[144.55,-9.85],[144.98,-10.66],[145.4,-11.47],[146.36,-11.23],[147.31,-10.98],[148.27,-10.72],[149.22,-10.47],[150.17,-10.21],[151.12,-9.95],[152.07,-9.68],[153.02,-9.42],[153.97,-9.15],[154.91,-8.87],[155.85,-8.6],[156.79,-8.32],[157.73,-8.04],[158.67,-7.76],[159.61,-7.48],[160.05,-8.13],[160.49,-8.78],[161.41,-8.43],[162.32,-8.08],[163.23,-7.73],[164.14,-7.38],[165.05,-7.03],[165.95,-6.67],[166.86,-6.32],[167.76,-5.96],[168.66,-5.6],[169.57,-5.24],[170.47,-4.87],[171.37,-4.51],[172.27,-4.15],[173.16,-3.78],[174.06,-3.41],[174.37,-4.06],[174.69,-4.7],[175,-5.34],[175.83,-5.03],[176.67,-4.72],[177.5,-4.41],[178.34,-4.09],[179.17,-3.78],[180,-3.46],[180,-4.46]]],[[[-180,-75.24],[-180,-74.24],[-180,-73.24],[-180,-72.25],[-180,-71.25],[-180,-70.25],[-180,-69.26],[-180,-68.26],[-180,-67.26],[-180,-66.27],[-180,-65.27],[-180,-64.27],[-180,-63.28],[-180,-62.28],[-180,-61.28],[-180,-60.28],[-180,-59.29],[-180,-58.29],[-180,-57.29],[-180,-56.3],[-180,-55.3],[-180,-54.3],[-180,-53.31],[-180,-52.31],[-180,-51.31],[-180,-50.32],[-180,-49.32],[-180,-48.32],[-180,-47.33],[-180,-46.33],[-180,-45.33],[-180,-44.33],[-180,-43.34],[-180,-42.34],[-180,-41.34],[-180,-40.35],[-180,-39.35],[-180,-38.35],[-180,-37.36],[-180,-36.36],[-180,-35.36],[-180,-34.37],[-180,-33.37],[-180,-32.37],[-180,-31.38],[-180,-30.38],[-180,-29.38],[-180,-28.38],[-180,-27.39],[-180,-26.39],[-180,-25.39],[-180,-24.4],[-180,-23.4],[-180,-22.4],[-180,-21.41],[-180,-20.41],[-180,-19.41],[-180,-18.42],[-180,-17.42],[-180,-16.42],[-180,-15.43],[-180,-14.43],[-180,-13.43],[-180,-12.43],[-180,-11.44],[-180,-10.44],[-180,-9.44],[-180,-8.45],[-180,-7.45],[-180,-6.45],[-180,-5.46],[-180,-4.46],[-180,-3.46],[-179.14,-3.13],[-178.27,-2.8],[-177.41,-2.47],[-176.55,-2.14],[-175.68,-1.81],[-175.26,-2.64],[-174.84,-3.47],[-174.42,-4.29],[-173.54,-4.02],[-172.66,-3.75],[-171.79,-3.47],[-170.91,-3.2],[-170.03,-2.92],[-169.16,-2.65],[-168.29,-2.37],[-167.41,-2.09],[-166.54,-1.81],[-165.67,-1.53],[-165.36,-2.2],[-165.06,-2.88],[-164.76,-3.55],[-163.85,-3.29],[-162.94,-3.04],[-162.03,-2.79],[-161.12,-2.54],[-160.21,-2.28],[-159.31,-2.03],[-158.4,-1.77],[-157.49,-1.52],[-156.59,-1.26],[-155.68,-1],[-154.77,-0.75],[-153.87,-0.49],[-153.01,-0.55],[-152.16,-0.6],[-151.31,-0.66],[-150.45,-0.71],[-149.6,-0.77],[-148.67,-0.78],[-147.74,-0.79],[-146.81,-0.8],[-145.83,-0.87],[-144.86,-0.95],[-143.89,-1.02],[-142.92,-1.1],[-141.94,-1.17],[-140.97,-1.24],[-140.97,-1.24],[-141.63,-0.71],[-142.29,-0.18],[-142.94,0.34],[-143.6,0.87],[-144.26,1.4],[-144.26,1.4],[-143.73,1.14],[-143.21,0.88],[-142.39,0.43],[-141.56,-0.03],[-140.74,-0.48],[-139.92,-0.94],[-139.1,-1.39],[-138.27,-1.85],[-137.45,-2.3],[-136.63,-2.76],[-135.8,-3.21],[-134.98,-3.66],[-134.15,-4.11],[-133.32,-4.56],[-132.49,-5.01],[-131.66,-5.46],[-132.17,-6.17],[-132.69,-6.88],[-133.2,-7.59],[-132.39,-8.04],[-131.58,-8.5],[-130.76,-8.96],[-129.95,-9.41],[-129.13,-9.86],[-128.31,-10.31],[-127.49,-10.76],[-126.66,-11.21],[-125.84,-11.65],[-125.01,-12.09],[-124.17,-12.53],[-123.34,-12.97],[-123.82,-13.78],[-124.3,-14.59],[-124.78,-15.39],[-123.92,-15.83],[-123.06,-16.26],[-122.19,-16.69],[-121.32,-17.12],[-120.44,-17.54],[-119.56,-17.96],[-118.68,-18.37],[-117.79,-18.78],[-116.9,-19.19],[-116,-19.59],[-115.1,-19.99],[-114.19,-20.38],[-113.28,-20.77],[-113.61,-21.45],[-113.94,-22.14],[-114.27,-22.82],[-114.61,-23.51],[-113.67,-23.87],[-112.73,-24.22],[-111.78,-24.57],[-110.83,-24.92],[-109.87,-25.25],[-108.91,-25.59],[-107.95,-25.91],[-106.97,-26.23],[-105.99,-26.54],[-105.01,-26.85],[-104.02,-27.15],[-103.03,-27.44],[-102.03,-27.72],[-102.27,-28.62],[-102.51,-29.52],[-102.76,-30.41],[-103.01,-31.31],[-103.27,-32.2],[-102.17,-32.53],[-101.06,-32.86],[-99.95,-33.17],[-98.82,-33.47],[-97.69,-33.76],[-96.55,-34.04],[-95.41,-34.31],[-94.26,-34.57],[-93.1,-34.82],[-91.93,-35.06],[-90.75,-35.29],[-89.57,-35.5],[-88.39,-35.71],[-87.2,-35.9],[-86,-36.08],[-86.13,-36.93],[-86.27,-37.78],[-86.41,-38.63],[-85.26,-38.95],[-84.09,-39.25],[-82.91,-39.54],[-81.73,-39.81],[-80.53,-40.08],[-79.33,-40.33],[-78.12,-40.57],[-76.9,-40.79],[-75.67,-41.01],[-74.43,-41.21],[-73.18,-41.4],[-71.93,-41.57],[-70.67,-41.73],[-69.41,-41.88],[-68.14,-42.01],[-66.87,-42.13],[-65.59,-42.23],[-64.3,-42.32],[-63.02,-42.4],[-61.73,-42.46],[-60.44,-42.51],[-60.44,-42.51],[-60.71,-42.93],[-60.81,-43.77],[-60.92,-44.6],[-61.01,-45.34],[-61.1,-46.08],[-61.57,-46.89],[-62.06,-47.69],[-62.17,-47.96],[-62.19,-48.08],[-62.19,-48.08],[-62.27,-48.41],[-62.27,-48.41],[-62.61,-48.98],[-62.88,-49.25],[-63.02,-49.61],[-63.13,-49.89],[-63.33,-50.35],[-63.47,-50.63],[-63.74,-51.14],[-63.93,-51.51],[-64.12,-51.9],[-64.31,-52.32],[-64.61,-52.96],[-64.74,-53.22],[-64.91,-53.57],[-65.06,-53.89],[-65.2,-54.19],[-65.35,-54.54],[-65.46,-54.85],[-65.55,-55.1],[-65.58,-55.18],[-65.62,-55.41],[-65.68,-55.69],[-65.71,-56.13],[-65.94,-56.45],[-66.25,-56.77],[-66.67,-57.15],[-67.13,-57.59],[-67.41,-57.87],[-67.65,-58.12],[-67.85,-58.32],[-68.15,-58.66],[-68.38,-59.09],[-68.43,-59.45],[-68.45,-59.78],[-68.48,-60.03],[-68.44,-60.33],[-68.42,-60.68],[-68.32,-61.05],[-68.19,-61.46],[-68.2,-61.77],[-68.25,-61.94],[-68.3,-62.27],[-68.38,-62.64],[-68.44,-63.01],[-68.42,-63.38],[-68.41,-63.45],[-68.17,-63.84],[-68.06,-63.93],[-68.06,-63.93],[-69.22,-64.7],[-70.45,-65.47],[-72.21,-66.07],[-74.05,-66.66],[-75.98,-67.22],[-78,-67.76],[-80.11,-68.27],[-81.97,-68.73],[-83.9,-69.17],[-85.91,-69.58],[-88,-69.97],[-89.72,-70.46],[-91.53,-70.94],[-93.43,-71.39],[-95.42,-71.83],[-97.59,-72.29],[-99.87,-72.72],[-102.26,-73.13],[-104.76,-73.51],[-107.36,-73.85],[-110.06,-74.17],[-112.86,-74.45],[-115.76,-74.69],[-119.08,-74.91],[-122.48,-75.08],[-125.95,-75.2],[-129.47,-75.27],[-133,-75.29],[-136.84,-75.4],[-140.73,-75.45],[-144.62,-75.44],[-148.49,-75.36],[-152.3,-75.22],[-155.94,-75.55],[-159.74,-75.83],[-163.66,-76.04],[-167.68,-76.19],[-171.77,-76.27],[-175.89,-76.29],[-180,-76.23],[-180,-75.24]]]]}},{"type":"Feature","properties":{"ma":185,"type":"gpml:TopologicalClosedPlateBoundary","name":"West Gondwana","pid":701,"deforming":false},"geometry":{"type":"Polygon","coordinates":[[[39.33,-33.27],[38.23,-33.4],[37.12,-33.52],[36,-33.63],[34.89,-33.73],[33.77,-33.81],[32.65,-33.89],[31.46,-33.91],[30.26,-33.91],[29.06,-33.9],[27.87,-33.88],[26.67,-33.85],[25.48,-33.8],[24.28,-33.73],[23.11,-33.74],[21.94,-33.73],[21.94,-33.73],[21.26,-34.02],[20.58,-34.31],[20.58,-34.31],[19.79,-34.7],[18.99,-35.09],[18.18,-35.47],[17.69,-35.84],[17.19,-36.2],[16.43,-35.94],[15.85,-36.24],[15.26,-36.54],[14.41,-36.08],[13.56,-35.62],[12.72,-35.15],[11.89,-34.68],[11.08,-34.2],[10.25,-34.55],[9.42,-34.88],[8.45,-34.75],[8.01,-35.35],[7.57,-35.94],[8.08,-36.33],[8.6,-36.72],[8.65,-36.78],[7.77,-37.01],[6.89,-37.23],[6.07,-37.65],[5.24,-38.05],[4.53,-38.53],[3.81,-38.99],[3.19,-39.29],[2.55,-39.58],[2.03,-40.3],[1.5,-41.01],[1.46,-41.67],[1.41,-42.32],[0.68,-43.14],[0.67,-43.97],[0.65,-44.81],[1.2,-45.23],[1.75,-45.65],[2.06,-46.25],[2.39,-46.84],[3.37,-47.5],[3.02,-48.35],[2.67,-49.2],[2.98,-50.04],[2.06,-50.48],[1.13,-50.91],[0.31,-51.49],[0.19,-52.27],[0.07,-53.05],[-0.72,-53.52],[-1.52,-53.98],[-1.63,-54.55],[-1.74,-55.12],[-2.32,-55.57],[-2.92,-56.03],[-4.18,-55.98],[-5.77,-56.12],[-7.38,-56.23],[-8.47,-56.8],[-9.59,-57.36],[-11.16,-56.99],[-12.7,-56.6],[-14.21,-56.19],[-15.68,-55.76],[-17.18,-55.81],[-18.68,-55.84],[-20.19,-55.85],[-21.18,-56.57],[-22.2,-57.28],[-23.3,-57.02],[-24.38,-56.74],[-25.39,-57.16],[-26.42,-57.58],[-26.53,-58.26],[-26.64,-58.94],[-27.33,-59.8],[-28.06,-60.65],[-28.28,-61.27],[-28.51,-61.88],[-28.51,-61.88],[-26.93,-61.97],[-25.35,-62.04],[-24.05,-62.09],[-22.75,-62.13],[-22.75,-62.13],[-22.63,-62.97],[-22.5,-63.81],[-22.5,-63.81],[-23.69,-64.03],[-24.9,-64.24],[-25.23,-64.31],[-25.49,-64.36],[-25.74,-64.37],[-26,-64.42],[-26.21,-64.48],[-26.59,-64.59],[-26.87,-64.62],[-27.04,-64.67],[-27.38,-64.73],[-27.92,-64.82],[-28.26,-64.88],[-28.87,-64.95],[-30,-65.08],[-30.36,-65.13],[-31.11,-65.24],[-32.41,-65.44],[-33.5,-65.59],[-34.6,-65.72],[-35.81,-65.84],[-37.26,-66.01],[-38.65,-66.07],[-39.41,-66.13],[-40.35,-66.21],[-41.77,-66.28],[-43.21,-66.35],[-44.48,-66.38],[-45,-66.4],[-45.66,-66.41],[-47.05,-66.34],[-48.08,-66.22],[-49.08,-66.19],[-50.53,-66.05],[-52.22,-66.01],[-53.91,-65.94],[-55.72,-65.82],[-57.5,-65.67],[-59.73,-65.38],[-61.9,-65.06],[-64.02,-64.7],[-66.09,-64.32],[-68.09,-63.91],[-68.09,-63.91],[-68.17,-63.84],[-68.41,-63.45],[-68.42,-63.38],[-68.44,-63.01],[-68.38,-62.64],[-68.3,-62.27],[-68.25,-61.94],[-68.2,-61.77],[-68.19,-61.46],[-68.32,-61.05],[-68.42,-60.68],[-68.44,-60.33],[-68.48,-60.03],[-68.45,-59.78],[-68.43,-59.45],[-68.38,-59.09],[-68.15,-58.66],[-67.85,-58.32],[-67.65,-58.12],[-67.41,-57.87],[-67.13,-57.59],[-66.67,-57.15],[-66.25,-56.77],[-65.94,-56.45],[-65.71,-56.13],[-65.68,-55.69],[-65.62,-55.41],[-65.58,-55.18],[-65.55,-55.1],[-65.46,-54.85],[-65.35,-54.54],[-65.2,-54.19],[-65.06,-53.89],[-64.91,-53.57],[-64.74,-53.22],[-64.61,-52.96],[-64.31,-52.32],[-64.12,-51.9],[-63.93,-51.51],[-63.74,-51.14],[-63.47,-50.63],[-63.33,-50.35],[-63.13,-49.89],[-63.02,-49.61],[-62.88,-49.25],[-62.61,-48.98],[-62.27,-48.41],[-62.27,-48.41],[-62.19,-48.08],[-62.19,-48.08],[-62.17,-47.96],[-62.06,-47.69],[-61.57,-46.89],[-61.1,-46.08],[-61.01,-45.34],[-60.92,-44.6],[-60.81,-43.77],[-60.71,-42.93],[-60.23,-42.18],[-59.75,-41.42],[-59.29,-40.67],[-58.84,-39.91],[-58.4,-39.15],[-58.22,-38.39],[-58.05,-37.62],[-57.88,-36.85],[-57.71,-36.08],[-57.59,-35.22],[-57.47,-34.35],[-57.41,-33.92],[-57.34,-33.53],[-57.31,-33.21],[-57.22,-32.64],[-57.16,-31.93],[-56.99,-31.47],[-56.76,-30.63],[-56.64,-30.15],[-56.66,-29.55],[-56.66,-29.55],[-56.68,-29.27],[-56.72,-28.9],[-56.7,-28.35],[-56.85,-27.61],[-56.92,-27.08],[-57,-26.55],[-57.56,-25.78],[-57.73,-25.09],[-57.9,-24.4],[-58.07,-23.71],[-58.28,-22.9],[-58.49,-22.08],[-58.69,-21.27],[-58.78,-20.41],[-58.87,-19.55],[-58.96,-18.69],[-59.04,-17.84],[-59.13,-16.98],[-59.21,-16.12],[-59.27,-15.25],[-59.33,-14.39],[-59.38,-13.52],[-59.04,-12.72],[-58.7,-11.93],[-58.36,-11.13],[-58.02,-10.34],[-57.68,-9.54],[-57.58,-9.28],[-57.49,-9.03],[-57.37,-8.77],[-57.22,-8.43],[-57.12,-8.23],[-57.04,-8],[-56.82,-7.65],[-56.64,-7.34],[-56.46,-7.11],[-56.46,-7.11],[-56.23,-7.63],[-56.01,-8.14],[-56.01,-8.14],[-55.82,-8.15],[-55.27,-8.06],[-54.71,-7.97],[-54.13,-8.08],[-53.54,-8.19],[-53.03,-8.4],[-52.52,-8.61],[-51.85,-8.97],[-51.19,-9.32],[-50.33,-9.56],[-49.46,-9.79],[-48.65,-9.63],[-47.83,-9.46],[-47.09,-9.1],[-46.36,-8.73],[-45.71,-8.38],[-45.06,-8.03],[-44.44,-7.81],[-43.81,-7.59],[-43.25,-7.51],[-42.68,-7.43],[-42.17,-7.32],[-41.65,-7.2],[-41.05,-7.11],[-40.44,-7.02],[-39.83,-6.55],[-39.21,-6.07],[-38.46,-5.94],[-37.72,-5.8],[-37.05,-5.92],[-36.38,-6.04],[-35.71,-6.16],[-34.93,-6.26],[-34.16,-6.35],[-33.27,-6.66],[-32.76,-6.71],[-32.24,-6.77],[-31.67,-6.79],[-31.1,-6.82],[-30.49,-6.62],[-29.89,-6.43],[-29.09,-6.25],[-28.29,-6.07],[-27.49,-5.89],[-26.98,-5.23],[-26.48,-4.58],[-26.35,-3.86],[-26.22,-3.14],[-26.2,-2.96],[-26.2,-2.96],[-25.92,-3.19],[-25.92,-3.19],[-25.72,-2.46],[-25.44,-2.1],[-25.05,-1.8],[-24.43,-1.55],[-24.01,-1.56],[-23.57,-1.6],[-23.35,-1.26],[-23.2,-1.01],[-23,-0.74],[-22.69,-0.53],[-22.46,-0.18],[-22.22,0.24],[-22.13,1.03],[-22.04,1.46],[-21.9,1.89],[-21.64,2.12],[-21.42,2.31],[-21.02,2.85],[-20.66,3.38],[-20.41,3.99],[-20.14,4.42],[-19.87,4.85],[-19.51,5.27],[-19.15,5.7],[-18.67,5.9],[-18.18,6.1],[-18.05,6.19],[-17.17,6],[-16.22,5.93],[-15.7,5.89],[-15.55,5.79],[-15,5.68],[-14.26,5.96],[-13.46,6.33],[-13.01,6.63],[-12.1,6.89],[-11.55,7.15],[-10.82,7.27],[-10,7.35],[-9.32,7.58],[-9.01,7.62],[-9.01,7.62],[-8.96,7.59],[-8.7,7.46],[-8.38,7.29],[-7.98,7.06],[-7.41,6.71],[-6.73,6.33],[-6.43,6.2],[-5.92,6.01],[-5.52,5.86],[-5.08,5.68],[-4.33,5.33],[-4,5.16],[-3.15,4.74],[-2.42,4.38],[-2.42,4.38],[-1.72,4.35],[-1.07,4.36],[-0.42,4.37],[0.33,4.24],[1.21,4.14],[1.59,4],[1.59,4],[2.05,3.88],[2.47,3.79],[2.75,3.75],[3.15,3.88],[3.54,3.9],[4.42,3.79],[5.18,3.65],[5.91,3.6],[6.74,3.49],[7.46,3.42],[7.46,3.42],[6.85,3.83],[6.03,4.35],[6.03,4.35],[6.93,4.59],[7.82,4.82],[8.71,5.05],[9.61,5.28],[10.41,5.58],[11.22,5.88],[12.03,6.19],[12.84,6.49],[13.65,6.79],[13.65,6.79],[13.58,6.86],[13.39,7.84],[13.2,8.82],[13.02,9.79],[13.02,9.79],[13.58,10.2],[14.15,10.59],[14.72,10.99],[14.72,10.99],[14.46,11.39],[14.46,11.39],[15.04,11.83],[15.62,12.26],[16.2,12.69],[16.2,12.69],[16.9,12.19],[17.69,11.75],[18.48,11.31],[19.27,10.87],[20.06,10.43],[20.06,10.43],[20.75,10.9],[21.44,11.36],[22.13,11.83],[22.93,12.41],[23.73,12.99],[24.54,13.57],[25.35,14.14],[25.35,14.14],[26.05,13.8],[26.74,13.45],[27.43,13.11],[27.92,13.56],[28.73,13.06],[29.53,12.55],[30.33,12.05],[31.13,11.54],[31.92,11.03],[32.71,10.51],[33.5,10],[34.29,9.48],[35.07,8.96],[35.53,9.35],[36.24,8.81],[36.94,8.27],[37.64,7.73],[38.34,7.19],[39.03,6.64],[39.72,6.1],[40.42,5.55],[41.11,5.01],[41.11,5.01],[41.31,5.25],[41.31,5.25],[42.18,4.82],[43.04,4.4],[43.91,3.97],[44.78,3.55],[45.64,3.12],[46.51,2.69],[47.37,2.26],[48.24,1.84],[49.1,1.41],[49.96,0.98],[50.82,0.55],[51.69,0.12],[51.42,-0.68],[52.27,-1.01],[53.11,-1.34],[53.96,-1.67],[54.81,-2],[55.65,-2.33],[56.5,-2.66],[57.35,-2.99],[57.14,-3.9],[58.05,-4.2],[58.97,-4.51],[59.88,-4.82],[60.79,-5.12],[61.71,-5.43],[62.63,-5.73],[63.54,-6.03],[64.46,-6.33],[64.46,-6.33],[64.06,-7.17],[63.67,-8.01],[63.27,-8.84],[62.76,-9.7],[62.26,-10.56],[61.75,-11.41],[61.24,-12.27],[60.72,-13.12],[60.2,-13.98],[59.68,-14.83],[59.15,-15.68],[58.56,-16.4],[57.96,-17.11],[57.36,-17.82],[56.75,-18.53],[56.14,-19.24],[55.52,-19.95],[54.9,-20.66],[54.27,-21.36],[53.64,-22.06],[53,-22.76],[52.33,-23.34],[51.65,-23.92],[50.97,-24.5],[50.28,-25.07],[49.59,-25.64],[48.89,-26.21],[48.21,-26.93],[47.52,-27.65],[46.82,-28.37],[46.82,-28.37],[46.76,-28.41],[45.9,-29.04],[45.04,-29.65],[44.16,-30.27],[43.27,-30.87],[42.37,-31.47],[41.46,-32.06],[40.54,-32.65],[39.61,-33.23],[39.33,-33.27]]]}},{"type":"Feature","properties":{"ma":185,"type":"gpml:TopologicalClosedPlateBoundary","name":"Farallon Plate 186-183","pid":902,"deforming":false},"geometry":{"type":"Polygon","coordinates":[[[-146.13,5.64],[-146.05,6.54],[-145.96,7.45],[-145.13,7.42],[-144.29,7.4],[-144.2,8.33],[-144.11,9.26],[-144.02,10.19],[-143.92,11.12],[-143.83,12.05],[-143.73,12.98],[-143.64,13.92],[-143.54,14.85],[-142.57,14.81],[-141.6,14.78],[-140.62,14.74],[-139.65,14.7],[-139.57,15.67],[-139.48,16.64],[-139.39,17.62],[-139.3,18.59],[-139.21,19.57],[-139.12,20.54],[-139.03,21.51],[-138.93,22.49],[-138.84,23.46],[-138.74,24.44],[-138.64,25.41],[-138.54,26.38],[-137.65,26.33],[-136.75,26.28],[-135.85,26.22],[-134.96,26.15],[-134.82,27.12],[-134.68,28.09],[-134.54,29.06],[-134.39,30.04],[-134.24,31.01],[-134.09,31.98],[-133.93,32.95],[-133.77,33.92],[-133.61,34.89],[-133.45,35.86],[-133.27,36.83],[-133.1,37.79],[-132.92,38.76],[-132.74,39.73],[-132.55,40.7],[-132.35,41.67],[-132.15,42.64],[-131.94,43.6],[-130.86,43.52],[-129.79,43.43],[-128.72,43.33],[-127.65,43.22],[-127.35,44.19],[-127.05,45.15],[-126.73,46.12],[-126.4,47.08],[-126.06,48.05],[-125.71,49.01],[-125.34,49.98],[-124.96,50.94],[-124.56,51.9],[-124.15,52.85],[-123.71,53.81],[-123.26,54.77],[-122.79,55.72],[-122.29,56.67],[-121.76,57.62],[-121.21,58.57],[-120.62,59.51],[-120,60.46],[-119.35,61.39],[-118.65,62.33],[-117.91,63.26],[-117.12,64.19],[-116.28,65.11],[-115.5,65.97],[-114.68,66.83],[-113.79,67.68],[-112.83,68.52],[-111.8,69.36],[-110.69,70.19],[-109.49,71.02],[-108.18,71.83],[-105.65,71.53],[-103.21,71.2],[-101.95,72.04],[-100.57,72.87],[-99.06,73.7],[-97.4,74.51],[-95.55,75.3],[-93.5,76.08],[-91.22,76.84],[-88.67,77.58],[-85.8,78.29],[-82.58,78.97],[-78.96,79.61],[-74.88,80.21],[-70.3,80.75],[-70.3,80.75],[-70.25,80.22],[-71.34,79.58],[-72.29,78.94],[-73.64,78.14],[-74.82,77.33],[-75.86,76.52],[-76.5,76.09],[-76.5,76.09],[-75.48,75.25],[-74.57,74.41],[-73.26,73.68],[-72.06,72.93],[-70.95,72.18],[-69.94,71.43],[-68.65,70.78],[-67.44,70.12],[-66.3,69.46],[-65.24,68.79],[-64,68.15],[-62.82,67.5],[-61.71,66.84],[-60.66,66.17],[-58.92,65.55],[-57.26,64.9],[-55.68,64.24],[-54.13,63.58],[-52.64,62.91],[-51.22,62.23],[-49.9,61.71],[-48.63,61.17],[-48.63,61.17],[-48.97,60.42],[-49.29,59.68],[-49.6,58.93],[-49.89,58.18],[-50.3,57.39],[-50.7,56.6],[-50.7,56.6],[-50.01,55.73],[-49.35,54.86],[-49.25,54.11],[-49.16,53.35],[-49.07,52.59],[-48.98,51.83],[-49.28,51.05],[-49.57,50.27],[-49.85,49.49],[-50.13,48.66],[-50.41,47.84],[-50.67,47.01],[-51.17,46.18],[-51.65,45.34],[-52.11,44.51],[-52.57,43.67],[-52.58,42.72],[-52.59,41.76],[-52.71,40.8],[-52.83,39.84],[-52.94,38.88],[-52.99,38.09],[-53.04,37.31],[-53.09,36.52],[-53.13,35.73],[-52.93,34.79],[-52.74,33.86],[-52.55,32.93],[-52.55,32.93],[-52.75,32.72],[-53.44,31.99],[-54.12,31.26],[-54.79,30.52],[-55.45,29.78],[-55.87,29],[-56.29,28.22],[-56.7,27.44],[-57.11,26.65],[-57.51,25.87],[-57.45,25.1],[-57.39,24.33],[-57.34,23.56],[-57.28,22.79],[-57.14,21.84],[-56.99,20.89],[-56.85,19.95],[-56.7,19],[-56.56,18.05],[-56.43,17.11],[-56.29,16.16],[-56.2,15.32],[-56.1,14.47],[-56.01,13.63],[-55.92,12.79],[-55.83,11.94],[-55.83,11.94],[-55.87,11.88],[-56.31,11.39],[-56.75,10.9],[-57.29,10.44],[-57.82,9.97],[-58.22,9.6],[-58.61,9.23],[-58.87,8.51],[-59.13,7.78],[-59.38,7.05],[-59.56,6.25],[-59.74,5.46],[-59.92,4.66],[-60.05,3.9],[-60.18,3.14],[-60.32,2.38],[-60.39,1.63],[-60.46,0.88],[-60.05,0.26],[-59.64,-0.36],[-59.42,-1.04],[-59.19,-1.72],[-58.97,-2.4],[-58.68,-3.03],[-58.39,-3.66],[-58.03,-4.29],[-57.66,-4.92],[-57.29,-5.55],[-56.89,-6.31],[-56.48,-7.06],[-56.46,-7.11],[-56.46,-7.11],[-56.64,-7.34],[-56.82,-7.65],[-57.04,-8],[-57.12,-8.23],[-57.22,-8.43],[-57.37,-8.77],[-57.49,-9.03],[-57.58,-9.28],[-57.68,-9.54],[-58.02,-10.34],[-58.36,-11.13],[-58.7,-11.93],[-59.04,-12.72],[-59.38,-13.52],[-59.33,-14.39],[-59.27,-15.25],[-59.21,-16.12],[-59.13,-16.98],[-59.04,-17.84],[-58.96,-18.69],[-58.87,-19.55],[-58.78,-20.41],[-58.69,-21.27],[-58.49,-22.08],[-58.28,-22.9],[-58.07,-23.71],[-57.9,-24.4],[-57.73,-25.09],[-57.56,-25.78],[-57,-26.55],[-56.92,-27.08],[-56.85,-27.61],[-56.7,-28.35],[-56.72,-28.9],[-56.68,-29.27],[-56.66,-29.55],[-56.66,-29.55],[-56.64,-30.15],[-56.76,-30.63],[-56.99,-31.47],[-57.16,-31.93],[-57.22,-32.64],[-57.31,-33.21],[-57.34,-33.53],[-57.41,-33.92],[-57.47,-34.35],[-57.59,-35.22],[-57.71,-36.08],[-57.88,-36.85],[-58.05,-37.62],[-58.22,-38.39],[-58.4,-39.15],[-58.89,-39.99],[-59.39,-40.83],[-59.91,-41.67],[-60.44,-42.51],[-60.44,-42.51],[-61.73,-42.46],[-63.02,-42.4],[-64.3,-42.32],[-65.59,-42.23],[-66.87,-42.13],[-68.14,-42.01],[-69.41,-41.88],[-70.67,-41.73],[-71.93,-41.57],[-73.18,-41.4],[-74.43,-41.21],[-75.67,-41.01],[-76.9,-40.79],[-78.12,-40.57],[-79.33,-40.33],[-80.53,-40.08],[-81.73,-39.81],[-82.91,-39.54],[-84.09,-39.25],[-85.26,-38.95],[-86.41,-38.63],[-86.27,-37.78],[-86.13,-36.93],[-86,-36.08],[-87.2,-35.9],[-88.39,-35.71],[-89.57,-35.5],[-90.75,-35.29],[-91.93,-35.06],[-93.1,-34.82],[-94.26,-34.57],[-95.41,-34.31],[-96.55,-34.04],[-97.69,-33.76],[-98.82,-33.47],[-99.95,-33.17],[-101.06,-32.86],[-102.17,-32.53],[-103.27,-32.2],[-103.01,-31.31],[-102.76,-30.41],[-102.51,-29.52],[-102.27,-28.62],[-102.03,-27.72],[-103.03,-27.44],[-104.02,-27.15],[-105.01,-26.85],[-105.99,-26.54],[-106.97,-26.23],[-107.95,-25.91],[-108.91,-25.59],[-109.87,-25.25],[-110.83,-24.92],[-111.78,-24.57],[-112.73,-24.22],[-113.67,-23.87],[-114.61,-23.51],[-114.27,-22.82],[-113.94,-22.14],[-113.61,-21.45],[-113.28,-20.77],[-114.19,-20.38],[-115.1,-19.99],[-116,-19.59],[-116.9,-19.19],[-117.79,-18.78],[-118.68,-18.37],[-119.56,-17.96],[-120.44,-17.54],[-121.32,-17.12],[-122.19,-16.69],[-123.06,-16.26],[-123.92,-15.83],[-124.78,-15.39],[-124.3,-14.59],[-123.82,-13.78],[-123.34,-12.97],[-124.17,-12.53],[-125.01,-12.09],[-125.84,-11.65],[-126.66,-11.21],[-127.49,-10.76],[-128.31,-10.31],[-129.13,-9.86],[-129.95,-9.41],[-130.76,-8.96],[-131.58,-8.5],[-132.39,-8.04],[-133.2,-7.59],[-132.69,-6.88],[-132.17,-6.17],[-131.66,-5.46],[-132.49,-5.01],[-133.32,-4.56],[-134.15,-4.11],[-134.98,-3.66],[-135.8,-3.21],[-136.63,-2.76],[-137.45,-2.3],[-138.27,-1.85],[-139.1,-1.39],[-139.92,-0.94],[-140.74,-0.48],[-141.56,-0.03],[-142.39,0.43],[-143.21,0.88],[-143.73,1.14],[-144.26,1.4],[-144.26,1.4],[-144.87,1.89],[-145.09,2.37],[-145.32,2.85],[-145.62,3.48],[-145.92,4.11],[-146.22,4.73],[-146.13,5.64]]]}},{"type":"Feature","properties":{"ma":185,"type":"gpml:TopologicalClosedPlateBoundary","name":"Izanagi Plate 187_184.1","pid":926,"deforming":false},"geometry":{"type":"MultiPolygon","coordinates":[[[[180,78.76],[180,77.77],[180,76.78],[180,75.79],[180,74.79],[180,73.8],[180,72.81],[180,71.82],[180,70.83],[180,69.84],[180,68.85],[180,67.86],[180,66.87],[180,65.88],[180,64.89],[180,63.9],[180,62.91],[180,61.92],[180,60.93],[180,59.94],[180,58.95],[180,57.95],[180,56.96],[180,55.97],[180,54.98],[180,53.99],[180,53],[180,52.01],[180,51.02],[180,50.03],[180,49.04],[180,48.05],[180,47.06],[180,46.07],[180,45.08],[180,44.09],[180,43.1],[180,42.1],[180,41.11],[180,40.12],[180,39.13],[180,38.14],[180,37.15],[180,36.16],[180,35.17],[180,34.18],[180,33.19],[180,32.2],[180,31.21],[180,30.22],[180,29.23],[180,28.24],[180,27.25],[180,26.26],[180,25.26],[180,24.27],[180,23.28],[180,22.29],[180,21.3],[180,20.31],[180,19.32],[180,18.33],[180,17.34],[180,16.35],[180,15.36],[180,14.37],[180,13.38],[180,12.39],[180,11.4],[180,10.41],[180,9.41],[180,8.42],[180,7.43],[180,6.44],[180,5.45],[180,4.46],[180,3.47],[180,2.48],[180,1.49],[180,0.5],[180,-0.49],[180,-1.48],[180,-2.47],[180,-3.46],[179.17,-3.78],[178.34,-4.09],[177.5,-4.41],[176.67,-4.72],[175.83,-5.03],[175,-5.34],[174.69,-4.7],[174.37,-4.06],[174.06,-3.41],[173.16,-3.78],[172.27,-4.15],[171.37,-4.51],[170.47,-4.87],[169.57,-5.24],[168.66,-5.6],[167.76,-5.96],[166.86,-6.32],[165.95,-6.67],[165.05,-7.03],[164.14,-7.38],[163.23,-7.73],[162.32,-8.08],[161.41,-8.43],[160.49,-8.78],[160.05,-8.13],[159.61,-7.48],[158.67,-7.76],[157.73,-8.04],[156.79,-8.32],[155.85,-8.6],[154.91,-8.87],[153.97,-9.15],[153.02,-9.42],[152.07,-9.68],[151.12,-9.95],[150.17,-10.21],[149.22,-10.47],[148.27,-10.72],[147.31,-10.98],[146.36,-11.23],[145.4,-11.47],[144.98,-10.66],[144.55,-9.85],[144.13,-9.03],[143.72,-8.22],[143.3,-7.4],[142.49,-7.87],[141.67,-8.34],[140.86,-8.81],[140.04,-9.27],[139.22,-9.73],[138.4,-10.2],[137.57,-10.65],[136.74,-11.11],[135.91,-11.56],[135.08,-12.02],[135.08,-12.02],[135.03,-12.68],[135.03,-12.68],[134.27,-12.11],[133.52,-11.53],[132.78,-10.95],[132.03,-10.38],[131.29,-9.79],[130.55,-9.21],[129.82,-8.63],[129.06,-8.02],[128.3,-7.41],[127.54,-6.8],[126.79,-6.19],[126.04,-5.58],[125.29,-4.97],[124.54,-4.36],[123.79,-3.74],[123.05,-3.13],[122.3,-2.52],[121.85,-1.7],[121.41,-0.88],[120.96,-0.06],[120.51,0.76],[119.85,1.44],[119.18,2.12],[118.51,2.8],[117.84,3.48],[117.84,3.48],[118.59,3.61],[119.34,3.73],[120.13,4.28],[120.92,4.82],[121.63,5.24],[122.35,5.66],[123.06,6.08],[123.77,6.5],[124.27,7.09],[124.77,7.67],[125.27,8.26],[125.78,8.84],[126.2,9.48],[126.63,10.12],[127.06,10.75],[127.49,11.39],[128.09,12.16],[128.7,12.93],[129.31,13.71],[129.69,14.43],[130.08,15.15],[130.47,15.87],[130.86,16.59],[130.86,16.59],[130.14,16.92],[129.42,17.25],[128.69,17.57],[128.29,18.22],[127.89,18.86],[127.68,19.5],[127.46,20.14],[127.39,20.85],[126.79,21.62],[126.17,22.39],[125.58,23.11],[124.97,23.83],[124.53,24.38],[124.09,24.92],[123.65,25.46],[122.94,26.15],[122.23,26.85],[122.19,26.9],[122.19,26.9],[122.76,27.61],[123.33,28.31],[123.91,29.02],[124.5,29.72],[125.09,30.42],[125.7,31.12],[126.31,31.81],[126.84,32.67],[127.37,33.53],[127.92,34.38],[128.48,35.23],[128.9,36.06],[129.33,36.89],[129.77,37.71],[130.27,38.6],[130.77,39.48],[131.29,40.35],[131.75,41.11],[132.23,41.86],[132.71,42.61],[133.26,43.45],[133.83,44.3],[134.39,45.04],[134.96,45.78],[135.45,46.52],[135.95,47.26],[136.4,47.83],[136.85,48.4],[137.37,49.11],[137.9,49.82],[138.37,50.31],[138.85,50.8],[139.27,51.24],[139.71,51.68],[140.44,52.47],[140.88,52.96],[141.33,53.45],[141.83,53.97],[142.35,54.5],[142.88,55.11],[143.42,55.71],[143.87,56.28],[144.33,56.84],[144.81,57.39],[145.31,57.93],[145.87,58.54],[146.46,59.14],[147.07,59.75],[147.66,60.37],[148.27,60.99],[148.84,61.53],[149.43,62.07],[150,62.5],[150.58,62.94],[151.18,63.52],[151.8,64.09],[152.8,64.8],[153.85,65.5],[154.9,66.38],[156.03,67.26],[156.76,67.89],[157.53,68.52],[158.71,69.41],[159.99,70.29],[160.86,70.91],[161.79,71.52],[162.77,72.13],[163.68,72.82],[164.66,73.51],[165.44,74.09],[166.28,74.67],[167.43,75.52],[168.73,76.36],[170.19,77.2],[171.85,78.03],[173.75,78.84],[175.94,79.65],[180,79.75],[180,78.76]]],[[[-180,-2.47],[-180,-1.48],[-180,-0.49],[-180,0.5],[-180,1.49],[-180,2.48],[-180,3.47],[-180,4.46],[-180,5.45],[-180,6.44],[-180,7.43],[-180,8.42],[-180,9.41],[-180,10.41],[-180,11.4],[-180,12.39],[-180,13.38],[-180,14.37],[-180,15.36],[-180,16.35],[-180,17.34],[-180,18.33],[-180,19.32],[-180,20.31],[-180,21.3],[-180,22.29],[-180,23.28],[-180,24.27],[-180,25.26],[-180,26.26],[-180,27.25],[-180,28.24],[-180,29.23],[-180,30.22],[-180,31.21],[-180,32.2],[-180,33.19],[-180,34.18],[-180,35.17],[-180,36.16],[-180,37.15],[-180,38.14],[-180,39.13],[-180,40.12],[-180,41.11],[-180,42.1],[-180,43.1],[-180,44.09],[-180,45.08],[-180,46.07],[-180,47.06],[-180,48.05],[-180,49.04],[-180,50.03],[-180,51.02],[-180,52.01],[-180,53],[-180,53.99],[-180,54.98],[-180,55.97],[-180,56.96],[-180,57.95],[-180,58.95],[-180,59.94],[-180,60.93],[-180,61.92],[-180,62.91],[-180,63.9],[-180,64.89],[-180,65.88],[-180,66.87],[-180,67.86],[-180,68.85],[-180,69.84],[-180,70.83],[-180,71.82],[-180,72.81],[-180,73.8],[-180,74.79],[-180,75.79],[-180,76.78],[-180,77.77],[-180,78.76],[-180,79.75],[-179.76,79.75],[-177.04,80.57],[-173.83,81.35],[-169.99,82.11],[-165.37,82.82],[-159.77,83.48],[-153.01,84.07],[-144.91,84.55],[-135.48,84.91],[-124.95,85.11],[-114.71,85.16],[-104.56,85.06],[-95.1,84.82],[-87.5,84.4],[-81.04,83.9],[-75.62,83.33],[-71.08,82.72],[-71.08,82.72],[-70.72,82.2],[-70.41,81.67],[-70.3,80.75],[-74.88,80.21],[-78.96,79.61],[-82.58,78.97],[-85.8,78.29],[-88.67,77.58],[-91.22,76.84],[-93.5,76.08],[-95.55,75.3],[-97.4,74.51],[-99.06,73.7],[-100.57,72.87],[-101.95,72.04],[-103.21,71.2],[-105.65,71.53],[-108.18,71.83],[-109.49,71.02],[-110.69,70.19],[-111.8,69.36],[-112.83,68.52],[-113.79,67.68],[-114.68,66.83],[-115.5,65.97],[-116.28,65.11],[-117.12,64.19],[-117.91,63.26],[-118.65,62.33],[-119.35,61.39],[-120,60.46],[-120.62,59.51],[-121.21,58.57],[-121.76,57.62],[-122.29,56.67],[-122.79,55.72],[-123.26,54.77],[-123.71,53.81],[-124.15,52.85],[-124.56,51.9],[-124.96,50.94],[-125.34,49.98],[-125.71,49.01],[-126.06,48.05],[-126.4,47.08],[-126.73,46.12],[-127.05,45.15],[-127.35,44.19],[-127.65,43.22],[-128.72,43.33],[-129.79,43.43],[-130.86,43.52],[-131.94,43.6],[-132.15,42.64],[-132.35,41.67],[-132.55,40.7],[-132.74,39.73],[-132.92,38.76],[-133.1,37.79],[-133.27,36.83],[-133.45,35.86],[-133.61,34.89],[-133.77,33.92],[-133.93,32.95],[-134.09,31.98],[-134.24,31.01],[-134.39,30.04],[-134.54,29.06],[-134.68,28.09],[-134.82,27.12],[-134.96,26.15],[-135.85,26.22],[-136.75,26.28],[-137.65,26.33],[-138.54,26.38],[-138.64,25.41],[-138.74,24.44],[-138.84,23.46],[-138.93,22.49],[-139.03,21.51],[-139.12,20.54],[-139.21,19.57],[-139.3,18.59],[-139.39,17.62],[-139.48,16.64],[-139.57,15.67],[-139.65,14.7],[-140.62,14.74],[-141.6,14.78],[-142.57,14.81],[-143.54,14.85],[-143.64,13.92],[-143.73,12.98],[-143.83,12.05],[-143.92,11.12],[-144.02,10.19],[-144.11,9.26],[-144.2,8.33],[-144.29,7.4],[-145.13,7.42],[-145.96,7.45],[-146.05,6.54],[-146.13,5.64],[-146.22,4.73],[-146.22,4.73],[-145.86,3.98],[-145.86,3.98],[-146.58,3.64],[-147.29,3.31],[-148.01,2.98],[-148.79,2.69],[-149.57,2.39],[-150.35,2.1],[-151.21,1.59],[-152.07,1.08],[-152.93,0.57],[-153.79,0.07],[-154.66,-0.44],[-154.66,-0.44],[-153.87,-0.49],[-153.87,-0.49],[-154.77,-0.75],[-155.68,-1],[-156.59,-1.26],[-157.49,-1.52],[-158.4,-1.77],[-159.31,-2.03],[-160.21,-2.28],[-161.12,-2.54],[-162.03,-2.79],[-162.94,-3.04],[-163.85,-3.29],[-164.76,-3.55],[-165.06,-2.88],[-165.36,-2.2],[-165.67,-1.53],[-166.54,-1.81],[-167.41,-2.09],[-168.29,-2.37],[-169.16,-2.65],[-170.03,-2.92],[-170.91,-3.2],[-171.79,-3.47],[-172.66,-3.75],[-173.54,-4.02],[-174.42,-4.29],[-174.84,-3.47],[-175.26,-2.64],[-175.68,-1.81],[-176.55,-2.14],[-177.41,-2.47],[-178.27,-2.8],[-179.14,-3.13],[-180,-3.46],[-180,-2.47]]]]}},{"type":"Feature","properties":{"ma":185,"type":"gpml:TopologicalClosedPlateBoundary","name":"Junction Plate North","pid":786,"deforming":false},"geometry":{"type":"Polygon","coordinates":[[[116.96,4.43],[117.5,3.83],[118.11,3.21],[118.71,2.6],[119.31,1.99],[119.91,1.37],[120.51,0.76],[120.96,-0.06],[121.41,-0.88],[121.85,-1.7],[122.3,-2.52],[123.05,-3.13],[123.79,-3.74],[124.54,-4.36],[125.29,-4.97],[126.04,-5.58],[126.79,-6.19],[127.54,-6.8],[128.3,-7.41],[129.06,-8.02],[129.82,-8.63],[130.55,-9.21],[131.29,-9.79],[132.03,-10.38],[132.78,-10.95],[133.52,-11.53],[134.27,-12.11],[135.03,-12.68],[135.03,-12.68],[135.02,-12.74],[135.05,-13.59],[135.07,-14.43],[135.09,-15.27],[135.11,-16.12],[135.13,-16.96],[135.13,-16.96],[135.06,-16.91],[134.24,-16.6],[133.43,-16.28],[132.63,-15.96],[131.82,-15.64],[131.02,-15.31],[130.22,-14.98],[130.57,-14.42],[130.91,-13.87],[130.1,-13.47],[129.29,-13.07],[128.49,-12.67],[127.69,-12.27],[126.89,-11.87],[126.1,-11.46],[125.3,-11.05],[124.51,-10.64],[124.81,-10.1],[125.11,-9.57],[124.31,-9.16],[123.5,-8.75],[122.7,-8.34],[121.9,-7.92],[121.11,-7.51],[120.31,-7.09],[119.51,-6.67],[119.81,-6.19],[120.11,-5.72],[119.28,-5.28],[118.44,-4.83],[117.61,-4.39],[116.77,-3.95],[115.94,-3.5],[115.09,-3.05],[114.25,-2.59],[114.25,-2.59],[114.55,-1.7],[114.85,-0.81],[115.15,0.09],[115.45,0.98],[115.75,1.87],[116.15,2.73],[116.55,3.58],[116.96,4.43]]]}},{"type":"Feature","properties":{"ma":185,"type":"gpml:TopologicalClosedPlateBoundary","name":"Cimmerian-Neotethys Plate","pid":505,"deforming":false},"geometry":{"type":"Polygon","coordinates":[[[113.91,-2.72],[112.95,-2.52],[112.6,-3.39],[112.26,-4.27],[111.91,-5.14],[111.56,-6.01],[111.21,-6.88],[110.25,-6.65],[109.29,-6.4],[108.33,-6.16],[107.99,-6.99],[107.64,-7.81],[107.29,-8.63],[106.94,-9.46],[106.59,-10.28],[106.23,-11.1],[105.33,-10.95],[104.42,-10.79],[103.51,-10.63],[102.6,-10.47],[101.7,-10.3],[101.34,-11.05],[100.98,-11.79],[100.62,-12.53],[100.25,-13.27],[99.31,-12.9],[98.37,-12.53],[97.44,-12.15],[96.83,-12.95],[96.21,-13.74],[95.6,-14.54],[94.98,-15.33],[94.35,-16.12],[93.72,-16.91],[93.08,-17.7],[92.07,-17.6],[91.06,-17.49],[90.05,-17.38],[89.04,-17.27],[88.06,-17.18],[87.08,-17.09],[86.11,-16.99],[85.13,-16.89],[84.16,-16.78],[83.19,-16.67],[82.21,-16.55],[82.3,-16.04],[82.39,-15.53],[81.45,-15.23],[80.51,-14.92],[79.57,-14.61],[78.63,-14.29],[77.7,-13.97],[76.77,-13.65],[75.84,-13.32],[74.92,-12.99],[73.99,-12.66],[73.07,-12.32],[72.15,-11.98],[71.24,-11.64],[70.32,-11.29],[69.41,-10.94],[68.5,-10.59],[68.5,-10.59],[68.77,-9.68],[69.03,-8.78],[69.3,-7.88],[68.36,-7.58],[67.41,-7.28],[66.48,-6.98],[65.54,-6.68],[64.6,-6.38],[63.66,-6.07],[62.73,-5.76],[61.8,-5.46],[60.86,-5.15],[59.93,-4.84],[59,-4.52],[58.07,-4.21],[57.14,-3.9],[57.35,-2.99],[56.5,-2.66],[55.65,-2.33],[54.81,-2],[53.96,-1.67],[53.11,-1.34],[52.27,-1.01],[51.42,-0.68],[51.69,0.12],[50.82,0.55],[49.96,0.98],[49.1,1.41],[48.24,1.84],[47.37,2.26],[46.51,2.69],[45.64,3.12],[44.78,3.55],[43.91,3.97],[43.04,4.4],[42.18,4.82],[41.31,5.25],[41.31,5.25],[41.11,5.01],[41.11,5.01],[40.42,5.55],[39.72,6.1],[39.03,6.64],[38.34,7.19],[37.64,7.73],[36.94,8.27],[36.24,8.81],[35.53,9.35],[35.07,8.96],[34.29,9.48],[33.5,10],[32.71,10.51],[31.92,11.03],[31.13,11.54],[30.33,12.05],[29.53,12.55],[28.73,13.06],[27.92,13.56],[27.43,13.11],[26.74,13.45],[26.05,13.8],[25.35,14.14],[25.35,14.14],[26,14.6],[26.69,15.13],[27.38,15.65],[28.07,16.18],[28.77,16.7],[29.26,17.16],[29.26,17.16],[30.06,16.98],[30.85,16.8],[31.65,16.62],[32.58,16.66],[33.5,16.69],[34.43,16.72],[35.12,16.87],[35.82,17.01],[36.52,17.16],[37.49,17.36],[38.46,17.56],[39.41,17.56],[40.36,17.55],[41.31,17.54],[42.01,17.78],[42.7,18.02],[43.4,18.25],[43.78,18.78],[44.16,19.31],[44.36,19.8],[44.56,20.29],[44.94,20.97],[45.32,21.65],[45.77,22.37],[46.23,23.09],[46.95,23.73],[47.68,24.36],[48.42,24.99],[49.27,25.6],[50.13,26.21],[51.1,26.57],[52.09,26.92],[53.08,27.27],[53.57,27.89],[54.07,28.5],[54.57,29.12],[54.98,29.86],[55.39,30.59],[56.11,30.74],[56.83,30.89],[57.64,30.32],[58.45,29.74],[59.11,29.19],[59.77,28.63],[60.32,28.28],[60.87,27.93],[61.68,27.38],[62.47,26.82],[63.26,26.25],[64.09,26.31],[64.85,26.08],[65.6,25.85],[66.15,25.6],[66.69,25.35],[67.64,25.06],[68.66,24.82],[69.28,24.68],[69.9,24.54],[70.79,24.55],[71.67,24.56],[72.39,24.58],[73.1,24.59],[73.7,24.83],[74.29,25.06],[75.02,25.5],[75.75,25.93],[76.51,26.23],[77.28,26.53],[78.06,26.51],[78.85,26.49],[79.6,26.49],[80.35,26.48],[81.18,26.71],[82.02,26.94],[82.86,27.16],[83.7,27.37],[84.42,27.58],[85.14,27.79],[85.86,27.99],[86.91,28.24],[87.95,28.48],[88.87,28.64],[89.8,28.8],[90.39,28.94],[91,29.07],[91.93,28.71],[92.87,28.35],[93.77,27.95],[94.67,27.55],[95.48,27.2],[96.29,26.84],[97.1,26.48],[97.9,26.11],[98.69,25.82],[99.48,25.52],[100.26,25.21],[100.26,25.21],[100.51,25.73],[100.51,25.73],[101.48,25.25],[102.25,24.69],[103.02,24.14],[103.77,23.58],[104.53,23.01],[105.27,22.45],[106.17,21.92],[107.06,21.38],[107.94,20.84],[108.82,20.3],[109.69,19.75],[110.6,19.43],[111.5,19.1],[112.39,18.77],[113.29,18.43],[114.17,18.09],[115.06,17.74],[115.94,17.4],[116.87,17.06],[117.8,16.72],[118.73,16.38],[119.65,16.03],[120.57,15.68],[121.25,15.13],[121.93,14.58],[122.6,14.03],[123.28,13.48],[123.94,12.92],[124.61,12.36],[125.56,12.03],[126.51,11.69],[127.45,11.34],[127.45,11.34],[126.89,10.51],[126.33,9.68],[125.78,8.84],[125.27,8.26],[124.77,7.67],[124.27,7.09],[123.77,6.5],[123.06,6.08],[122.35,5.66],[121.63,5.24],[120.92,4.82],[120.13,4.28],[119.34,3.73],[118.59,3.61],[117.84,3.48],[117.84,3.48],[117.5,3.83],[116.96,4.43],[116.96,4.43],[116.55,3.58],[116.15,2.73],[115.75,1.87],[115.45,0.98],[115.15,0.09],[114.85,-0.81],[114.55,-1.7],[114.25,-2.59],[114.25,-2.59],[114.86,-2.92],[113.91,-2.72]]]}},{"type":"Feature","properties":{"ma":185,"type":"gpml:TopologicalClosedPlateBoundary","name":"Moroccan-Plate","pid":706,"deforming":false},"geometry":{"type":"Polygon","coordinates":[[[-0.26,7.93],[0.36,7.46],[1.12,6.89],[1.78,6.59],[2.29,6.35],[2.8,6.12],[3.26,5.91],[3.72,5.69],[4.18,5.47],[4.65,5.24],[5.38,4.77],[6.11,4.3],[6.85,3.83],[7.46,3.42],[7.46,3.42],[6.74,3.49],[5.91,3.6],[5.18,3.65],[4.42,3.79],[3.54,3.9],[3.15,3.88],[2.75,3.75],[2.47,3.79],[2.05,3.88],[1.59,4],[1.59,4],[1.21,4.14],[0.33,4.24],[-0.42,4.37],[-1.07,4.36],[-1.72,4.35],[-2.42,4.38],[-2.42,4.38],[-3.15,4.74],[-4,5.16],[-4.33,5.33],[-5.08,5.68],[-5.52,5.86],[-5.92,6.01],[-6.43,6.2],[-6.73,6.33],[-7.41,6.71],[-7.98,7.06],[-8.38,7.29],[-8.7,7.46],[-8.96,7.59],[-9.01,7.62],[-9.01,7.62],[-8.87,7.63],[-8.27,7.44],[-7.84,7.14],[-7.35,6.94],[-7.03,6.76],[-6.7,6.57],[-6.12,6.44],[-5.58,6.24],[-4.95,6.44],[-4.39,6.62],[-3.91,6.77],[-3.4,6.93],[-2.77,7.13],[-2.06,7.35],[-1.45,7.54],[-0.81,7.74],[-0.4,7.86],[-0.26,7.93]]]}},{"type":"Feature","properties":{"ma":185,"type":"gpml:TopologicalClosedPlateBoundary","name":"AACM","pid":18100,"deforming":false},"geometry":{"type":"Polygon","coordinates":[[[-6.69,65.84],[-6.43,65.06],[-6.19,64.27],[-5.96,63.48],[-5.74,62.69],[-5.47,61.85],[-5.22,61.01],[-4.98,60.16],[-4.76,59.32],[-4.54,58.47],[-4.25,57.75],[-3.97,57.03],[-3.69,56.31],[-4.3,55.74],[-4.07,54.98],[-3.85,54.22],[-3.63,53.45],[-3.63,53.45],[-5,53.76],[-6.38,54.04],[-7.91,54.26],[-9.46,54.46],[-11.03,54.64],[-12.38,54.66],[-13.73,54.67],[-14.72,54.67],[-15.77,54.65],[-16.64,54.63],[-17.67,54.6],[-18.45,54.57],[-19.39,54.52],[-20.2,54.48],[-20.92,54.32],[-21.59,54.16],[-22.17,54.13],[-23.27,53.94],[-23.84,53.78],[-24.53,53.55],[-25.55,52.8],[-26.3,52.35],[-27.03,51.9],[-27.64,51.65],[-27.93,51.45],[-28.68,50.78],[-28.91,50.56],[-29.88,49.96],[-30.11,49.68],[-30.11,49.68],[-31.08,50.14],[-32.08,50.6],[-33.09,51.05],[-34.13,51.5],[-35.24,52.08],[-36.38,52.65],[-37.55,53.21],[-38.76,53.75],[-39.99,54.29],[-41.61,54.55],[-43.25,54.8],[-44.92,55.02],[-46.45,55.07],[-47.99,55.09],[-49.52,55.1],[-49.52,55.1],[-50.1,55.85],[-50.7,56.6],[-50.7,56.6],[-50.3,57.39],[-49.89,58.18],[-49.6,58.93],[-49.29,59.68],[-48.97,60.42],[-48.63,61.17],[-48.63,61.17],[-49.9,61.71],[-51.22,62.23],[-52.64,62.91],[-54.13,63.58],[-55.68,64.24],[-57.26,64.9],[-58.92,65.55],[-60.66,66.17],[-61.43,66.66],[-62.22,67.15],[-62.22,67.15],[-60.74,67.66],[-59.2,68.07],[-57.6,68.46],[-55.95,68.84],[-53.54,69.24],[-51.04,69.61],[-49.28,69.89],[-47.48,70.15],[-45.63,70.38],[-43.43,70.78],[-41.14,71.16],[-38.77,71.5],[-36.94,71.85],[-35.04,72.18],[-33.08,72.49],[-30.42,72.66],[-27.71,72.79],[-24.97,72.88],[-21.79,73.22],[-18.49,73.51],[-15.9,73.89],[-13.19,74.24],[-10.38,74.55],[-10.38,74.55],[-9.65,73.7],[-8.99,72.85],[-8.4,71.99],[-7.86,71.13],[-7.6,70.24],[-7.37,69.35],[-7.15,68.46],[-6.96,67.56],[-6.94,67.5],[-6.88,67.16],[-6.87,67.04],[-6.85,66.88],[-6.81,66.59],[-6.69,65.84]]]}},{"type":"Feature","properties":{"ma":185,"type":"gpml:TopologicalClosedPlateBoundary","name":"Atlantic_opening_east_flank","pid":701,"deforming":false},"geometry":{"type":"Polygon","coordinates":[[[-28.07,-0.42],[-27.58,-0.19],[-27.02,0.1],[-26.45,0.39],[-26,0.72],[-25.54,1.04],[-24.8,1.53],[-24.27,1.91],[-23.92,2.19],[-23.57,2.47],[-23.24,2.74],[-23.04,2.94],[-22.86,3.17],[-22.56,3.52],[-22.23,3.92],[-22.05,4.2],[-21.81,4.66],[-21.65,4.9],[-21.52,5.17],[-21.2,5.48],[-21.12,5.72],[-20.87,6.01],[-20.68,6.15],[-20.46,6.33],[-20.13,6.58],[-19.88,6.83],[-19.62,7],[-19.22,7.22],[-18.79,7.35],[-18.49,7.43],[-18.33,7.47],[-17.49,7.53],[-16.8,7.61],[-16.11,7.68],[-15.56,7.73],[-15.25,7.72],[-14.93,7.76],[-14.46,7.76],[-14.15,7.88],[-13.81,8.04],[-13.53,8.23],[-13.23,8.68],[-12.94,8.83],[-12.59,8.87],[-12.24,8.93],[-11.92,9.02],[-11.56,9.04],[-11.31,8.96],[-11.15,8.92],[-11,8.87],[-10.83,8.83],[-10.61,8.84],[-10.38,8.86],[-10.08,8.98],[-9.86,9.06],[-9.56,9.22],[-9.25,9.41],[-8.99,9.54],[-8.68,9.78],[-8.34,10.01],[-7.91,10.13],[-7.6,10.14],[-7.53,10.12],[-7.53,10.12],[-7.73,9.98],[-8.26,9.76],[-8.98,9.17],[-9.22,8.93],[-9.42,8.74],[-9.65,8.62],[-9.65,8.62],[-9.76,8.57],[-10.13,8.38],[-10.22,8.38],[-10.39,8.31],[-10.59,8.31],[-10.96,8.47],[-11.41,8.53],[-11.71,8.6],[-12.09,8.62],[-12.55,8.67],[-13.15,8.41],[-13.64,7.99],[-14.03,7.76],[-14.16,7.71],[-14.43,7.64],[-14.74,7.59],[-15.2,7.59],[-15.88,7.55],[-16.09,7.58],[-16.38,7.52],[-16.71,7.46],[-17.14,7.4],[-17.97,7.12],[-18.35,6.98],[-18.92,6.73],[-18.92,6.73],[-18.93,6.72],[-19.41,6.67],[-19.91,6.29],[-20.36,5.77],[-20.67,5.18],[-20.93,4.84],[-21.23,4.51],[-21.58,4.18],[-21.78,3.81],[-21.98,3.55],[-22.23,3.24],[-22.45,2.93],[-22.59,2.71],[-22.77,2.55],[-22.92,2.33],[-23.08,2.12],[-23.39,1.8],[-23.66,1.49],[-24.2,1.14],[-24.9,0.78],[-25.41,0.35],[-25.91,-0.08],[-26.25,-0.52],[-26.59,-0.95],[-26.94,-1.35],[-27.3,-1.75],[-27.87,-1.87],[-28.1,-2.16],[-28.11,-2.17],[-28.11,-2.17],[-28.1,-2.12],[-28.07,-1.19],[-28.03,-0.89],[-28.07,-0.46],[-28.07,-0.42]]]}},{"type":"Feature","properties":{"ma":185,"type":"gpml:TopologicalClosedPlateBoundary","name":"Atlantic_opening_NAM_flank","pid":101,"deforming":false},"geometry":{"type":"Polygon","coordinates":[[[-28.14,0.31],[-27.91,0.67],[-27.41,1.22],[-26.78,1.86],[-26.44,2.17],[-25.82,2.26],[-25.14,2.36],[-24.66,2.69],[-23.99,3.37],[-23.37,3.84],[-23.05,4.09],[-22.73,4.34],[-22.49,4.64],[-22.4,4.92],[-22.3,5.29],[-22.23,5.64],[-22.2,6.05],[-22.11,6.37],[-21.9,6.66],[-21.68,7.04],[-21.5,7.26],[-21.21,7.56],[-20.93,7.85],[-20.63,8.08],[-20.29,8.25],[-19.99,8.26],[-19.58,8.27],[-19.29,8.23],[-19,8.41],[-18.75,8.42],[-18.59,8.38],[-18.59,8.38],[-18.14,8.16],[-17.68,8.16],[-17.18,8.15],[-16.5,8.28],[-16.14,8.11],[-15.9,7.98],[-15.68,7.85],[-15.68,7.85],[-15.53,7.83],[-15.31,7.91],[-15.01,8.17],[-14.66,8.4],[-14.42,8.54],[-14.15,8.76],[-13.88,8.99],[-13.66,9.22],[-13.49,9.34],[-13.36,9.42],[-13.18,9.48],[-13.07,9.55],[-12.52,9.58],[-12.31,9.55],[-12.31,9.55],[-11.82,9.48],[-11.23,9.2],[-10.73,8.96],[-10.28,8.74],[-10.08,8.86],[-9.86,8.98],[-9.55,9.14],[-9.34,9.31],[-9.16,9.55],[-8.47,10.24],[-8.26,10.38],[-7.5,10.62],[-6.75,10.85],[-6.75,10.85],[-6.84,10.69],[-7.34,10.24],[-7.53,10.12],[-7.53,10.12],[-7.6,10.14],[-7.91,10.13],[-8.34,10.01],[-8.68,9.78],[-8.99,9.54],[-9.25,9.41],[-9.56,9.22],[-9.86,9.06],[-10.08,8.98],[-10.38,8.86],[-10.61,8.84],[-10.83,8.83],[-11,8.87],[-11.15,8.92],[-11.31,8.96],[-11.56,9.04],[-11.92,9.02],[-12.24,8.93],[-12.59,8.87],[-12.94,8.83],[-13.23,8.68],[-13.53,8.23],[-13.81,8.04],[-14.15,7.88],[-14.46,7.76],[-14.93,7.76],[-15.25,7.72],[-15.56,7.73],[-16.11,7.68],[-16.8,7.61],[-17.49,7.53],[-18.33,7.47],[-18.49,7.43],[-18.79,7.35],[-19.22,7.22],[-19.62,7],[-19.88,6.83],[-20.13,6.58],[-20.46,6.33],[-20.68,6.15],[-20.87,6.01],[-21.12,5.72],[-21.2,5.48],[-21.52,5.17],[-21.65,4.9],[-21.81,4.66],[-22.05,4.2],[-22.23,3.92],[-22.56,3.52],[-22.86,3.17],[-23.04,2.94],[-23.24,2.74],[-23.57,2.47],[-23.92,2.19],[-24.27,1.91],[-24.8,1.53],[-25.54,1.04],[-26,0.72],[-26.45,0.39],[-27.02,0.1],[-27.58,-0.19],[-28.07,-0.42],[-28.14,0.31]]]}},{"type":"Feature","properties":{"ma":185,"type":"gpml:TopologicalClosedPlateBoundary","name":"AlCaPa-Tisza-Dacia-Moesia","pid":319,"deforming":false},"geometry":{"type":"Polygon","coordinates":[[[35.74,24.03],[35.55,23.65],[35.05,23.04],[34.55,22.44],[34.05,21.83],[33.56,21.22],[32.96,20.66],[32.37,20.09],[31.78,19.53],[31.19,18.96],[30.58,18.4],[29.97,17.83],[29.37,17.27],[28.77,16.7],[28.07,16.18],[27.38,15.65],[26.69,15.13],[26,14.6],[25.22,14.05],[24.44,13.5],[23.67,12.94],[22.9,12.39],[22.13,11.83],[21.44,11.36],[20.75,10.9],[20.06,10.43],[20.06,10.43],[19.27,10.87],[18.48,11.31],[17.69,11.75],[16.9,12.19],[16.33,12.61],[16.33,12.61],[17.05,13.22],[17.77,13.84],[18.26,14.62],[18.75,15.4],[19.24,16.19],[19.73,16.97],[20.23,17.75],[20.03,17.91],[20.6,18.68],[21.17,19.45],[21.01,19.5],[21.59,20.31],[22.17,21.12],[21.96,21.27],[22.37,21.81],[22.77,22.36],[23.64,22.84],[24.51,23.31],[25.39,23.79],[25.39,23.79],[26.42,23.84],[27.45,23.89],[28.49,23.93],[29.52,23.97],[30.56,24],[31.59,24.02],[32.63,24.03],[33.67,24.04],[34.7,24.04],[35.74,24.03]]]}},{"type":"Feature","properties":{"ma":185,"type":"gpml:TopologicalClosedPlateBoundary","name":"AlKaPeCa","pid":329,"deforming":false},"geometry":{"type":"Polygon","coordinates":[[[13.65,6.79],[12.84,6.49],[12.03,6.19],[11.22,5.88],[10.41,5.58],[9.61,5.28],[8.71,5.05],[7.82,4.82],[6.93,4.59],[6.03,4.35],[6.03,4.35],[5.34,4.8],[4.65,5.24],[4.18,5.47],[3.72,5.69],[3.72,5.69],[4.68,5.91],[5.64,6.13],[6.6,6.34],[7.56,6.56],[8.43,6.84],[9.31,7.12],[10.19,7.4],[10.23,8.1],[10.96,8.37],[11.68,8.64],[12.41,8.91],[13.13,9.18],[13.13,9.18],[13.28,8.41],[13.43,7.64],[13.58,6.86],[13.65,6.79]]]}},{"type":"Feature","properties":{"ma":185,"type":"gpml:TopologicalNetwork","name":"Southern_Central_Atlantic_Mesh","pid":101,"deforming":true},"geometry":{"type":"Polygon","coordinates":[[[-28.1,-2.16],[-27.87,-1.87],[-27.3,-1.75],[-26.94,-1.35],[-26.59,-0.95],[-26.25,-0.52],[-25.91,-0.08],[-25.41,0.35],[-24.9,0.78],[-24.2,1.14],[-23.66,1.49],[-23.39,1.8],[-23.08,2.12],[-22.92,2.33],[-22.77,2.55],[-22.59,2.71],[-22.45,2.93],[-22.23,3.24],[-21.98,3.55],[-21.78,3.81],[-21.58,4.18],[-21.23,4.51],[-20.93,4.84],[-20.67,5.18],[-20.36,5.77],[-19.91,6.29],[-19.41,6.67],[-18.93,6.72],[-18.92,6.73],[-18.92,6.73],[-18.35,6.98],[-18.35,6.98],[-18.34,6.95],[-18.02,6.53],[-17.7,6.11],[-17.7,6.11],[-18.05,6.19],[-18.18,6.1],[-18.67,5.9],[-19.15,5.7],[-19.51,5.27],[-19.87,4.85],[-20.14,4.42],[-20.41,3.99],[-20.66,3.38],[-21.02,2.85],[-21.42,2.31],[-21.64,2.12],[-21.9,1.89],[-22.04,1.46],[-22.13,1.03],[-22.22,0.24],[-22.46,-0.18],[-22.69,-0.53],[-23,-0.74],[-23.2,-1.01],[-23.35,-1.26],[-23.57,-1.6],[-24.01,-1.56],[-24.43,-1.55],[-25.05,-1.8],[-25.44,-2.1],[-25.72,-2.46],[-25.92,-3.19],[-25.92,-3.19],[-26.2,-2.96],[-26.2,-2.96],[-26.22,-3.14],[-26.35,-3.86],[-26.48,-4.58],[-26.88,-5.09],[-26.88,-5.09],[-26.95,-5.03],[-27.21,-4.85],[-27.5,-4.63],[-27.85,-4.42],[-28.07,-4.34],[-28.41,-4.09],[-28.66,-3.93],[-28.82,-3.73],[-28.84,-3.48],[-28.9,-3.19],[-28.85,-2.94],[-28.85,-2.7],[-28.99,-2.41],[-29,-2.25],[-28.96,-2.14],[-29.01,-1.95],[-29.11,-1.85],[-29.23,-1.74],[-29.31,-1.59],[-29.51,-1.32],[-29.75,-1.01],[-29.9,-0.78],[-29.85,-0.53],[-29.76,-0.17],[-29.76,0.01],[-29.97,0.12],[-30.08,0.39],[-30.19,0.53],[-30.32,0.55],[-30.47,0.9],[-30.6,1.24],[-30.76,1.57],[-30.82,1.93],[-30.97,2.3],[-31.11,2.66],[-31.17,2.87],[-31.21,3.12],[-31.27,3.38],[-31.31,3.51],[-31.31,3.51],[-31.23,3.58],[-30.84,3.88],[-30.46,4.15],[-30.34,4.34],[-30,4.42],[-29.68,4.49],[-29.16,4.62],[-28.52,4.72],[-27.89,4.83],[-27.32,5.23],[-26.84,5.65],[-26.6,6.4],[-26.4,7.01],[-25.76,7.3],[-24.97,7.8],[-24.61,8.08],[-24.11,8.53],[-23.61,8.98],[-23.32,9.41],[-23.13,9.84],[-22.71,9.97],[-22.57,10.07],[-22.33,10.04],[-22.03,9.95],[-21.75,9.93],[-21.28,10.05],[-21.03,10.07],[-20.85,10.06],[-20.52,10.31],[-20.33,10.45],[-20.33,10.45],[-19.8,9.61],[-19.44,8.98],[-19.09,8.35],[-19.09,8.35],[-19.29,8.23],[-19.58,8.27],[-19.99,8.26],[-20.29,8.25],[-20.63,8.08],[-20.93,7.85],[-21.21,7.56],[-21.5,7.26],[-21.68,7.04],[-21.9,6.66],[-22.11,6.37],[-22.2,6.05],[-22.23,5.64],[-22.3,5.29],[-22.4,4.92],[-22.49,4.64],[-22.73,4.34],[-23.05,4.09],[-23.37,3.84],[-23.99,3.37],[-24.66,2.69],[-25.14,2.36],[-25.82,2.26],[-26.44,2.17],[-26.78,1.86],[-27.41,1.22],[-27.91,0.67],[-28.14,0.31],[-28.07,-0.46],[-28.03,-0.89],[-28.07,-1.19],[-28.1,-2.12],[-28.11,-2.17],[-28.1,-2.16]]]}},{"type":"Feature","properties":{"ma":185,"type":"gpml:TopologicalNetwork","name":"Northern_Central_Atlantic_Mesh","pid":101,"deforming":true},"geometry":{"type":"Polygon","coordinates":[[[-3.95,11.31],[-3.73,11.06],[-3.24,10.72],[-2.81,10.27],[-2.38,9.82],[-2.18,9.63],[-1.76,9.22],[-1.41,8.87],[-1.05,8.52],[-0.8,8.33],[-0.37,8.01],[-0.26,7.93],[-0.26,7.93],[-0.4,7.86],[-0.81,7.74],[-1.45,7.54],[-2.06,7.35],[-2.77,7.13],[-3.4,6.93],[-3.91,6.77],[-4.39,6.62],[-4.95,6.44],[-5.58,6.24],[-6.12,6.44],[-6.7,6.57],[-7.03,6.76],[-7.35,6.94],[-7.84,7.14],[-8.27,7.44],[-8.87,7.63],[-9.32,7.58],[-10,7.35],[-10.82,7.27],[-11.55,7.15],[-12.1,6.89],[-13.01,6.63],[-13.46,6.33],[-14.26,5.96],[-15,5.68],[-15.55,5.79],[-15.7,5.89],[-16.22,5.93],[-17.17,6],[-17.7,6.11],[-17.7,6.11],[-18.02,6.53],[-18.34,6.95],[-18.35,6.98],[-18.35,6.98],[-18.35,6.98],[-17.97,7.12],[-17.14,7.4],[-16.71,7.46],[-16.38,7.52],[-16.09,7.58],[-15.88,7.55],[-15.2,7.59],[-14.74,7.59],[-14.43,7.64],[-14.16,7.71],[-14.03,7.76],[-13.64,7.99],[-13.15,8.41],[-12.55,8.67],[-12.09,8.62],[-11.71,8.6],[-11.41,8.53],[-10.96,8.47],[-10.59,8.31],[-10.39,8.31],[-10.22,8.38],[-10.13,8.38],[-9.76,8.57],[-9.65,8.62],[-9.65,8.62],[-9.42,8.74],[-9.22,8.93],[-8.98,9.17],[-8.26,9.76],[-7.73,9.98],[-7.34,10.24],[-6.84,10.69],[-6.75,10.85],[-6.75,10.85],[-7.5,10.62],[-8.26,10.38],[-8.47,10.24],[-9.16,9.55],[-9.34,9.31],[-9.55,9.14],[-9.86,8.98],[-10.08,8.86],[-10.28,8.74],[-10.73,8.96],[-11.23,9.2],[-11.82,9.48],[-12.31,9.55],[-12.31,9.55],[-12.52,9.58],[-13.07,9.55],[-13.18,9.48],[-13.36,9.42],[-13.49,9.34],[-13.66,9.22],[-13.88,8.99],[-14.15,8.76],[-14.42,8.54],[-14.66,8.4],[-15.01,8.17],[-15.31,7.91],[-15.53,7.83],[-15.68,7.85],[-15.68,7.85],[-15.9,7.98],[-16.14,8.11],[-16.5,8.28],[-17.18,8.15],[-17.68,8.16],[-18.14,8.16],[-18.64,8.4],[-18.9,8.43],[-19.11,8.39],[-19.11,8.39],[-19.45,9],[-19.8,9.61],[-20.33,10.45],[-20.33,10.45],[-20.18,10.56],[-19.71,10.66],[-19.34,10.96],[-19.11,11.52],[-18.86,11.59],[-18.48,11.44],[-17.95,11.68],[-17.48,11.67],[-16.71,11.7],[-15.91,11.8],[-15.39,11.92],[-14.6,12.02],[-14.08,12.29],[-13.37,12.66],[-12.76,12.89],[-12.21,13],[-11.57,13.1],[-11.23,13.11],[-10.75,12.98],[-10.09,12.89],[-9.51,12.92],[-9.02,12.93],[-8.52,12.92],[-7.99,12.88],[-7.35,12.81],[-6.63,12.62],[-5.96,12.42],[-5.19,12.27],[-4.85,12.15],[-4.69,11.94],[-4.47,11.83],[-4.35,11.69],[-4.23,11.59],[-4.06,11.4],[-3.95,11.31]]]}},{"type":"Feature","properties":{"ma":185,"type":"gpml:TopologicalNetwork","name":"North_Atlantic_Phase1_Deformation_Mesh","pid":301,"deforming":true},"geometry":{"type":"Polygon","coordinates":[[[7.83,30.16],[7.88,30.05],[7.94,29.59],[8.12,29.11],[8.26,28.67],[8.44,28.1],[8.56,27.64],[8.58,27.4],[8.71,27.1],[8.78,26.85],[8.82,26.63],[8.84,26.43],[9.07,26.17],[9.28,26.04],[9.75,25.88],[10.13,25.95],[10.52,25.82],[10.75,25.56],[11.34,25.13],[11.57,24.63],[11.7,24.22],[11.76,23.67],[11.8,23.29],[11.96,22.98],[12.13,22.6],[12.32,22.38],[12.45,22.28],[12.64,22.11],[13.09,21.91],[13.63,21.67],[14.17,21.46],[14.73,21.2],[15.22,21.01],[15.52,20.85],[15.62,20.81],[15.91,20.71],[15.91,20.71],[15.77,20.38],[15.49,19.95],[15.25,19.57],[15.03,19.27],[14.82,18.94],[14.57,18.51],[14.22,18.37],[13.93,18.31],[13.64,18.3],[13.12,18.3],[12.59,18.39],[12,18.52],[11.69,18.7],[11.32,18.8],[10.87,18.9],[10.4,18.92],[9.98,18.87],[9.6,18.72],[9.26,18.62],[9.01,18.42],[8.86,18.2],[8.7,17.97],[8.47,17.75],[8.22,17.46],[7.77,17.08],[7.24,16.68],[6.9,16.49],[6.59,16.18],[6,15.89],[5.58,15.65],[5.41,15.35],[5.41,15.35],[5.16,15.18],[4.61,14.8],[4.04,14.68],[3.39,14.58],[2.87,14.5],[2.6,14.42],[2.6,14.42],[2.56,14.37],[2.44,14.22],[2.36,14],[2.26,13.84],[2.16,13.71],[2.1,13.58],[2.02,13.37],[1.93,13.11],[1.81,12.85],[1.64,12.56],[1.5,12.25],[1.36,11.92],[1.22,11.72],[0.98,11.35],[0.78,11.13],[0.39,10.83],[0.03,10.41],[-0.09,10.17],[-0.16,9.84],[-0.24,9.44],[-0.46,9.1],[-0.68,8.89],[-0.91,8.67],[-1.06,8.53],[-1.06,8.53],[-1.41,8.87],[-1.76,9.22],[-2.18,9.63],[-2.38,9.82],[-2.75,10.2],[-2.75,10.2],[-2.59,10.36],[-2.47,10.47],[-2.26,10.68],[-2.22,10.81],[-2.19,10.96],[-2.2,11.13],[-2.2,11.27],[-2.12,11.44],[-2.06,11.54],[-1.82,11.76],[-1.65,11.91],[-1.53,12.02],[-1.41,12.14],[-1.27,12.29],[-1.14,12.49],[-1.1,12.57],[-1.02,12.62],[-0.9,12.72],[-0.84,12.78],[-0.77,12.87],[-0.65,12.98],[-0.61,13.03],[-0.54,13.08],[-0.51,13.11],[-0.44,13.12],[-0.35,13.13],[-0.31,13.15],[-0.31,13.15],[-0.33,13.19],[-0.35,13.28],[-0.37,13.35],[-0.37,13.41],[-0.37,13.41],[-0.44,13.33],[-0.51,13.24],[-0.57,13.17],[-0.62,13.1],[-0.69,13.03],[-0.77,12.96],[-0.9,12.85],[-1.02,12.75],[-1.14,12.63],[-1.23,12.53],[-1.29,12.41],[-1.37,12.26],[-1.46,12.19],[-1.59,12.1],[-1.71,12.03],[-1.8,11.95],[-1.89,11.86],[-2.01,11.75],[-2.09,11.73],[-2.18,11.69],[-2.42,11.61],[-2.7,11.66],[-2.72,11.67],[-2.72,11.67],[-2.47,11.81],[-2.32,11.89],[-2.18,11.95],[-2.09,12.03],[-1.97,12.12],[-1.84,12.25],[-1.72,12.37],[-1.62,12.5],[-1.51,12.66],[-1.38,12.84],[-1.28,13],[-1.2,13.17],[-1.06,13.37],[-0.99,13.61],[-1.06,13.79],[-1.12,13.93],[-1.2,14.09],[-1.29,14.22],[-1.38,14.32],[-1.49,14.44],[-1.57,14.5],[-1.67,14.59],[-1.82,14.71],[-1.82,14.71],[-1.86,14.85],[-1.89,15.04],[-1.94,15.17],[-1.96,15.39],[-1.92,15.68],[-1.87,15.94],[-1.84,16.31],[-1.84,16.68],[-1.91,16.98],[-1.93,17.1],[-1.93,17.1],[-1.83,17.63],[-1.62,18.34],[-1.23,19.05],[-0.88,19.43],[-0.6,19.96],[-0.04,20.61],[0.41,21.02],[0.77,21.51],[1.12,22],[1.34,22.68],[1.55,23.36],[1.42,24.04],[1.08,24.55],[0.74,25.05],[0.9,25.85],[1.26,25.98],[2,26.26],[2.7,26.66],[3.18,27.04],[3.76,27.35],[4.19,27.74],[4.86,28.23],[5.22,28.79],[5.34,29.15],[5.58,29.86],[5.96,30.43],[6.41,31.05],[6.69,31.37],[6.98,31.87],[6.96,32.06],[6.65,32.39],[6.64,32.45],[6.68,33.12],[6.73,33.36],[6.78,33.51],[6.58,33.72],[6.38,33.79],[6.06,33.99],[5.96,34.15],[5.94,34.39],[5.98,34.56],[6.02,34.72],[6.03,34.91],[6,35.13],[5.96,35.3],[6.03,35.47],[6.16,35.62],[6.34,35.84],[6.57,36.26],[7.01,36.61],[7.15,36.76],[7.33,37.04],[7.4,37.3],[7.44,37.64],[7.42,37.83],[7.42,38.02],[7.5,38.22],[7.62,38.36],[7.81,38.79],[8.05,39.31],[8.3,39.51],[8.44,39.64],[8.44,39.64],[8.44,39.62],[8.42,39.52],[8.42,39.52],[8.5,39.44],[8.33,39.12],[8.33,38.86],[8.3,38.59],[8.18,38.07],[8.2,37.79],[8.23,37.4],[8.28,37.2],[8.37,36.83],[8.29,36.5],[8.08,36.32],[7.93,36.12],[7.74,35.92],[7.68,35.69],[7.54,35.46],[7.49,35.29],[7.35,35.11],[7.33,34.95],[7.43,34.81],[7.58,34.64],[7.81,34.45],[7.97,34.17],[8.09,33.97],[8.23,33.75],[8.27,33.49],[8.19,33.28],[8.01,33.02],[8.08,32.86],[8.14,32.75],[8.23,32.48],[8.33,32.37],[8.48,32.22],[8.47,32.16],[8.43,32.01],[8.38,31.95],[8.3,31.84],[8.28,31.8],[8.17,31.56],[8.03,31.41],[7.89,31.11],[7.87,30.89],[7.86,30.66],[7.84,30.51],[7.86,30.35],[7.86,30.24],[7.83,30.16]]]}},{"type":"Feature","properties":{"ma":185,"type":"gpml:TopologicalNetwork","name":"Proto_Caribbean_Mesh","pid":101,"deforming":true},"geometry":{"type":"Polygon","coordinates":[[[-31.95,2.93],[-31.65,3.21],[-31.31,3.51],[-31.31,3.51],[-31.27,3.38],[-31.21,3.12],[-31.17,2.87],[-31.11,2.66],[-30.97,2.3],[-30.82,1.93],[-30.76,1.57],[-30.6,1.24],[-30.47,0.9],[-30.32,0.55],[-30.19,0.53],[-30.08,0.39],[-29.97,0.12],[-29.76,0.01],[-29.76,-0.17],[-29.85,-0.53],[-29.9,-0.78],[-29.75,-1.01],[-29.51,-1.32],[-29.31,-1.59],[-29.23,-1.74],[-29.11,-1.85],[-29.01,-1.95],[-28.96,-2.14],[-29,-2.25],[-28.99,-2.41],[-28.85,-2.7],[-28.85,-2.94],[-28.9,-3.19],[-28.84,-3.48],[-28.82,-3.73],[-28.66,-3.93],[-28.41,-4.09],[-28.07,-4.34],[-27.85,-4.42],[-27.5,-4.63],[-27.21,-4.85],[-26.95,-5.03],[-26.88,-5.09],[-26.88,-5.09],[-27.18,-5.49],[-27.49,-5.89],[-28.29,-6.07],[-29.09,-6.25],[-29.89,-6.43],[-30.49,-6.62],[-31.1,-6.82],[-31.67,-6.79],[-32.24,-6.77],[-32.76,-6.71],[-33.27,-6.66],[-34.16,-6.35],[-34.93,-6.26],[-35.71,-6.16],[-36.38,-6.04],[-37.05,-5.92],[-37.72,-5.8],[-38.46,-5.94],[-39.21,-6.07],[-39.83,-6.55],[-40.44,-7.02],[-41.05,-7.11],[-41.65,-7.2],[-42.17,-7.32],[-42.68,-7.43],[-43.25,-7.51],[-43.81,-7.59],[-44.44,-7.81],[-45.06,-8.03],[-45.71,-8.38],[-46.36,-8.73],[-47.09,-9.1],[-47.83,-9.46],[-48.65,-9.63],[-49.46,-9.79],[-50.33,-9.56],[-51.19,-9.32],[-51.85,-8.97],[-52.52,-8.61],[-53.03,-8.4],[-53.54,-8.19],[-54.13,-8.08],[-54.71,-7.97],[-55.27,-8.06],[-55.82,-8.15],[-56.01,-8.14],[-56.01,-8.14],[-56.24,-7.6],[-56.48,-7.06],[-56.89,-6.31],[-57.29,-5.55],[-57.66,-4.92],[-58.03,-4.29],[-58.39,-3.66],[-58.68,-3.03],[-58.97,-2.4],[-59.19,-1.72],[-59.42,-1.04],[-59.64,-0.36],[-60.05,0.26],[-60.46,0.88],[-60.44,1.04],[-60.44,1.04],[-59.55,1.16],[-58.61,1.36],[-57.67,1.56],[-56.91,1.75],[-56.15,1.95],[-55.21,2.16],[-54.26,2.37],[-53.47,2.53],[-52.68,2.7],[-52.01,3.2],[-51.34,3.71],[-50.73,4.08],[-50.08,4.82],[-49.69,5.19],[-49.3,5.56],[-49.03,6.25],[-48.3,6.9],[-47.57,7.56],[-46.84,8.21],[-46.15,8.6],[-45.45,9],[-44.75,9.39],[-44.23,9.35],[-43.7,9.3],[-42.69,9.3],[-42.18,9.14],[-41.67,8.97],[-40.95,8.77],[-40.23,8.57],[-39.43,7.99],[-38.97,7.71],[-38.51,7.44],[-38.02,7.19],[-37.54,6.94],[-37.05,6.64],[-36.56,6.35],[-35.9,5.96],[-35.27,5.41],[-34.56,4.95],[-33.84,4.48],[-33.35,3.99],[-32.86,3.5],[-32.16,2.83],[-32.15,2.81],[-31.95,2.93]]]}},{"type":"Feature","properties":{"ma":185,"type":"gpml:TopologicalNetwork","name":"WEC","pid":601,"deforming":true},"geometry":{"type":"Polygon","coordinates":[[[104.94,51.18],[104.45,51.8],[103.93,52.21],[103.39,52.63],[102.37,53.29],[101.67,53.78],[100.96,54.26],[100.23,55],[99.97,55.86],[99.96,56.58],[100,57.43],[100.08,58.33],[100.15,59],[100.24,59.53],[100.34,59.98],[100.65,60.34],[100.95,60.67],[101.32,61.08],[101.66,61.6],[101.96,62.06],[102.33,62.59],[102.72,63.12],[103.13,63.64],[103.67,64.29],[104.24,64.94],[104.83,65.59],[105.7,66.44],[106.26,67.22],[106.86,67.99],[107.38,68.82],[107.79,69.41],[108.18,69.98],[108.6,70.54],[109.01,70.89],[109.01,70.89],[110.54,71.1],[112.65,71.36],[114.81,71.6],[117.8,71.88],[120.88,72.11],[122.7,72.22],[124.53,72.32],[127.15,72.42],[129.8,72.49],[131.78,72.52],[133.76,72.53],[135.91,72.52],[138.04,72.48],[140.54,72.41],[143.01,72.31],[145.31,72.19],[147.57,72.04],[149.8,71.86],[152.41,71.62],[154.94,71.34],[157.73,70.98],[160.41,70.59],[160.41,70.59],[159.99,70.29],[158.71,69.41],[157.53,68.52],[156.76,67.89],[156.03,67.26],[154.9,66.38],[153.85,65.5],[152.8,64.8],[151.8,64.09],[151.18,63.52],[150.58,62.94],[150,62.5],[149.43,62.07],[148.84,61.53],[148.27,60.99],[147.66,60.37],[147.07,59.75],[146.46,59.14],[145.87,58.54],[145.31,57.93],[144.81,57.39],[144.33,56.84],[143.87,56.28],[143.42,55.71],[142.88,55.11],[142.35,54.5],[141.83,53.97],[141.33,53.45],[140.88,52.96],[140.44,52.47],[139.71,51.68],[138.89,50.84],[138.89,50.84],[137.54,51.24],[136.17,51.62],[134.78,51.99],[133.36,52.34],[131.93,52.67],[130.47,52.99],[128.99,53.28],[127.49,53.56],[126.39,53.24],[125.31,52.9],[124.2,52.77],[123.09,52.64],[121.99,52.49],[121.82,52],[121.65,51.51],[120.57,51.58],[119.48,51.63],[118.4,51.68],[117.15,51.9],[115.9,52.11],[114.63,52.3],[113.2,52.34],[111.78,52.36],[110.19,52.14],[108.63,51.9],[107.18,51.6],[105.75,51.28],[104.94,51.18]]]}}]}