{"type":"FeatureCollection","features":[{"type":"Feature","properties":{"ma":190,"type":"gpml:TopologicalNetwork","name":"Amer_anyui_mesh","pid":101,"deforming":true},"geometry":{"type":"Polygon","coordinates":[[[-2.92,50.36],[-4.22,50.39],[-5.53,50.41],[-6.84,50.42],[-8.27,50.27],[-9.69,50.1],[-10.95,50.16],[-12.21,50.2],[-13.28,50.35],[-14.37,50.49],[-15.45,50.62],[-16.64,50.83],[-17.83,51.02],[-19.04,51.21],[-20.2,51.13],[-21.36,51.04],[-22.78,50.74],[-24.18,50.41],[-25.05,50.18],[-25.91,49.94],[-26.68,49.76],[-27.45,49.58],[-28.18,49.38],[-28.91,49.19],[-29.79,49.06],[-29.99,49.05],[-29.99,49.05],[-29.93,49.09],[-29.52,49.6],[-28.58,50.21],[-28.35,50.43],[-27.62,51.1],[-27.33,51.31],[-26.73,51.56],[-26.01,52.02],[-25.28,52.48],[-24.29,53.23],[-23.6,53.47],[-23.04,53.63],[-21.96,53.83],[-21.37,53.87],[-20.71,54.03],[-20,54.19],[-19.2,54.24],[-18.27,54.29],[-17.49,54.33],[-16.47,54.37],[-15.61,54.4],[-14.56,54.42],[-13.58,54.44],[-12.24,54.44],[-10.89,54.43],[-9.33,54.26],[-7.79,54.08],[-6.25,53.87],[-4.86,53.59],[-3.49,53.3],[-3.49,53.3],[-3.25,52.48],[-3.03,51.66],[-2.81,50.84],[-2.92,50.36]]]}},{"type":"Feature","properties":{"ma":190,"type":"gpml:TopologicalClosedPlateBoundary","name":"East Gondwana Plate","pid":801,"deforming":false},"geometry":{"type":"Polygon","coordinates":[[[180,-77.45],[180,-78.41],[180,-79.38],[180,-80.34],[180,-81.31],[180,-82.28],[180,-83.24],[180,-84.21],[180,-85.17],[180,-86.14],[180,-87.1],[180,-88.07],[180,-89.03],[180,-90],[-180,-90],[-180,-89.03],[-180,-88.07],[-180,-87.1],[-180,-86.14],[-180,-85.17],[-180,-84.21],[-180,-83.24],[-180,-82.28],[-180,-81.31],[-180,-80.34],[-180,-79.38],[-180,-78.41],[-180,-77.45],[-180,-76.48],[-176.17,-76.54],[-172.33,-76.54],[-168.51,-76.48],[-164.73,-76.36],[-161.03,-76.19],[-157.44,-75.96],[-153.97,-75.68],[-150.64,-75.36],[-146.78,-75.48],[-142.88,-75.53],[-138.96,-75.52],[-135.07,-75.45],[-131.23,-75.31],[-127.69,-75.28],[-124.19,-75.18],[-120.74,-75.04],[-117.36,-74.85],[-114.08,-74.61],[-111.22,-74.35],[-108.46,-74.05],[-105.8,-73.72],[-103.25,-73.36],[-100.79,-72.97],[-98.45,-72.55],[-96.22,-72.1],[-94.09,-71.63],[-92.15,-71.19],[-90.3,-70.72],[-88.53,-70.24],[-86.84,-69.74],[-84.79,-69.34],[-82.82,-68.92],[-80.92,-68.47],[-79.1,-68],[-77.03,-67.48],[-75.04,-66.94],[-73.15,-66.37],[-71.34,-65.78],[-69.62,-65.17],[-68.41,-64.4],[-67.27,-63.62],[-67.31,-63.6],[-67.31,-63.6],[-65.32,-64.01],[-63.27,-64.38],[-61.18,-64.73],[-59.02,-65.05],[-56.82,-65.34],[-55.05,-65.48],[-53.27,-65.6],[-51.6,-65.66],[-49.93,-65.71],[-48.51,-65.84],[-47.51,-65.87],[-46.49,-65.99],[-45.13,-66.07],[-44.48,-66.05],[-43.97,-66.03],[-42.71,-66],[-41.3,-65.93],[-39.89,-65.86],[-38.96,-65.78],[-38.21,-65.72],[-36.84,-65.66],[-35.41,-65.49],[-34.22,-65.37],[-33.13,-65.24],[-32.06,-65.09],[-30.77,-64.89],[-30.03,-64.78],[-29.68,-64.73],[-28.56,-64.6],[-27.96,-64.54],[-27.62,-64.48],[-27.09,-64.39],[-26.76,-64.32],[-26.59,-64.27],[-26.31,-64.24],[-25.93,-64.13],[-25.73,-64.08],[-25.47,-64.03],[-25.22,-64.01],[-24.96,-63.96],[-24.64,-63.9],[-23.44,-63.69],[-22.26,-63.47],[-22.26,-63.47],[-22.38,-62.63],[-22.5,-61.79],[-22.5,-61.79],[-23.78,-61.75],[-25.06,-61.7],[-26.63,-61.62],[-28.19,-61.53],[-28.19,-61.53],[-27.96,-60.92],[-27.74,-60.31],[-27.02,-59.45],[-26.33,-58.6],[-26.21,-57.92],[-26.1,-57.24],[-25.08,-56.82],[-24.08,-56.4],[-23.01,-56.68],[-21.92,-56.95],[-20.9,-56.23],[-19.92,-55.51],[-18.42,-55.5],[-16.93,-55.48],[-15.44,-55.43],[-13.99,-55.86],[-12.5,-56.28],[-10.98,-56.68],[-9.42,-57.05],[-8.3,-56.49],[-7.21,-55.93],[-5.62,-55.82],[-4.03,-55.69],[-2.78,-55.74],[-2.19,-55.29],[-1.61,-54.83],[-1.49,-54.27],[-1.38,-53.7],[-0.57,-53.24],[0.21,-52.77],[0.34,-51.99],[0.47,-51.22],[1.28,-50.64],[2.05,-50.12],[2.8,-49.6],[2.83,-48.94],[3.19,-48.32],[2.88,-47.45],[2.58,-46.58],[2.3,-45.93],[2.02,-45.29],[1.44,-44.91],[0.87,-44.53],[0.89,-43.7],[0.91,-42.86],[1.64,-42.05],[1.69,-41.4],[1.74,-40.75],[2.27,-40.03],[2.8,-39.31],[3.43,-39.03],[4.06,-38.73],[4.78,-38.27],[5.49,-37.8],[6.32,-37.4],[7.14,-36.99],[8.02,-36.77],[8.89,-36.54],[8.84,-36.48],[8.33,-36.09],[7.82,-35.7],[8.27,-35.1],[8.7,-34.51],[9.67,-34.65],[10.5,-34.31],[11.33,-33.98],[12.14,-34.46],[12.96,-34.93],[13.79,-35.4],[14.64,-35.87],[15.49,-36.33],[16.07,-36.04],[16.66,-35.74],[17.41,-36],[17.4,-35.45],[17.4,-35.45],[18.41,-35.28],[19.22,-34.9],[20.02,-34.52],[20.81,-34.13],[21.49,-33.84],[22.17,-33.55],[22.17,-33.55],[23.34,-33.57],[24.51,-33.57],[25.7,-33.64],[26.89,-33.7],[28.09,-33.74],[29.28,-33.77],[30.47,-33.78],[31.67,-33.79],[32.86,-33.78],[33.98,-33.71],[35.1,-33.62],[36.21,-33.53],[37.33,-33.43],[38.43,-33.32],[39.54,-33.2],[39.81,-33.16],[39.81,-33.16],[40.75,-32.58],[41.68,-32],[42.59,-31.41],[43.5,-30.82],[44.39,-30.22],[45.27,-29.61],[46.14,-29],[47,-28.39],[47.07,-28.34],[47.07,-28.34],[47.77,-27.63],[48.46,-26.91],[49.15,-26.19],[49.85,-25.63],[50.55,-25.06],[51.24,-24.49],[51.93,-23.92],[52.61,-23.35],[53.28,-22.77],[53.93,-22.07],[54.57,-21.38],[55.2,-20.68],[55.83,-19.98],[56.45,-19.27],[57.07,-18.57],[57.68,-17.86],[58.29,-17.15],[58.89,-16.44],[59.49,-15.73],[60.02,-14.88],[60.55,-14.03],[61.07,-13.18],[61.59,-12.33],[62.11,-11.48],[62.63,-10.62],[63.14,-9.77],[63.65,-8.91],[63.96,-8.26],[64.28,-7.61],[64.59,-6.96],[64.59,-6.96],[65.44,-7.27],[66.3,-7.58],[67.15,-7.89],[68.01,-8.19],[68.87,-8.49],[68.61,-9.28],[68.35,-10.07],[68.09,-10.85],[67.82,-11.64],[67.82,-11.64],[68.76,-12.02],[69.7,-12.39],[70.64,-12.76],[71.59,-13.13],[72.54,-13.5],[73.49,-13.86],[74.44,-14.21],[75.4,-14.57],[76.36,-14.92],[77.32,-15.26],[78.28,-15.6],[79.25,-15.94],[80.23,-16.27],[81.2,-16.6],[82.18,-16.93],[82.09,-17.44],[81.99,-17.94],[82.97,-18.07],[83.95,-18.19],[84.93,-18.3],[85.91,-18.41],[86.89,-18.51],[87.88,-18.61],[88.86,-18.71],[89.88,-18.83],[90.9,-18.94],[91.92,-19.05],[92.94,-19.16],[93.58,-18.37],[94.22,-17.59],[94.86,-16.8],[95.49,-16.01],[96.11,-15.21],[96.73,-14.42],[97.34,-13.62],[98.29,-14],[99.23,-14.38],[100.18,-14.75],[100.54,-14.01],[100.91,-13.27],[101.27,-12.52],[101.63,-11.78],[102.54,-11.95],[103.45,-12.11],[104.36,-12.27],[105.28,-12.42],[106.19,-12.57],[106.55,-11.75],[106.9,-10.93],[107.25,-10.1],[107.6,-9.28],[107.94,-8.46],[108.29,-7.63],[109.25,-7.87],[110.21,-8.11],[111.18,-8.34],[111.52,-7.47],[111.87,-6.59],[112.21,-5.72],[112.56,-4.85],[112.9,-3.97],[113.57,-4.11],[114.24,-4.25],[114.91,-4.38],[114.91,-4.38],[115.76,-4.82],[116.6,-5.25],[117.44,-5.68],[118.28,-6.1],[119.13,-6.53],[119.98,-6.96],[119.68,-7.44],[119.39,-7.92],[120.2,-8.33],[121,-8.73],[121.81,-9.13],[122.62,-9.53],[123.44,-9.92],[124.25,-10.32],[125.07,-10.71],[124.78,-11.25],[124.49,-11.79],[125.29,-12.19],[126.09,-12.58],[126.9,-12.97],[127.71,-13.36],[128.53,-13.74],[129.34,-14.12],[130.16,-14.5],[130.98,-14.88],[130.65,-15.44],[130.32,-16.01],[131.13,-16.32],[131.94,-16.63],[132.76,-16.93],[133.58,-17.24],[134.4,-17.53],[135.22,-17.83],[135.58,-18.04],[135.58,-18.04],[135.59,-18.77],[135.61,-19.5],[135.63,-20.23],[135.6,-21.1],[135.57,-21.98],[135.54,-22.85],[135.51,-23.72],[135.47,-24.6],[135.44,-25.47],[135.41,-26.35],[135.38,-27.29],[135.36,-28.23],[135.34,-29.17],[135.32,-30.11],[135.29,-31.05],[135.27,-31.99],[135.24,-32.93],[135.22,-33.88],[135.21,-34.74],[135.2,-35.6],[135.19,-36.47],[135.18,-37.33],[135.16,-38.19],[135.82,-38.97],[136.49,-39.75],[137.17,-40.52],[137.87,-41.29],[138.34,-41.94],[138.81,-42.59],[139.27,-43.07],[139.73,-43.54],[140.38,-43.82],[141.03,-44.1],[142.2,-44.53],[143.37,-44.95],[144.43,-45.55],[145.51,-46.13],[146.61,-46.71],[147.73,-47.27],[147.73,-47.27],[147.86,-48.01],[147.99,-48.75],[148.13,-49.49],[148.33,-50.29],[148.53,-51.09],[148.74,-51.89],[148.96,-52.69],[149.18,-53.49],[149.31,-54.36],[149.45,-55.23],[149.6,-56.11],[149.75,-56.98],[149.91,-57.85],[150.58,-58.76],[151.28,-59.66],[152.02,-60.56],[152.8,-61.45],[153.63,-62.34],[154.27,-63.12],[154.95,-63.88],[155.67,-64.65],[156.43,-65.41],[156.56,-66],[156.69,-66.58],[156.37,-67.15],[156.04,-67.71],[155.09,-68.64],[154.06,-69.56],[152.87,-70.47],[151.56,-71.38],[151.17,-71.89],[152.71,-72.72],[153.29,-73.54],[153.94,-74.36],[154.65,-75.18],[154.65,-75.18],[157.71,-75.45],[160.86,-75.68],[164.11,-75.86],[167.43,-76],[170.81,-76.1],[173.81,-76.26],[176.88,-76.39],[180,-76.48],[180,-77.45]]]}},{"type":"Feature","properties":{"ma":190,"type":"gpml:TopologicalClosedPlateBoundary","name":"Eurasia","pid":301,"deforming":false},"geometry":{"type":"Polygon","coordinates":[[[8.34,40.72],[8.08,41.43],[7.82,42.13],[7.73,42.82],[7.63,43.51],[7.13,44.34],[6.62,45.16],[5.78,45.49],[4.94,45.82],[3.77,45.62],[2.6,45.41],[1.48,45.65],[0.34,45.88],[-0.8,46.1],[-1.74,46.38],[-2.69,46.66],[-3.64,46.93],[-3.45,47.91],[-3.24,48.89],[-3.03,49.87],[-2.81,50.84],[-3.07,51.81],[-3.34,52.77],[-3.62,53.73],[-3.91,54.69],[-4.22,55.65],[-3.64,56.22],[-3.92,56.94],[-4.23,57.66],[-4.54,58.38],[-4.78,59.22],[-5.03,60.06],[-5.29,60.91],[-5.57,61.75],[-5.87,62.59],[-6.17,63.53],[-6.48,64.47],[-6.82,65.42],[-6.82,65.42],[-6.93,65.95],[-7.03,66.48],[-7.09,66.77],[-7.11,66.93],[-7.13,67.05],[-7.2,67.39],[-7.22,67.45],[-7.46,68.34],[-7.72,69.24],[-8,70.13],[-8.31,71.02],[-8.91,71.87],[-9.56,72.72],[-10.28,73.57],[-11.07,74.41],[-11.07,74.41],[-13.83,74.08],[-16.48,73.72],[-19.02,73.32],[-22.26,73.01],[-25.38,72.66],[-28.07,72.55],[-30.74,72.4],[-33.35,72.22],[-35.27,71.9],[-37.12,71.56],[-38.9,71.21],[-41.22,70.85],[-43.46,70.47],[-45.61,70.06],[-47.42,69.81],[-49.19,69.55],[-50.92,69.27],[-53.36,68.89],[-55.72,68.48],[-57.34,68.09],[-58.91,67.7],[-60.42,67.28],[-61.87,66.77],[-61.87,66.77],[-63.31,67.59],[-64.86,68.41],[-65.92,69.07],[-67.04,69.74],[-68.23,70.39],[-69.51,71.03],[-70.51,71.79],[-71.6,72.54],[-72.79,73.28],[-74.07,74.02],[-74.79,74.7],[-75.58,75.38],[-76.44,76.05],[-76.44,76.05],[-76.22,76.21],[-75.27,77.03],[-74.19,77.84],[-72.97,78.64],[-72.12,79.29],[-71.17,79.94],[-71.36,80.66],[-71.58,81.39],[-72.17,82.09],[-72.87,82.79],[-72.59,83.41],[-72.26,84.03],[-71.71,84.73],[-71,85.43],[-70.03,86.13],[-67.6,86.96],[-63.35,87.78],[-51.25,88.6],[-14.63,89.22],[34.21,89.4],[34.21,89.4],[67.06,88.82],[76.95,88.11],[80.94,87.27],[83.05,86.43],[84.35,85.58],[85.24,84.74],[82.28,83.86],[80.06,82.97],[78.34,82.08],[76.96,81.18],[75.84,80.27],[74.91,79.36],[74.13,78.45],[73.45,77.54],[72.87,76.62],[73.86,75.85],[74.75,75.08],[75.55,74.3],[76.28,73.51],[74.58,72.88],[73,72.23],[71.52,71.58],[71.37,70.88],[71.22,70.19],[71.09,69.49],[71.5,68.63],[71.88,67.77],[72.23,66.91],[72.56,66.05],[71.85,65.32],[71.18,64.59],[70.55,63.85],[69.95,63.11],[69.95,63.11],[69.39,62.35],[68.85,61.59],[68.33,60.82],[67.84,60.06],[69.02,59.57],[70.16,59.07],[71.27,58.56],[72.35,58.04],[73.63,57.66],[74.87,57.28],[76.09,56.88],[77.28,56.47],[77.45,55.89],[77.61,55.31],[76.89,54.62],[76.2,53.94],[75.3,53.34],[74.42,52.73],[73.56,52.12],[72.73,51.5],[71.75,50.76],[70.8,50.01],[69.87,49.25],[69.37,48.65],[68.87,48.05],[68.39,47.44],[67.9,46.55],[67.44,45.66],[66.99,44.77],[66.55,43.87],[66.13,42.98],[66.6,42.17],[67.06,41.37],[67.61,40.71],[68.14,40.05],[68.34,39.34],[68.53,38.62],[68.72,37.9],[68.6,37.09],[68.47,36.28],[68.35,35.46],[68.22,34.65],[68.11,33.84],[67.4,33.1],[66.7,32.35],[66.02,31.6],[65.35,30.85],[64.68,30.1],[64.03,29.34],[63.39,28.58],[62.76,27.81],[62.43,27.54],[62.43,27.54],[61.92,27.9],[61.4,28.25],[60.85,28.6],[60.29,28.94],[59.63,29.49],[58.96,30.04],[58.15,30.62],[57.33,31.19],[56.61,31.03],[55.89,30.88],[55.48,30.14],[55.08,29.4],[54.57,28.79],[54.08,28.17],[53.59,27.54],[52.6,27.19],[51.61,26.84],[50.64,26.47],[49.78,25.86],[48.93,25.24],[48.2,24.61],[47.47,23.97],[46.75,23.33],[46.3,22.61],[45.85,21.89],[45.47,21.21],[45.1,20.53],[44.9,20.04],[44.7,19.54],[44.32,19.01],[43.95,18.48],[43.25,18.24],[42.56,18],[41.86,17.75],[40.91,17.76],[39.96,17.76],[39.01,17.76],[38.04,17.55],[37.07,17.34],[36.37,17.19],[35.67,17.05],[34.98,16.89],[34.05,16.86],[33.12,16.82],[32.2,16.77],[31.37,16.96],[30.55,17.14],[29.73,17.32],[29.73,17.32],[30.38,17.93],[31.03,18.54],[31.69,19.15],[32.28,19.71],[32.87,20.28],[33.46,20.84],[34.06,21.4],[34.55,22.01],[35.05,22.62],[35.55,23.23],[36.06,23.83],[36.24,24.21],[36.24,24.21],[35.2,24.21],[34.17,24.21],[33.13,24.19],[32.09,24.17],[31.05,24.15],[30.02,24.11],[28.98,24.07],[27.94,24.02],[26.91,23.96],[25.88,23.9],[25.88,23.9],[25,23.42],[24.13,22.94],[23.27,22.45],[22.87,21.91],[22.47,21.36],[22.68,21.21],[22.1,20.4],[21.53,19.59],[21.69,19.54],[21.12,18.76],[20.56,17.98],[20.77,17.83],[20.27,17.04],[19.78,16.26],[19.3,15.47],[18.81,14.69],[18.33,13.9],[17.63,13.3],[16.94,12.69],[16.94,12.69],[16.82,12.78],[16.82,12.78],[16.23,12.34],[15.64,11.89],[15.06,11.45],[15.06,11.45],[15.31,11.04],[15.31,11.04],[14.72,10.62],[14.13,10.2],[13.54,9.78],[13.54,9.78],[13.65,9.19],[13.65,9.19],[12.71,8.83],[11.77,8.47],[10.83,8.11],[10.79,7.41],[9.92,7.12],[9.04,6.84],[8.17,6.55],[7.29,6.35],[6.4,6.14],[5.52,5.93],[4.63,5.73],[4.63,5.73],[4.18,5.95],[3.72,6.17],[3.26,6.38],[2.75,6.62],[2.24,6.85],[1.58,7.16],[0.82,7.74],[0.09,8.29],[-0.32,8.6],[-0.32,8.6],[-0.31,8.61],[-0.08,8.83],[0.14,9.04],[0.35,9.38],[0.43,9.78],[0.5,10.11],[0.62,10.35],[0.98,10.77],[1.37,11.07],[1.56,11.29],[1.8,11.67],[1.94,11.87],[2.07,12.2],[2.21,12.52],[2.38,12.8],[2.5,13.07],[2.58,13.32],[2.66,13.53],[2.72,13.66],[2.82,13.79],[2.92,13.96],[3,14.17],[3.12,14.32],[3.16,14.38],[3.16,14.38],[3.43,14.46],[3.94,14.54],[4.6,14.65],[5.16,14.77],[5.71,15.15],[5.96,15.32],[5.96,15.32],[6.13,15.62],[6.54,15.87],[7.13,16.16],[7.44,16.47],[7.78,16.67],[8.3,17.07],[8.75,17.46],[9,17.75],[9.23,17.97],[9.38,18.2],[9.53,18.42],[9.78,18.62],[10.12,18.72],[10.5,18.88],[10.93,18.93],[11.39,18.91],[11.84,18.82],[12.22,18.72],[12.53,18.54],[13.11,18.42],[13.64,18.33],[14.16,18.34],[14.45,18.34],[14.75,18.41],[15.1,18.55],[15.34,18.99],[15.55,19.31],[15.77,19.62],[16.01,19.99],[16.28,20.42],[16.42,20.75],[16.42,20.75],[16.13,20.86],[16.02,20.89],[15.72,21.06],[15.23,21.24],[14.67,21.5],[14.13,21.7],[13.59,21.94],[13.14,22.13],[12.95,22.3],[12.81,22.41],[12.62,22.62],[12.45,23.01],[12.28,23.31],[12.24,23.69],[12.18,24.24],[12.05,24.65],[11.81,25.15],[11.22,25.57],[10.99,25.83],[10.59,25.95],[10.22,25.89],[9.74,26.04],[9.53,26.17],[9.3,26.43],[9.28,26.63],[9.24,26.85],[9.16,27.1],[9.03,27.4],[9.01,27.64],[8.88,28.09],[8.7,28.67],[8.55,29.11],[8.37,29.58],[8.3,30.04],[8.26,30.16],[8.26,30.16],[8.28,30.23],[8.28,30.34],[8.26,30.5],[8.28,30.66],[8.29,30.88],[8.31,31.11],[8.45,31.41],[8.58,31.56],[8.69,31.8],[8.71,31.84],[8.79,31.94],[8.84,32],[8.87,32.16],[8.89,32.22],[8.73,32.37],[8.63,32.48],[8.54,32.74],[8.48,32.86],[8.41,33.01],[8.58,33.28],[8.66,33.48],[8.62,33.74],[8.48,33.97],[8.36,34.17],[8.19,34.44],[7.96,34.63],[7.81,34.8],[7.71,34.94],[7.72,35.1],[7.86,35.28],[7.91,35.45],[8.06,35.68],[8.11,35.91],[8.3,36.11],[8.45,36.31],[8.65,36.49],[8.73,36.82],[8.63,37.2],[8.58,37.4],[8.54,37.78],[8.53,38.07],[8.64,38.59],[8.67,38.85],[8.67,39.11],[8.83,39.44],[8.77,39.5],[8.77,39.5],[8.79,39.62],[8.75,39.88],[8.72,40.31],[8.57,40.64],[8.34,40.72]]]}},{"type":"Feature","properties":{"ma":190,"type":"gpml:TopologicalClosedPlateBoundary","name":"North America","pid":101,"deforming":false},"geometry":{"type":"Polygon","coordinates":[[[-54.48,54.76],[-53.04,54.71],[-51.61,54.64],[-50.62,54.65],[-49.11,54.67],[-47.59,54.67],[-46.08,54.65],[-44.57,54.61],[-42.92,54.4],[-41.29,54.17],[-39.68,53.91],[-38.45,53.38],[-37.24,52.84],[-36.07,52.29],[-34.93,51.73],[-33.82,51.16],[-32.77,50.72],[-31.74,50.27],[-30.73,49.81],[-29.73,49.34],[-29.73,49.34],[-29.93,49.09],[-29.99,49.05],[-29.99,49.05],[-29.79,49.06],[-28.91,49.19],[-28.18,49.38],[-27.45,49.58],[-26.68,49.76],[-25.91,49.94],[-25.05,50.18],[-24.18,50.41],[-22.78,50.74],[-21.36,51.04],[-20.2,51.13],[-19.04,51.21],[-17.83,51.02],[-16.64,50.83],[-15.45,50.62],[-14.37,50.49],[-13.28,50.35],[-12.21,50.2],[-10.95,50.16],[-9.69,50.1],[-8.27,50.27],[-6.84,50.42],[-5.53,50.41],[-4.22,50.39],[-2.92,50.36],[-2.92,50.36],[-3.11,49.5],[-3.29,48.64],[-3.47,47.79],[-3.64,46.93],[-2.69,46.66],[-1.74,46.38],[-0.8,46.1],[0.34,45.88],[1.48,45.65],[2.6,45.41],[3.77,45.62],[4.94,45.82],[5.78,45.49],[6.62,45.16],[7.13,44.34],[7.63,43.51],[7.73,42.82],[7.82,42.13],[8.08,41.43],[8.34,40.72],[8.57,40.64],[8.57,40.64],[8.72,40.31],[8.75,39.88],[8.79,39.64],[8.79,39.64],[8.67,39.52],[8.43,39.32],[8.19,38.8],[8.01,38.36],[7.89,38.23],[7.81,38.03],[7.82,37.84],[7.84,37.65],[7.81,37.31],[7.74,37.05],[7.57,36.77],[7.43,36.61],[6.99,36.26],[6.77,35.84],[6.59,35.62],[6.46,35.46],[6.39,35.29],[6.44,35.12],[6.47,34.9],[6.46,34.71],[6.42,34.55],[6.39,34.38],[6.41,34.14],[6.51,33.98],[6.83,33.79],[7.04,33.72],[7.24,33.51],[7.19,33.36],[7.15,33.12],[7.11,32.45],[7.12,32.39],[7.43,32.06],[7.46,31.87],[7.17,31.37],[6.9,31.05],[6.46,30.43],[6.09,29.85],[5.85,29.13],[5.73,28.78],[5.38,28.21],[4.72,27.71],[4.29,27.32],[3.71,27.01],[3.24,26.62],[2.55,26.22],[1.81,25.93],[1.45,25.8],[1.3,24.99],[1.64,24.49],[1.99,23.99],[2.13,23.32],[1.92,22.63],[1.72,21.95],[1.36,21.46],[1.01,20.96],[0.57,20.55],[0.01,19.9],[-0.26,19.36],[-0.6,18.98],[-0.99,18.26],[-1.2,17.55],[-1.29,17.03],[-1.29,17.03],[-1.26,16.9],[-1.2,16.6],[-1.19,16.23],[-1.22,15.86],[-1.26,15.6],[-1.3,15.31],[-1.27,15.1],[-1.23,14.97],[-1.2,14.77],[-1.16,14.64],[-1.16,14.64],[-1,14.52],[-0.9,14.43],[-0.82,14.37],[-0.71,14.25],[-0.62,14.15],[-0.53,14.01],[-0.45,13.86],[-0.38,13.72],[-0.31,13.54],[-0.38,13.3],[-0.52,13.09],[-0.59,12.93],[-0.7,12.77],[-0.82,12.59],[-0.94,12.43],[-1.03,12.29],[-1.15,12.18],[-1.27,12.04],[-1.4,11.95],[-1.49,11.87],[-1.63,11.81],[-1.77,11.73],[-2,11.6],[-2,11.6],[-1.76,11.56],[-1.52,11.64],[-1.43,11.68],[-1.34,11.71],[-1.22,11.81],[-1.14,11.9],[-1.05,11.98],[-0.93,12.05],[-0.79,12.14],[-0.71,12.22],[-0.63,12.36],[-0.57,12.49],[-0.49,12.59],[-0.36,12.71],[-0.24,12.81],[-0.11,12.92],[-0.04,13],[0.03,13.06],[0.09,13.14],[0.14,13.21],[0.21,13.3],[0.3,13.4],[0.3,13.4],[0.31,13.28],[0.33,13.22],[0.35,13.12],[0.36,13.12],[0.36,13.12],[0.3,13.1],[0.21,13.09],[0.15,13.08],[0.11,13.05],[0.04,12.99],[0,12.94],[-0.11,12.83],[-0.18,12.75],[-0.24,12.68],[-0.37,12.58],[-0.44,12.53],[-0.49,12.45],[-0.61,12.24],[-0.74,12.1],[-0.87,11.97],[-0.99,11.86],[-1.15,11.72],[-1.4,11.5],[-1.45,11.39],[-1.53,11.22],[-1.53,11.08],[-1.52,10.91],[-1.55,10.76],[-1.58,10.63],[-1.79,10.42],[-1.91,10.3],[-2.01,10.21],[-2.01,10.21],[-1.98,10.18],[-1.98,10.18],[-2.08,9.93],[-2.38,9.88],[-2.76,9.89],[-3.07,10],[-3.04,10.41],[-3.01,10.63],[-3.14,10.66],[-3.19,10.66],[-3.51,10.49],[-3.63,10.72],[-3.65,10.91],[-3.33,10.89],[-3.18,11],[-3.11,11.1],[-3.37,11.3],[-3.54,11.49],[-3.65,11.59],[-3.78,11.73],[-4,11.83],[-4.16,12.05],[-4.5,12.17],[-5.27,12.3],[-5.94,12.5],[-6.67,12.69],[-7.31,12.75],[-7.83,12.78],[-8.33,12.79],[-8.82,12.78],[-9.4,12.74],[-10.06,12.83],[-10.54,12.95],[-10.88,12.94],[-11.52,12.83],[-12.08,12.72],[-12.68,12.48],[-13.38,12.11],[-13.9,11.83],[-14.69,11.73],[-15.21,11.6],[-16.01,11.49],[-16.78,11.46],[-17.25,11.46],[-17.78,11.22],[-18.16,11.37],[-18.41,11.29],[-18.63,10.73],[-19,10.43],[-19.47,10.32],[-19.81,10.07],[-20.13,9.82],[-20.31,9.83],[-20.56,9.8],[-21.02,9.68],[-21.31,9.7],[-21.6,9.79],[-21.85,9.82],[-21.98,9.72],[-22.4,9.58],[-22.59,9.15],[-22.88,8.72],[-23.37,8.26],[-23.88,7.82],[-24.23,7.53],[-25.02,7.02],[-25.65,6.73],[-25.85,6.12],[-26.08,5.37],[-26.56,4.94],[-27.12,4.54],[-27.76,4.42],[-28.39,4.31],[-28.91,4.19],[-29.23,4.11],[-29.57,4.03],[-29.69,3.84],[-30.07,3.56],[-30.46,3.26],[-30.87,2.89],[-31.17,2.61],[-31.37,2.49],[-31.37,2.49],[-31.38,2.5],[-32.08,3.17],[-32.58,3.66],[-33.07,4.14],[-33.79,4.6],[-34.51,5.07],[-35.14,5.61],[-35.8,5.99],[-36.29,6.29],[-36.79,6.58],[-37.27,6.82],[-37.75,7.07],[-38.22,7.34],[-38.68,7.62],[-39.49,8.19],[-40.2,8.39],[-40.92,8.58],[-41.44,8.75],[-41.95,8.91],[-42.95,8.91],[-43.48,8.95],[-44.01,8.99],[-44.7,8.59],[-45.39,8.19],[-46.08,7.79],[-46.81,7.14],[-47.54,6.48],[-48.26,5.82],[-48.53,5.13],[-48.91,4.76],[-49.3,4.38],[-49.94,3.65],[-50.55,3.27],[-51.22,2.76],[-51.9,2.25],[-52.68,2.09],[-53.47,1.92],[-54.41,1.71],[-55.36,1.49],[-56.12,1.29],[-56.88,1.09],[-57.82,0.89],[-58.76,0.68],[-59.65,0.56],[-59.65,0.56],[-59.59,1.23],[-59.52,1.9],[-59.39,2.66],[-59.26,3.42],[-59.13,4.18],[-58.96,4.98],[-58.78,5.78],[-58.61,6.58],[-58.35,7.31],[-58.1,8.04],[-57.84,8.76],[-57.45,9.13],[-57.06,9.5],[-56.53,9.97],[-55.99,10.44],[-55.55,10.93],[-55.12,11.42],[-55.08,11.48],[-55.08,11.48],[-55.17,12.33],[-55.27,13.17],[-55.36,14.01],[-55.46,14.86],[-55.56,15.7],[-55.7,16.65],[-55.84,17.59],[-55.98,18.54],[-56.13,19.48],[-56.28,20.43],[-56.43,21.38],[-56.58,22.32],[-56.64,23.09],[-56.69,23.86],[-56.75,24.63],[-56.82,25.4],[-56.42,26.19],[-56.02,26.97],[-55.62,27.76],[-55.2,28.54],[-54.79,29.32],[-54.14,30.06],[-53.47,30.8],[-52.8,31.54],[-52.12,32.27],[-51.41,33],[-50.68,33.72],[-49.94,34.44],[-49.19,35.15],[-48.71,35.69],[-48.71,35.69],[-49.89,35.73],[-51.06,35.75],[-52.23,35.76],[-53.4,35.75],[-54.57,35.74],[-55.74,35.72],[-56.49,35.56],[-57.23,35.4],[-57.23,35.4],[-57.17,35.92],[-57.11,36.45],[-57.22,37.35],[-57.32,38.25],[-57.43,39.14],[-57.36,40.11],[-57.29,41.07],[-57.21,42.03],[-57.07,42.75],[-56.92,43.47],[-56.76,44.19],[-56.48,44.98],[-56.19,45.76],[-55.89,46.55],[-55.58,47.33],[-55.37,48.16],[-55.15,49],[-54.92,49.83],[-54.69,50.62],[-54.45,51.41],[-54.2,52.2],[-54.29,53.05],[-54.38,53.91],[-54.48,54.76]]]}},{"type":"Feature","properties":{"ma":190,"type":"gpml:TopologicalClosedPlateBoundary","name":"Pacific Plate","pid":901,"deforming":false},"geometry":{"type":"Polygon","coordinates":[[[-146.85,2.44],[-146.84,2.42],[-146.61,1.94],[-146.38,1.46],[-146.36,1.45],[-146.36,1.45],[-146.53,1.46],[-147.46,1.47],[-148.39,1.49],[-149.32,1.5],[-149.32,1.5],[-149.31,1.51],[-148.53,1.8],[-147.75,2.09],[-146.97,2.38],[-146.85,2.44]]]}},{"type":"Feature","properties":{"ma":190,"type":"gpml:TopologicalClosedPlateBoundary","name":"West Gondwana","pid":701,"deforming":false},"geometry":{"type":"Polygon","coordinates":[[[39.54,-33.2],[38.43,-33.32],[37.33,-33.43],[36.21,-33.53],[35.1,-33.62],[33.98,-33.71],[32.86,-33.78],[31.67,-33.79],[30.47,-33.78],[29.28,-33.77],[28.09,-33.74],[26.89,-33.7],[25.7,-33.64],[24.51,-33.57],[23.34,-33.57],[22.17,-33.55],[22.17,-33.55],[21.49,-33.84],[20.81,-34.13],[20.81,-34.13],[20.02,-34.52],[19.22,-34.9],[18.41,-35.28],[17.91,-35.64],[17.41,-36],[16.66,-35.74],[16.07,-36.04],[15.49,-36.33],[14.64,-35.87],[13.79,-35.4],[12.96,-34.93],[12.14,-34.46],[11.33,-33.98],[10.5,-34.31],[9.67,-34.65],[8.7,-34.51],[8.27,-35.1],[7.82,-35.7],[8.33,-36.09],[8.84,-36.48],[8.89,-36.54],[8.02,-36.77],[7.14,-36.99],[6.32,-37.4],[5.49,-37.8],[4.78,-38.27],[4.06,-38.73],[3.43,-39.03],[2.8,-39.31],[2.27,-40.03],[1.74,-40.75],[1.69,-41.4],[1.64,-42.05],[0.91,-42.86],[0.89,-43.7],[0.87,-44.53],[1.4,-44.96],[1.95,-45.38],[2.26,-45.98],[2.58,-46.58],[3.55,-47.24],[3.2,-48.09],[2.83,-48.94],[3.14,-49.78],[2.22,-50.21],[1.28,-50.64],[0.47,-51.22],[0.34,-51.99],[0.21,-52.77],[-0.57,-53.24],[-1.38,-53.7],[-1.49,-54.27],[-1.61,-54.83],[-2.19,-55.29],[-2.78,-55.74],[-4.03,-55.69],[-5.62,-55.82],[-7.21,-55.93],[-8.3,-56.49],[-9.42,-57.05],[-10.98,-56.68],[-12.5,-56.28],[-13.99,-55.86],[-15.44,-55.43],[-16.93,-55.48],[-18.42,-55.5],[-19.92,-55.51],[-20.9,-56.23],[-21.92,-56.95],[-23.01,-56.68],[-24.08,-56.4],[-25.08,-56.82],[-26.1,-57.24],[-26.21,-57.92],[-26.33,-58.6],[-27.02,-59.45],[-27.74,-60.31],[-27.96,-60.92],[-28.19,-61.53],[-28.19,-61.53],[-26.63,-61.62],[-25.06,-61.7],[-23.78,-61.75],[-22.5,-61.79],[-22.5,-61.79],[-22.38,-62.63],[-22.26,-63.47],[-22.26,-63.47],[-23.44,-63.69],[-24.64,-63.9],[-24.96,-63.96],[-25.22,-64.01],[-25.47,-64.03],[-25.73,-64.08],[-25.93,-64.13],[-26.31,-64.24],[-26.59,-64.27],[-26.76,-64.32],[-27.09,-64.39],[-27.62,-64.48],[-27.96,-64.54],[-28.56,-64.6],[-29.68,-64.73],[-30.03,-64.78],[-30.77,-64.89],[-32.06,-65.09],[-33.13,-65.24],[-34.22,-65.37],[-35.41,-65.49],[-36.84,-65.66],[-38.21,-65.72],[-38.96,-65.78],[-39.89,-65.86],[-41.3,-65.93],[-42.71,-66],[-43.97,-66.03],[-44.48,-66.05],[-45.13,-66.07],[-46.49,-65.99],[-47.51,-65.87],[-48.51,-65.84],[-49.93,-65.71],[-51.6,-65.66],[-53.27,-65.6],[-55.05,-65.48],[-56.82,-65.34],[-59.02,-65.05],[-61.18,-64.73],[-63.27,-64.38],[-65.32,-64.01],[-67.31,-63.6],[-67.31,-63.6],[-67.39,-63.54],[-67.63,-63.14],[-67.65,-63.08],[-67.66,-62.7],[-67.61,-62.34],[-67.54,-61.96],[-67.49,-61.63],[-67.44,-61.47],[-67.44,-61.15],[-67.58,-60.75],[-67.67,-60.37],[-67.7,-60.03],[-67.74,-59.73],[-67.71,-59.47],[-67.7,-59.15],[-67.66,-58.79],[-67.44,-58.35],[-67.15,-58.01],[-66.94,-57.81],[-66.71,-57.56],[-66.43,-57.28],[-65.98,-56.84],[-65.57,-56.46],[-65.27,-56.13],[-65.04,-55.81],[-65.01,-55.37],[-64.96,-55.09],[-64.92,-54.86],[-64.89,-54.78],[-64.8,-54.53],[-64.7,-54.23],[-64.55,-53.87],[-64.42,-53.57],[-64.26,-53.25],[-64.1,-52.9],[-63.98,-52.64],[-63.68,-52],[-63.49,-51.58],[-63.31,-51.19],[-63.12,-50.82],[-62.86,-50.31],[-62.72,-50.03],[-62.53,-49.57],[-62.42,-49.29],[-62.28,-48.93],[-62.02,-48.65],[-61.68,-48.09],[-61.68,-48.09],[-61.6,-47.76],[-61.6,-47.76],[-61.58,-47.63],[-61.47,-47.37],[-60.99,-46.56],[-60.53,-45.75],[-60.44,-45.02],[-60.35,-44.28],[-60.25,-43.44],[-60.16,-42.6],[-59.68,-41.85],[-59.21,-41.09],[-58.75,-40.34],[-58.3,-39.58],[-57.87,-38.82],[-57.69,-38.05],[-57.52,-37.29],[-57.36,-36.52],[-57.2,-35.75],[-57.07,-34.88],[-56.96,-34.02],[-56.9,-33.59],[-56.83,-33.19],[-56.8,-32.87],[-56.71,-32.31],[-56.65,-31.59],[-56.49,-31.13],[-56.26,-30.3],[-56.14,-29.81],[-56.17,-29.22],[-56.17,-29.22],[-56.18,-28.93],[-56.22,-28.57],[-56.21,-28.02],[-56.35,-27.27],[-56.43,-26.75],[-56.51,-26.22],[-57.07,-25.44],[-57.24,-24.75],[-57.42,-24.07],[-57.59,-23.38],[-57.8,-22.56],[-58,-21.75],[-58.21,-20.94],[-58.3,-20.08],[-58.39,-19.22],[-58.48,-18.36],[-58.57,-17.51],[-58.66,-16.65],[-58.74,-15.79],[-58.8,-14.92],[-58.86,-14.06],[-58.92,-13.19],[-58.58,-12.39],[-58.24,-11.6],[-57.9,-10.8],[-57.57,-10],[-57.23,-9.21],[-57.13,-8.94],[-57.04,-8.7],[-56.92,-8.44],[-56.77,-8.09],[-56.67,-7.9],[-56.59,-7.67],[-56.38,-7.32],[-56.19,-7.01],[-56.04,-6.81],[-56.04,-6.81],[-55.65,-7.52],[-55.52,-7.81],[-55.52,-7.81],[-55.37,-7.82],[-54.82,-7.72],[-54.27,-7.63],[-53.68,-7.74],[-53.1,-7.85],[-52.58,-8.06],[-52.07,-8.27],[-51.41,-8.63],[-50.74,-8.98],[-49.88,-9.21],[-49.02,-9.45],[-48.2,-9.28],[-47.39,-9.11],[-46.65,-8.75],[-45.92,-8.38],[-45.27,-8.03],[-44.62,-7.68],[-44,-7.46],[-43.37,-7.24],[-42.81,-7.16],[-42.25,-7.08],[-41.73,-6.96],[-41.22,-6.85],[-40.61,-6.76],[-40.01,-6.67],[-39.39,-6.2],[-38.77,-5.72],[-38.03,-5.59],[-37.28,-5.45],[-36.61,-5.57],[-35.95,-5.69],[-35.28,-5.81],[-34.5,-5.9],[-33.73,-6],[-32.84,-6.31],[-32.33,-6.36],[-31.82,-6.42],[-31.24,-6.44],[-30.67,-6.47],[-30.06,-6.27],[-29.46,-6.08],[-28.66,-5.9],[-27.86,-5.72],[-27.06,-5.54],[-26.56,-4.89],[-26.05,-4.24],[-25.94,-3.61],[-25.82,-2.98],[-25.82,-2.98],[-25.57,-3.12],[-25.57,-3.12],[-25.51,-2.89],[-25.29,-2.11],[-25.01,-1.75],[-24.62,-1.46],[-24,-1.2],[-23.58,-1.22],[-23.14,-1.26],[-22.92,-0.92],[-22.77,-0.67],[-22.57,-0.4],[-22.25,-0.19],[-22.03,0.16],[-21.79,0.58],[-21.69,1.36],[-21.6,1.8],[-21.46,2.22],[-21.2,2.46],[-20.98,2.65],[-20.58,3.19],[-20.22,3.71],[-19.97,4.32],[-19.7,4.75],[-19.43,5.18],[-19.06,5.61],[-18.7,6.03],[-18.22,6.23],[-17.74,6.43],[-17.6,6.51],[-16.72,6.33],[-15.77,6.25],[-15.26,6.21],[-15.1,6.11],[-14.55,6],[-13.81,6.28],[-13.01,6.64],[-12.56,6.95],[-11.65,7.2],[-11.1,7.46],[-10.36,7.58],[-9.54,7.66],[-8.87,7.89],[-8.55,7.92],[-8.55,7.92],[-8.5,7.9],[-8.24,7.77],[-7.92,7.59],[-7.52,7.36],[-6.96,7.01],[-6.27,6.63],[-5.97,6.5],[-5.47,6.3],[-5.07,6.15],[-4.62,5.98],[-3.88,5.62],[-3.55,5.45],[-2.69,5.03],[-1.96,4.67],[-1.96,4.67],[-1.27,4.63],[-0.62,4.64],[0.03,4.64],[0.78,4.51],[1.66,4.41],[2.04,4.27],[2.04,4.27],[2.5,4.15],[2.92,4.06],[3.2,4.02],[3.6,4.15],[3.99,4.16],[4.87,4.05],[5.63,3.91],[6.36,3.85],[7.19,3.74],[7.91,3.67],[7.91,3.67],[7.3,4.08],[6.49,4.6],[6.49,4.6],[7.38,4.83],[8.28,5.06],[9.17,5.29],[10.07,5.51],[10.88,5.81],[11.68,6.11],[12.49,6.41],[13.3,6.71],[14.11,7],[14.11,7],[14.05,7.08],[13.88,7.98],[13.71,8.88],[13.54,9.78],[13.54,9.78],[14.13,10.2],[14.72,10.62],[15.31,11.04],[15.31,11.04],[15.06,11.45],[15.06,11.45],[15.64,11.89],[16.23,12.34],[16.82,12.78],[16.82,12.78],[17.39,12.37],[18.18,11.93],[18.98,11.49],[19.77,11.05],[20.56,10.61],[20.56,10.61],[21.25,11.08],[21.94,11.54],[22.63,12.01],[23.42,12.59],[24.22,13.17],[25.02,13.74],[25.83,14.31],[25.83,14.31],[26.53,13.96],[27.24,13.61],[27.94,13.25],[28.43,13.7],[29.24,13.19],[30.04,12.68],[30.83,12.17],[31.63,11.66],[32.42,11.14],[33.21,10.63],[34,10.11],[34.78,9.59],[35.56,9.06],[36.02,9.45],[36.73,8.9],[37.43,8.35],[38.13,7.8],[38.82,7.26],[39.52,6.71],[40.21,6.15],[40.91,5.6],[41.6,5.05],[41.6,5.05],[41.85,5.36],[41.85,5.36],[42.66,4.93],[43.48,4.49],[44.29,4.06],[45.09,3.62],[45.9,3.19],[46.71,2.75],[47.52,2.31],[48.33,1.88],[49.13,1.44],[49.94,1],[50.74,0.56],[51.55,0.12],[51.25,-0.67],[52.09,-1.03],[52.92,-1.39],[53.76,-1.75],[54.59,-2.11],[55.42,-2.47],[56.26,-2.83],[57.1,-3.19],[56.86,-4.08],[57.71,-4.41],[58.57,-4.73],[59.43,-5.05],[60.28,-5.38],[61.14,-5.7],[62,-6.01],[62.86,-6.33],[63.73,-6.65],[64.59,-6.96],[64.59,-6.96],[64.28,-7.61],[63.96,-8.26],[63.65,-8.91],[63.14,-9.77],[62.63,-10.62],[62.11,-11.48],[61.59,-12.33],[61.07,-13.18],[60.55,-14.03],[60.02,-14.88],[59.49,-15.73],[58.89,-16.44],[58.29,-17.15],[57.68,-17.86],[57.07,-18.57],[56.45,-19.27],[55.83,-19.98],[55.2,-20.68],[54.57,-21.38],[53.93,-22.07],[53.28,-22.77],[52.61,-23.35],[51.93,-23.92],[51.24,-24.49],[50.55,-25.06],[49.85,-25.63],[49.15,-26.19],[48.46,-26.91],[47.77,-27.63],[47.07,-28.34],[47.07,-28.34],[47,-28.39],[46.14,-29],[45.27,-29.61],[44.39,-30.22],[43.5,-30.82],[42.59,-31.41],[41.68,-32],[40.75,-32.58],[39.81,-33.16],[39.54,-33.2]]]}},{"type":"Feature","properties":{"ma":190,"type":"gpml:TopologicalClosedPlateBoundary","name":"Junction Plate North","pid":786,"deforming":false},"geometry":{"type":"Polygon","coordinates":[[[116.28,1.74],[116.45,1.56],[117.08,0.97],[117.7,0.38],[118.33,-0.21],[118.95,-0.81],[119.58,-1.4],[120.06,-2.19],[120.54,-2.99],[121.02,-3.79],[121.5,-4.59],[122.27,-5.18],[123.04,-5.76],[123.82,-6.34],[124.6,-6.92],[125.37,-7.5],[126.16,-8.08],[126.94,-8.65],[127.72,-9.23],[128.51,-9.8],[129.3,-10.37],[130.04,-10.9],[130.79,-11.43],[131.53,-11.96],[132.28,-12.49],[133.04,-13.01],[133.79,-13.53],[134.55,-14.05],[135.31,-14.57],[135.49,-14.73],[135.49,-14.73],[135.51,-15.56],[135.53,-16.38],[135.55,-17.21],[135.58,-18.04],[135.58,-18.04],[135.22,-17.83],[134.4,-17.53],[133.58,-17.24],[132.76,-16.93],[131.94,-16.63],[131.13,-16.32],[130.32,-16.01],[130.65,-15.44],[130.98,-14.88],[130.16,-14.5],[129.34,-14.12],[128.53,-13.74],[127.71,-13.36],[126.9,-12.97],[126.09,-12.58],[125.29,-12.19],[124.49,-11.79],[124.78,-11.25],[125.07,-10.71],[124.25,-10.32],[123.44,-9.92],[122.62,-9.53],[121.81,-9.13],[121,-8.73],[120.2,-8.33],[119.39,-7.92],[119.68,-7.44],[119.98,-6.96],[119.13,-6.53],[118.28,-6.1],[117.44,-5.68],[116.6,-5.25],[115.76,-4.82],[115.1,-4.48],[114.44,-4.14],[114.44,-4.14],[114.55,-3.54],[114.66,-2.94],[114.97,-2.04],[115.27,-1.14],[115.58,-0.24],[115.88,0.66],[116.19,1.56],[116.28,1.74]]]}},{"type":"Feature","properties":{"ma":190,"type":"gpml:TopologicalClosedPlateBoundary","name":"Cimmerian-Neotethys Plate","pid":505,"deforming":false},"geometry":{"type":"Polygon","coordinates":[[[114.24,-4.25],[113.57,-4.11],[112.9,-3.97],[112.56,-4.85],[112.21,-5.72],[111.87,-6.59],[111.52,-7.47],[111.18,-8.34],[110.21,-8.11],[109.25,-7.87],[108.29,-7.63],[107.94,-8.46],[107.6,-9.28],[107.25,-10.1],[106.9,-10.93],[106.55,-11.75],[106.19,-12.57],[105.28,-12.42],[104.36,-12.27],[103.45,-12.11],[102.54,-11.95],[101.63,-11.78],[101.27,-12.52],[100.91,-13.27],[100.54,-14.01],[100.18,-14.75],[99.23,-14.38],[98.29,-14],[97.34,-13.62],[96.73,-14.42],[96.11,-15.21],[95.49,-16.01],[94.86,-16.8],[94.22,-17.59],[93.58,-18.37],[92.94,-19.16],[91.92,-19.05],[90.9,-18.94],[89.88,-18.83],[88.86,-18.71],[87.88,-18.61],[86.89,-18.51],[85.91,-18.41],[84.93,-18.3],[83.95,-18.19],[82.97,-18.07],[81.99,-17.94],[82.09,-17.44],[82.18,-16.93],[81.2,-16.6],[80.23,-16.27],[79.25,-15.94],[78.28,-15.6],[77.32,-15.26],[76.36,-14.92],[75.4,-14.57],[74.44,-14.21],[73.49,-13.86],[72.54,-13.5],[71.59,-13.13],[70.64,-12.76],[69.7,-12.39],[68.76,-12.02],[67.82,-11.64],[67.82,-11.64],[68.09,-10.85],[68.35,-10.07],[68.61,-9.28],[68.87,-8.49],[67.94,-8.16],[67.01,-7.83],[66.08,-7.5],[65.15,-7.17],[64.22,-6.83],[63.3,-6.49],[62.38,-6.15],[61.45,-5.81],[60.53,-5.47],[59.61,-5.12],[58.69,-4.78],[57.77,-4.43],[56.86,-4.08],[57.1,-3.19],[56.26,-2.83],[55.42,-2.47],[54.59,-2.11],[53.76,-1.75],[52.92,-1.39],[52.09,-1.03],[51.25,-0.67],[51.55,0.12],[50.74,0.56],[49.94,1],[49.13,1.44],[48.33,1.88],[47.52,2.31],[46.71,2.75],[45.9,3.19],[45.09,3.62],[44.29,4.06],[43.48,4.49],[42.66,4.93],[41.85,5.36],[41.85,5.36],[41.6,5.05],[41.6,5.05],[40.91,5.6],[40.21,6.15],[39.52,6.71],[38.82,7.26],[38.13,7.8],[37.43,8.35],[36.73,8.9],[36.02,9.45],[35.56,9.06],[34.78,9.59],[34,10.11],[33.21,10.63],[32.42,11.14],[31.63,11.66],[30.83,12.17],[30.04,12.68],[29.24,13.19],[28.43,13.7],[27.94,13.25],[27.24,13.61],[26.53,13.96],[25.83,14.31],[25.83,14.31],[26.49,14.78],[27.18,15.31],[27.87,15.84],[28.57,16.36],[29.27,16.88],[29.73,17.32],[29.73,17.32],[30.55,17.14],[31.37,16.96],[32.2,16.77],[33.12,16.82],[34.05,16.86],[34.98,16.89],[35.67,17.05],[36.37,17.19],[37.07,17.34],[38.04,17.55],[39.01,17.76],[39.96,17.76],[40.91,17.76],[41.86,17.75],[42.56,18],[43.25,18.24],[43.95,18.48],[44.32,19.01],[44.7,19.54],[44.9,20.04],[45.1,20.53],[45.47,21.21],[45.85,21.89],[46.3,22.61],[46.75,23.33],[47.47,23.97],[48.2,24.61],[48.93,25.24],[49.78,25.86],[50.64,26.47],[51.61,26.84],[52.6,27.19],[53.59,27.54],[54.08,28.17],[54.57,28.79],[55.08,29.4],[55.48,30.14],[55.89,30.88],[56.61,31.03],[57.33,31.19],[58.15,30.62],[58.96,30.04],[59.63,29.49],[60.29,28.94],[60.85,28.6],[61.4,28.25],[62.21,27.7],[63.01,27.14],[63.8,26.57],[64.64,26.63],[65.4,26.41],[66.16,26.18],[66.7,25.94],[67.25,25.69],[68.2,25.4],[69.23,25.17],[69.85,25.03],[70.47,24.89],[71.36,24.9],[72.25,24.91],[72.96,24.93],[73.68,24.95],[74.28,25.19],[74.87,25.43],[75.6,25.86],[76.33,26.29],[77.09,26.6],[77.86,26.9],[78.65,26.88],[79.43,26.87],[80.19,26.87],[80.94,26.86],[81.78,27.09],[82.62,27.32],[83.46,27.54],[84.3,27.76],[85.02,27.97],[85.75,28.18],[86.47,28.38],[87.52,28.63],[88.57,28.87],[89.49,29.03],[90.42,29.19],[91.02,29.33],[91.62,29.47],[92.57,29.11],[93.5,28.74],[94.41,28.35],[95.31,27.95],[96.13,27.6],[96.94,27.24],[97.75,26.88],[98.56,26.51],[99.52,26.15],[100.48,25.79],[100.48,25.79],[100.63,26.07],[100.63,26.07],[101.58,25.57],[102.34,25],[103.09,24.42],[103.84,23.85],[104.58,23.27],[105.31,22.68],[106.19,22.14],[107.07,21.58],[107.94,21.02],[108.81,20.46],[109.67,19.89],[110.56,19.55],[111.45,19.2],[112.34,18.85],[113.22,18.49],[114.11,18.13],[114.98,17.76],[115.86,17.4],[116.78,17.04],[117.7,16.68],[118.62,16.31],[119.53,15.95],[120.44,15.57],[121.11,15.01],[121.77,14.45],[122.43,13.88],[123.09,13.31],[123.75,12.74],[124.4,12.17],[125.34,11.81],[126.28,11.45],[127.21,11.09],[127.21,11.09],[126.63,10.27],[126.06,9.45],[125.48,8.62],[124.97,8.05],[124.45,7.48],[123.94,6.91],[123.43,6.33],[122.7,5.93],[121.98,5.52],[121.26,5.12],[120.54,4.71],[119.73,4.19],[118.93,3.66],[117.94,3.52],[116.95,3.37],[115.96,3.23],[114.97,3.08],[114.97,3.08],[115.62,2.41],[116.28,1.74],[116.28,1.74],[116.19,1.56],[115.88,0.66],[115.58,-0.24],[115.27,-1.14],[114.97,-2.04],[114.66,-2.94],[114.55,-3.54],[114.44,-4.14],[114.44,-4.14],[114.91,-4.38],[114.24,-4.25]]]}},{"type":"Feature","properties":{"ma":190,"type":"gpml:TopologicalClosedPlateBoundary","name":"Moroccan-Plate","pid":706,"deforming":false},"geometry":{"type":"Polygon","coordinates":[[[0.2,8.21],[0.82,7.74],[1.58,7.16],[2.24,6.85],[2.75,6.62],[3.26,6.38],[3.72,6.17],[4.18,5.95],[4.64,5.72],[5.1,5.5],[5.84,5.02],[6.57,4.55],[7.3,4.08],[7.91,3.67],[7.91,3.67],[7.19,3.74],[6.36,3.85],[5.63,3.91],[4.87,4.05],[3.99,4.16],[3.6,4.15],[3.2,4.02],[2.92,4.06],[2.5,4.15],[2.04,4.27],[2.04,4.27],[1.66,4.41],[0.78,4.51],[0.03,4.64],[-0.62,4.64],[-1.27,4.63],[-1.96,4.67],[-1.96,4.67],[-2.69,5.03],[-3.55,5.45],[-3.88,5.62],[-4.62,5.98],[-5.07,6.15],[-5.47,6.3],[-5.97,6.5],[-6.27,6.63],[-6.96,7.01],[-7.52,7.36],[-7.92,7.59],[-8.24,7.77],[-8.5,7.9],[-8.55,7.92],[-8.55,7.92],[-8.41,7.93],[-7.81,7.74],[-7.38,7.45],[-6.89,7.24],[-6.57,7.06],[-6.25,6.87],[-5.66,6.74],[-5.13,6.53],[-4.5,6.73],[-3.93,6.91],[-3.45,7.06],[-2.94,7.22],[-2.31,7.41],[-1.6,7.63],[-0.99,7.82],[-0.35,8.01],[0.07,8.14],[0.2,8.21]]]}},{"type":"Feature","properties":{"ma":190,"type":"gpml:TopologicalClosedPlateBoundary","name":"AACM","pid":18100,"deforming":false},"geometry":{"type":"Polygon","coordinates":[[[-6.82,65.42],[-6.48,64.47],[-6.17,63.53],[-5.87,62.59],[-5.57,61.75],[-5.29,60.91],[-5.03,60.06],[-4.78,59.22],[-4.54,58.38],[-4.23,57.66],[-3.92,56.94],[-3.64,56.22],[-4.22,55.65],[-3.97,54.87],[-3.72,54.08],[-3.49,53.3],[-3.49,53.3],[-4.86,53.59],[-6.25,53.87],[-7.79,54.08],[-9.33,54.26],[-10.89,54.43],[-12.24,54.44],[-13.58,54.44],[-14.56,54.42],[-15.61,54.4],[-16.47,54.37],[-17.49,54.33],[-18.27,54.29],[-19.2,54.24],[-20,54.19],[-20.71,54.03],[-21.37,53.87],[-21.96,53.83],[-23.04,53.63],[-23.6,53.47],[-24.29,53.23],[-25.28,52.48],[-26.01,52.02],[-26.73,51.56],[-27.33,51.31],[-27.62,51.1],[-28.35,50.43],[-28.58,50.21],[-29.52,49.6],[-29.73,49.34],[-29.73,49.34],[-30.73,49.81],[-31.74,50.27],[-32.77,50.72],[-33.82,51.16],[-34.93,51.73],[-36.07,52.29],[-37.24,52.84],[-38.45,53.38],[-39.68,53.91],[-41.29,54.17],[-42.92,54.4],[-44.57,54.61],[-46.08,54.65],[-47.59,54.67],[-49.11,54.67],[-50.62,54.65],[-51,54.65],[-51,54.65],[-50.65,55.42],[-50.3,56.2],[-49.93,56.97],[-49.54,57.74],[-49.26,58.51],[-48.96,59.28],[-48.65,60.05],[-48.33,60.82],[-48.33,60.82],[-49.61,61.36],[-50.94,61.88],[-52.35,62.56],[-53.83,63.23],[-55.38,63.88],[-56.95,64.53],[-58.59,65.18],[-60.31,65.8],[-61.08,66.29],[-61.87,66.77],[-61.87,66.77],[-60.42,67.28],[-58.91,67.7],[-57.34,68.09],[-55.72,68.48],[-53.36,68.89],[-50.92,69.27],[-49.19,69.55],[-47.42,69.81],[-45.61,70.06],[-43.46,70.47],[-41.22,70.85],[-38.9,71.21],[-37.12,71.56],[-35.27,71.9],[-33.35,72.22],[-30.74,72.4],[-28.07,72.55],[-25.38,72.66],[-22.26,73.01],[-19.02,73.32],[-16.48,73.72],[-13.83,74.08],[-11.07,74.41],[-11.07,74.41],[-10.28,73.57],[-9.56,72.72],[-8.91,71.87],[-8.31,71.02],[-8,70.13],[-7.72,69.24],[-7.46,68.34],[-7.22,67.45],[-7.2,67.39],[-7.13,67.05],[-7.11,66.93],[-7.09,66.77],[-7.03,66.48],[-6.93,65.95],[-6.82,65.42]]]}},{"type":"Feature","properties":{"ma":190,"type":"gpml:TopologicalClosedPlateBoundary","name":"Atlantic_opening_190","pid":701,"deforming":false},"geometry":{"type":"Polygon","coordinates":[[[-7.76,10.1],[-7.55,10.25],[-7.1,10.39],[-7.1,10.39],[-7.27,10.28],[-7.8,10.07],[-7.81,10.06],[-7.76,10.1]]]}},{"type":"Feature","properties":{"ma":190,"type":"gpml:TopologicalClosedPlateBoundary","name":"Atlantic_opening_190","pid":101,"deforming":false},"geometry":{"type":"Polygon","coordinates":[[[-17.41,7.94],[-16.94,7.95],[-16.45,7.94],[-15.77,8.08],[-15.47,7.94],[-15.47,7.94],[-15.64,7.91],[-15.93,7.84],[-16.26,7.79],[-16.69,7.72],[-17.15,7.57],[-17.15,7.57],[-17.73,7.53],[-17.89,7.48],[-18.2,7.41],[-18.62,7.27],[-19.03,7.05],[-19.28,6.88],[-19.53,6.63],[-19.86,6.38],[-20.08,6.2],[-20.27,6.06],[-20.52,5.77],[-20.6,5.52],[-20.92,5.22],[-21.05,4.94],[-21.2,4.7],[-21.44,4.24],[-21.62,3.96],[-21.95,3.57],[-22.25,3.21],[-22.43,2.98],[-22.64,2.78],[-22.96,2.51],[-23.31,2.23],[-23.66,1.94],[-24.19,1.57],[-24.93,1.08],[-25.38,0.75],[-25.84,0.42],[-26.4,0.13],[-26.96,-0.16],[-27.3,-0.33],[-27.3,-0.33],[-27.34,0.02],[-27.11,0.38],[-26.62,0.93],[-26,1.58],[-25.66,1.89],[-25.04,1.98],[-24.35,2.09],[-23.88,2.42],[-23.22,3.11],[-22.6,3.59],[-22.28,3.83],[-21.96,4.08],[-21.73,4.39],[-21.64,4.67],[-21.54,5.04],[-21.48,5.39],[-21.45,5.8],[-21.36,6.12],[-21.15,6.41],[-20.93,6.79],[-20.76,7.01],[-20.47,7.31],[-20.19,7.61],[-19.89,7.84],[-19.55,8.02],[-19.26,8.03],[-18.84,8.04],[-18.56,8.01],[-18.26,8.18],[-18.02,8.2],[-17.86,8.16],[-17.41,7.94]]]}},{"type":"Feature","properties":{"ma":190,"type":"gpml:TopologicalClosedPlateBoundary","name":"AlCaPa-Tisza-Dacia-Moesia","pid":319,"deforming":false},"geometry":{"type":"Polygon","coordinates":[[[36.24,24.21],[36.06,23.83],[35.55,23.23],[35.05,22.62],[34.55,22.01],[34.06,21.4],[33.46,20.84],[32.87,20.28],[32.28,19.71],[31.69,19.15],[31.08,18.58],[30.47,18.02],[29.87,17.45],[29.27,16.88],[28.57,16.36],[27.87,15.84],[27.18,15.31],[26.49,14.78],[25.71,14.23],[24.94,13.68],[24.16,13.12],[23.39,12.57],[22.63,12.01],[21.94,11.54],[21.25,11.08],[20.56,10.61],[20.56,10.61],[19.77,11.05],[18.98,11.49],[18.18,11.93],[17.39,12.37],[16.94,12.69],[16.94,12.69],[17.63,13.3],[18.33,13.9],[18.81,14.69],[19.3,15.47],[19.78,16.26],[20.27,17.04],[20.77,17.83],[20.56,17.98],[21.12,18.76],[21.69,19.54],[21.53,19.59],[22.1,20.4],[22.68,21.21],[22.47,21.36],[22.87,21.91],[23.27,22.45],[24.13,22.94],[25,23.42],[25.88,23.9],[25.88,23.9],[26.91,23.96],[27.94,24.02],[28.98,24.07],[30.02,24.11],[31.05,24.15],[32.09,24.17],[33.13,24.19],[34.17,24.21],[35.2,24.21],[36.24,24.21]]]}},{"type":"Feature","properties":{"ma":190,"type":"gpml:TopologicalClosedPlateBoundary","name":"AlKaPeCa","pid":329,"deforming":false},"geometry":{"type":"Polygon","coordinates":[[[14.11,7],[13.3,6.71],[12.49,6.41],[11.68,6.11],[10.88,5.81],[10.07,5.51],[9.17,5.29],[8.28,5.06],[7.38,4.83],[6.49,4.6],[6.49,4.6],[5.79,5.05],[5.1,5.5],[4.63,5.73],[4.63,5.73],[5.52,5.93],[6.4,6.14],[7.29,6.35],[8.17,6.55],[9.04,6.84],[9.92,7.12],[10.79,7.41],[10.83,8.11],[11.77,8.47],[12.71,8.83],[13.65,9.19],[13.65,9.19],[13.78,8.48],[13.92,7.78],[14.05,7.08],[14.11,7]]]}},{"type":"Feature","properties":{"ma":190,"type":"gpml:TopologicalClosedPlateBoundary","name":"Atlantic_opening_190","pid":701,"deforming":false},"geometry":{"type":"Polygon","coordinates":[[[-17.15,7.57],[-17.52,7.45],[-17.9,7.31],[-18.47,7.06],[-18.47,7.06],[-18.48,7.05],[-18.96,7],[-19.47,6.62],[-19.91,6.1],[-20.23,5.51],[-20.48,5.18],[-20.79,4.84],[-21.14,4.51],[-21.34,4.15],[-21.54,3.89],[-21.79,3.58],[-22.01,3.27],[-22.15,3.05],[-22.33,2.89],[-22.48,2.67],[-22.64,2.46],[-22.95,2.14],[-23.22,1.83],[-23.76,1.48],[-24.47,1.12],[-24.97,0.69],[-25.48,0.27],[-25.82,-0.17],[-26.16,-0.61],[-26.51,-1.01],[-26.87,-1.41],[-27.26,-1.49],[-27.26,-1.49],[-27.26,-1.49],[-27.23,-1.18],[-27.26,-0.76],[-27.3,-0.33],[-27.3,-0.33],[-26.96,-0.16],[-26.4,0.13],[-25.84,0.42],[-25.38,0.75],[-24.93,1.08],[-24.19,1.57],[-23.66,1.94],[-23.31,2.23],[-22.96,2.51],[-22.64,2.78],[-22.43,2.98],[-22.25,3.21],[-21.95,3.57],[-21.62,3.96],[-21.44,4.24],[-21.2,4.7],[-21.05,4.94],[-20.92,5.22],[-20.6,5.52],[-20.52,5.77],[-20.27,6.06],[-20.08,6.2],[-19.86,6.38],[-19.53,6.63],[-19.28,6.88],[-19.03,7.05],[-18.62,7.27],[-18.2,7.41],[-17.89,7.48],[-17.73,7.53],[-17.15,7.57]]]}},{"type":"Feature","properties":{"ma":190,"type":"gpml:TopologicalClosedPlateBoundary","name":"Atlantic_opening_190","pid":701,"deforming":false},"geometry":{"type":"Polygon","coordinates":[[[-10.26,8.84],[-10.66,8.97],[-11.05,9.01],[-11.45,8.96],[-11.85,8.91],[-12.07,8.99],[-12.68,8.74],[-13.07,8.39],[-13.78,8.04],[-14.17,7.97],[-14.31,7.95],[-14.31,7.95],[-14.27,7.98],[-13.93,8.21],[-13.69,8.36],[-13.42,8.58],[-13.15,8.81],[-12.94,9.04],[-12.76,9.16],[-12.64,9.25],[-12.46,9.3],[-12.35,9.38],[-11.8,9.41],[-11.59,9.38],[-11.59,9.38],[-11.1,9.32],[-10.51,9.04],[-10.15,8.87],[-10.26,8.84]]]}},{"type":"Feature","properties":{"ma":190,"type":"gpml:TopologicalClosedPlateBoundary","name":"Mongol-Okhotsk Ocean","pid":380,"deforming":false},"geometry":{"type":"Polygon","coordinates":[[[-180,79.32],[-180,80.29],[-180,81.26],[-180,82.23],[-180,83.2],[-180,84.17],[-180,85.15],[-180,86.12],[-180,87.09],[-180,88.06],[-180,89.03],[-180,90],[180,90],[180,89.03],[180,88.06],[180,87.09],[180,86.12],[180,85.15],[180,84.17],[180,83.2],[180,82.23],[180,81.26],[180,80.29],[180,79.32],[180,78.35],[179.98,78.35],[177.59,77.61],[175.47,76.85],[173.58,76.08],[171.8,75.25],[170.2,74.41],[168.77,73.55],[167.31,72.67],[166.49,72.14],[165.72,71.61],[164.54,70.92],[163.45,70.22],[162.42,69.52],[161.35,68.91],[160.34,68.3],[159.38,67.68],[158.46,66.92],[157.59,66.16],[156.35,65.36],[155.18,64.55],[154.32,63.97],[153.5,63.39],[152.54,62.63],[151.62,61.86],[150.76,61.09],[149.75,60.32],[148.8,59.55],[148.07,58.83],[147.37,58.11],[146.73,57.47],[146.11,56.82],[145.54,56.24],[144.99,55.66],[144.36,55.01],[143.75,54.35],[143.02,53.66],[142.31,52.97],[141.82,52.34],[141.34,51.71],[140.7,50.9],[140.08,50.09],[139.49,49.32],[138.91,48.56],[138.36,47.79],[137.82,47.02],[137.14,46.14],[136.48,45.26],[136.1,44.49],[135.73,43.71],[135.37,42.94],[134.97,42.13],[134.58,41.31],[134.21,40.5],[133.88,39.79],[133.57,39.08],[133.26,38.38],[132.77,37.63],[132.29,36.87],[131.82,36.12],[131.42,35.22],[131.03,34.33],[130.69,33.68],[130.36,33.03],[130.03,32.38],[129.57,31.48],[129.11,30.58],[128.67,29.67],[128.26,28.83],[127.86,28],[127.47,27.16],[127.08,26.32],[126.7,25.48],[126.32,24.64],[125.95,23.79],[125.58,22.95],[125.58,22.95],[126.2,22.16],[126.79,21.38],[127.38,20.6],[127.43,19.88],[127.63,19.24],[127.83,18.59],[128.21,17.94],[128.6,17.29],[129.31,16.95],[130.03,16.61],[130.74,16.26],[130.74,16.26],[130.33,15.55],[129.92,14.84],[129.52,14.12],[129.12,13.41],[128.49,12.65],[127.87,11.89],[127.25,11.13],[127.21,11.09],[127.21,11.09],[126.28,11.45],[125.34,11.81],[124.4,12.17],[123.75,12.74],[123.09,13.31],[122.43,13.88],[121.77,14.45],[121.11,15.01],[120.44,15.57],[119.53,15.95],[118.62,16.31],[117.7,16.68],[116.78,17.04],[115.86,17.4],[114.98,17.76],[114.11,18.13],[113.22,18.49],[112.34,18.85],[111.45,19.2],[110.56,19.55],[109.67,19.89],[108.81,20.46],[107.94,21.02],[107.07,21.58],[106.19,22.14],[105.31,22.68],[104.58,23.27],[103.84,23.85],[103.09,24.42],[102.34,25],[101.58,25.57],[100.63,26.07],[100.63,26.07],[100.48,25.79],[99.52,26.15],[98.56,26.51],[97.75,26.88],[96.94,27.24],[96.13,27.6],[95.31,27.95],[94.41,28.35],[93.5,28.74],[92.57,29.11],[91.62,29.47],[91.02,29.33],[90.42,29.19],[89.49,29.03],[88.57,28.87],[87.52,28.63],[86.47,28.38],[85.75,28.18],[85.02,27.97],[84.3,27.76],[83.46,27.54],[82.62,27.32],[81.78,27.09],[80.94,26.86],[80.19,26.87],[79.43,26.87],[78.65,26.88],[77.86,26.9],[77.09,26.6],[76.33,26.29],[75.6,25.86],[74.87,25.43],[74.28,25.19],[73.68,24.95],[72.96,24.93],[72.25,24.91],[71.36,24.9],[70.47,24.89],[69.85,25.03],[69.23,25.17],[68.2,25.4],[67.25,25.69],[66.7,25.94],[66.16,26.18],[65.4,26.41],[64.64,26.63],[63.8,26.57],[63.12,27.06],[62.43,27.54],[62.43,27.54],[62.76,27.81],[63.39,28.58],[64.03,29.34],[64.68,30.1],[65.35,30.85],[66.02,31.6],[66.7,32.35],[67.4,33.1],[68.11,33.84],[68.22,34.65],[68.35,35.46],[68.47,36.28],[68.6,37.09],[68.72,37.9],[68.53,38.62],[68.34,39.34],[68.14,40.05],[67.61,40.71],[67.06,41.37],[66.6,42.17],[66.13,42.98],[66.55,43.87],[66.99,44.77],[67.44,45.66],[67.9,46.55],[68.39,47.44],[68.87,48.05],[69.37,48.65],[69.87,49.25],[70.8,50.01],[71.75,50.76],[72.73,51.5],[73.56,52.12],[74.42,52.73],[75.3,53.34],[76.2,53.94],[76.89,54.62],[77.61,55.31],[77.45,55.89],[77.28,56.47],[76.09,56.88],[74.87,57.28],[73.63,57.66],[72.35,58.04],[71.27,58.56],[70.16,59.07],[69.02,59.57],[67.84,60.06],[68.33,60.82],[68.85,61.59],[69.39,62.35],[69.95,63.11],[69.95,63.11],[70.55,63.85],[71.18,64.59],[71.85,65.32],[72.56,66.05],[72.23,66.91],[71.88,67.77],[71.5,68.63],[71.09,69.49],[71.22,70.19],[71.37,70.88],[71.52,71.58],[73,72.23],[74.58,72.88],[76.28,73.51],[75.55,74.3],[74.75,75.08],[73.86,75.85],[72.87,76.62],[73.45,77.54],[74.13,78.45],[74.91,79.36],[75.84,80.27],[76.96,81.18],[78.34,82.08],[80.06,82.97],[82.28,83.86],[85.24,84.74],[84.35,85.58],[83.05,86.43],[80.94,87.27],[76.95,88.11],[67.06,88.82],[34.21,89.4],[34.21,89.4],[-14.63,89.22],[-51.25,88.6],[-63.35,87.78],[-67.6,86.96],[-70.03,86.13],[-71,85.43],[-71.71,84.73],[-72.26,84.03],[-72.59,83.41],[-72.87,82.79],[-72.18,82.1],[-71.6,81.41],[-71.6,81.41],[-74.38,81.11],[-74.38,81.11],[-77.42,81.53],[-80.76,81.92],[-86.1,82.5],[-92.25,83],[-99.26,83.41],[-107.07,83.71],[-115.02,83.8],[-123.05,83.77],[-130.84,83.61],[-138.75,83.35],[-145.95,82.97],[-152.32,82.49],[-157.87,81.93],[-162.68,81.31],[-166.82,80.64],[-170.39,79.92],[-173.49,79.17],[-176.18,78.39],[-180,78.35],[-180,79.32]]]}},{"type":"Feature","properties":{"ma":190,"type":"gpml:TopologicalClosedPlateBoundary","name":"Izanagi Plate","pid":926,"deforming":false},"geometry":{"type":"MultiPolygon","coordinates":[[[[180,77.36],[180,76.36],[180,75.37],[180,74.38],[180,73.39],[180,72.39],[180,71.4],[180,70.41],[180,69.42],[180,68.42],[180,67.43],[180,66.44],[180,65.45],[180,64.45],[180,63.46],[180,62.47],[180,61.47],[180,60.48],[180,59.49],[180,58.5],[180,57.5],[180,56.51],[180,55.52],[180,54.53],[180,53.53],[180,52.54],[180,51.55],[180,50.56],[180,49.56],[180,48.57],[180,47.58],[180,46.58],[180,45.59],[180,44.6],[180,43.61],[180,42.61],[180,41.62],[180,40.63],[180,39.64],[180,38.64],[180,37.65],[180,36.66],[180,35.66],[180,34.67],[180,33.68],[180,32.69],[180,31.69],[180,30.7],[180,29.71],[180,28.72],[180,27.72],[180,26.73],[180,25.74],[180,24.75],[180,23.75],[180,22.76],[180,21.77],[180,20.77],[180,19.78],[180,18.79],[180,17.8],[180,16.8],[180,15.81],[180,14.82],[180,13.83],[180,12.83],[180,11.84],[180,10.85],[180,9.86],[180,8.86],[180,7.87],[180,6.88],[180,5.88],[180,4.89],[180,3.9],[180,2.91],[180,1.91],[180,0.92],[180,-0.07],[180,-1.06],[180,-2.06],[180,-3.05],[179.24,-3.34],[178.48,-3.63],[177.72,-3.92],[176.96,-4.21],[176.2,-4.5],[175.88,-3.86],[175.56,-3.22],[175.25,-2.58],[174.35,-2.95],[173.46,-3.33],[172.56,-3.7],[171.67,-4.07],[170.77,-4.44],[169.87,-4.81],[168.97,-5.17],[168.08,-5.54],[167.17,-5.91],[166.27,-6.27],[165.37,-6.63],[164.47,-6.99],[163.56,-7.35],[162.65,-7.71],[161.74,-8.06],[161.3,-7.42],[160.85,-6.77],[159.92,-7.07],[158.98,-7.36],[158.05,-7.65],[157.11,-7.93],[156.17,-8.22],[155.23,-8.5],[154.29,-8.78],[153.35,-9.06],[152.41,-9.34],[151.46,-9.61],[150.52,-9.88],[149.57,-10.15],[148.62,-10.41],[147.67,-10.67],[146.71,-10.93],[146.28,-10.13],[145.85,-9.32],[145.42,-8.51],[144.99,-7.7],[144.56,-6.89],[143.75,-7.38],[142.94,-7.86],[142.12,-8.34],[141.31,-8.82],[140.49,-9.3],[139.67,-9.77],[138.84,-10.24],[138.02,-10.72],[137.19,-11.19],[136.36,-11.65],[135.52,-12.12],[135.52,-12.12],[135.45,-13.09],[135.47,-13.91],[135.49,-14.73],[135.49,-14.73],[135.31,-14.57],[134.55,-14.05],[133.79,-13.53],[133.04,-13.01],[132.28,-12.49],[131.53,-11.96],[130.79,-11.43],[130.04,-10.9],[129.3,-10.37],[128.51,-9.8],[127.72,-9.23],[126.94,-8.65],[126.16,-8.08],[125.37,-7.5],[124.6,-6.92],[123.82,-6.34],[123.04,-5.76],[122.27,-5.18],[121.5,-4.59],[121.02,-3.79],[120.54,-2.99],[120.06,-2.19],[119.58,-1.4],[118.95,-0.81],[118.33,-0.21],[117.7,0.38],[117.08,0.97],[116.45,1.56],[115.96,2.06],[115.46,2.57],[114.97,3.08],[114.97,3.08],[115.96,3.23],[116.95,3.37],[117.94,3.52],[118.93,3.66],[119.73,4.19],[120.54,4.71],[121.26,5.12],[121.98,5.52],[122.7,5.93],[123.43,6.33],[123.94,6.91],[124.45,7.48],[124.97,8.05],[125.48,8.62],[125.92,9.25],[126.36,9.88],[126.8,10.51],[127.25,11.13],[127.87,11.89],[128.49,12.65],[129.12,13.41],[129.52,14.12],[129.92,14.84],[130.33,15.55],[130.74,16.26],[130.74,16.26],[130.03,16.61],[129.31,16.95],[128.6,17.29],[128.21,17.94],[127.83,18.59],[127.63,19.24],[127.43,19.88],[127.38,20.6],[126.79,21.38],[126.2,22.16],[125.58,22.95],[125.58,22.95],[125.95,23.79],[126.32,24.64],[126.7,25.48],[127.08,26.32],[127.47,27.16],[127.86,28],[128.26,28.83],[128.67,29.67],[129.11,30.58],[129.57,31.48],[130.03,32.38],[130.36,33.03],[130.69,33.68],[131.03,34.33],[131.42,35.22],[131.82,36.12],[132.29,36.87],[132.77,37.63],[133.26,38.38],[133.57,39.08],[133.88,39.79],[134.21,40.5],[134.58,41.31],[134.97,42.13],[135.37,42.94],[135.73,43.71],[136.1,44.49],[136.48,45.26],[137.14,46.14],[137.82,47.02],[138.36,47.79],[138.91,48.56],[139.49,49.32],[140.08,50.09],[140.7,50.9],[141.34,51.71],[141.82,52.34],[142.31,52.97],[143.02,53.66],[143.75,54.35],[144.36,55.01],[144.99,55.66],[145.54,56.24],[146.11,56.82],[146.73,57.47],[147.37,58.11],[148.07,58.83],[148.8,59.55],[149.75,60.32],[150.76,61.09],[151.62,61.86],[152.54,62.63],[153.5,63.39],[154.32,63.97],[155.18,64.55],[156.35,65.36],[157.59,66.16],[158.46,66.92],[159.38,67.68],[160.34,68.3],[161.35,68.91],[162.42,69.52],[163.45,70.22],[164.54,70.92],[165.72,71.61],[166.49,72.14],[167.31,72.67],[168.77,73.55],[170.2,74.41],[171.8,75.25],[173.58,76.08],[175.47,76.85],[177.59,77.61],[179.98,78.35],[180,78.35],[180,77.36]]],[[[-180,-2.06],[-180,-1.06],[-180,-0.07],[-180,0.92],[-180,1.91],[-180,2.91],[-180,3.9],[-180,4.89],[-180,5.88],[-180,6.88],[-180,7.87],[-180,8.86],[-180,9.86],[-180,10.85],[-180,11.84],[-180,12.83],[-180,13.83],[-180,14.82],[-180,15.81],[-180,16.8],[-180,17.8],[-180,18.79],[-180,19.78],[-180,20.77],[-180,21.77],[-180,22.76],[-180,23.75],[-180,24.75],[-180,25.74],[-180,26.73],[-180,27.72],[-180,28.72],[-180,29.71],[-180,30.7],[-180,31.69],[-180,32.69],[-180,33.68],[-180,34.67],[-180,35.66],[-180,36.66],[-180,37.65],[-180,38.64],[-180,39.64],[-180,40.63],[-180,41.62],[-180,42.61],[-180,43.61],[-180,44.6],[-180,45.59],[-180,46.58],[-180,47.58],[-180,48.57],[-180,49.56],[-180,50.56],[-180,51.55],[-180,52.54],[-180,53.53],[-180,54.53],[-180,55.52],[-180,56.51],[-180,57.5],[-180,58.5],[-180,59.49],[-180,60.48],[-180,61.47],[-180,62.47],[-180,63.46],[-180,64.45],[-180,65.45],[-180,66.44],[-180,67.43],[-180,68.42],[-180,69.42],[-180,70.41],[-180,71.4],[-180,72.39],[-180,73.39],[-180,74.38],[-180,75.37],[-180,76.36],[-180,77.36],[-180,78.35],[-176.18,78.39],[-173.49,79.17],[-170.39,79.92],[-166.82,80.64],[-162.68,81.31],[-157.87,81.93],[-152.32,82.49],[-145.95,82.97],[-138.75,83.35],[-130.84,83.61],[-123.05,83.77],[-115.02,83.8],[-107.07,83.71],[-99.26,83.41],[-92.25,83],[-86.1,82.5],[-80.76,81.92],[-77.42,81.53],[-74.38,81.11],[-79.06,80.49],[-83.15,79.83],[-86.73,79.12],[-89.86,78.37],[-92.62,77.6],[-95.05,76.8],[-97.2,75.97],[-99.12,75.14],[-100.84,74.28],[-102.38,73.42],[-103.77,72.54],[-105.04,71.66],[-106.19,70.77],[-107.24,69.87],[-109.58,70.15],[-111.98,70.41],[-113.06,69.57],[-114.06,68.72],[-114.99,67.87],[-115.85,67.02],[-116.65,66.16],[-117.4,65.3],[-118.1,64.43],[-118.76,63.56],[-119.49,62.62],[-120.17,61.68],[-120.81,60.74],[-121.42,59.8],[-121.99,58.85],[-122.53,57.9],[-123.04,56.95],[-123.53,55.99],[-124,55.04],[-124.44,54.08],[-124.86,53.12],[-125.26,52.16],[-125.65,51.2],[-126.02,50.24],[-126.38,49.27],[-126.72,48.31],[-127.05,47.34],[-127.37,46.37],[-127.68,45.4],[-127.97,44.44],[-128.26,43.47],[-128.54,42.49],[-128.81,41.52],[-129.85,41.62],[-130.89,41.72],[-131.94,41.8],[-132.99,41.87],[-133.18,40.9],[-133.36,39.93],[-133.54,38.96],[-133.71,37.99],[-133.88,37.02],[-134.05,36.05],[-134.21,35.08],[-134.36,34.11],[-134.51,33.14],[-134.66,32.17],[-134.81,31.2],[-134.95,30.23],[-135.09,29.26],[-135.23,28.29],[-135.37,27.31],[-135.5,26.34],[-135.63,25.37],[-135.76,24.4],[-136.64,24.46],[-137.53,24.51],[-138.41,24.56],[-139.29,24.61],[-139.39,23.64],[-139.48,22.66],[-139.57,21.69],[-139.66,20.71],[-139.74,19.74],[-139.83,18.76],[-139.92,17.79],[-140,16.82],[-140.09,15.84],[-140.17,14.87],[-140.25,13.89],[-140.33,12.92],[-141.3,12.96],[-142.26,12.99],[-143.23,13.03],[-144.19,13.06],[-144.29,12.13],[-144.38,11.2],[-144.47,10.26],[-144.56,9.33],[-144.65,8.4],[-144.75,7.47],[-144.84,6.54],[-144.93,5.61],[-145.76,5.63],[-146.59,5.65],[-146.66,4.84],[-146.74,4.04],[-146.82,3.23],[-146.89,2.42],[-146.89,2.42],[-146.97,2.38],[-147.75,2.09],[-148.53,1.8],[-149.31,1.51],[-149.32,1.5],[-149.32,1.5],[-148.9,1.49],[-148.9,1.49],[-149.82,1.24],[-150.74,0.98],[-151.65,0.72],[-152.57,0.46],[-153.49,0.2],[-154.41,-0.05],[-155.32,-0.31],[-156.24,-0.57],[-157.16,-0.83],[-158.08,-1.09],[-159,-1.34],[-159.91,-1.6],[-160.83,-1.86],[-161.75,-2.11],[-162.67,-2.37],[-163.59,-2.63],[-163.89,-1.96],[-164.2,-1.29],[-164.5,-0.61],[-165.37,-0.89],[-166.24,-1.17],[-167.12,-1.45],[-167.99,-1.73],[-168.86,-2.01],[-169.74,-2.29],[-170.61,-2.57],[-171.48,-2.85],[-172.36,-3.12],[-173.23,-3.4],[-173.66,-2.57],[-174.09,-1.75],[-174.51,-0.92],[-175.43,-1.28],[-176.34,-1.63],[-177.25,-1.99],[-178.17,-2.34],[-179.08,-2.7],[-180,-3.05],[-180,-2.06]]]]}},{"type":"Feature","properties":{"ma":190,"type":"gpml:TopologicalClosedPlateBoundary","name":"Farallon Plate 190-187 GS","pid":902,"deforming":false},"geometry":{"type":"Polygon","coordinates":[[[-146.75,3.92],[-146.67,4.79],[-146.59,5.65],[-145.76,5.63],[-144.93,5.61],[-144.84,6.54],[-144.75,7.47],[-144.65,8.4],[-144.56,9.33],[-144.47,10.26],[-144.38,11.2],[-144.29,12.13],[-144.19,13.06],[-143.23,13.03],[-142.26,12.99],[-141.3,12.96],[-140.33,12.92],[-140.25,13.89],[-140.17,14.87],[-140.09,15.84],[-140,16.82],[-139.92,17.79],[-139.83,18.76],[-139.74,19.74],[-139.66,20.71],[-139.57,21.69],[-139.48,22.66],[-139.39,23.64],[-139.29,24.61],[-138.41,24.56],[-137.53,24.51],[-136.64,24.46],[-135.76,24.4],[-135.63,25.37],[-135.5,26.34],[-135.37,27.31],[-135.23,28.29],[-135.09,29.26],[-134.95,30.23],[-134.81,31.2],[-134.66,32.17],[-134.51,33.14],[-134.36,34.11],[-134.21,35.08],[-134.05,36.05],[-133.88,37.02],[-133.71,37.99],[-133.54,38.96],[-133.36,39.93],[-133.18,40.9],[-132.99,41.87],[-131.94,41.8],[-130.89,41.72],[-129.85,41.62],[-128.81,41.52],[-128.54,42.49],[-128.26,43.47],[-127.97,44.44],[-127.68,45.4],[-127.37,46.37],[-127.05,47.34],[-126.72,48.31],[-126.38,49.27],[-126.02,50.24],[-125.65,51.2],[-125.26,52.16],[-124.86,53.12],[-124.44,54.08],[-124,55.04],[-123.53,55.99],[-123.04,56.95],[-122.53,57.9],[-121.99,58.85],[-121.42,59.8],[-120.81,60.74],[-120.17,61.68],[-119.49,62.62],[-118.76,63.56],[-118.1,64.43],[-117.4,65.3],[-116.65,66.16],[-115.85,67.02],[-114.99,67.87],[-114.06,68.72],[-113.06,69.57],[-111.98,70.41],[-109.58,70.15],[-107.24,69.87],[-106.22,70.74],[-105.11,71.61],[-103.9,72.46],[-102.56,73.31],[-101.09,74.15],[-99.45,74.98],[-97.64,75.8],[-95.6,76.6],[-93.32,77.38],[-90.75,78.14],[-87.84,78.87],[-84.53,79.57],[-80.76,80.23],[-76.47,80.85],[-71.6,81.41],[-71.6,81.41],[-71.58,81.39],[-71.36,80.66],[-71.17,79.94],[-72.12,79.29],[-72.97,78.64],[-74.19,77.84],[-75.27,77.03],[-76.22,76.21],[-76.44,76.05],[-76.44,76.05],[-75.58,75.38],[-74.79,74.7],[-74.07,74.02],[-72.79,73.28],[-71.6,72.54],[-70.51,71.79],[-69.51,71.03],[-68.23,70.39],[-67.04,69.74],[-65.92,69.07],[-64.86,68.41],[-63.63,67.77],[-62.46,67.12],[-61.36,66.46],[-60.31,65.8],[-58.59,65.18],[-56.95,64.53],[-55.38,63.88],[-53.83,63.23],[-52.35,62.56],[-50.94,61.88],[-49.61,61.36],[-48.33,60.82],[-48.33,60.82],[-48.65,60.05],[-48.96,59.28],[-49.26,58.51],[-49.54,57.74],[-49.93,56.97],[-50.3,56.2],[-50.65,55.42],[-51,54.65],[-51,54.65],[-51.61,54.64],[-53.04,54.71],[-54.48,54.76],[-54.48,54.76],[-54.38,53.91],[-54.29,53.05],[-54.2,52.2],[-54.45,51.41],[-54.69,50.62],[-54.92,49.83],[-55.15,49],[-55.37,48.16],[-55.58,47.33],[-55.89,46.55],[-56.19,45.76],[-56.48,44.98],[-56.76,44.19],[-56.92,43.47],[-57.07,42.75],[-57.21,42.03],[-57.29,41.07],[-57.36,40.11],[-57.43,39.14],[-57.32,38.25],[-57.22,37.35],[-57.11,36.45],[-57.17,35.92],[-57.23,35.4],[-57.23,35.4],[-56.49,35.56],[-55.74,35.72],[-54.57,35.74],[-53.4,35.75],[-52.23,35.76],[-51.06,35.75],[-49.89,35.73],[-48.71,35.69],[-48.71,35.69],[-49.19,35.15],[-49.94,34.44],[-50.68,33.72],[-51.41,33],[-52.12,32.27],[-52.8,31.54],[-53.47,30.8],[-54.14,30.06],[-54.79,29.32],[-55.2,28.54],[-55.62,27.76],[-56.02,26.97],[-56.42,26.19],[-56.82,25.4],[-56.75,24.63],[-56.69,23.86],[-56.64,23.09],[-56.58,22.32],[-56.43,21.38],[-56.28,20.43],[-56.13,19.48],[-55.98,18.54],[-55.84,17.59],[-55.7,16.65],[-55.56,15.7],[-55.46,14.86],[-55.36,14.01],[-55.27,13.17],[-55.17,12.33],[-55.08,11.48],[-55.08,11.48],[-55.12,11.42],[-55.55,10.93],[-55.99,10.44],[-56.53,9.97],[-57.06,9.5],[-57.45,9.13],[-57.84,8.76],[-58.1,8.04],[-58.35,7.31],[-58.61,6.58],[-58.78,5.78],[-58.96,4.98],[-59.13,4.18],[-59.26,3.42],[-59.39,2.66],[-59.52,1.9],[-59.59,1.16],[-59.66,0.41],[-59.25,-0.21],[-58.84,-0.83],[-58.61,-1.51],[-58.38,-2.19],[-58.16,-2.87],[-57.87,-3.5],[-57.58,-4.13],[-57.21,-4.76],[-56.84,-5.39],[-56.47,-6.02],[-56.04,-6.81],[-56.04,-6.81],[-56.19,-7.01],[-56.38,-7.32],[-56.59,-7.67],[-56.67,-7.9],[-56.77,-8.09],[-56.92,-8.44],[-57.04,-8.7],[-57.13,-8.94],[-57.23,-9.21],[-57.57,-10],[-57.9,-10.8],[-58.24,-11.6],[-58.58,-12.39],[-58.92,-13.19],[-58.86,-14.06],[-58.8,-14.92],[-58.74,-15.79],[-58.66,-16.65],[-58.57,-17.51],[-58.48,-18.36],[-58.39,-19.22],[-58.3,-20.08],[-58.21,-20.94],[-58,-21.75],[-57.8,-22.56],[-57.59,-23.38],[-57.42,-24.07],[-57.24,-24.75],[-57.07,-25.44],[-56.51,-26.22],[-56.43,-26.75],[-56.35,-27.27],[-56.21,-28.02],[-56.22,-28.57],[-56.18,-28.93],[-56.17,-29.22],[-56.17,-29.22],[-56.14,-29.81],[-56.26,-30.3],[-56.49,-31.13],[-56.65,-31.59],[-56.71,-32.31],[-56.8,-32.87],[-56.83,-33.19],[-56.9,-33.59],[-56.96,-34.02],[-57.07,-34.88],[-57.2,-35.75],[-57.36,-36.52],[-57.52,-37.29],[-57.69,-38.05],[-57.87,-38.82],[-58.29,-39.57],[-58.73,-40.31],[-59.18,-41.05],[-59.64,-41.79],[-60.11,-42.52],[-60.11,-42.52],[-60.16,-42.53],[-61.52,-42.48],[-62.87,-42.42],[-64.21,-42.35],[-65.56,-42.26],[-66.9,-42.15],[-68.23,-42.03],[-69.56,-41.89],[-70.89,-41.74],[-72.21,-41.57],[-73.52,-41.39],[-74.82,-41.19],[-76.11,-40.98],[-77.4,-40.75],[-78.68,-40.51],[-79.94,-40.26],[-81.2,-39.99],[-82.45,-39.71],[-83.69,-39.41],[-84.91,-39.1],[-86.13,-38.78],[-87.33,-38.45],[-88.53,-38.1],[-88.36,-37.25],[-88.2,-36.4],[-88.05,-35.56],[-89.23,-35.36],[-90.41,-35.15],[-91.59,-34.92],[-92.75,-34.69],[-93.91,-34.44],[-95.07,-34.19],[-96.21,-33.92],[-97.35,-33.65],[-98.48,-33.36],[-99.61,-33.06],[-100.72,-32.75],[-101.83,-32.44],[-102.93,-32.11],[-104.02,-31.77],[-105.11,-31.43],[-104.84,-30.54],[-104.57,-29.64],[-104.31,-28.75],[-104.05,-27.86],[-103.8,-26.96],[-104.79,-26.67],[-105.77,-26.36],[-106.75,-26.05],[-107.72,-25.73],[-108.69,-25.41],[-109.65,-25.08],[-110.6,-24.74],[-111.55,-24.4],[-112.5,-24.05],[-113.44,-23.7],[-114.38,-23.34],[-115.31,-22.97],[-116.23,-22.6],[-115.89,-21.92],[-115.55,-21.24],[-115.22,-20.56],[-114.88,-19.88],[-115.78,-19.48],[-116.68,-19.08],[-117.57,-18.67],[-118.46,-18.26],[-119.34,-17.85],[-120.22,-17.43],[-121.1,-17.01],[-121.97,-16.59],[-122.84,-16.16],[-123.7,-15.72],[-124.56,-15.29],[-125.42,-14.85],[-126.27,-14.41],[-125.78,-13.6],[-125.3,-12.8],[-124.82,-11.99],[-125.64,-11.55],[-126.47,-11.11],[-127.3,-10.66],[-128.12,-10.21],[-128.94,-9.76],[-129.75,-9.3],[-130.57,-8.85],[-131.38,-8.39],[-132.19,-7.93],[-133,-7.48],[-133.81,-7.01],[-134.61,-6.55],[-134.1,-5.85],[-133.59,-5.14],[-133.07,-4.43],[-133.9,-3.98],[-134.72,-3.53],[-135.55,-3.07],[-136.37,-2.62],[-137.19,-2.16],[-138.02,-1.71],[-138.84,-1.25],[-139.66,-0.8],[-140.48,-0.34],[-141.3,0.12],[-142.13,0.57],[-142.95,1.03],[-143.77,1.49],[-144.59,1.94],[-145.34,2.31],[-146.08,2.69],[-146.83,3.06],[-146.75,3.92]]]}},{"type":"Feature","properties":{"ma":190,"type":"gpml:TopologicalClosedPlateBoundary","name":"Phoenix Plate","pid":919,"deforming":false},"geometry":{"type":"MultiPolygon","coordinates":[[[[180,-4.04],[180,-5.03],[180,-6.03],[180,-7.02],[180,-8.01],[180,-9],[180,-10],[180,-10.99],[180,-11.98],[180,-12.97],[180,-13.96],[180,-14.96],[180,-15.95],[180,-16.94],[180,-17.93],[180,-18.93],[180,-19.92],[180,-20.91],[180,-21.9],[180,-22.9],[180,-23.89],[180,-24.88],[180,-25.87],[180,-26.87],[180,-27.86],[180,-28.85],[180,-29.84],[180,-30.83],[180,-31.83],[180,-32.82],[180,-33.81],[180,-34.8],[180,-35.8],[180,-36.79],[180,-37.78],[180,-38.77],[180,-39.77],[180,-40.76],[180,-41.75],[180,-42.74],[180,-43.73],[180,-44.73],[180,-45.72],[180,-46.71],[180,-47.7],[180,-48.7],[180,-49.69],[180,-50.68],[180,-51.67],[180,-52.67],[180,-53.66],[180,-54.65],[180,-55.64],[180,-56.63],[180,-57.63],[180,-58.62],[180,-59.61],[180,-60.6],[180,-61.6],[180,-62.59],[180,-63.58],[180,-64.57],[180,-65.57],[180,-66.56],[180,-67.55],[180,-68.54],[180,-69.54],[180,-70.53],[180,-71.52],[180,-72.51],[180,-73.5],[180,-74.5],[180,-75.49],[180,-76.48],[176.88,-76.39],[173.81,-76.26],[170.81,-76.1],[167.43,-76],[164.11,-75.86],[160.86,-75.68],[157.71,-75.45],[154.65,-75.18],[154.65,-75.18],[153.94,-74.36],[153.29,-73.54],[152.71,-72.72],[151.17,-71.89],[151.56,-71.38],[152.87,-70.47],[154.06,-69.56],[155.09,-68.64],[156.04,-67.71],[156.37,-67.15],[156.69,-66.58],[156.56,-66],[156.43,-65.41],[155.67,-64.65],[154.95,-63.88],[154.27,-63.12],[153.63,-62.34],[152.8,-61.45],[152.02,-60.56],[151.28,-59.66],[150.58,-58.76],[149.91,-57.85],[149.75,-56.98],[149.6,-56.11],[149.45,-55.23],[149.31,-54.36],[149.18,-53.49],[148.96,-52.69],[148.74,-51.89],[148.53,-51.09],[148.33,-50.29],[148.13,-49.49],[147.99,-48.75],[147.86,-48.01],[147.73,-47.27],[147.73,-47.27],[146.61,-46.71],[145.51,-46.13],[144.43,-45.55],[143.37,-44.95],[142.2,-44.53],[141.03,-44.1],[140.38,-43.82],[139.73,-43.54],[139.27,-43.07],[138.81,-42.59],[138.34,-41.94],[137.87,-41.29],[137.17,-40.52],[136.49,-39.75],[135.82,-38.97],[135.16,-38.19],[135.18,-37.33],[135.19,-36.47],[135.2,-35.6],[135.21,-34.74],[135.22,-33.88],[135.24,-32.93],[135.27,-31.99],[135.29,-31.05],[135.32,-30.11],[135.34,-29.17],[135.36,-28.23],[135.38,-27.29],[135.41,-26.35],[135.44,-25.47],[135.47,-24.6],[135.51,-23.72],[135.54,-22.85],[135.57,-21.98],[135.6,-21.1],[135.63,-20.23],[135.61,-19.34],[135.59,-18.44],[135.56,-17.55],[135.54,-16.66],[135.52,-15.77],[135.49,-14.87],[135.47,-13.98],[135.45,-13.09],[135.52,-12.12],[135.52,-12.12],[136.36,-11.65],[137.19,-11.19],[138.02,-10.72],[138.84,-10.24],[139.67,-9.77],[140.49,-9.3],[141.31,-8.82],[142.12,-8.34],[142.94,-7.86],[143.75,-7.38],[144.56,-6.89],[144.99,-7.7],[145.42,-8.51],[145.85,-9.32],[146.28,-10.13],[146.71,-10.93],[147.67,-10.67],[148.62,-10.41],[149.57,-10.15],[150.52,-9.88],[151.46,-9.61],[152.41,-9.34],[153.35,-9.06],[154.29,-8.78],[155.23,-8.5],[156.17,-8.22],[157.11,-7.93],[158.05,-7.65],[158.98,-7.36],[159.92,-7.07],[160.85,-6.77],[161.3,-7.42],[161.74,-8.06],[162.65,-7.71],[163.56,-7.35],[164.47,-6.99],[165.37,-6.63],[166.27,-6.27],[167.17,-5.91],[168.08,-5.54],[168.97,-5.17],[169.87,-4.81],[170.77,-4.44],[171.67,-4.07],[172.56,-3.7],[173.46,-3.33],[174.35,-2.95],[175.25,-2.58],[175.56,-3.22],[175.88,-3.86],[176.2,-4.5],[176.96,-4.21],[177.72,-3.92],[178.48,-3.63],[179.24,-3.34],[180,-3.05],[180,-4.04]]],[[[-180,-75.49],[-180,-74.5],[-180,-73.5],[-180,-72.51],[-180,-71.52],[-180,-70.53],[-180,-69.54],[-180,-68.54],[-180,-67.55],[-180,-66.56],[-180,-65.57],[-180,-64.57],[-180,-63.58],[-180,-62.59],[-180,-61.6],[-180,-60.6],[-180,-59.61],[-180,-58.62],[-180,-57.63],[-180,-56.63],[-180,-55.64],[-180,-54.65],[-180,-53.66],[-180,-52.67],[-180,-51.67],[-180,-50.68],[-180,-49.69],[-180,-48.7],[-180,-47.7],[-180,-46.71],[-180,-45.72],[-180,-44.73],[-180,-43.73],[-180,-42.74],[-180,-41.75],[-180,-40.76],[-180,-39.77],[-180,-38.77],[-180,-37.78],[-180,-36.79],[-180,-35.8],[-180,-34.8],[-180,-33.81],[-180,-32.82],[-180,-31.83],[-180,-30.83],[-180,-29.84],[-180,-28.85],[-180,-27.86],[-180,-26.87],[-180,-25.87],[-180,-24.88],[-180,-23.89],[-180,-22.9],[-180,-21.9],[-180,-20.91],[-180,-19.92],[-180,-18.93],[-180,-17.93],[-180,-16.94],[-180,-15.95],[-180,-14.96],[-180,-13.96],[-180,-12.97],[-180,-11.98],[-180,-10.99],[-180,-10],[-180,-9],[-180,-8.01],[-180,-7.02],[-180,-6.03],[-180,-5.03],[-180,-4.04],[-180,-3.05],[-179.08,-2.7],[-178.17,-2.34],[-177.25,-1.99],[-176.34,-1.63],[-175.43,-1.28],[-174.51,-0.92],[-174.09,-1.75],[-173.66,-2.57],[-173.23,-3.4],[-172.36,-3.12],[-171.48,-2.85],[-170.61,-2.57],[-169.74,-2.29],[-168.86,-2.01],[-167.99,-1.73],[-167.12,-1.45],[-166.24,-1.17],[-165.37,-0.89],[-164.5,-0.61],[-164.2,-1.29],[-163.89,-1.96],[-163.59,-2.63],[-162.67,-2.37],[-161.75,-2.11],[-160.83,-1.86],[-159.91,-1.6],[-159,-1.34],[-158.08,-1.09],[-157.16,-0.83],[-156.24,-0.57],[-155.32,-0.31],[-154.41,-0.05],[-153.49,0.2],[-152.57,0.46],[-151.65,0.72],[-150.74,0.98],[-149.82,1.24],[-148.9,1.49],[-148.11,1.48],[-147.32,1.47],[-146.53,1.46],[-146.36,1.45],[-146.36,1.45],[-146.38,1.46],[-146.61,1.94],[-146.84,2.42],[-146.85,2.44],[-146.85,2.44],[-146.89,2.42],[-146.89,2.42],[-146.83,3.06],[-146.83,3.06],[-146.08,2.69],[-145.34,2.31],[-144.59,1.94],[-143.77,1.49],[-142.95,1.03],[-142.13,0.57],[-141.3,0.12],[-140.48,-0.34],[-139.66,-0.8],[-138.84,-1.25],[-138.02,-1.71],[-137.19,-2.16],[-136.37,-2.62],[-135.55,-3.07],[-134.72,-3.53],[-133.9,-3.98],[-133.07,-4.43],[-133.59,-5.14],[-134.1,-5.85],[-134.61,-6.55],[-133.81,-7.01],[-133,-7.48],[-132.19,-7.93],[-131.38,-8.39],[-130.57,-8.85],[-129.75,-9.3],[-128.94,-9.76],[-128.12,-10.21],[-127.3,-10.66],[-126.47,-11.11],[-125.64,-11.55],[-124.82,-11.99],[-125.3,-12.8],[-125.78,-13.6],[-126.27,-14.41],[-125.42,-14.85],[-124.56,-15.29],[-123.7,-15.72],[-122.84,-16.16],[-121.97,-16.59],[-121.1,-17.01],[-120.22,-17.43],[-119.34,-17.85],[-118.46,-18.26],[-117.57,-18.67],[-116.68,-19.08],[-115.78,-19.48],[-114.88,-19.88],[-115.22,-20.56],[-115.55,-21.24],[-115.89,-21.92],[-116.23,-22.6],[-115.31,-22.97],[-114.38,-23.34],[-113.44,-23.7],[-112.5,-24.05],[-111.55,-24.4],[-110.6,-24.74],[-109.65,-25.08],[-108.69,-25.41],[-107.72,-25.73],[-106.75,-26.05],[-105.77,-26.36],[-104.79,-26.67],[-103.8,-26.96],[-104.05,-27.86],[-104.31,-28.75],[-104.57,-29.64],[-104.84,-30.54],[-105.11,-31.43],[-104.02,-31.77],[-102.93,-32.11],[-101.83,-32.44],[-100.72,-32.75],[-99.61,-33.06],[-98.48,-33.36],[-97.35,-33.65],[-96.21,-33.92],[-95.07,-34.19],[-93.91,-34.44],[-92.75,-34.69],[-91.59,-34.92],[-90.41,-35.15],[-89.23,-35.36],[-88.05,-35.56],[-88.2,-36.4],[-88.36,-37.25],[-88.53,-38.1],[-87.33,-38.45],[-86.13,-38.78],[-84.91,-39.1],[-83.69,-39.41],[-82.45,-39.71],[-81.2,-39.99],[-79.94,-40.26],[-78.68,-40.51],[-77.4,-40.75],[-76.11,-40.98],[-74.82,-41.19],[-73.52,-41.39],[-72.21,-41.57],[-70.89,-41.74],[-69.56,-41.89],[-68.23,-42.03],[-66.9,-42.15],[-65.56,-42.26],[-64.21,-42.35],[-62.87,-42.42],[-61.52,-42.48],[-60.16,-42.53],[-60.11,-42.52],[-60.11,-42.52],[-60.16,-42.6],[-60.25,-43.44],[-60.35,-44.28],[-60.44,-45.02],[-60.53,-45.75],[-60.99,-46.56],[-61.47,-47.37],[-61.58,-47.63],[-61.6,-47.76],[-61.6,-47.76],[-61.68,-48.09],[-61.68,-48.09],[-62.02,-48.65],[-62.28,-48.93],[-62.42,-49.29],[-62.53,-49.57],[-62.72,-50.03],[-62.86,-50.31],[-63.12,-50.82],[-63.31,-51.19],[-63.49,-51.58],[-63.68,-52],[-63.98,-52.64],[-64.1,-52.9],[-64.26,-53.25],[-64.42,-53.57],[-64.55,-53.87],[-64.7,-54.23],[-64.8,-54.53],[-64.89,-54.78],[-64.92,-54.86],[-64.96,-55.09],[-65.01,-55.37],[-65.04,-55.81],[-65.27,-56.13],[-65.57,-56.46],[-65.98,-56.84],[-66.43,-57.28],[-66.71,-57.56],[-66.94,-57.81],[-67.15,-58.01],[-67.44,-58.35],[-67.66,-58.79],[-67.7,-59.15],[-67.71,-59.47],[-67.74,-59.73],[-67.7,-60.03],[-67.67,-60.37],[-67.58,-60.75],[-67.44,-61.15],[-67.44,-61.47],[-67.49,-61.63],[-67.54,-61.96],[-67.61,-62.34],[-67.66,-62.7],[-67.65,-63.08],[-67.63,-63.14],[-67.39,-63.54],[-67.27,-63.62],[-67.27,-63.62],[-68.41,-64.4],[-69.62,-65.17],[-71.34,-65.78],[-73.15,-66.37],[-75.04,-66.94],[-77.03,-67.48],[-79.1,-68],[-80.92,-68.47],[-82.82,-68.92],[-84.79,-69.34],[-86.84,-69.74],[-88.53,-70.24],[-90.3,-70.72],[-92.15,-71.19],[-94.09,-71.63],[-96.22,-72.1],[-98.45,-72.55],[-100.79,-72.97],[-103.25,-73.36],[-105.8,-73.72],[-108.46,-74.05],[-111.22,-74.35],[-114.08,-74.61],[-117.36,-74.85],[-120.74,-75.04],[-124.19,-75.18],[-127.69,-75.28],[-131.23,-75.31],[-135.07,-75.45],[-138.96,-75.52],[-142.88,-75.53],[-146.78,-75.48],[-150.64,-75.36],[-153.97,-75.68],[-157.44,-75.96],[-161.03,-76.19],[-164.73,-76.36],[-168.51,-76.48],[-172.33,-76.54],[-176.17,-76.54],[-180,-76.48],[-180,-75.49]]]]}},{"type":"Feature","properties":{"ma":190,"type":"gpml:TopologicalNetwork","name":"Southern_Central_Atlantic_Mesh","pid":101,"deforming":true},"geometry":{"type":"Polygon","coordinates":[[[-26.87,-1.41],[-26.51,-1.01],[-26.16,-0.61],[-25.82,-0.17],[-25.48,0.27],[-24.97,0.69],[-24.47,1.12],[-23.76,1.48],[-23.22,1.83],[-22.95,2.14],[-22.64,2.46],[-22.48,2.67],[-22.33,2.89],[-22.15,3.05],[-22.01,3.27],[-21.79,3.58],[-21.54,3.89],[-21.34,4.15],[-21.14,4.51],[-20.79,4.84],[-20.48,5.18],[-20.23,5.51],[-19.91,6.1],[-19.47,6.62],[-18.96,7],[-18.48,7.05],[-18.47,7.06],[-18.47,7.06],[-17.9,7.31],[-17.9,7.31],[-17.89,7.28],[-17.57,6.86],[-17.25,6.44],[-17.25,6.44],[-17.6,6.51],[-17.74,6.43],[-18.22,6.23],[-18.7,6.03],[-19.06,5.61],[-19.43,5.18],[-19.7,4.75],[-19.97,4.32],[-20.22,3.71],[-20.58,3.19],[-20.98,2.65],[-21.2,2.46],[-21.46,2.22],[-21.6,1.8],[-21.69,1.36],[-21.79,0.58],[-22.03,0.16],[-22.25,-0.19],[-22.57,-0.4],[-22.77,-0.67],[-22.92,-0.92],[-23.14,-1.26],[-23.58,-1.22],[-24,-1.2],[-24.62,-1.46],[-25.01,-1.75],[-25.29,-2.11],[-25.51,-2.89],[-25.57,-3.12],[-25.57,-3.12],[-25.82,-2.98],[-25.82,-2.98],[-25.94,-3.61],[-26.05,-4.24],[-26.4,-4.69],[-26.75,-5.14],[-26.75,-5.14],[-26.76,-5.13],[-27.04,-4.89],[-27.38,-4.67],[-27.6,-4.58],[-27.93,-4.32],[-28.18,-4.15],[-28.32,-3.94],[-28.34,-3.69],[-28.39,-3.4],[-28.33,-3.16],[-28.32,-2.91],[-28.44,-2.62],[-28.45,-2.46],[-28.41,-2.36],[-28.45,-2.16],[-28.54,-2.06],[-28.66,-1.94],[-28.73,-1.79],[-28.92,-1.51],[-29.16,-1.19],[-29.29,-0.96],[-29.24,-0.71],[-29.13,-0.36],[-29.13,-0.18],[-29.33,-0.05],[-29.43,0.22],[-29.54,0.36],[-29.66,0.39],[-29.8,0.74],[-29.91,1.09],[-30.06,1.42],[-30.11,1.79],[-30.25,2.17],[-30.37,2.53],[-30.43,2.74],[-30.45,2.99],[-30.5,3.22],[-30.5,3.22],[-30.46,3.26],[-30.07,3.56],[-29.69,3.84],[-29.57,4.03],[-29.23,4.11],[-28.91,4.19],[-28.39,4.31],[-27.76,4.42],[-27.12,4.54],[-26.56,4.94],[-26.08,5.37],[-25.85,6.12],[-25.65,6.73],[-25.02,7.02],[-24.23,7.53],[-23.88,7.82],[-23.37,8.26],[-22.88,8.72],[-22.59,9.15],[-22.4,9.58],[-21.98,9.72],[-21.85,9.82],[-21.6,9.79],[-21.31,9.7],[-21.02,9.68],[-20.56,9.8],[-20.31,9.83],[-20.13,9.82],[-19.81,10.07],[-19.62,10.21],[-19.62,10.21],[-19.07,9.38],[-18.71,8.75],[-18.36,8.13],[-18.36,8.13],[-18.56,8.01],[-18.84,8.04],[-19.26,8.03],[-19.55,8.02],[-19.89,7.84],[-20.19,7.61],[-20.47,7.31],[-20.76,7.01],[-20.93,6.79],[-21.15,6.41],[-21.36,6.12],[-21.45,5.8],[-21.48,5.39],[-21.54,5.04],[-21.64,4.67],[-21.73,4.39],[-21.96,4.08],[-22.28,3.83],[-22.6,3.59],[-23.22,3.11],[-23.88,2.42],[-24.35,2.09],[-25.04,1.98],[-25.66,1.89],[-26,1.58],[-26.62,0.93],[-27.11,0.38],[-27.34,0.02],[-27.26,-0.76],[-27.23,-1.18],[-27.26,-1.49],[-27.26,-1.49],[-26.87,-1.41]]]}},{"type":"Feature","properties":{"ma":190,"type":"gpml:TopologicalNetwork","name":"North_Atlantic_Phase1_Deformation_Mesh","pid":301,"deforming":true},"geometry":{"type":"Polygon","coordinates":[[[8.26,30.16],[8.3,30.04],[8.37,29.58],[8.55,29.11],[8.7,28.67],[8.88,28.09],[9.01,27.64],[9.03,27.4],[9.16,27.1],[9.24,26.85],[9.28,26.63],[9.3,26.43],[9.53,26.17],[9.74,26.04],[10.22,25.89],[10.59,25.95],[10.99,25.83],[11.22,25.57],[11.81,25.15],[12.05,24.65],[12.18,24.24],[12.24,23.69],[12.28,23.31],[12.45,23.01],[12.62,22.62],[12.81,22.41],[12.95,22.3],[13.14,22.13],[13.59,21.94],[14.13,21.7],[14.67,21.5],[15.23,21.24],[15.72,21.06],[16.02,20.89],[16.13,20.86],[16.42,20.75],[16.42,20.75],[16.28,20.42],[16.01,19.99],[15.77,19.62],[15.55,19.31],[15.34,18.99],[15.1,18.55],[14.75,18.41],[14.45,18.34],[14.16,18.34],[13.64,18.33],[13.11,18.42],[12.53,18.54],[12.22,18.72],[11.84,18.82],[11.39,18.91],[10.93,18.93],[10.5,18.88],[10.12,18.72],[9.78,18.62],[9.53,18.42],[9.38,18.2],[9.23,17.97],[9,17.75],[8.75,17.46],[8.3,17.07],[7.78,16.67],[7.44,16.47],[7.13,16.16],[6.54,15.87],[6.13,15.62],[5.96,15.32],[5.96,15.32],[5.71,15.15],[5.16,14.77],[4.6,14.65],[3.94,14.54],[3.43,14.46],[3.16,14.38],[3.16,14.38],[3.12,14.32],[3,14.17],[2.92,13.96],[2.82,13.79],[2.72,13.66],[2.66,13.53],[2.58,13.32],[2.5,13.07],[2.38,12.8],[2.21,12.52],[2.07,12.2],[1.94,11.87],[1.8,11.67],[1.56,11.29],[1.37,11.07],[0.98,10.77],[0.62,10.35],[0.5,10.11],[0.43,9.78],[0.35,9.38],[0.14,9.04],[-0.08,8.83],[-0.31,8.61],[-0.32,8.6],[-0.32,8.6],[-0.34,8.61],[-0.59,8.8],[-0.94,9.15],[-1.29,9.5],[-1.71,9.91],[-1.91,10.11],[-2.01,10.21],[-2.01,10.21],[-1.91,10.3],[-1.79,10.42],[-1.58,10.63],[-1.55,10.76],[-1.52,10.91],[-1.53,11.08],[-1.53,11.22],[-1.45,11.39],[-1.4,11.5],[-1.15,11.72],[-0.99,11.86],[-0.87,11.97],[-0.74,12.1],[-0.61,12.24],[-0.49,12.45],[-0.44,12.53],[-0.37,12.58],[-0.24,12.68],[-0.18,12.75],[-0.11,12.83],[0,12.94],[0.04,12.99],[0.11,13.05],[0.15,13.08],[0.21,13.09],[0.3,13.1],[0.36,13.12],[0.36,13.12],[0.35,13.12],[0.33,13.22],[0.31,13.28],[0.3,13.4],[0.3,13.4],[0.21,13.3],[0.14,13.21],[0.09,13.14],[0.03,13.06],[-0.04,13],[-0.11,12.92],[-0.24,12.81],[-0.36,12.71],[-0.49,12.59],[-0.57,12.49],[-0.63,12.36],[-0.71,12.22],[-0.79,12.14],[-0.93,12.05],[-1.05,11.98],[-1.14,11.9],[-1.22,11.81],[-1.34,11.71],[-1.43,11.68],[-1.52,11.64],[-1.76,11.56],[-2,11.6],[-2,11.6],[-1.77,11.73],[-1.63,11.81],[-1.49,11.87],[-1.4,11.95],[-1.27,12.04],[-1.15,12.18],[-1.03,12.29],[-0.94,12.43],[-0.82,12.59],[-0.7,12.77],[-0.59,12.93],[-0.52,13.09],[-0.38,13.3],[-0.31,13.54],[-0.38,13.72],[-0.45,13.86],[-0.53,14.01],[-0.62,14.15],[-0.71,14.25],[-0.82,14.37],[-0.9,14.43],[-1,14.52],[-1.16,14.64],[-1.16,14.64],[-1.2,14.77],[-1.23,14.97],[-1.27,15.1],[-1.3,15.31],[-1.26,15.6],[-1.22,15.86],[-1.19,16.23],[-1.2,16.6],[-1.26,16.9],[-1.29,17.03],[-1.29,17.03],[-1.2,17.55],[-0.99,18.26],[-0.6,18.98],[-0.26,19.36],[0.01,19.9],[0.57,20.55],[1.01,20.96],[1.36,21.46],[1.72,21.95],[1.92,22.63],[2.13,23.32],[1.99,23.99],[1.64,24.49],[1.3,24.99],[1.45,25.8],[1.81,25.93],[2.55,26.22],[3.24,26.62],[3.71,27.01],[4.29,27.32],[4.72,27.71],[5.38,28.21],[5.73,28.78],[5.85,29.13],[6.09,29.85],[6.46,30.43],[6.9,31.05],[7.17,31.37],[7.46,31.87],[7.43,32.06],[7.12,32.39],[7.11,32.45],[7.15,33.12],[7.19,33.36],[7.24,33.51],[7.04,33.72],[6.83,33.79],[6.51,33.98],[6.41,34.14],[6.39,34.38],[6.42,34.55],[6.46,34.71],[6.47,34.9],[6.44,35.12],[6.39,35.29],[6.46,35.46],[6.59,35.62],[6.77,35.84],[6.99,36.26],[7.43,36.61],[7.57,36.77],[7.74,37.05],[7.81,37.31],[7.84,37.65],[7.82,37.84],[7.81,38.03],[7.89,38.23],[8.01,38.36],[8.19,38.8],[8.43,39.32],[8.67,39.52],[8.79,39.64],[8.79,39.64],[8.79,39.62],[8.77,39.5],[8.77,39.5],[8.83,39.44],[8.67,39.11],[8.67,38.85],[8.64,38.59],[8.53,38.07],[8.54,37.78],[8.58,37.4],[8.63,37.2],[8.73,36.82],[8.65,36.49],[8.45,36.31],[8.3,36.11],[8.11,35.91],[8.06,35.68],[7.91,35.45],[7.86,35.28],[7.72,35.1],[7.71,34.94],[7.81,34.8],[7.96,34.63],[8.19,34.44],[8.36,34.17],[8.48,33.97],[8.62,33.74],[8.66,33.48],[8.58,33.28],[8.41,33.01],[8.48,32.86],[8.54,32.74],[8.63,32.48],[8.73,32.37],[8.89,32.22],[8.87,32.16],[8.84,32],[8.79,31.94],[8.71,31.84],[8.69,31.8],[8.58,31.56],[8.45,31.41],[8.31,31.11],[8.29,30.88],[8.28,30.66],[8.26,30.5],[8.28,30.34],[8.28,30.23],[8.26,30.16]]]}},{"type":"Feature","properties":{"ma":190,"type":"gpml:TopologicalNetwork","name":"Proto_Caribbean_Mesh","pid":101,"deforming":true},"geometry":{"type":"Polygon","coordinates":[[[-31.17,2.61],[-30.87,2.89],[-30.5,3.22],[-30.5,3.22],[-30.45,2.99],[-30.43,2.74],[-30.37,2.53],[-30.25,2.17],[-30.11,1.79],[-30.06,1.42],[-29.91,1.09],[-29.8,0.74],[-29.66,0.39],[-29.54,0.36],[-29.43,0.22],[-29.33,-0.05],[-29.13,-0.18],[-29.13,-0.36],[-29.24,-0.71],[-29.29,-0.96],[-29.16,-1.19],[-28.92,-1.51],[-28.73,-1.79],[-28.66,-1.94],[-28.54,-2.06],[-28.45,-2.16],[-28.41,-2.36],[-28.45,-2.46],[-28.44,-2.62],[-28.32,-2.91],[-28.33,-3.16],[-28.39,-3.4],[-28.34,-3.69],[-28.32,-3.94],[-28.18,-4.15],[-27.93,-4.32],[-27.6,-4.58],[-27.38,-4.67],[-27.04,-4.89],[-26.76,-5.13],[-26.75,-5.14],[-26.75,-5.14],[-27.06,-5.54],[-27.86,-5.72],[-28.66,-5.9],[-29.46,-6.08],[-30.06,-6.27],[-30.67,-6.47],[-31.24,-6.44],[-31.82,-6.42],[-32.33,-6.36],[-32.84,-6.31],[-33.73,-6],[-34.5,-5.9],[-35.28,-5.81],[-35.95,-5.69],[-36.61,-5.57],[-37.28,-5.45],[-38.03,-5.59],[-38.77,-5.72],[-39.39,-6.2],[-40.01,-6.67],[-40.61,-6.76],[-41.22,-6.85],[-41.73,-6.96],[-42.25,-7.08],[-42.81,-7.16],[-43.37,-7.24],[-44,-7.46],[-44.62,-7.68],[-45.27,-8.03],[-45.92,-8.38],[-46.65,-8.75],[-47.39,-9.11],[-48.2,-9.28],[-49.02,-9.45],[-49.88,-9.21],[-50.74,-8.98],[-51.41,-8.63],[-52.07,-8.27],[-52.58,-8.06],[-53.1,-7.85],[-53.68,-7.74],[-54.27,-7.63],[-54.82,-7.72],[-55.37,-7.82],[-55.52,-7.81],[-55.52,-7.81],[-55.65,-7.52],[-56.06,-6.77],[-56.47,-6.02],[-56.84,-5.39],[-57.21,-4.76],[-57.58,-4.13],[-57.87,-3.5],[-58.16,-2.87],[-58.38,-2.19],[-58.61,-1.51],[-58.84,-0.83],[-59.25,-0.21],[-59.66,0.41],[-59.65,0.56],[-59.65,0.56],[-58.76,0.68],[-57.82,0.89],[-56.88,1.09],[-56.12,1.29],[-55.36,1.49],[-54.41,1.71],[-53.47,1.92],[-52.68,2.09],[-51.9,2.25],[-51.22,2.76],[-50.55,3.27],[-49.94,3.65],[-49.3,4.38],[-48.91,4.76],[-48.53,5.13],[-48.26,5.82],[-47.54,6.48],[-46.81,7.14],[-46.08,7.79],[-45.39,8.19],[-44.7,8.59],[-44.01,8.99],[-43.48,8.95],[-42.95,8.91],[-41.95,8.91],[-41.44,8.75],[-40.92,8.58],[-40.2,8.39],[-39.49,8.19],[-38.68,7.62],[-38.22,7.34],[-37.75,7.07],[-37.27,6.82],[-36.79,6.58],[-36.29,6.29],[-35.8,5.99],[-35.14,5.61],[-34.51,5.07],[-33.79,4.6],[-33.07,4.14],[-32.58,3.66],[-32.08,3.17],[-31.38,2.5],[-31.37,2.49],[-31.17,2.61]]]}},{"type":"Feature","properties":{"ma":190,"type":"gpml:TopologicalNetwork","name":"Northern_Central_Atlantic_Mesh","pid":101,"deforming":true},"geometry":{"type":"Polygon","coordinates":[[[-1.98,10.18],[-1.91,10.11],[-1.71,9.91],[-1.29,9.5],[-0.94,9.15],[-0.59,8.8],[-0.34,8.61],[0.09,8.29],[0.2,8.21],[0.2,8.21],[0.68,8.44],[1.15,8.68],[1.15,8.68],[0.61,8.41],[0.07,8.14],[-0.35,8.01],[-0.99,7.82],[-1.6,7.63],[-2.31,7.41],[-2.94,7.22],[-3.45,7.06],[-3.93,6.91],[-4.5,6.73],[-5.13,6.53],[-5.66,6.74],[-6.25,6.87],[-6.57,7.06],[-6.89,7.24],[-7.38,7.45],[-7.81,7.74],[-8.41,7.93],[-8.87,7.89],[-9.54,7.66],[-10.36,7.58],[-11.1,7.46],[-11.65,7.2],[-11.8,7.16],[-11.8,7.16],[-12.05,8.03],[-12.3,8.9],[-12.3,8.9],[-12.07,8.99],[-11.85,8.91],[-11.45,8.96],[-11.05,9.01],[-10.66,8.97],[-10.26,8.84],[-10.15,8.87],[-10.15,8.87],[-10.51,9.04],[-11.1,9.32],[-11.59,9.38],[-11.59,9.38],[-11.8,9.41],[-12.35,9.38],[-12.46,9.3],[-12.64,9.25],[-12.76,9.16],[-12.94,9.04],[-13.15,8.81],[-13.42,8.58],[-13.69,8.36],[-13.93,8.21],[-14.27,7.98],[-14.31,7.95],[-14.31,7.95],[-14.17,7.97],[-13.78,8.04],[-13.07,8.39],[-12.68,8.74],[-12.3,8.9],[-12.3,8.9],[-12.05,8.03],[-11.8,7.16],[-11.8,7.16],[-12.56,6.95],[-13.01,6.64],[-13.81,6.28],[-14.55,6],[-15.1,6.11],[-15.26,6.21],[-15.77,6.25],[-16.72,6.33],[-17.25,6.44],[-17.25,6.44],[-17.57,6.86],[-17.89,7.28],[-17.9,7.31],[-17.9,7.31],[-17.9,7.31],[-17.52,7.45],[-16.69,7.72],[-16.26,7.79],[-15.93,7.84],[-15.64,7.91],[-15.47,7.94],[-15.47,7.94],[-15.77,8.08],[-16.45,7.94],[-16.94,7.95],[-17.41,7.94],[-17.9,8.18],[-18.16,8.21],[-18.38,8.16],[-18.38,8.16],[-18.72,8.77],[-19.07,9.38],[-19.62,10.21],[-19.62,10.21],[-19.47,10.32],[-19,10.43],[-18.63,10.73],[-18.41,11.29],[-18.16,11.37],[-17.78,11.22],[-17.25,11.46],[-16.78,11.46],[-16.01,11.49],[-15.21,11.6],[-14.69,11.73],[-13.9,11.83],[-13.38,12.11],[-12.68,12.48],[-12.08,12.72],[-11.52,12.83],[-10.88,12.94],[-10.54,12.95],[-10.06,12.83],[-9.4,12.74],[-8.82,12.78],[-8.33,12.79],[-7.83,12.78],[-7.31,12.75],[-6.67,12.69],[-5.94,12.5],[-5.27,12.3],[-4.5,12.17],[-4.16,12.05],[-4,11.83],[-3.78,11.73],[-3.65,11.59],[-3.54,11.49],[-3.37,11.3],[-3.11,11.1],[-3.18,11],[-3.33,10.89],[-3.65,10.91],[-3.63,10.72],[-3.51,10.49],[-3.19,10.66],[-3.14,10.66],[-3.01,10.63],[-3.04,10.41],[-3.07,10],[-2.76,9.89],[-2.38,9.88],[-2.08,9.93],[-1.98,10.18]]]}},{"type":"Feature","properties":{"ma":190,"type":"gpml:TopologicalNetwork","name":"WEC","pid":601,"deforming":true},"geometry":{"type":"Polygon","coordinates":[[[106.03,51.42],[105.58,52.05],[105.07,52.47],[104.55,52.9],[103.57,53.58],[102.9,54.08],[102.21,54.58],[101.53,55.33],[101.32,56.2],[101.36,56.92],[101.46,57.77],[101.62,58.67],[101.74,59.34],[101.88,59.87],[102.01,60.31],[102.36,60.66],[102.69,60.99],[103.1,61.39],[103.5,61.91],[103.85,62.35],[104.28,62.88],[104.72,63.39],[105.19,63.91],[105.81,64.55],[106.46,65.18],[107.14,65.82],[108.13,66.65],[108.8,67.41],[109.53,68.17],[110.19,68.98],[110.7,69.56],[111.21,70.12],[111.74,70.68],[112.22,71.02],[112.22,71.02],[113.8,71.19],[115.97,71.41],[118.18,71.59],[121.22,71.81],[124.32,71.97],[126.14,72.04],[127.98,72.09],[130.58,72.14],[133.19,72.15],[135.13,72.14],[137.07,72.11],[139.16,72.05],[141.23,71.97],[143.63,71.85],[146,71.7],[148.19,71.54],[150.34,71.34],[152.46,71.13],[154.92,70.84],[157.3,70.52],[159.12,70.25],[160.89,69.96],[162.61,69.65],[162.61,69.65],[162.42,69.52],[161.35,68.91],[160.34,68.3],[159.38,67.68],[158.46,66.92],[157.59,66.16],[156.35,65.36],[155.18,64.55],[154.32,63.97],[153.5,63.39],[152.54,62.63],[151.62,61.86],[150.76,61.09],[149.75,60.32],[148.8,59.55],[148.07,58.83],[147.37,58.11],[146.73,57.47],[146.11,56.82],[145.54,56.24],[144.99,55.66],[144.36,55.01],[143.75,54.35],[143.02,53.66],[142.31,52.97],[141.82,52.34],[141.34,51.71],[140.75,50.96],[140.18,50.21],[140.18,50.21],[138.83,50.66],[137.45,51.09],[136.06,51.5],[134.63,51.89],[133.18,52.27],[131.71,52.63],[130.21,52.97],[128.7,53.29],[127.59,52.99],[126.49,52.68],[125.38,52.57],[124.26,52.46],[123.16,52.34],[122.96,51.85],[122.76,51.36],[121.69,51.46],[120.61,51.54],[119.53,51.62],[118.3,51.86],[117.06,52.09],[115.8,52.31],[114.38,52.39],[112.95,52.44],[111.35,52.26],[109.77,52.05],[108.3,51.78],[106.85,51.49],[106.03,51.42]]]}}]}