{"type":"FeatureCollection","features":[{"type":"Feature","properties":{"ma":175,"type":"gpml:TopologicalNetwork","name":"Amer_anyui_mesh","pid":101,"deforming":true},"geometry":{"type":"Polygon","coordinates":[[[-3.65,50.57],[-4.96,50.64],[-6.27,50.69],[-7.58,50.73],[-9.03,50.62],[-10.46,50.48],[-11.73,50.57],[-13,50.64],[-14.08,50.82],[-15.16,50.98],[-16.25,51.14],[-17.44,51.37],[-18.63,51.6],[-19.84,51.81],[-21.03,51.76],[-22.21,51.7],[-23.66,51.42],[-25.1,51.13],[-25.99,50.92],[-26.88,50.7],[-27.68,50.54],[-28.46,50.37],[-29.22,50.19],[-29.97,50.01],[-30.87,49.9],[-31.33,49.88],[-31.39,49.9],[-31.39,49.9],[-31.3,49.96],[-31.13,50.07],[-30.69,50.57],[-29.7,51.16],[-29.46,51.38],[-28.68,52.04],[-28.37,52.23],[-27.75,52.48],[-26.99,52.92],[-26.22,53.36],[-25.16,54.09],[-24.45,54.32],[-23.86,54.47],[-22.75,54.64],[-22.15,54.67],[-21.47,54.82],[-20.74,54.96],[-19.91,55],[-18.96,55.03],[-18.17,55.05],[-17.13,55.07],[-16.25,55.08],[-15.19,55.08],[-14.19,55.07],[-12.83,55.04],[-11.47,55],[-9.9,54.79],[-8.34,54.57],[-6.81,54.33],[-5.45,54.02],[-4.1,53.7],[-4.1,53.7],[-3.9,52.81],[-3.7,51.92],[-3.51,51.04],[-3.65,50.57]]]}},{"type":"Feature","properties":{"ma":175,"type":"gpml:TopologicalNetwork","name":"East_West_Gondwana_Mesh","pid":802,"deforming":true},"geometry":{"type":"Polygon","coordinates":[[[46.93,-27.47],[47.33,-28.23],[47.73,-28.98],[48.14,-29.74],[48.56,-30.49],[48.56,-30.49],[48.03,-31.02],[47.75,-31.13],[47.18,-31.34],[46.12,-31.73],[45.39,-32.16],[44.65,-32.59],[43.77,-32.96],[42.88,-33.32],[42.23,-33.92],[41.57,-34.51],[40.77,-35.19],[39.96,-35.87],[39.14,-36.54],[38.55,-37.1],[37.96,-37.66],[37.35,-38.22],[36.75,-38.72],[36.13,-39.23],[35.51,-39.73],[35.1,-40.51],[34.67,-41.29],[33.9,-41.89],[33.11,-42.48],[32.44,-42.95],[31.77,-43.41],[30.98,-43.63],[30.19,-43.84],[29.22,-44.17],[28.24,-44.5],[27.29,-44.69],[26.33,-44.88],[25.37,-45.06],[24.33,-45.25],[23.28,-45.42],[22.23,-45.59],[20.87,-45.87],[19.49,-46.14],[18.8,-46.81],[18.08,-47.48],[17.38,-48.22],[16.65,-48.96],[16.17,-49.8],[15.67,-50.63],[15.27,-51.33],[14.86,-52.02],[14.79,-52.91],[14.72,-53.79],[14.32,-54.64],[13.9,-55.48],[13.18,-56.15],[12.43,-56.81],[11.66,-57.47],[10.16,-57.87],[8.64,-58.24],[7.34,-58.65],[6.01,-59.05],[4.83,-59.09],[3.64,-59.12],[2.14,-58.96],[0.65,-58.78],[-0.61,-58.79],[-1.86,-58.8],[-3.07,-58.99],[-4.29,-59.16],[-5.51,-59.25],[-6.73,-59.34],[-8.06,-59.6],[-9.41,-59.85],[-11.3,-59.98],[-13.21,-60.08],[-14.87,-60.46],[-16.57,-60.82],[-18.31,-61.16],[-19.32,-61.75],[-20.37,-62.34],[-21.86,-62.81],[-23.4,-63.27],[-24.99,-63.71],[-26.93,-64.11],[-28.94,-64.49],[-31.01,-64.68],[-33.11,-64.84],[-35.23,-64.97],[-37.37,-65.08],[-39.29,-65.23],[-41.23,-65.35],[-43.18,-65.45],[-45.15,-65.53],[-47.12,-65.58],[-49.4,-65.52],[-51.66,-65.42],[-53.9,-65.3],[-56.11,-65.14],[-58.3,-64.94],[-60.45,-64.72],[-62.43,-64.48],[-64.38,-64.22],[-66.28,-63.93],[-68.15,-63.62],[-69.97,-63.28],[-69.97,-63.28],[-69.9,-63],[-69.84,-62.67],[-69.78,-62.5],[-69.77,-62.19],[-69.89,-61.78],[-69.97,-61.4],[-69.98,-61.39],[-69.98,-61.39],[-68.25,-61.61],[-66.5,-61.8],[-64.73,-61.98],[-63,-62.21],[-61.24,-62.41],[-59.46,-62.59],[-57.66,-62.76],[-55.84,-62.89],[-54.32,-62.91],[-52.8,-62.91],[-51.28,-62.9],[-49.19,-63.03],[-47.09,-63.14],[-44.97,-63.21],[-42.89,-63.07],[-40.84,-62.9],[-38.8,-62.7],[-37.33,-62.58],[-35.87,-62.45],[-34.21,-62.36],[-32.57,-62.24],[-30.43,-62.26],[-28.28,-62.25],[-26.14,-62.2],[-24.61,-62.06],[-23.09,-61.91],[-21.59,-61.73],[-20.53,-61.3],[-19.51,-60.85],[-18.51,-60.4],[-17.08,-60.05],[-15.69,-59.69],[-13.99,-59.35],[-12.33,-59],[-10.53,-58.88],[-8.75,-58.74],[-7.75,-58.33],[-6.79,-57.92],[-5.7,-57.52],[-4.65,-57.1],[-3.01,-57.03],[-2.05,-56.59],[-0.36,-56.35],[0.74,-56.35],[1.85,-56.34],[3.48,-56.26],[5.1,-56.16],[6.29,-55.8],[7.46,-55.42],[8.35,-54.58],[8.79,-53.77],[9.22,-52.95],[9.34,-52.18],[9.45,-51.41],[9.73,-50.69],[10.01,-49.96],[10.26,-49.18],[10.5,-48.4],[11.09,-47.77],[11.66,-47.14],[12.15,-46.72],[12.64,-46.3],[13.42,-45.88],[14.2,-45.45],[15.12,-45.03],[16.03,-44.6],[16.6,-43.97],[17.14,-43.34],[17.68,-42.7],[18.42,-42.14],[19.15,-41.57],[19.86,-41],[20.24,-40.23],[20.6,-39.44],[21.02,-38.63],[21.42,-37.81],[22.12,-37.41],[22.81,-37],[23.77,-36.6],[24.72,-36.21],[25.71,-36.09],[26.7,-35.97],[27.57,-35.88],[28.44,-35.79],[29.39,-35.61],[30.34,-35.43],[31.06,-35.04],[31.78,-34.65],[32.14,-34.22],[32.49,-33.8],[32.87,-33.4],[33.25,-33.01],[33.86,-32.81],[34.46,-32.6],[35.36,-32.29],[36.26,-31.98],[37.11,-31.58],[37.96,-31.18],[38.79,-30.78],[39.44,-30.29],[40.09,-29.79],[40.72,-29.29],[41.44,-28.8],[42.16,-28.31],[42.96,-27.7],[43.76,-27.08],[44.55,-26.46],[45.17,-25.8],[45.75,-26.36],[46.34,-26.92],[46.93,-27.47]]]}},{"type":"Feature","properties":{"ma":175,"type":"gpml:TopologicalClosedPlateBoundary","name":"East Gondwana Plate","pid":801,"deforming":false},"geometry":{"type":"Polygon","coordinates":[[[180,-76.28],[180,-77.26],[180,-78.24],[180,-79.22],[180,-80.2],[180,-81.18],[180,-82.16],[180,-83.14],[180,-84.12],[180,-85.1],[180,-86.08],[180,-87.06],[180,-88.04],[180,-89.02],[180,-90],[-180,-90],[-180,-89.02],[-180,-88.04],[-180,-87.06],[-180,-86.08],[-180,-85.1],[-180,-84.12],[-180,-83.14],[-180,-82.16],[-180,-81.18],[-180,-80.2],[-180,-79.22],[-180,-78.24],[-180,-77.26],[-180,-76.28],[-180,-75.3],[-176.51,-75.34],[-173.01,-75.33],[-169.53,-75.27],[-166.09,-75.15],[-162.71,-74.99],[-159.42,-74.77],[-156.22,-74.51],[-152.61,-74.71],[-148.92,-74.84],[-145.18,-74.92],[-141.41,-74.93],[-137.66,-74.89],[-134.21,-74.93],[-130.76,-74.93],[-127.32,-74.87],[-123.91,-74.76],[-120.57,-74.6],[-117.63,-74.41],[-114.76,-74.19],[-111.98,-73.92],[-109.29,-73.63],[-106.69,-73.3],[-104.19,-72.93],[-101.79,-72.54],[-99.5,-72.12],[-97.4,-71.73],[-95.4,-71.31],[-93.47,-70.87],[-91.64,-70.41],[-89.45,-70.05],[-87.34,-69.67],[-85.3,-69.26],[-83.34,-68.84],[-81.12,-68.36],[-78.99,-67.85],[-76.95,-67.32],[-75.01,-66.76],[-73.15,-66.18],[-72.04,-65.57],[-70.98,-64.94],[-69.97,-64.31],[-69.97,-64.31],[-70.05,-64.18],[-70.06,-64.11],[-70.06,-63.73],[-69.99,-63.37],[-69.97,-63.28],[-69.97,-63.28],[-68.15,-63.62],[-66.28,-63.93],[-64.38,-64.22],[-62.43,-64.48],[-60.45,-64.72],[-58.3,-64.94],[-56.11,-65.14],[-53.9,-65.3],[-51.66,-65.42],[-49.4,-65.52],[-47.12,-65.58],[-45.15,-65.53],[-43.18,-65.45],[-41.23,-65.35],[-39.29,-65.23],[-37.37,-65.08],[-35.23,-64.97],[-33.11,-64.84],[-31.01,-64.68],[-28.94,-64.49],[-26.93,-64.11],[-24.99,-63.71],[-23.4,-63.27],[-21.86,-62.81],[-20.37,-62.34],[-19.32,-61.75],[-18.31,-61.16],[-16.57,-60.82],[-14.87,-60.46],[-13.21,-60.08],[-11.3,-59.98],[-9.41,-59.85],[-8.06,-59.6],[-6.73,-59.34],[-5.51,-59.25],[-4.29,-59.16],[-3.07,-58.99],[-1.86,-58.8],[-0.61,-58.79],[0.65,-58.78],[2.14,-58.96],[3.64,-59.12],[4.83,-59.09],[6.01,-59.05],[7.34,-58.65],[8.64,-58.24],[10.16,-57.87],[11.66,-57.47],[12.43,-56.81],[13.18,-56.15],[13.9,-55.48],[14.32,-54.64],[14.72,-53.79],[14.79,-52.91],[14.86,-52.02],[15.27,-51.33],[15.67,-50.63],[16.17,-49.8],[16.65,-48.96],[17.38,-48.22],[18.08,-47.48],[18.8,-46.81],[19.49,-46.14],[20.87,-45.87],[22.23,-45.59],[23.28,-45.42],[24.33,-45.25],[25.37,-45.06],[26.33,-44.88],[27.29,-44.69],[28.24,-44.5],[29.22,-44.17],[30.19,-43.84],[30.98,-43.63],[31.77,-43.41],[32.44,-42.95],[33.11,-42.48],[33.9,-41.89],[34.67,-41.29],[35.1,-40.51],[35.51,-39.73],[36.13,-39.23],[36.75,-38.72],[37.35,-38.22],[37.96,-37.66],[38.55,-37.1],[39.14,-36.54],[39.96,-35.87],[40.77,-35.19],[41.57,-34.51],[42.23,-33.92],[42.88,-33.32],[43.77,-32.96],[44.65,-32.59],[45.39,-32.16],[46.12,-31.73],[47.18,-31.34],[47.75,-31.13],[48.03,-31.02],[48.56,-30.49],[48.17,-29.78],[47.78,-29.07],[47.4,-28.35],[47.02,-27.64],[47.02,-27.64],[47.69,-26.91],[48.36,-26.18],[49.05,-25.6],[49.73,-25.02],[50.41,-24.44],[51.08,-23.85],[51.75,-23.26],[52.41,-22.67],[53.04,-21.96],[53.66,-21.26],[54.28,-20.54],[54.89,-19.83],[55.49,-19.11],[56.09,-18.4],[56.69,-17.68],[57.28,-16.95],[57.87,-16.23],[58.45,-15.51],[58.96,-14.65],[59.47,-13.79],[59.98,-12.93],[60.48,-12.07],[60.98,-11.21],[61.47,-10.34],[61.97,-9.48],[62.46,-8.61],[62.84,-7.79],[63.21,-6.97],[63.59,-6.15],[63.59,-6.15],[64.43,-6.53],[65.27,-6.9],[66.1,-7.28],[66.95,-7.65],[67.85,-7.97],[68.75,-8.28],[69.65,-8.59],[70.55,-8.89],[71.46,-9.2],[72.37,-9.5],[73.28,-9.8],[74.19,-10.1],[75.1,-10.4],[76.01,-10.69],[76.93,-10.98],[77.85,-11.27],[78.77,-11.56],[79.69,-11.84],[80.47,-12.08],[81.25,-12.32],[82.03,-12.56],[82.81,-12.79],[82.74,-13.3],[82.67,-13.82],[83.63,-13.91],[84.59,-14],[85.55,-14.08],[86.52,-14.16],[87.48,-14.24],[88.45,-14.31],[89.41,-14.38],[90.31,-14.47],[91.21,-14.54],[92.12,-14.62],[93.02,-14.69],[93.92,-14.76],[94.25,-13.99],[94.57,-13.22],[94.9,-12.45],[95.22,-11.67],[95.94,-11.73],[96.26,-11.03],[96.58,-10.33],[97.08,-10.47],[97.35,-9.81],[97.63,-9.15],[98.56,-9.52],[99.49,-9.88],[100.43,-10.24],[100.78,-9.5],[101.14,-8.75],[101.49,-8.01],[101.84,-7.26],[102.74,-7.42],[103.64,-7.58],[104.54,-7.73],[105.44,-7.89],[106.34,-8.04],[106.69,-7.21],[107.03,-6.39],[107.38,-5.57],[107.73,-4.74],[108.07,-3.92],[108.41,-3.1],[109.37,-3.34],[110.32,-3.58],[111.28,-3.82],[111.63,-2.95],[111.98,-2.08],[112.33,-1.2],[112.67,-0.33],[113.02,0.54],[113.54,0.43],[114.06,0.32],[114.06,0.32],[114.14,0.55],[114.14,0.55],[114.87,0.12],[115.6,-0.3],[116.33,-0.72],[117.15,-1.18],[117.97,-1.65],[118.78,-2.12],[119.6,-2.59],[120.42,-3.05],[120.11,-3.52],[119.8,-3.99],[120.57,-4.43],[121.35,-4.87],[122.13,-5.32],[122.91,-5.76],[123.7,-6.2],[124.48,-6.63],[125.26,-7.07],[124.95,-7.59],[124.63,-8.12],[125.4,-8.56],[126.17,-8.99],[126.94,-9.43],[127.72,-9.86],[128.5,-10.3],[129.28,-10.73],[130.06,-11.15],[130.84,-11.58],[130.48,-12.12],[130.12,-12.67],[130.95,-13.05],[131.79,-13.44],[132.62,-13.82],[133.46,-14.19],[134.31,-14.57],[134.31,-14.57],[134.34,-15.43],[134.37,-16.29],[134.4,-17.15],[134.43,-18.01],[134.46,-18.88],[134.43,-19.75],[134.41,-20.62],[134.39,-21.5],[134.36,-22.37],[134.34,-23.25],[134.31,-24.12],[134.29,-25],[134.27,-25.94],[134.26,-26.88],[134.25,-27.82],[134.23,-28.76],[134.22,-29.7],[134.2,-30.64],[134.19,-31.59],[134.18,-32.53],[134.18,-33.39],[134.17,-34.25],[134.17,-35.12],[134.17,-35.98],[134.17,-36.84],[134.83,-37.62],[135.49,-38.39],[136.17,-39.16],[136.87,-39.92],[137.33,-40.57],[137.81,-41.22],[138.25,-41.69],[138.71,-42.16],[139.35,-42.44],[139.99,-42.71],[141.13,-43.14],[142.29,-43.55],[143.32,-44.14],[144.38,-44.72],[145.45,-45.3],[146.55,-45.86],[146.55,-45.86],[146.68,-46.6],[146.82,-47.33],[146.95,-48.07],[147.15,-48.87],[147.35,-49.67],[147.56,-50.47],[147.77,-51.27],[147.99,-52.07],[148.13,-52.94],[148.26,-53.82],[148.41,-54.69],[148.56,-55.56],[148.72,-56.43],[149.36,-57.34],[150.04,-58.24],[150.75,-59.14],[151.5,-60.03],[152.3,-60.92],[152.91,-61.69],[153.56,-62.46],[154.24,-63.23],[154.95,-63.99],[155.07,-64.58],[155.2,-65.17],[154.89,-65.73],[154.57,-66.29],[153.67,-67.22],[152.7,-68.14],[151.58,-69.05],[150.37,-69.96],[150.01,-70.47],[151.44,-71.3],[151.99,-72.12],[152.58,-72.94],[153.23,-73.76],[153.23,-73.76],[156.02,-74.03],[158.89,-74.27],[161.85,-74.46],[164.86,-74.62],[167.93,-74.73],[170.86,-74.93],[173.86,-75.1],[176.91,-75.22],[180,-75.3],[180,-76.28]]]}},{"type":"Feature","properties":{"ma":175,"type":"gpml:TopologicalClosedPlateBoundary","name":"Eurasia","pid":301,"deforming":false},"geometry":{"type":"Polygon","coordinates":[[[7.6,39.57],[7.56,39.83],[7.55,40.26],[7.42,40.58],[7.42,40.58],[7.18,40.67],[6.95,41.38],[6.72,42.1],[6.65,42.79],[6.58,43.48],[6.12,44.32],[5.64,45.15],[4.82,45.5],[4,45.84],[2.81,45.67],[1.64,45.48],[0.52,45.75],[-0.6,46.01],[-1.74,46.25],[-2.66,46.55],[-3.6,46.85],[-4.55,47.14],[-4.31,48.11],[-4.05,49.09],[-3.79,50.06],[-3.51,51.04],[-3.72,52],[-3.93,52.97],[-4.16,53.94],[-4.39,54.9],[-4.64,55.87],[-4.01,56.43],[-4.25,57.15],[-4.5,57.88],[-4.76,58.6],[-4.93,59.45],[-5.11,60.3],[-5.3,61.14],[-5.5,61.99],[-5.72,62.84],[-5.92,63.79],[-6.13,64.75],[-6.37,65.71],[-6.61,66.67],[-6.61,66.67],[-6.62,66.74],[-6.64,67.03],[-6.65,67.19],[-6.65,67.31],[-6.68,67.65],[-6.7,67.72],[-6.82,68.61],[-6.95,69.5],[-7.1,70.4],[-7.26,71.29],[-7.71,72.16],[-8.2,73.02],[-8.74,73.88],[-9.34,74.73],[-9.34,74.73],[-12.24,74.46],[-15.03,74.14],[-17.72,73.79],[-21.11,73.54],[-24.4,73.23],[-27.21,73.16],[-29.99,73.06],[-32.73,72.92],[-34.77,72.63],[-36.75,72.32],[-38.65,71.98],[-41.11,71.66],[-43.49,71.31],[-45.78,70.92],[-47.7,70.7],[-49.57,70.45],[-51.39,70.19],[-53.98,69.84],[-56.47,69.45],[-58.19,69.08],[-59.85,68.69],[-61.45,68.29],[-62.98,67.79],[-62.98,67.79],[-64.45,68.62],[-66.04,69.44],[-67.11,70.11],[-68.26,70.78],[-69.49,71.44],[-70.81,72.09],[-71.84,72.85],[-72.97,73.61],[-74.19,74.35],[-75.54,75.09],[-76.6,76.04],[-76.6,76.04],[-75.82,76.53],[-75,77.01],[-73.76,77.81],[-72.36,78.6],[-70.76,79.39],[-69.57,80.02],[-68.22,80.65],[-68,81.38],[-67.74,82.1],[-67.8,82.81],[-67.87,83.52],[-66.82,84.13],[-65.52,84.74],[-63.55,85.42],[-60.91,86.09],[-57.18,86.76],[-49.36,87.51],[-35.4,88.17],[-6.65,88.59],[29.14,88.5],[51.82,88.3],[67.96,87.91],[82.29,87.17],[82.29,87.17],[82.58,87.07],[83.75,86.22],[84.5,85.37],[85.01,84.52],[85.38,83.67],[82.59,82.81],[80.4,81.93],[78.64,81.05],[77.19,80.16],[75.98,79.26],[74.96,78.36],[74.08,77.45],[73.32,76.54],[72.65,75.63],[73.48,74.86],[74.23,74.07],[74.91,73.29],[75.53,72.5],[73.88,71.88],[72.33,71.25],[70.88,70.6],[70.68,69.91],[70.49,69.21],[70.32,68.52],[70.66,67.66],[70.97,66.8],[71.26,65.93],[71.54,65.07],[70.83,64.34],[70.15,63.61],[69.51,62.88],[68.9,62.15],[68.9,62.15],[68.32,61.39],[67.77,60.63],[67.24,59.87],[66.73,59.11],[67.86,58.61],[68.96,58.1],[70.02,57.59],[71.06,57.06],[72.29,56.67],[73.49,56.28],[74.67,55.87],[75.82,55.45],[75.97,54.87],[76.11,54.29],[75.4,53.61],[74.71,52.93],[73.82,52.33],[72.95,51.73],[72.1,51.13],[71.28,50.52],[70.3,49.78],[69.35,49.04],[68.43,48.29],[67.92,47.69],[67.42,47.1],[66.93,46.5],[66.44,45.61],[65.97,44.72],[65.5,43.84],[65.06,42.95],[64.62,42.05],[65.08,41.24],[65.52,40.44],[66.04,39.77],[66.56,39.11],[66.74,38.39],[66.93,37.67],[67.1,36.95],[66.97,36.14],[66.83,35.33],[66.7,34.52],[66.56,33.71],[66.44,32.89],[65.76,32.2],[65.1,31.49],[64.44,30.79],[64.44,30.79],[64.82,29.87],[65.2,28.96],[65.57,28.04],[65.94,27.12],[66.29,26.2],[66.65,25.28],[66.72,24.34],[66.79,23.4],[66.86,22.46],[66.94,21.52],[67.01,20.58],[67.07,19.63],[67.14,18.69],[67.14,18.69],[66.22,18.78],[65.41,18.94],[64.6,19.1],[63.81,19.23],[63.01,19.35],[62.37,19.51],[61.73,19.66],[61.1,20.03],[60.46,20.4],[59.82,20.77],[59.14,21.19],[58.46,21.6],[57.46,21.74],[56.46,21.88],[55.4,21.96],[54.35,22.02],[53.29,22.08],[52.51,22.03],[51.73,21.97],[50.95,21.91],[50.07,21.92],[49.2,21.93],[48.33,22.1],[47.46,22.25],[46.81,22.36],[46.17,22.46],[45.62,22.64],[45.06,22.81],[44.77,22.89],[44.77,22.89],[44.77,22.83],[44.66,22],[44.66,22],[44.16,21.22],[43.78,20.55],[43.39,19.87],[43.18,19.38],[42.98,18.89],[42.59,18.37],[42.21,17.84],[41.52,17.61],[40.82,17.38],[40.12,17.14],[39.17,17.17],[38.23,17.19],[37.28,17.2],[36.31,17.01],[35.34,16.81],[34.64,16.68],[33.94,16.54],[33.24,16.4],[32.32,16.38],[31.39,16.35],[30.47,16.33],[29.72,16.51],[28.98,16.69],[28.23,16.86],[28.23,16.86],[28.85,17.45],[29.47,18.03],[30.1,18.61],[30.68,19.18],[31.27,19.74],[31.86,20.31],[32.45,20.87],[32.94,21.48],[33.44,22.09],[33.94,22.7],[34.44,23.31],[34.63,23.7],[34.63,23.7],[33.6,23.72],[32.56,23.73],[31.53,23.73],[30.5,23.73],[29.46,23.72],[28.43,23.7],[27.4,23.68],[26.37,23.65],[25.34,23.61],[24.31,23.56],[24.31,23.56],[23.42,23.1],[22.55,22.63],[21.68,22.16],[21.26,21.62],[20.85,21.08],[21.06,20.94],[20.47,20.13],[19.88,19.33],[20.03,19.28],[19.45,18.51],[18.88,17.75],[19.08,17.58],[18.57,16.81],[18.06,16.03],[17.56,15.26],[17.07,14.48],[16.57,13.7],[15.8,13.06],[15.02,12.42],[15.02,12.42],[14.89,12.51],[14.89,12.51],[14.33,12.1],[13.76,11.69],[13.19,11.27],[13.19,11.27],[13.46,10.88],[13.46,10.88],[12.67,10.34],[11.88,9.8],[11.88,9.8],[12.02,9.15],[12.02,9.15],[11.25,8.88],[10.49,8.61],[9.73,8.33],[8.96,8.06],[8.91,7.36],[8.03,7.09],[7.15,6.82],[6.27,6.55],[5.37,6.36],[4.46,6.16],[3.56,5.97],[2.66,5.78],[1.76,5.58],[1.76,5.58],[1.28,5.8],[0.8,6.01],[0.13,6.31],[-0.64,6.88],[-1.37,7.42],[-1.8,7.73],[-2.06,7.92],[-2.42,8.27],[-2.56,8.4],[-2.56,8.4],[-2.34,8.61],[-2.17,8.76],[-1.94,8.98],[-1.71,9.19],[-1.5,9.52],[-1.41,9.92],[-1.33,10.25],[-1.21,10.48],[-0.84,10.9],[-0.45,11.19],[-0.25,11.41],[0,11.79],[0.14,11.99],[0.28,12.31],[0.43,12.62],[0.6,12.9],[0.72,13.17],[0.82,13.42],[0.9,13.63],[0.96,13.76],[1.06,13.89],[1.16,14.05],[1.25,14.27],[1.37,14.41],[1.41,14.47],[1.41,14.47],[1.68,14.55],[2.2,14.62],[2.86,14.71],[3.43,14.82],[3.98,15.19],[4.24,15.36],[4.24,15.36],[4.41,15.66],[4.83,15.9],[5.42,16.18],[5.74,16.48],[6.08,16.67],[6.61,17.06],[7.07,17.44],[7.32,17.73],[7.56,17.94],[7.71,18.17],[7.87,18.39],[8.12,18.59],[8.46,18.68],[8.84,18.83],[9.27,18.88],[9.73,18.85],[10.18,18.75],[10.56,18.63],[10.86,18.45],[11.45,18.32],[11.97,18.22],[12.49,18.22],[12.78,18.22],[13.08,18.28],[13.43,18.42],[13.68,18.84],[13.9,19.17],[14.12,19.47],[14.37,19.84],[14.65,20.26],[14.8,20.59],[14.8,20.59],[14.51,20.7],[14.41,20.74],[14.11,20.91],[13.62,21.1],[13.07,21.37],[12.53,21.58],[12,21.83],[11.55,22.03],[11.37,22.2],[11.23,22.31],[11.05,22.53],[10.88,22.92],[10.72,23.23],[10.69,23.6],[10.65,24.16],[10.52,24.57],[10.29,25.07],[9.71,25.51],[9.49,25.77],[9.09,25.9],[8.72,25.84],[8.25,26.01],[8.04,26.14],[7.81,26.4],[7.8,26.6],[7.77,26.82],[7.69,27.07],[7.57,27.37],[7.55,27.61],[7.43,28.07],[7.27,28.65],[7.13,29.09],[6.96,29.57],[6.91,30.03],[6.86,30.15],[6.86,30.15],[6.89,30.22],[6.9,30.33],[6.88,30.49],[6.9,30.65],[6.92,30.87],[6.94,31.1],[7.08,31.39],[7.22,31.54],[7.34,31.78],[7.36,31.82],[7.44,31.92],[7.49,31.98],[7.53,32.13],[7.55,32.19],[7.39,32.35],[7.3,32.46],[7.22,32.72],[7.16,32.84],[7.09,33],[7.27,33.26],[7.36,33.47],[7.32,33.72],[7.19,33.95],[7.07,34.15],[6.91,34.43],[6.69,34.63],[6.54,34.79],[6.45,34.94],[6.46,35.1],[6.61,35.28],[6.66,35.45],[6.81,35.68],[6.87,35.9],[7.06,36.1],[7.22,36.3],[7.43,36.47],[7.52,36.8],[7.43,37.18],[7.39,37.38],[7.36,37.76],[7.35,38.05],[7.48,38.57],[7.51,38.83],[7.52,39.09],[7.7,39.42],[7.59,39.53],[7.6,39.57]]]}},{"type":"Feature","properties":{"ma":175,"type":"gpml:TopologicalClosedPlateBoundary","name":"Farallon Plate 175-170","pid":902,"deforming":false},"geometry":{"type":"Polygon","coordinates":[[[-71.74,72.78],[-70.81,72.09],[-69.49,71.44],[-68.26,70.78],[-67.11,70.11],[-66.04,69.44],[-64.78,68.79],[-63.59,68.14],[-62.47,67.47],[-61.41,66.8],[-59.64,66.17],[-57.97,65.51],[-56.37,64.84],[-54.8,64.18],[-53.3,63.5],[-51.88,62.81],[-50.43,62.23],[-49.04,61.63],[-47.7,61.02],[-47.7,61.02],[-48.33,60.28],[-48.93,59.53],[-49.5,58.78],[-50.05,58.04],[-50.44,57.37],[-50.82,56.7],[-51.18,56.04],[-51.01,55.28],[-50.85,54.53],[-50.69,53.77],[-50.54,53.02],[-50.13,52.31],[-49.73,51.59],[-49.35,50.88],[-49.42,50.13],[-49.5,49.39],[-49.57,48.64],[-50.06,47.91],[-50.53,47.17],[-50.98,46.43],[-51.6,45.56],[-52.19,44.7],[-52.5,43.93],[-52.79,43.17],[-53.08,42.4],[-53.36,41.64],[-53.59,40.77],[-53.8,39.9],[-54.02,39.03],[-53.84,38.23],[-53.67,37.43],[-53.5,36.63],[-53.28,35.98],[-53.06,35.34],[-52.84,34.69],[-52.84,34.69],[-53.47,34.1],[-54.08,33.5],[-54.79,32.78],[-55.48,32.05],[-56.16,31.32],[-56.84,30.58],[-57.27,29.81],[-57.7,29.03],[-58.12,28.25],[-58.54,27.47],[-58.95,26.69],[-58.9,25.92],[-58.85,25.15],[-58.8,24.38],[-58.75,23.6],[-58.61,22.66],[-58.47,21.71],[-58.34,20.76],[-58.2,19.81],[-58.07,18.87],[-57.94,17.92],[-57.81,16.97],[-57.72,16.13],[-57.64,15.28],[-57.55,14.44],[-57.47,13.59],[-57.38,12.75],[-57.38,12.75],[-57.42,12.68],[-57.87,12.2],[-58.31,11.72],[-58.85,11.26],[-59.4,10.79],[-59.79,10.43],[-60.19,10.06],[-60.46,9.34],[-60.72,8.61],[-60.98,7.89],[-61.17,7.09],[-61.35,6.29],[-61.53,5.49],[-61.67,4.74],[-61.81,3.98],[-61.95,3.22],[-62.03,2.47],[-62.1,1.73],[-61.7,1.1],[-61.29,0.48],[-61.07,-0.2],[-60.85,-0.88],[-60.63,-1.57],[-60.35,-2.2],[-60.07,-2.83],[-59.71,-3.47],[-59.34,-4.1],[-58.98,-4.74],[-58.58,-5.49],[-58.18,-6.25],[-57.88,-6.96],[-57.58,-7.67],[-57.63,-8.19],[-57.63,-8.19],[-57.78,-8.44],[-57.99,-8.79],[-58.08,-9.02],[-58.17,-9.21],[-58.32,-9.56],[-58.45,-9.82],[-58.54,-10.06],[-58.65,-10.32],[-58.99,-11.12],[-59.33,-11.91],[-59.67,-12.71],[-60.02,-13.5],[-60.37,-14.29],[-60.31,-15.16],[-60.26,-16.03],[-60.21,-16.9],[-60.12,-17.75],[-60.04,-18.61],[-59.96,-19.47],[-59.87,-20.33],[-59.79,-21.19],[-59.7,-22.04],[-59.5,-22.86],[-59.3,-23.68],[-59.09,-24.49],[-58.93,-25.18],[-58.76,-25.87],[-58.58,-26.56],[-58.02,-27.34],[-57.95,-27.86],[-57.87,-28.39],[-57.73,-29.14],[-57.75,-29.69],[-57.71,-30.05],[-57.7,-30.34],[-57.7,-30.34],[-57.68,-30.93],[-57.8,-31.42],[-58.04,-32.25],[-58.21,-32.71],[-58.21,-32.72],[-58.21,-32.72],[-59.35,-32.88],[-60.5,-33.02],[-61.65,-33.15],[-62.8,-33.27],[-63.96,-33.38],[-65.12,-33.48],[-66.28,-33.57],[-67.44,-33.65],[-68.61,-33.72],[-69.77,-33.78],[-70.93,-33.83],[-72.1,-33.87],[-73.26,-33.9],[-74.43,-33.92],[-75.6,-33.92],[-76.76,-33.92],[-77.93,-33.91],[-79.1,-33.88],[-80.26,-33.84],[-81.43,-33.8],[-81.43,-34.59],[-82.57,-34.49],[-83.72,-34.37],[-84.86,-34.25],[-85.99,-34.12],[-87.12,-33.98],[-88.25,-33.82],[-89.37,-33.66],[-90.49,-33.48],[-91.61,-33.3],[-92.72,-33.11],[-93.82,-32.9],[-94.92,-32.69],[-96.02,-32.47],[-97.11,-32.23],[-98.19,-31.99],[-97.96,-31.25],[-97.74,-30.5],[-98.77,-30.24],[-99.8,-29.97],[-100.83,-29.68],[-101.85,-29.39],[-102.86,-29.1],[-103.87,-28.79],[-104.88,-28.48],[-105.87,-28.16],[-106.86,-27.83],[-107.85,-27.5],[-108.82,-27.16],[-109.8,-26.81],[-110.76,-26.46],[-110.45,-25.74],[-110.14,-25.02],[-109.84,-24.3],[-110.78,-23.92],[-111.73,-23.53],[-112.66,-23.14],[-113.59,-22.75],[-114.52,-22.34],[-115.44,-21.94],[-116.36,-21.53],[-117.27,-21.11],[-118.17,-20.69],[-119.07,-20.26],[-119.97,-19.83],[-120.86,-19.4],[-121.74,-18.96],[-121.3,-18.19],[-120.85,-17.42],[-121.77,-16.94],[-122.68,-16.46],[-123.58,-15.98],[-124.49,-15.49],[-125.38,-15],[-126.28,-14.51],[-127.17,-14.01],[-128.05,-13.51],[-128.93,-13],[-129.81,-12.49],[-130.69,-11.98],[-131.56,-11.47],[-131.18,-10.84],[-130.8,-10.2],[-130.43,-9.57],[-131.29,-9.08],[-132.14,-8.59],[-133,-8.1],[-133.85,-7.61],[-134.7,-7.11],[-135.55,-6.62],[-135.55,-6.62],[-136.14,-6.58],[-136.73,-6.53],[-136.73,-6.53],[-137.3,-6.01],[-137.86,-5.49],[-138.42,-4.96],[-138.99,-4.44],[-139.57,-3.64],[-140.16,-2.85],[-140.74,-2.05],[-141.33,-1.26],[-141.91,-0.46],[-142.5,0.34],[-143.08,1.13],[-143.67,1.93],[-144.25,2.72],[-144.84,3.52],[-145.31,4.06],[-145.77,4.61],[-145.77,4.61],[-145.68,5.26],[-145.36,6.17],[-145.04,7.08],[-144.72,7.98],[-144.4,8.89],[-144.08,9.8],[-143.75,10.71],[-143.42,11.62],[-143.09,12.53],[-142.76,13.44],[-142.43,14.34],[-142.09,15.25],[-141.75,16.16],[-141.41,17.06],[-141.06,17.97],[-140.27,17.68],[-139.47,17.39],[-139.14,18.3],[-138.81,19.2],[-138.47,20.1],[-138.12,21],[-137.77,21.9],[-137.42,22.8],[-137.06,23.69],[-136.7,24.59],[-136.33,25.49],[-135.96,26.38],[-135.58,27.27],[-135.2,28.17],[-134.81,29.06],[-134.41,29.95],[-134,30.84],[-133.59,31.73],[-133.17,32.61],[-132.74,33.5],[-132.3,34.38],[-131.85,35.27],[-131.4,36.15],[-130.93,37.03],[-131.68,37.29],[-132.43,37.55],[-131.97,38.4],[-131.51,39.25],[-131.03,40.1],[-130.54,40.95],[-130.04,41.79],[-129.52,42.63],[-128.99,43.47],[-128.45,44.31],[-127.89,45.14],[-127.31,45.97],[-126.71,46.8],[-126.1,47.63],[-125.47,48.45],[-124.42,48.05],[-123.38,47.64],[-122.77,48.4],[-122.14,49.15],[-121.48,49.89],[-120.81,50.63],[-120.12,51.37],[-119.4,52.11],[-118.66,52.84],[-119.87,53.37],[-121.1,53.9],[-122.36,54.41],[-123.66,54.91],[-122.73,55.68],[-121.76,56.44],[-120.76,57.19],[-119.71,57.93],[-118.62,58.67],[-117.48,59.39],[-116.29,60.11],[-115.05,60.81],[-113.76,61.51],[-112.4,62.18],[-113.54,62.78],[-114.73,63.37],[-115.96,63.95],[-117.25,64.51],[-115.71,65.25],[-114.08,65.96],[-112.36,66.66],[-110.54,67.34],[-108.61,68],[-106.58,68.63],[-104.43,69.24],[-102.15,69.82],[-99.76,70.37],[-97.23,70.88],[-94.58,71.36],[-91.79,71.8],[-88.88,72.2],[-85.85,72.55],[-82.71,72.85],[-79.47,73.11],[-76.13,73.31],[-72.74,73.46],[-71.74,72.78]]]}},{"type":"Feature","properties":{"ma":175,"type":"gpml:TopologicalClosedPlateBoundary","name":"Meso Tethys","pid":530,"deforming":false},"geometry":{"type":"Polygon","coordinates":[[[44.77,22.89],[45.06,22.81],[45.62,22.64],[46.17,22.46],[46.81,22.36],[47.46,22.25],[48.33,22.1],[49.2,21.93],[50.07,21.92],[50.95,21.91],[51.73,21.97],[52.51,22.03],[53.29,22.08],[54.35,22.02],[55.4,21.96],[56.46,21.88],[57.46,21.74],[58.46,21.6],[59.14,21.19],[59.82,20.77],[60.46,20.4],[61.1,20.03],[61.73,19.66],[62.37,19.51],[63.01,19.35],[63.81,19.23],[64.6,19.1],[65.41,18.94],[66.22,18.78],[66.93,18.71],[67.65,18.65],[68.37,18.58],[69.24,18.73],[70.12,18.89],[70.99,19.04],[71.87,19.19],[72.75,19.33],[73.63,19.47],[73.75,20.29],[73.87,21.12],[73.98,21.94],[74.1,22.76],[74.1,22.76],[74.96,22.58],[75.82,22.4],[76.68,22.21],[77.71,22.06],[78.75,21.9],[79.78,21.74],[80.81,21.57],[81.87,21.45],[82.94,21.32],[84,21.19],[85.06,21.05],[86.07,21.11],[87.08,21.15],[88.09,21.19],[89.1,21.23],[90.12,21.26],[91.13,21.28],[92.09,21.4],[93.05,21.51],[94.01,21.62],[94.97,21.72],[95.94,21.81],[96.78,22.02],[97.63,22.22],[98.49,22.41],[99.13,22.63],[99.13,22.63],[99.49,23.49],[99.85,24.34],[100.21,25.2],[100.21,25.2],[101.2,24.76],[102,24.24],[102.79,23.72],[103.57,23.2],[104.35,22.67],[105.12,22.13],[106.05,21.64],[106.96,21.15],[107.87,20.65],[108.78,20.15],[109.67,19.64],[110.59,19.36],[111.51,19.07],[112.42,18.78],[113.33,18.48],[114.23,18.18],[115.13,17.88],[116.03,17.57],[116.98,17.27],[117.93,16.98],[118.87,16.67],[119.81,16.37],[120.75,16.06],[121.46,15.54],[122.16,15.02],[122.86,14.5],[123.56,13.98],[124.26,13.46],[124.95,12.93],[125.92,12.63],[126.88,12.33],[127.84,12.03],[127.84,12.03],[127.32,11.18],[126.8,10.32],[126.28,9.46],[125.8,8.86],[125.32,8.25],[124.85,7.64],[124.38,7.04],[123.63,6.55],[122.89,6.07],[122.15,5.58],[122.15,5.58],[121.55,6.29],[120.95,7],[120.34,7.7],[119.74,8.41],[119.26,9.02],[118.78,9.63],[118.29,10.24],[118.29,10.24],[118.13,9.86],[117.71,8.97],[117.3,8.07],[116.88,7.17],[116.47,6.28],[116.06,5.38],[115.64,4.48],[115.23,3.58],[114.83,2.69],[114.57,1.9],[114.32,1.11],[114.06,0.32],[114.06,0.32],[113.54,0.43],[113.02,0.54],[112.67,-0.33],[112.33,-1.2],[111.98,-2.08],[111.63,-2.95],[111.28,-3.82],[110.32,-3.58],[109.37,-3.34],[108.41,-3.1],[108.07,-3.92],[107.73,-4.74],[107.38,-5.57],[107.03,-6.39],[106.69,-7.21],[106.34,-8.04],[105.44,-7.89],[104.54,-7.73],[103.64,-7.58],[102.74,-7.42],[101.84,-7.26],[101.49,-8.01],[101.14,-8.75],[100.78,-9.5],[100.43,-10.24],[99.49,-9.88],[98.56,-9.52],[97.63,-9.15],[97.35,-9.81],[97.08,-10.47],[96.58,-10.33],[96.26,-11.03],[95.94,-11.73],[95.22,-11.67],[94.9,-12.45],[94.57,-13.22],[94.25,-13.99],[93.92,-14.76],[93.02,-14.69],[92.12,-14.62],[91.21,-14.54],[90.31,-14.47],[89.41,-14.38],[88.45,-14.31],[87.48,-14.24],[86.52,-14.16],[85.55,-14.08],[84.59,-14],[83.63,-13.91],[82.67,-13.82],[82.74,-13.3],[82.81,-12.79],[82.03,-12.56],[81.25,-12.32],[80.47,-12.08],[79.69,-11.84],[78.77,-11.56],[77.85,-11.27],[76.93,-10.98],[76.01,-10.69],[75.1,-10.4],[74.19,-10.1],[73.28,-9.8],[72.37,-9.5],[71.46,-9.2],[70.55,-8.89],[69.65,-8.59],[68.75,-8.28],[67.85,-7.97],[66.95,-7.65],[66.1,-7.28],[65.27,-6.9],[64.43,-6.53],[63.59,-6.15],[63.59,-6.15],[63.97,-5.31],[63.97,-5.31],[63.25,-4.92],[62.52,-4.52],[61.8,-4.12],[61.08,-3.73],[60.36,-3.33],[59.53,-2.83],[58.7,-2.33],[57.87,-1.84],[57.04,-1.34],[56.21,-0.84],[55.38,-0.34],[54.55,0.16],[53.73,0.65],[52.9,1.15],[52.07,1.65],[51.24,2.15],[50.41,2.65],[49.58,3.14],[48.75,3.64],[47.92,4.13],[47.08,4.63],[46.7,4.07],[46.31,3.51],[45.93,2.95],[45.09,3.47],[44.25,4],[43.42,4.52],[42.58,5.05],[41.73,5.57],[40.89,6.09],[40.89,6.09],[40.72,5.73],[40.72,5.73],[39.94,6.29],[39.16,6.85],[38.38,7.41],[37.59,7.97],[36.81,8.53],[36.02,9.08],[35.23,9.63],[34.76,9.2],[33.9,9.69],[33.03,10.18],[32.16,10.66],[31.29,11.14],[30.41,11.62],[29.54,12.1],[28.66,12.58],[27.77,13.05],[26.88,13.52],[26.38,13.05],[25.88,12.58],[25.25,12.91],[24.61,13.24],[23.97,13.57],[23.97,13.57],[24.44,13.9],[24.92,14.24],[25.61,14.77],[26.3,15.3],[26.99,15.82],[27.68,16.35],[28.23,16.86],[28.23,16.86],[28.98,16.69],[29.72,16.51],[30.47,16.33],[31.39,16.35],[32.32,16.38],[33.24,16.4],[33.94,16.54],[34.64,16.68],[35.34,16.81],[36.31,17.01],[37.28,17.2],[38.23,17.19],[39.17,17.17],[40.12,17.14],[40.82,17.38],[41.52,17.61],[42.21,17.84],[42.59,18.37],[42.98,18.89],[43.18,19.38],[43.39,19.87],[43.78,20.55],[44.16,21.22],[44.66,22],[44.66,22],[44.77,22.83],[44.77,22.89]]]}},{"type":"Feature","properties":{"ma":175,"type":"gpml:TopologicalClosedPlateBoundary","name":"Mongol-Okhotsk Ocean","pid":380,"deforming":false},"geometry":{"type":"Polygon","coordinates":[[[-180,86.03],[-180,87.02],[-180,88.01],[-180,89.01],[-180,90],[180,90],[180,89.01],[180,88.01],[180,87.02],[180,86.03],[180,85.03],[175.68,84.17],[172.48,83.28],[170.03,82.38],[168.17,81.76],[166.58,81.13],[165.19,80.49],[163.61,79.78],[162.23,79.06],[161.02,78.33],[159.95,77.61],[159,76.77],[158.15,75.92],[157.4,75.08],[156.34,74.15],[155.38,73.22],[154.4,72.45],[153.49,71.68],[152.68,71.02],[151.91,70.37],[151.2,69.71],[150.31,68.83],[149.49,67.95],[148.85,67.22],[148.25,66.49],[147.49,65.77],[146.77,65.04],[145.94,64.14],[145.15,63.24],[144.48,62.47],[143.85,61.7],[143.24,60.93],[142.64,60.17],[142.06,59.4],[141.45,58.52],[140.87,57.63],[140.23,56.71],[139.62,55.79],[139.07,55.13],[138.54,54.46],[138.09,53.86],[137.65,53.26],[137.13,52.57],[136.63,51.89],[136.14,51.31],[135.66,50.74],[135.31,50.1],[134.98,49.47],[134.53,48.8],[134.1,48.14],[133.55,47.29],[133.02,46.44],[132.65,45.81],[132.29,45.17],[131.94,44.54],[131.45,43.66],[130.98,42.79],[130.52,41.91],[130.07,41.03],[129.72,40.27],[129.38,39.5],[129.04,38.73],[128.72,37.96],[128.38,37.21],[128.06,36.45],[127.74,35.7],[127.42,34.94],[126.89,34.08],[126.37,33.22],[125.85,32.36],[125.35,31.5],[124.85,30.64],[124.37,29.77],[123.82,29.07],[123.28,28.36],[122.75,27.66],[122.22,26.95],[122.22,26.95],[122.78,26.46],[123.33,25.97],[123.81,25.45],[124.28,24.92],[124.75,24.4],[125.39,23.71],[126.03,23.01],[126.68,22.27],[127.33,21.53],[127.43,20.82],[127.68,20.19],[127.93,19.56],[128.36,18.94],[128.79,18.31],[129.54,18.02],[130.28,17.72],[131.01,17.42],[131.01,17.42],[130.65,16.69],[130.3,15.95],[129.94,15.21],[129.59,14.47],[129.02,13.68],[128.44,12.88],[127.87,12.08],[127.84,12.03],[127.84,12.03],[126.88,12.33],[125.92,12.63],[124.95,12.93],[124.26,13.46],[123.56,13.98],[122.86,14.5],[122.16,15.02],[121.46,15.54],[120.75,16.06],[119.81,16.37],[118.87,16.67],[117.93,16.98],[116.98,17.27],[116.03,17.57],[115.13,17.88],[114.23,18.18],[113.33,18.48],[112.42,18.78],[111.51,19.07],[110.59,19.36],[109.67,19.64],[108.78,20.15],[107.87,20.65],[106.96,21.15],[106.05,21.64],[105.12,22.13],[104.35,22.67],[103.57,23.2],[102.79,23.72],[102,24.24],[101.2,24.76],[100.21,25.2],[100.21,25.2],[99.85,24.34],[99.49,23.49],[99.13,22.63],[99.13,22.63],[98.49,22.41],[97.63,22.22],[96.78,22.02],[95.94,21.81],[94.97,21.72],[94.01,21.62],[93.05,21.51],[92.09,21.4],[91.13,21.28],[90.12,21.26],[89.1,21.23],[88.09,21.19],[87.08,21.15],[86.07,21.11],[85.06,21.05],[84,21.19],[82.94,21.32],[81.87,21.45],[80.81,21.57],[79.78,21.74],[78.75,21.9],[77.71,22.06],[76.68,22.21],[75.82,22.4],[74.96,22.58],[74.1,22.76],[74.1,22.76],[73.98,21.94],[73.87,21.12],[73.75,20.29],[73.63,19.47],[72.75,19.33],[71.87,19.19],[70.99,19.04],[70.12,18.89],[69.24,18.73],[68.37,18.58],[67.76,18.64],[67.14,18.69],[67.07,19.63],[67.01,20.58],[66.94,21.52],[66.86,22.46],[66.79,23.4],[66.72,24.34],[66.65,25.28],[66.29,26.2],[65.94,27.12],[65.57,28.04],[65.2,28.96],[64.82,29.87],[64.44,30.79],[64.44,30.79],[65.1,31.49],[65.76,32.2],[66.44,32.89],[66.56,33.71],[66.7,34.52],[66.83,35.33],[66.97,36.14],[67.1,36.95],[66.93,37.67],[66.74,38.39],[66.56,39.11],[66.04,39.77],[65.52,40.44],[65.08,41.24],[64.62,42.05],[65.06,42.95],[65.5,43.84],[65.97,44.72],[66.44,45.61],[66.93,46.5],[67.42,47.1],[67.92,47.69],[68.43,48.29],[69.35,49.04],[70.3,49.78],[71.28,50.52],[72.1,51.13],[72.95,51.73],[73.82,52.33],[74.71,52.93],[75.4,53.61],[76.11,54.29],[75.97,54.87],[75.82,55.45],[74.67,55.87],[73.49,56.28],[72.29,56.67],[71.06,57.06],[70.02,57.59],[68.96,58.1],[67.86,58.61],[66.73,59.11],[67.24,59.87],[67.77,60.63],[68.32,61.39],[68.9,62.15],[68.9,62.15],[69.51,62.88],[70.15,63.61],[70.83,64.34],[71.54,65.07],[71.26,65.93],[70.97,66.8],[70.66,67.66],[70.32,68.52],[70.49,69.21],[70.68,69.91],[70.88,70.6],[72.33,71.25],[73.88,71.88],[75.53,72.5],[74.91,73.29],[74.23,74.07],[73.48,74.86],[72.65,75.63],[73.32,76.54],[74.08,77.45],[74.96,78.36],[75.98,79.26],[77.19,80.16],[78.64,81.05],[80.4,81.93],[82.59,82.81],[85.38,83.67],[85.01,84.52],[84.5,85.37],[83.75,86.22],[82.58,87.07],[82.29,87.17],[82.29,87.17],[67.96,87.91],[51.82,88.3],[29.14,88.5],[-6.65,88.59],[-35.4,88.17],[-49.36,87.51],[-57.18,86.76],[-61.54,85.95],[-61.54,85.95],[-71.1,86.71],[-85.63,87.32],[-106.46,87.68],[-130.46,87.66],[-150.68,87.27],[-164.62,86.64],[-173.8,85.87],[-180,85.03],[-180,86.03]]]}},{"type":"Feature","properties":{"ma":175,"type":"gpml:TopologicalClosedPlateBoundary","name":"North America","pid":101,"deforming":false},"geometry":{"type":"Polygon","coordinates":[[[-3.65,50.57],[-3.88,49.71],[-4.11,48.86],[-4.34,48],[-4.55,47.14],[-3.6,46.85],[-2.66,46.55],[-1.74,46.25],[-0.6,46.01],[0.52,45.75],[1.64,45.48],[2.81,45.67],[4,45.84],[4.82,45.5],[5.64,45.15],[6.12,44.32],[6.58,43.48],[6.65,42.79],[6.72,42.1],[6.95,41.38],[7.18,40.67],[7.42,40.58],[7.42,40.58],[7.55,40.26],[7.56,39.83],[7.59,39.62],[7.59,39.62],[7.41,39.45],[7.16,39.26],[6.9,38.75],[6.7,38.31],[6.57,38.18],[6.49,37.98],[6.49,37.79],[6.5,37.6],[6.45,37.26],[6.37,37],[6.19,36.73],[6.04,36.57],[5.59,36.23],[5.36,35.82],[5.17,35.6],[5.04,35.45],[4.96,35.28],[5,35.11],[5.03,34.89],[5.01,34.7],[4.96,34.54],[4.92,34.37],[4.94,34.13],[5.03,33.97],[5.35,33.77],[5.55,33.69],[5.74,33.48],[5.69,33.33],[5.63,33.09],[5.57,32.42],[5.58,32.36],[5.88,32.02],[5.9,31.84],[5.6,31.34],[5.32,31.03],[4.85,30.41],[4.46,29.85],[4.2,29.14],[4.07,28.78],[3.7,28.23],[3.02,27.75],[2.59,27.37],[2,27.07],[1.51,26.69],[0.81,26.31],[0.06,26.04],[-0.31,25.92],[-0.48,25.12],[-0.15,24.61],[0.18,24.1],[0.3,23.42],[0.07,22.74],[-0.16,22.06],[-0.52,21.58],[-0.89,21.09],[-1.34,20.69],[-1.92,20.05],[-2.21,19.52],[-2.56,19.15],[-2.97,18.44],[-3.19,17.74],[-3.3,17.21],[-3.3,17.21],[-3.28,17.09],[-3.22,16.79],[-3.22,16.42],[-3.26,16.05],[-3.31,15.79],[-3.36,15.5],[-3.34,15.28],[-3.3,15.15],[-3.27,14.96],[-3.23,14.82],[-3.23,14.82],[-3.08,14.7],[-2.98,14.61],[-2.91,14.54],[-2.8,14.42],[-2.71,14.33],[-2.62,14.19],[-2.54,14.03],[-2.48,13.89],[-2.42,13.7],[-2.49,13.47],[-2.63,13.27],[-2.72,13.1],[-2.82,12.95],[-2.95,12.77],[-3.07,12.61],[-3.16,12.48],[-3.29,12.36],[-3.42,12.23],[-3.55,12.14],[-3.64,12.06],[-3.78,12],[-3.93,11.93],[-4.22,11.77],[-4.22,11.77],[-4.11,11.72],[-3.83,11.67],[-3.59,11.75],[-3.5,11.78],[-3.41,11.81],[-3.29,11.91],[-3.2,12],[-3.11,12.08],[-2.99,12.14],[-2.85,12.23],[-2.77,12.31],[-2.68,12.45],[-2.62,12.57],[-2.53,12.67],[-2.4,12.78],[-2.28,12.88],[-2.15,13],[-2.07,13.07],[-2,13.13],[-1.95,13.2],[-1.89,13.27],[-1.82,13.36],[-1.79,13.39],[-1.79,13.39],[-1.78,13.37],[-1.76,13.27],[-1.71,13.17],[-1.71,13.17],[-1.73,13.16],[-1.82,13.15],[-1.89,13.14],[-1.92,13.11],[-1.99,13.06],[-2.04,13.01],[-2.15,12.9],[-2.22,12.82],[-2.29,12.75],[-2.41,12.66],[-2.49,12.6],[-2.54,12.53],[-2.66,12.33],[-2.8,12.19],[-2.93,12.06],[-3.05,11.96],[-3.22,11.81],[-3.47,11.6],[-3.53,11.49],[-3.61,11.33],[-3.61,11.19],[-3.61,11.02],[-3.64,10.87],[-3.68,10.73],[-3.89,10.53],[-4.01,10.42],[-4.18,10.27],[-4.31,10.14],[-4.32,10.13],[-4.32,10.13],[-4.75,10.43],[-5.32,11.07],[-5.75,11.46],[-6.18,11.87],[-6.61,12.27],[-6.91,12.49],[-6.91,12.49],[-7.41,12.59],[-8.08,12.81],[-8.8,13.01],[-9.44,13.09],[-9.96,13.13],[-10.46,13.15],[-10.95,13.15],[-11.53,13.13],[-12.19,13.24],[-12.67,13.36],[-13.01,13.36],[-13.65,13.27],[-14.21,13.17],[-14.82,12.95],[-15.54,12.6],[-16.07,12.33],[-16.86,12.24],[-17.38,12.13],[-18.18,12.04],[-18.95,12.03],[-19.43,12.04],[-19.96,11.81],[-20.34,11.96],[-20.59,11.9],[-20.83,11.34],[-21.2,11.05],[-21.68,10.95],[-22.02,10.71],[-22.35,10.46],[-22.53,10.47],[-22.78,10.46],[-23.25,10.34],[-23.54,10.37],[-23.83,10.47],[-24.07,10.5],[-24.21,10.4],[-24.63,10.27],[-24.83,9.85],[-25.13,9.42],[-25.64,8.98],[-26.15,8.54],[-26.51,8.26],[-27.31,7.77],[-27.95,7.49],[-28.16,6.89],[-28.41,6.14],[-28.9,5.72],[-29.47,5.33],[-30.11,5.23],[-30.75,5.14],[-31.27,5.02],[-31.59,4.95],[-31.93,4.88],[-32.06,4.69],[-32.44,4.42],[-32.83,4.13],[-33.26,3.76],[-33.56,3.49],[-33.76,3.37],[-33.76,3.37],[-33.77,3.39],[-34.46,4.07],[-34.95,4.56],[-35.44,5.06],[-36.14,5.53],[-36.85,6.01],[-37.47,6.57],[-38.13,6.96],[-38.62,7.26],[-39.11,7.57],[-39.59,7.82],[-40.07,8.07],[-40.53,8.35],[-40.99,8.64],[-41.78,9.23],[-42.5,9.43],[-43.22,9.64],[-43.73,9.81],[-44.24,9.99],[-45.25,10],[-45.78,10.05],[-46.3,10.1],[-47.01,9.71],[-47.71,9.33],[-48.41,8.94],[-49.15,8.29],[-49.88,7.65],[-50.62,7],[-50.89,6.31],[-51.29,5.94],[-51.68,5.57],[-52.34,4.85],[-52.95,4.48],[-53.63,3.98],[-54.31,3.48],[-54.33,3.47],[-54.33,3.47],[-54.94,3.95],[-55.61,4.47],[-56.27,4.99],[-56.94,5.51],[-57.48,6.14],[-58.02,6.77],[-58.57,7.4],[-59.17,8.1],[-59.77,8.8],[-60.38,9.5],[-60.39,9.51],[-60.39,9.51],[-60.19,10.06],[-59.79,10.43],[-59.4,10.79],[-58.85,11.26],[-58.31,11.72],[-57.87,12.2],[-57.42,12.68],[-57.38,12.75],[-57.38,12.75],[-57.47,13.59],[-57.55,14.44],[-57.64,15.28],[-57.72,16.13],[-57.81,16.97],[-57.94,17.92],[-58.07,18.87],[-58.2,19.81],[-58.34,20.76],[-58.47,21.71],[-58.61,22.66],[-58.75,23.6],[-58.8,24.38],[-58.85,25.15],[-58.9,25.92],[-58.95,26.69],[-58.54,27.47],[-58.12,28.25],[-57.7,29.03],[-57.27,29.81],[-56.84,30.58],[-56.16,31.32],[-55.48,32.05],[-54.79,32.78],[-54.08,33.5],[-53.47,34.1],[-52.84,34.69],[-52.84,34.69],[-53.06,35.34],[-53.28,35.98],[-53.5,36.63],[-53.67,37.43],[-53.84,38.23],[-54.02,39.03],[-53.8,39.9],[-53.59,40.77],[-53.36,41.64],[-53.08,42.4],[-52.79,43.17],[-52.5,43.93],[-52.19,44.7],[-51.6,45.56],[-50.98,46.43],[-50.53,47.17],[-50.06,47.91],[-49.57,48.64],[-49.5,49.39],[-49.42,50.13],[-49.35,50.88],[-49.73,51.59],[-50.13,52.31],[-50.54,53.02],[-50.73,53.97],[-50.93,54.91],[-51.14,55.86],[-51.14,55.86],[-49.78,55.84],[-48.42,55.82],[-47.06,55.78],[-45.7,55.72],[-44.02,55.48],[-42.35,55.22],[-40.71,54.94],[-39.48,54.39],[-38.28,53.83],[-37.11,53.25],[-35.97,52.67],[-34.87,52.08],[-33.86,51.63],[-32.88,51.18],[-31.91,50.73],[-30.97,50.26],[-30.97,50.26],[-31.13,50.07],[-31.3,49.96],[-31.39,49.9],[-31.39,49.9],[-31.33,49.88],[-30.87,49.9],[-29.97,50.01],[-29.22,50.19],[-28.46,50.37],[-27.68,50.54],[-26.88,50.7],[-25.99,50.92],[-25.1,51.13],[-23.66,51.42],[-22.21,51.7],[-21.03,51.76],[-19.84,51.81],[-18.63,51.6],[-17.44,51.37],[-16.25,51.14],[-15.16,50.98],[-14.08,50.82],[-13,50.64],[-11.73,50.57],[-10.46,50.48],[-9.03,50.62],[-7.58,50.73],[-6.27,50.69],[-4.96,50.64],[-3.65,50.57]]]}},{"type":"Feature","properties":{"ma":175,"type":"gpml:TopologicalClosedPlateBoundary","name":"Pacific Plate","pid":901,"deforming":false},"geometry":{"type":"Polygon","coordinates":[[[-137.6,-6.47],[-138.46,-6.41],[-139.33,-6.34],[-140.31,-6.31],[-141.3,-6.27],[-142.28,-6.23],[-143.26,-6.2],[-144.25,-6.15],[-145.23,-6.11],[-146.21,-6.07],[-147.19,-6.02],[-148.17,-5.97],[-149.16,-5.92],[-150.14,-5.87],[-151.12,-5.82],[-152.1,-5.76],[-153.08,-5.71],[-154.06,-5.65],[-155.04,-5.59],[-156.02,-5.53],[-157.01,-5.46],[-157.91,-5.36],[-158.82,-5.26],[-159.72,-5.15],[-160.63,-5.05],[-161.53,-4.94],[-162.44,-4.83],[-163.34,-4.72],[-164.24,-4.61],[-164.24,-4.61],[-164.24,-4.61],[-164.24,-4.61],[-164.2,-4.62],[-164.2,-4.62],[-163.38,-4.27],[-162.57,-3.91],[-161.72,-3.49],[-160.87,-3.07],[-160.01,-2.65],[-159.16,-2.23],[-158.31,-1.81],[-157.46,-1.39],[-156.63,-0.93],[-155.8,-0.48],[-154.97,-0.03],[-154.14,0.43],[-153.31,0.88],[-152.48,1.34],[-151.65,1.79],[-150.82,2.24],[-149.96,2.7],[-149.1,3.16],[-148.25,3.62],[-147.39,4.07],[-146.55,4.54],[-145.72,5],[-145.72,5],[-145.77,4.61],[-145.77,4.61],[-145.31,4.06],[-144.84,3.52],[-144.25,2.72],[-143.67,1.93],[-143.08,1.13],[-142.5,0.34],[-141.91,-0.46],[-141.33,-1.26],[-140.74,-2.05],[-140.16,-2.85],[-139.57,-3.64],[-138.99,-4.44],[-138.42,-4.96],[-137.86,-5.49],[-137.3,-6.01],[-136.73,-6.53],[-137.6,-6.47]]]}},{"type":"Feature","properties":{"ma":175,"type":"gpml:TopologicalClosedPlateBoundary","name":"Junction Plate North","pid":786,"deforming":false},"geometry":{"type":"Polygon","coordinates":[[[114.14,0.55],[114.37,1.26],[114.6,1.97],[114.83,2.69],[115.23,3.58],[115.64,4.48],[116.06,5.38],[116.47,6.28],[116.88,7.17],[117.3,8.07],[117.71,8.97],[118.13,9.86],[118.29,10.24],[118.29,10.24],[118.78,9.63],[119.26,9.02],[119.74,8.41],[120.3,7.75],[120.86,7.1],[121.42,6.44],[121.98,5.78],[122.53,5.12],[122.92,4.27],[123.3,3.42],[123.68,2.57],[124.07,1.72],[124.76,1.05],[125.45,0.38],[126.15,-0.29],[126.84,-0.96],[127.53,-1.63],[128.23,-2.31],[128.92,-2.98],[129.62,-3.65],[130.32,-4.32],[131.02,-4.99],[131.7,-5.64],[132.39,-6.29],[133.07,-6.94],[133.76,-7.6],[134.46,-8.25],[134.46,-8.25],[134.4,-9.12],[134.34,-9.99],[134.27,-10.87],[134.21,-11.74],[134.25,-12.68],[134.28,-13.63],[134.31,-14.57],[134.31,-14.57],[133.46,-14.19],[132.62,-13.82],[131.79,-13.44],[130.95,-13.05],[130.12,-12.67],[130.48,-12.12],[130.84,-11.58],[130.06,-11.15],[129.28,-10.73],[128.5,-10.3],[127.72,-9.86],[126.94,-9.43],[126.17,-8.99],[125.4,-8.56],[124.63,-8.12],[124.95,-7.59],[125.26,-7.07],[124.48,-6.63],[123.7,-6.2],[122.91,-5.76],[122.13,-5.32],[121.35,-4.87],[120.57,-4.43],[119.8,-3.99],[120.11,-3.52],[120.42,-3.05],[119.6,-2.59],[118.78,-2.12],[117.97,-1.65],[117.15,-1.18],[116.33,-0.72],[115.6,-0.3],[114.87,0.12],[114.14,0.55]]]}},{"type":"Feature","properties":{"ma":175,"type":"gpml:TopologicalClosedPlateBoundary","name":"West Gondwana","pid":701,"deforming":false},"geometry":{"type":"Polygon","coordinates":[[[-69.98,-61.39],[-69.99,-61.06],[-70.02,-60.76],[-69.98,-60.51],[-69.95,-60.18],[-69.9,-59.82],[-69.66,-59.39],[-69.34,-59.05],[-69.13,-58.85],[-68.88,-58.6],[-68.59,-58.33],[-68.11,-57.89],[-67.67,-57.51],[-67.36,-57.19],[-67.11,-56.87],[-67.07,-56.43],[-67.01,-56.15],[-66.96,-55.92],[-66.93,-55.84],[-66.83,-55.59],[-66.72,-55.29],[-66.56,-54.93],[-66.41,-54.64],[-66.25,-54.32],[-66.07,-53.97],[-65.94,-53.71],[-65.63,-53.07],[-65.42,-52.66],[-65.22,-52.26],[-65.03,-51.9],[-64.75,-51.39],[-64.6,-51.11],[-64.4,-50.65],[-64.28,-50.37],[-64.13,-50.01],[-63.86,-49.74],[-63.5,-49.17],[-63.5,-49.17],[-63.42,-48.84],[-63.42,-48.84],[-63.39,-48.72],[-63.28,-48.45],[-62.78,-47.65],[-62.29,-46.85],[-62.19,-46.11],[-62.09,-45.37],[-61.98,-44.53],[-61.87,-43.7],[-61.37,-42.95],[-60.89,-42.2],[-60.41,-41.44],[-59.95,-40.69],[-59.5,-39.93],[-59.32,-39.17],[-59.14,-38.4],[-58.96,-37.63],[-58.79,-36.86],[-58.66,-36],[-58.53,-35.13],[-58.47,-34.7],[-58.4,-34.31],[-58.37,-33.99],[-58.27,-33.42],[-58.21,-32.71],[-58.04,-32.25],[-57.8,-31.42],[-57.68,-30.93],[-57.7,-30.34],[-57.7,-30.34],[-57.71,-30.05],[-57.75,-29.69],[-57.73,-29.14],[-57.87,-28.39],[-57.95,-27.86],[-58.02,-27.34],[-58.58,-26.56],[-58.76,-25.87],[-58.93,-25.18],[-59.09,-24.49],[-59.3,-23.68],[-59.5,-22.86],[-59.7,-22.04],[-59.79,-21.19],[-59.87,-20.33],[-59.96,-19.47],[-60.04,-18.61],[-60.12,-17.75],[-60.21,-16.9],[-60.26,-16.03],[-60.31,-15.16],[-60.37,-14.29],[-60.02,-13.5],[-59.67,-12.71],[-59.33,-11.91],[-58.99,-11.12],[-58.65,-10.32],[-58.54,-10.06],[-58.45,-9.82],[-58.32,-9.56],[-58.17,-9.21],[-58.08,-9.02],[-57.99,-8.79],[-57.78,-8.44],[-57.63,-8.19],[-57.63,-8.19],[-57.69,-8.88],[-57.69,-8.88],[-56.78,-8.94],[-56.22,-8.85],[-55.66,-8.76],[-55.08,-8.87],[-54.49,-8.99],[-53.98,-9.2],[-53.46,-9.41],[-52.8,-9.77],[-52.13,-10.12],[-51.27,-10.36],[-50.4,-10.59],[-49.59,-10.43],[-48.77,-10.27],[-48.03,-9.9],[-47.29,-9.54],[-46.64,-9.19],[-45.99,-8.84],[-45.37,-8.62],[-44.74,-8.4],[-44.17,-8.32],[-43.61,-8.24],[-43.09,-8.12],[-42.58,-8.01],[-41.97,-7.92],[-41.36,-7.83],[-40.74,-7.36],[-40.13,-6.88],[-39.38,-6.74],[-38.63,-6.61],[-37.96,-6.73],[-37.29,-6.85],[-36.62,-6.96],[-35.85,-7.06],[-35.07,-7.15],[-34.18,-7.45],[-33.66,-7.51],[-33.15,-7.56],[-32.58,-7.59],[-32,-7.61],[-31.5,-7.45],[-31.01,-7.28],[-31.01,-7.28],[-31,-7.29],[-30.48,-7.37],[-29.97,-7.46],[-29.38,-7.74],[-28.79,-8.03],[-28.34,-8.34],[-27.89,-8.66],[-27.42,-9.21],[-26.95,-9.76],[-26.92,-9.76],[-26.92,-9.76],[-26.54,-9.26],[-26.53,-8.38],[-26.42,-7.66],[-26.49,-6.73],[-26.79,-6.1],[-27.09,-5.48],[-27.08,-4.88],[-26.85,-4.01],[-26.63,-3.23],[-26.36,-2.87],[-25.97,-2.57],[-25.35,-2.31],[-24.93,-2.33],[-24.49,-2.36],[-24.27,-2.02],[-24.12,-1.77],[-23.92,-1.5],[-23.61,-1.29],[-23.38,-0.93],[-23.15,-0.51],[-23.06,0.27],[-22.97,0.71],[-22.84,1.13],[-22.57,1.37],[-22.36,1.56],[-21.96,2.1],[-21.6,2.63],[-21.36,3.24],[-21.09,3.67],[-20.82,4.1],[-20.46,4.53],[-20.1,4.96],[-19.62,5.16],[-19.14,5.36],[-19.01,5.45],[-18.13,5.27],[-17.18,5.21],[-16.67,5.17],[-16.51,5.07],[-15.96,4.97],[-15.22,5.25],[-14.43,5.62],[-13.98,5.93],[-13.08,6.2],[-12.53,6.46],[-11.8,6.58],[-10.97,6.67],[-10.31,6.91],[-9.99,6.94],[-9.99,6.94],[-9.94,6.92],[-9.68,6.8],[-9.36,6.62],[-8.96,6.4],[-8.39,6.05],[-7.7,5.68],[-7.4,5.55],[-6.9,5.36],[-6.5,5.21],[-6.05,5.04],[-5.3,4.69],[-4.97,4.53],[-4.11,4.12],[-3.38,3.77],[-3.38,3.77],[-2.68,3.75],[-2.03,3.76],[-1.39,3.77],[-0.63,3.65],[0.25,3.56],[0.63,3.42],[0.63,3.42],[1.08,3.31],[1.51,3.23],[1.79,3.19],[2.19,3.32],[2.58,3.34],[3.46,3.24],[4.22,3.11],[4.95,3.07],[5.78,2.97],[6.5,2.91],[6.5,2.91],[5.88,3.31],[5.06,3.82],[5.06,3.82],[5.95,4.07],[6.84,4.31],[7.74,4.55],[8.63,4.79],[9.43,5.1],[10.23,5.41],[11.03,5.72],[11.84,6.03],[12.64,6.34],[12.64,6.34],[12.57,6.42],[12.4,7.26],[12.23,8.11],[12.06,8.95],[11.88,9.8],[11.88,9.8],[12.67,10.34],[13.46,10.88],[13.46,10.88],[13.19,11.27],[13.19,11.27],[13.76,11.69],[14.33,12.1],[14.89,12.51],[14.89,12.51],[15.37,12.17],[15.84,11.83],[16.63,11.39],[17.42,10.95],[18.21,10.51],[19,10.06],[19,10.06],[19.68,10.53],[20.37,11],[21.06,11.47],[21.79,11.99],[22.51,12.52],[23.24,13.04],[23.97,13.57],[23.97,13.57],[24.61,13.24],[25.25,12.91],[25.88,12.58],[26.38,13.05],[26.88,13.52],[27.77,13.05],[28.66,12.58],[29.54,12.1],[30.41,11.62],[31.29,11.14],[32.16,10.66],[33.03,10.18],[33.9,9.69],[34.76,9.2],[35.23,9.63],[36.02,9.08],[36.81,8.53],[37.59,7.97],[38.38,7.41],[39.16,6.85],[39.94,6.29],[40.72,5.73],[40.72,5.73],[40.89,6.09],[40.89,6.09],[41.73,5.57],[42.58,5.05],[43.42,4.52],[44.25,4],[45.09,3.47],[45.93,2.95],[46.31,3.51],[46.7,4.07],[47.08,4.63],[47.92,4.13],[48.75,3.64],[49.58,3.14],[50.41,2.65],[51.24,2.15],[52.07,1.65],[52.9,1.15],[53.73,0.65],[54.55,0.16],[55.38,-0.34],[56.21,-0.84],[57.04,-1.34],[57.87,-1.84],[58.7,-2.33],[59.53,-2.83],[60.36,-3.33],[61.08,-3.73],[61.8,-4.12],[62.52,-4.52],[63.25,-4.92],[63.97,-5.31],[63.97,-5.31],[63.6,-6.14],[63.22,-6.96],[62.84,-7.79],[62.46,-8.61],[61.97,-9.48],[61.47,-10.34],[60.98,-11.21],[60.48,-12.07],[59.98,-12.93],[59.47,-13.79],[58.96,-14.65],[58.45,-15.51],[57.87,-16.23],[57.28,-16.95],[56.69,-17.68],[56.09,-18.4],[55.49,-19.11],[54.89,-19.83],[54.28,-20.54],[53.66,-21.26],[53.04,-21.96],[52.41,-22.67],[51.75,-23.26],[51.08,-23.85],[50.41,-24.44],[49.73,-25.02],[49.05,-25.6],[48.36,-26.18],[47.69,-26.91],[47.02,-27.64],[47.02,-27.64],[46.93,-27.47],[46.34,-26.92],[45.75,-26.36],[45.17,-25.8],[45.17,-25.8],[44.55,-26.46],[43.76,-27.08],[42.96,-27.7],[42.16,-28.31],[41.44,-28.8],[40.72,-29.29],[40.09,-29.79],[39.44,-30.29],[38.79,-30.78],[37.96,-31.18],[37.11,-31.58],[36.26,-31.98],[35.36,-32.29],[34.46,-32.6],[33.86,-32.81],[33.25,-33.01],[32.87,-33.4],[32.49,-33.8],[32.14,-34.22],[31.78,-34.65],[31.06,-35.04],[30.34,-35.43],[29.39,-35.61],[28.44,-35.79],[27.57,-35.88],[26.7,-35.97],[25.71,-36.09],[24.72,-36.21],[23.77,-36.6],[22.81,-37],[22.12,-37.41],[21.42,-37.81],[21.02,-38.63],[20.6,-39.44],[20.24,-40.23],[19.86,-41],[19.15,-41.57],[18.42,-42.14],[17.68,-42.7],[17.14,-43.34],[16.6,-43.97],[16.03,-44.6],[15.12,-45.03],[14.2,-45.45],[13.42,-45.88],[12.64,-46.3],[12.15,-46.72],[11.66,-47.14],[11.09,-47.77],[10.5,-48.4],[10.26,-49.18],[10.01,-49.96],[9.73,-50.69],[9.45,-51.41],[9.34,-52.18],[9.22,-52.95],[8.79,-53.77],[8.35,-54.58],[7.46,-55.42],[6.29,-55.8],[5.1,-56.16],[3.48,-56.26],[1.85,-56.34],[0.74,-56.35],[-0.36,-56.35],[-2.05,-56.59],[-3.01,-57.03],[-4.65,-57.1],[-5.7,-57.52],[-6.79,-57.92],[-7.75,-58.33],[-8.75,-58.74],[-10.53,-58.88],[-12.33,-59],[-13.99,-59.35],[-15.69,-59.69],[-17.08,-60.05],[-18.51,-60.4],[-19.51,-60.85],[-20.53,-61.3],[-21.59,-61.73],[-23.09,-61.91],[-24.61,-62.06],[-26.14,-62.2],[-28.28,-62.25],[-30.43,-62.26],[-32.57,-62.24],[-34.21,-62.36],[-35.87,-62.45],[-37.33,-62.58],[-38.8,-62.7],[-40.84,-62.9],[-42.89,-63.07],[-44.97,-63.21],[-47.09,-63.14],[-49.19,-63.03],[-51.28,-62.9],[-52.8,-62.91],[-54.32,-62.91],[-55.84,-62.89],[-57.66,-62.76],[-59.46,-62.59],[-61.24,-62.41],[-63,-62.21],[-64.73,-61.98],[-66.5,-61.8],[-68.25,-61.61],[-69.98,-61.39]]]}},{"type":"Feature","properties":{"ma":175,"type":"gpml:TopologicalClosedPlateBoundary","name":"AACM","pid":18100,"deforming":false},"geometry":{"type":"Polygon","coordinates":[[[-9.34,74.73],[-8.74,73.88],[-8.2,73.02],[-7.71,72.16],[-7.26,71.29],[-7.1,70.4],[-6.95,69.5],[-6.82,68.61],[-6.7,67.72],[-6.68,67.65],[-6.65,67.31],[-6.65,67.19],[-6.64,67.03],[-6.62,66.74],[-6.61,66.67],[-6.61,66.67],[-6.37,65.71],[-6.13,64.75],[-5.92,63.79],[-5.72,62.84],[-5.5,61.99],[-5.3,61.14],[-5.11,60.3],[-4.93,59.45],[-4.76,58.6],[-4.5,57.88],[-4.25,57.15],[-4.01,56.43],[-4.64,55.87],[-4.46,55.15],[-4.28,54.42],[-4.1,53.7],[-4.1,53.7],[-5.45,54.02],[-6.81,54.33],[-8.34,54.57],[-9.9,54.79],[-11.47,55],[-12.83,55.04],[-14.19,55.07],[-15.19,55.08],[-16.25,55.08],[-17.13,55.07],[-18.17,55.05],[-18.96,55.03],[-19.91,55],[-20.74,54.96],[-21.47,54.82],[-22.15,54.67],[-22.75,54.64],[-23.86,54.47],[-24.45,54.32],[-25.16,54.09],[-26.22,53.36],[-26.99,52.92],[-27.75,52.48],[-28.37,52.23],[-28.68,52.04],[-29.46,51.38],[-29.7,51.16],[-30.69,50.57],[-30.97,50.26],[-30.97,50.26],[-31.91,50.73],[-32.88,51.18],[-33.86,51.63],[-34.87,52.08],[-35.97,52.67],[-37.11,53.25],[-38.28,53.83],[-39.48,54.39],[-40.71,54.94],[-42.35,55.22],[-44.02,55.48],[-45.7,55.72],[-47.06,55.78],[-48.42,55.82],[-49.78,55.84],[-51.14,55.86],[-51.14,55.86],[-51.18,56.04],[-50.82,56.7],[-50.44,57.37],[-50.05,58.04],[-49.5,58.78],[-48.93,59.53],[-48.33,60.28],[-47.7,61.02],[-47.7,61.02],[-49.04,61.63],[-50.43,62.23],[-51.88,62.81],[-53.3,63.5],[-54.8,64.18],[-56.37,64.84],[-57.97,65.51],[-59.64,66.17],[-61.41,66.8],[-62.18,67.3],[-62.98,67.79],[-62.98,67.79],[-61.45,68.29],[-59.85,68.69],[-58.19,69.08],[-56.47,69.45],[-53.98,69.84],[-51.39,70.19],[-49.57,70.45],[-47.7,70.7],[-45.78,70.92],[-43.49,71.31],[-41.11,71.66],[-38.65,71.98],[-36.75,72.32],[-34.77,72.63],[-32.73,72.92],[-29.99,73.06],[-27.21,73.16],[-24.4,73.23],[-21.11,73.54],[-17.72,73.79],[-15.03,74.14],[-12.24,74.46],[-9.34,74.73]]]}},{"type":"Feature","properties":{"ma":175,"type":"gpml:TopologicalClosedPlateBoundary","name":"Moroccan-Plate","pid":706,"deforming":false},"geometry":{"type":"Polygon","coordinates":[[[-1.26,7.34],[-0.64,6.88],[0.13,6.31],[0.8,6.01],[1.31,5.78],[1.81,5.55],[2.28,5.35],[2.74,5.14],[3.2,4.92],[3.67,4.69],[4.41,4.23],[5.14,3.77],[5.88,3.31],[6.5,2.91],[6.5,2.91],[5.78,2.97],[4.95,3.07],[4.22,3.11],[3.46,3.24],[2.58,3.34],[2.19,3.32],[1.79,3.19],[1.51,3.23],[1.08,3.31],[0.63,3.42],[0.63,3.42],[0.25,3.56],[-0.63,3.65],[-1.39,3.77],[-2.03,3.76],[-2.68,3.75],[-3.38,3.77],[-3.38,3.77],[-4.11,4.12],[-4.97,4.53],[-5.3,4.69],[-6.05,5.04],[-6.5,5.21],[-6.9,5.36],[-7.4,5.55],[-7.7,5.68],[-8.39,6.05],[-8.96,6.4],[-9.36,6.62],[-9.68,6.8],[-9.94,6.92],[-9.99,6.94],[-9.99,6.94],[-9.86,6.96],[-9.25,6.77],[-8.82,6.48],[-8.33,6.28],[-8.01,6.11],[-7.68,5.92],[-7.09,5.8],[-6.56,5.6],[-5.93,5.8],[-5.37,5.99],[-4.89,6.14],[-4.38,6.31],[-3.76,6.51],[-3.05,6.74],[-2.44,6.93],[-1.81,7.14],[-1.39,7.27],[-1.26,7.34]]]}},{"type":"Feature","properties":{"ma":175,"type":"gpml:TopologicalClosedPlateBoundary","name":"Izanagi Plate 168_161.1","pid":926,"deforming":false},"geometry":{"type":"MultiPolygon","coordinates":[[[[180,84.04],[180,83.04],[180,82.05],[180,81.05],[180,80.06],[180,79.06],[180,78.07],[180,77.08],[180,76.08],[180,75.09],[180,74.09],[180,73.1],[180,72.1],[180,71.11],[180,70.11],[180,69.12],[180,68.12],[180,67.13],[180,66.13],[180,65.14],[180,64.14],[180,63.15],[180,62.15],[180,61.16],[180,60.16],[180,59.17],[180,58.17],[180,57.18],[180,56.18],[180,55.19],[180,54.2],[180,53.2],[180,52.21],[180,51.21],[180,50.22],[180,49.22],[180,48.23],[180,47.23],[180,46.24],[180,45.24],[180,44.25],[180,43.25],[180,42.26],[180,41.26],[180,40.27],[180,39.27],[180,38.28],[180,37.28],[180,36.29],[180,35.29],[180,34.3],[180,33.3],[180,32.31],[180,31.32],[180,30.32],[180,29.33],[180,28.33],[180,27.34],[180,26.34],[180,25.35],[180,24.35],[180,23.36],[180,22.36],[180,21.37],[180,20.37],[180,19.38],[180,18.38],[180,17.39],[180,16.39],[180,15.4],[180,14.4],[180,13.41],[180,12.41],[180,11.42],[180,10.42],[180,9.43],[180,8.43],[180,7.44],[180,6.45],[180,5.45],[180,4.46],[180,3.46],[180,2.47],[180,1.47],[180,0.48],[180,-0.52],[180,-1.51],[180,-2.51],[180,-3.5],[180,-4.5],[179.12,-4.79],[178.25,-5.09],[177.37,-5.39],[176.49,-5.68],[175.61,-5.97],[174.73,-6.26],[173.85,-6.55],[172.96,-6.84],[172.08,-7.13],[171.84,-6.49],[171.6,-5.85],[170.66,-6.19],[169.72,-6.52],[168.78,-6.85],[167.83,-7.18],[166.89,-7.5],[165.94,-7.83],[164.99,-8.15],[164.04,-8.47],[163.09,-8.78],[162.14,-9.1],[161.18,-9.41],[160.22,-9.72],[159.27,-10.03],[158.31,-10.33],[158.12,-9.68],[157.94,-9.03],[157.01,-9.31],[156.07,-9.59],[155.13,-9.86],[154.19,-10.14],[153.25,-10.41],[152.3,-10.67],[151.36,-10.94],[150.41,-11.2],[149.46,-11.46],[148.51,-11.71],[147.56,-11.97],[146.6,-12.22],[145.65,-12.46],[144.69,-12.71],[143.73,-12.94],[142.77,-13.18],[142.5,-12.43],[142.23,-11.68],[141.24,-11.87],[140.25,-12.06],[139.25,-12.24],[138.26,-12.42],[137.26,-12.6],[136.26,-12.77],[135.26,-12.94],[134.26,-13.1],[134.26,-13.1],[134.24,-12.42],[134.21,-11.74],[134.27,-10.87],[134.34,-9.99],[134.4,-9.12],[134.46,-8.25],[134.46,-8.25],[133.76,-7.6],[133.07,-6.94],[132.39,-6.29],[131.7,-5.64],[131.02,-4.99],[130.32,-4.32],[129.62,-3.65],[128.92,-2.98],[128.23,-2.31],[127.53,-1.63],[126.84,-0.96],[126.15,-0.29],[125.45,0.38],[124.76,1.05],[124.07,1.72],[123.68,2.57],[123.3,3.42],[122.92,4.27],[122.53,5.12],[122.15,5.58],[122.15,5.58],[122.89,6.07],[123.63,6.55],[124.38,7.04],[124.85,7.64],[125.32,8.25],[125.8,8.86],[126.28,9.46],[126.67,10.12],[127.07,10.77],[127.47,11.43],[127.87,12.08],[128.44,12.88],[129.02,13.68],[129.59,14.47],[129.94,15.21],[130.3,15.95],[130.65,16.69],[131.01,17.42],[131.01,17.42],[130.28,17.72],[129.54,18.02],[128.79,18.31],[128.36,18.94],[127.93,19.56],[127.68,20.19],[127.43,20.82],[127.33,21.53],[126.68,22.27],[126.03,23.01],[125.39,23.71],[124.75,24.4],[124.28,24.92],[123.81,25.45],[123.33,25.97],[122.78,26.46],[122.22,26.95],[122.22,26.95],[122.75,27.66],[123.28,28.36],[123.82,29.07],[124.37,29.77],[124.85,30.64],[125.35,31.5],[125.85,32.36],[126.37,33.22],[126.89,34.08],[127.42,34.94],[127.74,35.7],[128.06,36.45],[128.38,37.21],[128.72,37.96],[129.04,38.73],[129.38,39.5],[129.72,40.27],[130.07,41.03],[130.52,41.91],[130.98,42.79],[131.45,43.66],[131.94,44.54],[132.29,45.17],[132.65,45.81],[133.02,46.44],[133.55,47.29],[134.1,48.14],[134.53,48.8],[134.98,49.47],[135.31,50.1],[135.66,50.74],[136.14,51.31],[136.63,51.89],[137.13,52.57],[137.65,53.26],[138.09,53.86],[138.54,54.46],[139.07,55.13],[139.62,55.79],[140.23,56.71],[140.87,57.63],[141.45,58.52],[142.06,59.4],[142.64,60.17],[143.24,60.93],[143.85,61.7],[144.48,62.47],[145.15,63.24],[145.94,64.14],[146.77,65.04],[147.49,65.77],[148.25,66.49],[148.85,67.22],[149.49,67.95],[150.31,68.83],[151.2,69.71],[151.91,70.37],[152.68,71.02],[153.49,71.68],[154.4,72.45],[155.38,73.22],[156.34,74.15],[157.4,75.08],[158.15,75.92],[159,76.77],[159.95,77.61],[161.02,78.33],[162.23,79.06],[163.61,79.78],[165.19,80.49],[166.58,81.13],[168.17,81.76],[170.03,82.38],[172.48,83.28],[175.68,84.17],[180,85.03],[180,84.04]]],[[[-180,-3.5],[-180,-2.51],[-180,-1.51],[-180,-0.52],[-180,0.48],[-180,1.47],[-180,2.47],[-180,3.46],[-180,4.46],[-180,5.45],[-180,6.45],[-180,7.44],[-180,8.43],[-180,9.43],[-180,10.42],[-180,11.42],[-180,12.41],[-180,13.41],[-180,14.4],[-180,15.4],[-180,16.39],[-180,17.39],[-180,18.38],[-180,19.38],[-180,20.37],[-180,21.37],[-180,22.36],[-180,23.36],[-180,24.35],[-180,25.35],[-180,26.34],[-180,27.34],[-180,28.33],[-180,29.33],[-180,30.32],[-180,31.32],[-180,32.31],[-180,33.3],[-180,34.3],[-180,35.29],[-180,36.29],[-180,37.28],[-180,38.28],[-180,39.27],[-180,40.27],[-180,41.26],[-180,42.26],[-180,43.25],[-180,44.25],[-180,45.24],[-180,46.24],[-180,47.23],[-180,48.23],[-180,49.22],[-180,50.22],[-180,51.21],[-180,52.21],[-180,53.2],[-180,54.2],[-180,55.19],[-180,56.18],[-180,57.18],[-180,58.17],[-180,59.17],[-180,60.16],[-180,61.16],[-180,62.15],[-180,63.15],[-180,64.14],[-180,65.14],[-180,66.13],[-180,67.13],[-180,68.12],[-180,69.12],[-180,70.11],[-180,71.11],[-180,72.1],[-180,73.1],[-180,74.09],[-180,75.09],[-180,76.08],[-180,77.08],[-180,78.07],[-180,79.06],[-180,80.06],[-180,81.05],[-180,82.05],[-180,83.04],[-180,84.04],[-180,85.03],[-173.8,85.87],[-164.62,86.64],[-150.68,87.27],[-130.46,87.66],[-106.46,87.68],[-85.63,87.32],[-71.1,86.71],[-61.54,85.95],[-61.54,85.95],[-63.79,85.35],[-65.52,84.74],[-66.82,84.13],[-67.87,83.52],[-67.8,82.81],[-67.74,82.1],[-68,81.38],[-68.22,80.65],[-69.57,80.02],[-70.76,79.39],[-72.36,78.6],[-73.76,77.81],[-75,77.01],[-75.82,76.53],[-76.6,76.04],[-75.54,75.09],[-74.07,74.28],[-72.74,73.46],[-72.74,73.46],[-76.13,73.31],[-79.47,73.11],[-82.71,72.85],[-85.85,72.55],[-88.88,72.2],[-91.79,71.8],[-94.58,71.36],[-97.23,70.88],[-99.76,70.37],[-102.15,69.82],[-104.43,69.24],[-106.58,68.63],[-108.61,68],[-110.54,67.34],[-112.36,66.66],[-114.08,65.96],[-115.71,65.25],[-117.25,64.51],[-115.96,63.95],[-114.73,63.37],[-113.54,62.78],[-112.4,62.18],[-113.76,61.51],[-115.05,60.81],[-116.29,60.11],[-117.48,59.39],[-118.62,58.67],[-119.71,57.93],[-120.76,57.19],[-121.76,56.44],[-122.73,55.68],[-123.66,54.91],[-122.36,54.41],[-121.1,53.9],[-119.87,53.37],[-118.66,52.84],[-119.4,52.11],[-120.12,51.37],[-120.81,50.63],[-121.48,49.89],[-122.14,49.15],[-122.77,48.4],[-123.38,47.64],[-124.42,48.05],[-125.47,48.45],[-126.1,47.63],[-126.71,46.8],[-127.31,45.97],[-127.89,45.14],[-128.45,44.31],[-128.99,43.47],[-129.52,42.63],[-130.04,41.79],[-130.54,40.95],[-131.03,40.1],[-131.51,39.25],[-131.97,38.4],[-132.43,37.55],[-131.68,37.29],[-130.93,37.03],[-131.4,36.15],[-131.85,35.27],[-132.3,34.38],[-132.74,33.5],[-133.17,32.61],[-133.59,31.73],[-134,30.84],[-134.41,29.95],[-134.81,29.06],[-135.2,28.17],[-135.58,27.27],[-135.96,26.38],[-136.33,25.49],[-136.7,24.59],[-137.06,23.69],[-137.42,22.8],[-137.77,21.9],[-138.12,21],[-138.47,20.1],[-138.81,19.2],[-139.14,18.3],[-139.47,17.39],[-140.27,17.68],[-141.06,17.97],[-141.41,17.06],[-141.75,16.16],[-142.09,15.25],[-142.43,14.34],[-142.76,13.44],[-143.09,12.53],[-143.42,11.62],[-143.75,10.71],[-144.08,9.8],[-144.4,8.89],[-144.72,7.98],[-145.04,7.08],[-145.36,6.17],[-145.68,5.26],[-145.72,5],[-145.72,5],[-146.55,4.54],[-147.39,4.07],[-148.25,3.62],[-149.1,3.16],[-149.96,2.7],[-150.82,2.24],[-151.65,1.79],[-152.48,1.34],[-153.31,0.88],[-154.14,0.43],[-154.97,-0.03],[-155.8,-0.48],[-156.63,-0.93],[-157.46,-1.39],[-158.31,-1.81],[-159.16,-2.23],[-160.01,-2.65],[-160.87,-3.07],[-161.72,-3.49],[-162.57,-3.91],[-163.38,-4.27],[-164.2,-4.62],[-164.2,-4.62],[-164.24,-4.61],[-164.24,-4.61],[-165.06,-4.79],[-165.88,-4.97],[-166.7,-5.15],[-167.52,-5.33],[-167.73,-4.61],[-167.95,-3.9],[-168.17,-3.18],[-169.11,-3.47],[-170.06,-3.75],[-171.01,-4.04],[-171.96,-4.32],[-172.91,-4.6],[-173.86,-4.88],[-174.81,-5.16],[-175.76,-5.44],[-176.71,-5.72],[-177.66,-5.99],[-177.85,-5.29],[-178.04,-4.59],[-178.23,-3.89],[-179.11,-4.2],[-180,-4.5],[-180,-3.5]]]]}},{"type":"Feature","properties":{"ma":175,"type":"gpml:TopologicalClosedPlateBoundary","name":"Chortis","pid":2035,"deforming":false},"geometry":{"type":"Polygon","coordinates":[[[-55.11,3.32],[-55.89,3.17],[-56.84,2.96],[-57.79,2.76],[-58.55,2.57],[-59.31,2.38],[-60.25,2.18],[-61.19,1.99],[-62.09,1.88],[-62.09,1.88],[-62.02,2.55],[-61.95,3.22],[-61.81,3.98],[-61.67,4.74],[-61.53,5.49],[-61.35,6.29],[-61.17,7.09],[-60.98,7.89],[-60.69,8.7],[-60.39,9.51],[-60.39,9.51],[-60.38,9.5],[-59.77,8.8],[-59.17,8.1],[-58.57,7.4],[-58.02,6.77],[-57.48,6.14],[-56.94,5.51],[-56.27,4.99],[-55.61,4.47],[-54.94,3.95],[-54.33,3.47],[-55.11,3.32]]]}},{"type":"Feature","properties":{"ma":175,"type":"gpml:TopologicalClosedPlateBoundary","name":"Phoenix Plate","pid":919,"deforming":false},"geometry":{"type":"MultiPolygon","coordinates":[[[[180,-5.49],[180,-6.49],[180,-7.49],[180,-8.49],[180,-9.48],[180,-10.48],[180,-11.48],[180,-12.48],[180,-13.47],[180,-14.47],[180,-15.47],[180,-16.46],[180,-17.46],[180,-18.46],[180,-19.46],[180,-20.45],[180,-21.45],[180,-22.45],[180,-23.44],[180,-24.44],[180,-25.44],[180,-26.44],[180,-27.43],[180,-28.43],[180,-29.43],[180,-30.42],[180,-31.42],[180,-32.42],[180,-33.42],[180,-34.41],[180,-35.41],[180,-36.41],[180,-37.4],[180,-38.4],[180,-39.4],[180,-40.4],[180,-41.39],[180,-42.39],[180,-43.39],[180,-44.38],[180,-45.38],[180,-46.38],[180,-47.38],[180,-48.37],[180,-49.37],[180,-50.37],[180,-51.37],[180,-52.36],[180,-53.36],[180,-54.36],[180,-55.35],[180,-56.35],[180,-57.35],[180,-58.35],[180,-59.34],[180,-60.34],[180,-61.34],[180,-62.33],[180,-63.33],[180,-64.33],[180,-65.33],[180,-66.32],[180,-67.32],[180,-68.32],[180,-69.31],[180,-70.31],[180,-71.31],[180,-72.31],[180,-73.3],[180,-74.3],[180,-75.3],[176.91,-75.22],[173.86,-75.1],[170.86,-74.93],[167.93,-74.73],[164.86,-74.62],[161.85,-74.46],[158.89,-74.27],[156.02,-74.03],[153.23,-73.76],[153.23,-73.76],[152.58,-72.94],[151.99,-72.12],[151.44,-71.3],[150.01,-70.47],[150.37,-69.96],[151.58,-69.05],[152.7,-68.14],[153.67,-67.22],[154.57,-66.29],[154.89,-65.73],[155.2,-65.17],[155.07,-64.58],[154.95,-63.99],[154.24,-63.23],[153.56,-62.46],[152.91,-61.69],[152.3,-60.92],[151.5,-60.03],[150.75,-59.14],[150.04,-58.24],[149.36,-57.34],[148.72,-56.43],[148.56,-55.56],[148.41,-54.69],[148.26,-53.82],[148.13,-52.94],[147.99,-52.07],[147.77,-51.27],[147.56,-50.47],[147.35,-49.67],[147.15,-48.87],[146.95,-48.07],[146.82,-47.33],[146.68,-46.6],[146.55,-45.86],[146.55,-45.86],[145.45,-45.3],[144.38,-44.72],[143.32,-44.14],[142.29,-43.55],[141.13,-43.14],[139.99,-42.71],[139.35,-42.44],[138.71,-42.16],[138.25,-41.69],[137.81,-41.22],[137.33,-40.57],[136.87,-39.92],[136.17,-39.16],[135.49,-38.39],[134.83,-37.62],[134.17,-36.84],[134.17,-35.98],[134.17,-35.12],[134.17,-34.25],[134.18,-33.39],[134.18,-32.53],[134.19,-31.59],[134.2,-30.64],[134.22,-29.7],[134.23,-28.76],[134.25,-27.82],[134.26,-26.88],[134.27,-25.94],[134.29,-25],[134.31,-24.12],[134.34,-23.25],[134.36,-22.37],[134.39,-21.5],[134.41,-20.62],[134.43,-19.75],[134.46,-18.88],[134.42,-17.91],[134.39,-16.95],[134.36,-15.99],[134.32,-15.03],[134.29,-14.07],[134.26,-13.1],[135.26,-12.94],[136.26,-12.77],[137.26,-12.6],[138.26,-12.42],[139.25,-12.24],[140.25,-12.06],[141.24,-11.87],[142.23,-11.68],[142.5,-12.43],[142.77,-13.18],[143.73,-12.94],[144.69,-12.71],[145.65,-12.46],[146.6,-12.22],[147.56,-11.97],[148.51,-11.71],[149.46,-11.46],[150.41,-11.2],[151.36,-10.94],[152.3,-10.67],[153.25,-10.41],[154.19,-10.14],[155.13,-9.86],[156.07,-9.59],[157.01,-9.31],[157.94,-9.03],[158.12,-9.68],[158.31,-10.33],[159.27,-10.03],[160.22,-9.72],[161.18,-9.41],[162.14,-9.1],[163.09,-8.78],[164.04,-8.47],[164.99,-8.15],[165.94,-7.83],[166.89,-7.5],[167.83,-7.18],[168.78,-6.85],[169.72,-6.52],[170.66,-6.19],[171.6,-5.85],[171.84,-6.49],[172.08,-7.13],[172.96,-6.84],[173.85,-6.55],[174.73,-6.26],[175.61,-5.97],[176.49,-5.68],[177.37,-5.39],[178.25,-5.09],[179.12,-4.79],[180,-4.5],[180,-5.49]]],[[[-180,-74.3],[-180,-73.3],[-180,-72.31],[-180,-71.31],[-180,-70.31],[-180,-69.31],[-180,-68.32],[-180,-67.32],[-180,-66.32],[-180,-65.33],[-180,-64.33],[-180,-63.33],[-180,-62.33],[-180,-61.34],[-180,-60.34],[-180,-59.34],[-180,-58.35],[-180,-57.35],[-180,-56.35],[-180,-55.35],[-180,-54.36],[-180,-53.36],[-180,-52.36],[-180,-51.37],[-180,-50.37],[-180,-49.37],[-180,-48.37],[-180,-47.38],[-180,-46.38],[-180,-45.38],[-180,-44.38],[-180,-43.39],[-180,-42.39],[-180,-41.39],[-180,-40.4],[-180,-39.4],[-180,-38.4],[-180,-37.4],[-180,-36.41],[-180,-35.41],[-180,-34.41],[-180,-33.42],[-180,-32.42],[-180,-31.42],[-180,-30.42],[-180,-29.43],[-180,-28.43],[-180,-27.43],[-180,-26.44],[-180,-25.44],[-180,-24.44],[-180,-23.44],[-180,-22.45],[-180,-21.45],[-180,-20.45],[-180,-19.46],[-180,-18.46],[-180,-17.46],[-180,-16.46],[-180,-15.47],[-180,-14.47],[-180,-13.47],[-180,-12.48],[-180,-11.48],[-180,-10.48],[-180,-9.48],[-180,-8.49],[-180,-7.49],[-180,-6.49],[-180,-5.49],[-180,-4.5],[-179.11,-4.2],[-178.23,-3.89],[-178.04,-4.59],[-177.85,-5.29],[-177.66,-5.99],[-176.71,-5.72],[-175.76,-5.44],[-174.81,-5.16],[-173.86,-4.88],[-172.91,-4.6],[-171.96,-4.32],[-171.01,-4.04],[-170.06,-3.75],[-169.11,-3.47],[-168.17,-3.18],[-167.95,-3.9],[-167.73,-4.61],[-167.52,-5.33],[-166.7,-5.15],[-165.88,-4.97],[-165.06,-4.79],[-164.24,-4.61],[-164.24,-4.61],[-163.34,-4.72],[-162.44,-4.83],[-161.53,-4.94],[-160.63,-5.05],[-159.72,-5.15],[-158.82,-5.26],[-157.91,-5.36],[-157.01,-5.46],[-156.02,-5.53],[-155.04,-5.59],[-154.06,-5.65],[-153.08,-5.71],[-152.1,-5.76],[-151.12,-5.82],[-150.14,-5.87],[-149.16,-5.92],[-148.17,-5.97],[-147.19,-6.02],[-146.21,-6.07],[-145.23,-6.11],[-144.25,-6.15],[-143.26,-6.2],[-142.28,-6.23],[-141.3,-6.27],[-140.31,-6.31],[-139.33,-6.34],[-138.38,-6.41],[-137.44,-6.48],[-136.49,-6.55],[-135.55,-6.62],[-135.55,-6.62],[-134.7,-7.11],[-133.85,-7.61],[-133,-8.1],[-132.14,-8.59],[-131.29,-9.08],[-130.43,-9.57],[-130.8,-10.2],[-131.18,-10.84],[-131.56,-11.47],[-130.69,-11.98],[-129.81,-12.49],[-128.93,-13],[-128.05,-13.51],[-127.17,-14.01],[-126.28,-14.51],[-125.38,-15],[-124.49,-15.49],[-123.58,-15.98],[-122.68,-16.46],[-121.77,-16.94],[-120.85,-17.42],[-121.3,-18.19],[-121.74,-18.96],[-120.86,-19.4],[-119.97,-19.83],[-119.07,-20.26],[-118.17,-20.69],[-117.27,-21.11],[-116.36,-21.53],[-115.44,-21.94],[-114.52,-22.34],[-113.59,-22.75],[-112.66,-23.14],[-111.73,-23.53],[-110.78,-23.92],[-109.84,-24.3],[-110.14,-25.02],[-110.45,-25.74],[-110.76,-26.46],[-109.8,-26.81],[-108.82,-27.16],[-107.85,-27.5],[-106.86,-27.83],[-105.87,-28.16],[-104.88,-28.48],[-103.87,-28.79],[-102.86,-29.1],[-101.85,-29.39],[-100.83,-29.68],[-99.8,-29.97],[-98.77,-30.24],[-97.74,-30.5],[-97.96,-31.25],[-98.19,-31.99],[-97.11,-32.23],[-96.02,-32.47],[-94.92,-32.69],[-93.82,-32.9],[-92.72,-33.11],[-91.61,-33.3],[-90.49,-33.48],[-89.37,-33.66],[-88.25,-33.82],[-87.12,-33.98],[-85.99,-34.12],[-84.86,-34.25],[-83.72,-34.37],[-82.57,-34.49],[-81.43,-34.59],[-81.43,-33.8],[-80.26,-33.84],[-79.1,-33.88],[-77.93,-33.91],[-76.76,-33.92],[-75.6,-33.92],[-74.43,-33.92],[-73.26,-33.9],[-72.1,-33.87],[-70.93,-33.83],[-69.77,-33.78],[-68.61,-33.72],[-67.44,-33.65],[-66.28,-33.57],[-65.12,-33.48],[-63.96,-33.38],[-62.8,-33.27],[-61.65,-33.15],[-60.5,-33.02],[-59.35,-32.88],[-58.21,-32.72],[-58.21,-32.72],[-58.27,-33.42],[-58.37,-33.99],[-58.4,-34.31],[-58.47,-34.7],[-58.53,-35.13],[-58.66,-36],[-58.79,-36.86],[-58.96,-37.63],[-59.14,-38.4],[-59.32,-39.17],[-59.5,-39.93],[-59.95,-40.69],[-60.41,-41.44],[-60.89,-42.2],[-61.37,-42.95],[-61.87,-43.7],[-61.98,-44.53],[-62.09,-45.37],[-62.19,-46.11],[-62.29,-46.85],[-62.78,-47.65],[-63.28,-48.45],[-63.39,-48.72],[-63.42,-48.84],[-63.42,-48.84],[-63.5,-49.17],[-63.5,-49.17],[-63.86,-49.74],[-64.13,-50.01],[-64.28,-50.37],[-64.4,-50.65],[-64.6,-51.11],[-64.75,-51.39],[-65.03,-51.9],[-65.22,-52.26],[-65.42,-52.66],[-65.63,-53.07],[-65.94,-53.71],[-66.07,-53.97],[-66.25,-54.32],[-66.41,-54.64],[-66.56,-54.93],[-66.72,-55.29],[-66.83,-55.59],[-66.93,-55.84],[-66.96,-55.92],[-67.01,-56.15],[-67.07,-56.43],[-67.11,-56.87],[-67.36,-57.19],[-67.67,-57.51],[-68.11,-57.89],[-68.59,-58.33],[-68.88,-58.6],[-69.13,-58.85],[-69.34,-59.05],[-69.66,-59.39],[-69.9,-59.82],[-69.95,-60.18],[-69.98,-60.51],[-70.02,-60.76],[-69.99,-61.06],[-69.97,-61.4],[-69.89,-61.78],[-69.77,-62.19],[-69.78,-62.5],[-69.84,-62.67],[-69.9,-63],[-69.99,-63.37],[-70.06,-63.73],[-70.06,-64.11],[-70.05,-64.18],[-69.97,-64.31],[-69.97,-64.31],[-70.98,-64.94],[-72.04,-65.57],[-73.15,-66.18],[-75.01,-66.76],[-76.95,-67.32],[-78.99,-67.85],[-81.12,-68.36],[-83.34,-68.84],[-85.3,-69.26],[-87.34,-69.67],[-89.45,-70.05],[-91.64,-70.41],[-93.47,-70.87],[-95.4,-71.31],[-97.4,-71.73],[-99.5,-72.12],[-101.79,-72.54],[-104.19,-72.93],[-106.69,-73.3],[-109.29,-73.63],[-111.98,-73.92],[-114.76,-74.19],[-117.63,-74.41],[-120.57,-74.6],[-123.91,-74.76],[-127.32,-74.87],[-130.76,-74.93],[-134.21,-74.93],[-137.66,-74.89],[-141.41,-74.93],[-145.18,-74.92],[-148.92,-74.84],[-152.61,-74.71],[-156.22,-74.51],[-159.42,-74.77],[-162.71,-74.99],[-166.09,-75.15],[-169.53,-75.27],[-173.01,-75.33],[-176.51,-75.34],[-180,-75.3],[-180,-74.3]]]]}},{"type":"Feature","properties":{"ma":175,"type":"gpml:TopologicalClosedPlateBoundary","name":"Atlantic_opening_east_flank","pid":701,"deforming":false},"geometry":{"type":"Polygon","coordinates":[[[-29.7,-0.73],[-28.87,-0.33],[-28.3,-0.04],[-27.74,0.25],[-27.28,0.57],[-26.82,0.89],[-26.09,1.38],[-25.55,1.75],[-25.2,2.03],[-24.85,2.31],[-24.52,2.58],[-24.32,2.77],[-24.14,3.01],[-23.83,3.36],[-23.5,3.75],[-23.32,4.03],[-23.07,4.49],[-22.91,4.73],[-22.79,5],[-22.47,5.3],[-22.38,5.55],[-22.13,5.84],[-21.94,5.97],[-21.72,6.15],[-21.39,6.4],[-21.13,6.65],[-20.88,6.82],[-20.47,7.04],[-20.05,7.17],[-19.74,7.25],[-19.58,7.28],[-18.74,7.34],[-18.05,7.42],[-17.36,7.49],[-16.81,7.53],[-16.51,7.52],[-16.18,7.56],[-15.71,7.56],[-15.41,7.68],[-15.07,7.84],[-14.78,8.02],[-14.49,8.47],[-14.19,8.62],[-13.85,8.66],[-13.49,8.72],[-13.17,8.81],[-12.81,8.83],[-12.57,8.74],[-12.41,8.71],[-12.25,8.65],[-12.09,8.61],[-11.86,8.62],[-11.63,8.64],[-11.33,8.76],[-11.11,8.84],[-10.81,9],[-10.5,9.18],[-10.24,9.31],[-9.93,9.56],[-9.59,9.78],[-9.16,9.9],[-8.85,9.91],[-8.57,9.83],[-8.3,9.92],[-7.79,10.48],[-7.39,10.83],[-7.28,10.9],[-7.28,10.9],[-7.68,10.34],[-7.86,10.03],[-8.35,9.59],[-8.74,9.32],[-9.26,9.1],[-9.98,8.5],[-10.21,8.26],[-10.41,8.06],[-10.64,7.94],[-10.64,7.94],[-10.75,7.89],[-11.12,7.7],[-11.21,7.7],[-11.37,7.63],[-11.58,7.63],[-11.95,7.78],[-12.39,7.84],[-12.7,7.91],[-13.07,7.92],[-13.54,7.97],[-14.13,7.71],[-14.62,7.28],[-15,7.05],[-15.14,7],[-15.41,6.93],[-15.71,6.88],[-16.17,6.88],[-16.85,6.83],[-17.07,6.86],[-17.35,6.79],[-17.68,6.74],[-18.11,6.67],[-18.94,6.39],[-19.31,6.24],[-19.88,5.99],[-19.88,5.99],[-19.89,5.98],[-20.37,5.92],[-20.87,5.54],[-21.31,5.02],[-21.62,4.43],[-21.88,4.09],[-22.18,3.76],[-22.52,3.42],[-22.72,3.06],[-22.92,2.8],[-23.17,2.48],[-23.38,2.17],[-23.53,1.95],[-23.7,1.79],[-23.85,1.57],[-24.01,1.36],[-24.32,1.04],[-24.59,0.72],[-25.13,0.38],[-25.83,0.01],[-26.33,-0.42],[-26.84,-0.85],[-27.17,-1.29],[-27.51,-1.73],[-27.86,-2.13],[-28.22,-2.53],[-28.74,-2.64],[-28.74,-2.64],[-29.2,-1.99],[-29.73,-1.25],[-29.73,-1.25],[-29.69,-0.89],[-29.7,-0.73]]]}},{"type":"Feature","properties":{"ma":175,"type":"gpml:TopologicalClosedPlateBoundary","name":"Atlantic_opening_NAM_flank","pid":101,"deforming":false},"geometry":{"type":"Polygon","coordinates":[[[-29.7,-0.73],[-29.71,-0.57],[-29.71,0.35],[-29.75,0.87],[-29.49,1.27],[-29.49,1.48],[-29.74,1.86],[-29.42,2.16],[-29.02,2.44],[-28.21,2.58],[-27.43,2.7],[-26.68,2.81],[-26.31,3.22],[-25.71,3.66],[-25.35,3.99],[-24.9,4.37],[-24.46,4.8],[-23.99,5.24],[-23.87,5.79],[-23.83,6.2],[-23.77,6.61],[-23.6,6.88],[-23.23,7.35],[-22.9,7.97],[-22.38,8.4],[-21.84,8.62],[-21.18,8.68],[-20.82,8.64],[-20.68,8.68],[-20.39,8.81],[-20.23,8.74],[-19.95,8.65],[-19.73,8.57],[-19.51,8.54],[-19.31,8.53],[-19.04,8.51],[-18.76,8.51],[-18.5,8.49],[-18.3,8.53],[-18.07,8.59],[-17.69,8.42],[-17.45,8.29],[-17.18,8.16],[-16.88,8.2],[-16.76,8.32],[-16.58,8.44],[-16.42,8.55],[-16.31,8.64],[-16.19,8.72],[-16.01,8.86],[-15.9,8.96],[-15.63,9.17],[-15.4,9.32],[-15.32,9.38],[-15.24,9.45],[-15.16,9.5],[-15.04,9.56],[-14.73,9.73],[-14.51,9.87],[-14.36,9.88],[-13.8,9.85],[-13.13,9.71],[-12.41,9.29],[-11.86,9.07],[-11.42,9.2],[-11.03,9.42],[-10.75,9.7],[-10.33,10.11],[-9.7,10.61],[-8.95,10.69],[-8.21,10.76],[-7.52,11.02],[-7.25,10.94],[-7.25,10.94],[-7.28,10.9],[-7.28,10.9],[-7.39,10.83],[-7.79,10.48],[-8.3,9.92],[-8.57,9.83],[-8.85,9.91],[-9.16,9.9],[-9.59,9.78],[-9.93,9.56],[-10.24,9.31],[-10.5,9.18],[-10.81,9],[-11.11,8.84],[-11.33,8.76],[-11.63,8.64],[-11.86,8.62],[-12.09,8.61],[-12.25,8.65],[-12.41,8.71],[-12.57,8.74],[-12.81,8.83],[-13.17,8.81],[-13.49,8.72],[-13.85,8.66],[-14.19,8.62],[-14.49,8.47],[-14.78,8.02],[-15.07,7.84],[-15.41,7.68],[-15.71,7.56],[-16.18,7.56],[-16.51,7.52],[-16.81,7.53],[-17.36,7.49],[-18.05,7.42],[-18.74,7.34],[-19.58,7.28],[-19.74,7.25],[-20.05,7.17],[-20.47,7.04],[-20.88,6.82],[-21.13,6.65],[-21.39,6.4],[-21.72,6.15],[-21.94,5.97],[-22.13,5.84],[-22.38,5.55],[-22.47,5.3],[-22.79,5],[-22.91,4.73],[-23.07,4.49],[-23.32,4.03],[-23.5,3.75],[-23.83,3.36],[-24.14,3.01],[-24.32,2.77],[-24.52,2.58],[-24.85,2.31],[-25.2,2.03],[-25.55,1.75],[-26.09,1.38],[-26.82,0.89],[-27.28,0.57],[-27.74,0.25],[-28.3,-0.04],[-28.87,-0.33],[-29.7,-0.73]]]}},{"type":"Feature","properties":{"ma":175,"type":"gpml:TopologicalClosedPlateBoundary","name":"AlCaPa-Tisza-Dacia-Moesia","pid":319,"deforming":false},"geometry":{"type":"Polygon","coordinates":[[[34.63,23.7],[34.44,23.31],[33.94,22.7],[33.44,22.09],[32.94,21.48],[32.45,20.87],[31.86,20.31],[31.27,19.74],[30.68,19.18],[30.1,18.61],[29.49,18.05],[28.88,17.48],[28.28,16.91],[27.68,16.35],[26.99,15.82],[26.3,15.3],[25.61,14.77],[24.92,14.24],[24.14,13.69],[23.37,13.14],[22.6,12.58],[21.83,12.02],[21.06,11.47],[20.37,11],[19.68,10.53],[19,10.06],[19,10.06],[18.21,10.51],[17.42,10.95],[16.63,11.39],[15.84,11.83],[15.02,12.42],[15.02,12.42],[15.8,13.06],[16.57,13.7],[17.07,14.48],[17.56,15.26],[18.06,16.03],[18.57,16.81],[19.08,17.58],[18.88,17.75],[19.45,18.51],[20.03,19.28],[19.88,19.33],[20.47,20.13],[21.06,20.94],[20.85,21.08],[21.26,21.62],[21.68,22.16],[22.55,22.63],[23.42,23.1],[24.31,23.56],[24.31,23.56],[25.34,23.61],[26.37,23.65],[27.4,23.68],[28.43,23.7],[29.46,23.72],[30.5,23.73],[31.53,23.73],[32.56,23.73],[33.6,23.72],[34.63,23.7]]]}},{"type":"Feature","properties":{"ma":175,"type":"gpml:TopologicalClosedPlateBoundary","name":"AlKaPeCa","pid":329,"deforming":false},"geometry":{"type":"Polygon","coordinates":[[[12.64,6.34],[11.84,6.03],[11.03,5.72],[10.23,5.41],[9.43,5.1],[8.63,4.79],[7.74,4.55],[6.84,4.31],[5.95,4.07],[5.06,3.82],[5.06,3.82],[4.37,4.26],[3.67,4.69],[3.2,4.92],[2.74,5.14],[2.28,5.35],[1.81,5.55],[1.76,5.58],[1.76,5.58],[2.66,5.78],[3.56,5.97],[4.46,6.16],[5.37,6.36],[6.27,6.55],[7.15,6.82],[8.03,7.09],[8.91,7.36],[8.96,8.06],[9.73,8.33],[10.49,8.61],[11.25,8.88],[12.02,9.15],[12.02,9.15],[12.2,8.24],[12.39,7.33],[12.57,6.42],[12.64,6.34]]]}},{"type":"Feature","properties":{"ma":175,"type":"gpml:TopologicalClosedPlateBoundary","name":"Guyana","pid":233,"deforming":false},"geometry":{"type":"Polygon","coordinates":[[[-30.05,-5.01],[-29.61,-4.21],[-29.32,-3.69],[-28.73,-3.12],[-29,-3.64],[-29.27,-4.16],[-29.7,-4.88],[-30.13,-5.61],[-30.6,-6.27],[-30.6,-6.27],[-30.73,-6.24],[-30.73,-6.24],[-30.39,-5.63],[-30.05,-5.01]]]}},{"type":"Feature","properties":{"ma":175,"type":"gpml:TopologicalClosedPlateBoundary","name":"Guyana East","pid":7714,"deforming":false},"geometry":{"type":"Polygon","coordinates":[[[-29.32,-4.63],[-29.61,-5.05],[-29.68,-5.54],[-29.87,-6.02],[-30.18,-6.34],[-30.6,-6.27],[-30.6,-6.27],[-30.13,-5.61],[-29.79,-5.03],[-29.44,-4.44],[-29.32,-4.63]]]}},{"type":"Feature","properties":{"ma":175,"type":"gpml:TopologicalNetwork","name":"Proto_Caribbean_Mesh","pid":101,"deforming":true},"geometry":{"type":"Polygon","coordinates":[[[-33.56,3.49],[-33.26,3.76],[-32.83,4.13],[-32.67,4.25],[-32.67,4.25],[-32.64,4.22],[-32.37,3.78],[-32.19,3.35],[-31.99,2.95],[-31.63,2.36],[-31.45,2.04],[-31.1,1.31],[-30.78,0.7],[-30.54,0.12],[-30.17,-0.53],[-29.74,-1.23],[-29.73,-1.25],[-29.73,-1.25],[-29.73,-1.32],[-29.85,-1.78],[-29.85,-1.78],[-29.48,-2.25],[-29.1,-3.02],[-29.1,-3.02],[-29.28,-3.23],[-29.48,-3.43],[-29.76,-3.67],[-29.6,-4.19],[-29.6,-4.19],[-29.6,-4.19],[-29.61,-4.21],[-30.05,-5.01],[-30.05,-5.01],[-30.39,-5.63],[-30.73,-6.24],[-30.73,-6.24],[-30.18,-6.34],[-29.87,-6.02],[-29.68,-5.54],[-29.61,-5.05],[-29.32,-4.63],[-29.6,-4.19],[-29.76,-3.67],[-29.48,-3.43],[-29.28,-3.23],[-29.07,-2.99],[-28.78,-2.66],[-28.73,-2.66],[-28.73,-2.66],[-28.6,-2.84],[-28.05,-3.19],[-27.49,-3.54],[-26.85,-4.02],[-26.85,-4.02],[-27.08,-4.88],[-27.09,-5.48],[-26.79,-6.1],[-26.49,-6.73],[-26.42,-7.66],[-26.53,-8.38],[-26.54,-9.26],[-26.92,-9.76],[-26.92,-9.76],[-26.95,-9.76],[-27.42,-9.21],[-27.89,-8.66],[-28.34,-8.34],[-28.79,-8.03],[-29.38,-7.74],[-29.97,-7.46],[-30.48,-7.37],[-31,-7.29],[-31.01,-7.28],[-31.01,-7.28],[-31.5,-7.45],[-32,-7.61],[-32.58,-7.59],[-33.15,-7.56],[-33.66,-7.51],[-34.18,-7.45],[-35.07,-7.15],[-35.85,-7.06],[-36.62,-6.96],[-37.29,-6.85],[-37.96,-6.73],[-38.63,-6.61],[-39.38,-6.74],[-40.13,-6.88],[-40.74,-7.36],[-41.36,-7.83],[-41.97,-7.92],[-42.58,-8.01],[-43.09,-8.12],[-43.61,-8.24],[-44.17,-8.32],[-44.74,-8.4],[-45.37,-8.62],[-45.99,-8.84],[-46.64,-9.19],[-47.29,-9.54],[-48.03,-9.9],[-48.77,-10.27],[-49.59,-10.43],[-50.4,-10.59],[-51.27,-10.36],[-52.13,-10.12],[-52.8,-9.77],[-53.46,-9.41],[-53.98,-9.2],[-54.49,-8.99],[-55.08,-8.87],[-55.66,-8.76],[-56.22,-8.85],[-56.78,-8.94],[-57.69,-8.88],[-57.69,-8.88],[-57.63,-8.28],[-57.58,-7.67],[-57.88,-6.96],[-58.18,-6.25],[-58.58,-5.49],[-58.98,-4.74],[-59.34,-4.1],[-59.71,-3.47],[-60.07,-2.83],[-60.35,-2.2],[-60.63,-1.57],[-60.85,-0.88],[-61.07,-0.2],[-61.29,0.48],[-61.7,1.1],[-62.1,1.73],[-62.09,1.88],[-62.09,1.88],[-61.19,1.99],[-60.25,2.18],[-59.31,2.38],[-58.55,2.57],[-57.79,2.76],[-56.84,2.96],[-55.89,3.17],[-55.1,3.32],[-54.31,3.48],[-53.63,3.98],[-52.95,4.48],[-52.34,4.85],[-51.68,5.57],[-51.29,5.94],[-50.89,6.31],[-50.62,7],[-49.88,7.65],[-49.15,8.29],[-48.41,8.94],[-47.71,9.33],[-47.01,9.71],[-46.3,10.1],[-45.78,10.05],[-45.25,10],[-44.24,9.99],[-43.73,9.81],[-43.22,9.64],[-42.5,9.43],[-41.78,9.23],[-40.99,8.64],[-40.53,8.35],[-40.07,8.07],[-39.59,7.82],[-39.11,7.57],[-38.62,7.26],[-38.13,6.96],[-37.47,6.57],[-36.85,6.01],[-36.14,5.53],[-35.44,5.06],[-34.95,4.56],[-34.46,4.07],[-33.77,3.39],[-33.76,3.37],[-33.56,3.49]]]}},{"type":"Feature","properties":{"ma":175,"type":"gpml:TopologicalNetwork","name":"Northern_Central_Atlantic_Mesh","pid":101,"deforming":true},"geometry":{"type":"Polygon","coordinates":[[[-6.91,12.49],[-6.61,12.27],[-6.18,11.87],[-5.75,11.46],[-5.32,11.07],[-4.75,10.43],[-4.26,10.09],[-3.83,9.65],[-3.4,9.21],[-3.19,9.01],[-2.77,8.61],[-2.42,8.27],[-2.06,7.92],[-1.8,7.73],[-1.37,7.42],[-1.26,7.34],[-1.26,7.34],[-1.39,7.27],[-1.81,7.14],[-2.44,6.93],[-3.05,6.74],[-3.76,6.51],[-4.38,6.31],[-4.89,6.14],[-5.37,5.99],[-5.93,5.8],[-6.56,5.6],[-7.09,5.8],[-7.68,5.92],[-8.01,6.11],[-8.33,6.28],[-8.82,6.48],[-9.25,6.77],[-9.86,6.96],[-10.31,6.91],[-10.97,6.67],[-11.8,6.58],[-12.53,6.46],[-13.08,6.2],[-13.98,5.93],[-14.43,5.62],[-15.22,5.25],[-15.96,4.97],[-16.51,5.07],[-16.67,5.17],[-17.18,5.21],[-18.13,5.27],[-18.66,5.38],[-18.66,5.38],[-18.98,5.8],[-19.3,6.22],[-19.32,6.24],[-19.32,6.24],[-19.31,6.24],[-18.94,6.39],[-18.11,6.67],[-17.68,6.74],[-17.35,6.79],[-17.07,6.86],[-16.85,6.83],[-16.17,6.88],[-15.71,6.88],[-15.41,6.93],[-15.14,7],[-15,7.05],[-14.62,7.28],[-14.13,7.71],[-13.54,7.97],[-13.07,7.92],[-12.7,7.91],[-12.39,7.84],[-11.95,7.78],[-11.58,7.63],[-11.37,7.63],[-11.21,7.7],[-11.12,7.7],[-10.75,7.89],[-10.64,7.94],[-10.64,7.94],[-10.41,8.06],[-10.21,8.26],[-9.98,8.5],[-9.26,9.1],[-8.74,9.32],[-8.35,9.59],[-7.86,10.03],[-7.68,10.34],[-7.25,10.94],[-7.25,10.94],[-7.52,11.02],[-8.21,10.76],[-8.95,10.69],[-9.7,10.61],[-10.33,10.11],[-10.75,9.7],[-11.03,9.42],[-11.42,9.2],[-11.86,9.07],[-12.41,9.29],[-13.13,9.71],[-13.8,9.85],[-14.36,9.88],[-14.51,9.87],[-14.73,9.73],[-15.04,9.56],[-15.16,9.5],[-15.24,9.45],[-15.32,9.38],[-15.4,9.32],[-15.63,9.17],[-15.9,8.96],[-16.01,8.86],[-16.19,8.72],[-16.31,8.64],[-16.42,8.55],[-16.58,8.44],[-16.76,8.32],[-16.88,8.2],[-17.18,8.16],[-17.45,8.29],[-17.69,8.42],[-18.07,8.59],[-18.3,8.53],[-18.5,8.49],[-18.76,8.51],[-19.04,8.51],[-19.31,8.53],[-19.51,8.54],[-19.73,8.57],[-19.95,8.65],[-20.23,8.74],[-20.39,8.81],[-20.61,8.71],[-20.61,8.71],[-20.95,9.36],[-21.3,10],[-21.83,10.85],[-21.83,10.85],[-21.68,10.95],[-21.2,11.05],[-20.83,11.34],[-20.59,11.9],[-20.34,11.96],[-19.96,11.81],[-19.43,12.04],[-18.95,12.03],[-18.18,12.04],[-17.38,12.13],[-16.86,12.24],[-16.07,12.33],[-15.54,12.6],[-14.82,12.95],[-14.21,13.17],[-13.65,13.27],[-13.01,13.36],[-12.67,13.36],[-12.19,13.24],[-11.53,13.13],[-10.95,13.15],[-10.46,13.15],[-9.96,13.13],[-9.44,13.09],[-8.8,13.01],[-8.08,12.81],[-7.41,12.59],[-6.91,12.49]]]}},{"type":"Feature","properties":{"ma":175,"type":"gpml:TopologicalNetwork","name":"North_Atlantic_Phase1_Deformation_Mesh","pid":301,"deforming":true},"geometry":{"type":"Polygon","coordinates":[[[6.86,30.15],[6.91,30.03],[6.96,29.57],[7.13,29.09],[7.27,28.65],[7.43,28.07],[7.55,27.61],[7.57,27.37],[7.69,27.07],[7.77,26.82],[7.8,26.6],[7.81,26.4],[8.04,26.14],[8.25,26.01],[8.72,25.84],[9.09,25.9],[9.49,25.77],[9.71,25.51],[10.29,25.07],[10.52,24.57],[10.65,24.16],[10.69,23.6],[10.72,23.23],[10.88,22.92],[11.05,22.53],[11.23,22.31],[11.37,22.2],[11.55,22.03],[12,21.83],[12.53,21.58],[13.07,21.37],[13.62,21.1],[14.11,20.91],[14.41,20.74],[14.51,20.7],[14.8,20.59],[14.8,20.59],[14.65,20.26],[14.37,19.84],[14.12,19.47],[13.9,19.17],[13.68,18.84],[13.43,18.42],[13.08,18.28],[12.78,18.22],[12.49,18.22],[11.97,18.22],[11.45,18.32],[10.86,18.45],[10.56,18.63],[10.18,18.75],[9.73,18.85],[9.27,18.88],[8.84,18.83],[8.46,18.68],[8.12,18.59],[7.87,18.39],[7.71,18.17],[7.56,17.94],[7.32,17.73],[7.07,17.44],[6.61,17.06],[6.08,16.67],[5.74,16.48],[5.42,16.18],[4.83,15.9],[4.41,15.66],[4.24,15.36],[4.24,15.36],[3.98,15.19],[3.43,14.82],[2.86,14.71],[2.2,14.62],[1.68,14.55],[1.41,14.47],[1.41,14.47],[1.37,14.41],[1.25,14.27],[1.16,14.05],[1.06,13.89],[0.96,13.76],[0.9,13.63],[0.82,13.42],[0.72,13.17],[0.6,12.9],[0.43,12.62],[0.28,12.31],[0.14,11.99],[0,11.79],[-0.25,11.41],[-0.45,11.19],[-0.84,10.9],[-1.21,10.48],[-1.33,10.25],[-1.41,9.92],[-1.5,9.52],[-1.71,9.19],[-1.94,8.98],[-2.17,8.76],[-2.34,8.61],[-2.56,8.4],[-2.56,8.4],[-2.77,8.61],[-3.19,9.01],[-3.4,9.21],[-3.83,9.65],[-4.26,10.09],[-4.32,10.13],[-4.32,10.13],[-4.31,10.14],[-4.18,10.27],[-4.01,10.42],[-3.89,10.53],[-3.68,10.73],[-3.64,10.87],[-3.61,11.02],[-3.61,11.19],[-3.61,11.33],[-3.53,11.49],[-3.47,11.6],[-3.22,11.81],[-3.05,11.96],[-2.93,12.06],[-2.8,12.19],[-2.66,12.33],[-2.54,12.53],[-2.49,12.6],[-2.41,12.66],[-2.29,12.75],[-2.22,12.82],[-2.15,12.9],[-2.04,13.01],[-1.99,13.06],[-1.92,13.11],[-1.89,13.14],[-1.82,13.15],[-1.73,13.16],[-1.71,13.17],[-1.71,13.17],[-1.76,13.27],[-1.78,13.37],[-1.79,13.39],[-1.79,13.39],[-1.82,13.36],[-1.89,13.27],[-1.95,13.2],[-2,13.13],[-2.07,13.07],[-2.15,13],[-2.28,12.88],[-2.4,12.78],[-2.53,12.67],[-2.62,12.57],[-2.68,12.45],[-2.77,12.31],[-2.85,12.23],[-2.99,12.14],[-3.11,12.08],[-3.2,12],[-3.29,11.91],[-3.41,11.81],[-3.5,11.78],[-3.59,11.75],[-3.83,11.67],[-4.11,11.72],[-4.22,11.77],[-4.22,11.77],[-3.93,11.93],[-3.78,12],[-3.64,12.06],[-3.55,12.14],[-3.42,12.23],[-3.29,12.36],[-3.16,12.48],[-3.07,12.61],[-2.95,12.77],[-2.82,12.95],[-2.72,13.1],[-2.63,13.27],[-2.49,13.47],[-2.42,13.7],[-2.48,13.89],[-2.54,14.03],[-2.62,14.19],[-2.71,14.33],[-2.8,14.42],[-2.91,14.54],[-2.98,14.61],[-3.08,14.7],[-3.23,14.82],[-3.23,14.82],[-3.27,14.96],[-3.3,15.15],[-3.34,15.28],[-3.36,15.5],[-3.31,15.79],[-3.26,16.05],[-3.22,16.42],[-3.22,16.79],[-3.28,17.09],[-3.3,17.21],[-3.3,17.21],[-3.19,17.74],[-2.97,18.44],[-2.56,19.15],[-2.21,19.52],[-1.92,20.05],[-1.34,20.69],[-0.89,21.09],[-0.52,21.58],[-0.16,22.06],[0.07,22.74],[0.3,23.42],[0.18,24.1],[-0.15,24.61],[-0.48,25.12],[-0.31,25.92],[0.06,26.04],[0.81,26.31],[1.51,26.69],[2,27.07],[2.59,27.37],[3.02,27.75],[3.7,28.23],[4.07,28.78],[4.2,29.14],[4.46,29.85],[4.85,30.41],[5.32,31.03],[5.6,31.34],[5.9,31.84],[5.88,32.02],[5.58,32.36],[5.57,32.42],[5.63,33.09],[5.69,33.33],[5.74,33.48],[5.55,33.69],[5.35,33.77],[5.03,33.97],[4.94,34.13],[4.92,34.37],[4.96,34.54],[5.01,34.7],[5.03,34.89],[5,35.11],[4.96,35.28],[5.04,35.45],[5.17,35.6],[5.36,35.82],[5.59,36.23],[6.04,36.57],[6.19,36.73],[6.37,37],[6.45,37.26],[6.5,37.6],[6.49,37.79],[6.49,37.98],[6.57,38.18],[6.7,38.31],[6.9,38.75],[7.16,39.26],[7.41,39.45],[7.59,39.62],[7.59,39.62],[7.6,39.57],[7.59,39.53],[7.59,39.53],[7.7,39.42],[7.52,39.09],[7.51,38.83],[7.48,38.57],[7.35,38.05],[7.36,37.76],[7.39,37.38],[7.43,37.18],[7.52,36.8],[7.43,36.47],[7.22,36.3],[7.06,36.1],[6.87,35.9],[6.81,35.68],[6.66,35.45],[6.61,35.28],[6.46,35.1],[6.45,34.94],[6.54,34.79],[6.69,34.63],[6.91,34.43],[7.07,34.15],[7.19,33.95],[7.32,33.72],[7.36,33.47],[7.27,33.26],[7.09,33],[7.16,32.84],[7.22,32.72],[7.3,32.46],[7.39,32.35],[7.55,32.19],[7.53,32.13],[7.49,31.98],[7.44,31.92],[7.36,31.82],[7.34,31.78],[7.22,31.54],[7.08,31.39],[6.94,31.1],[6.92,30.87],[6.9,30.65],[6.88,30.49],[6.9,30.33],[6.89,30.22],[6.86,30.15]]]}},{"type":"Feature","properties":{"ma":175,"type":"gpml:TopologicalNetwork","name":"Southern_Central_Atlantic_Mesh","pid":101,"deforming":true},"geometry":{"type":"Polygon","coordinates":[[[-27.49,-3.54],[-28.05,-3.19],[-28.6,-2.84],[-28.74,-2.64],[-28.74,-2.64],[-28.79,-2.65],[-29.02,-2.95],[-29.09,-3.03],[-29.09,-3.03],[-29.48,-2.25],[-29.85,-1.78],[-29.85,-1.78],[-29.73,-1.32],[-29.73,-1.25],[-29.73,-1.25],[-29.74,-1.23],[-30.17,-0.53],[-30.54,0.12],[-30.78,0.7],[-31.1,1.31],[-31.45,2.04],[-31.63,2.36],[-31.99,2.95],[-32.19,3.35],[-32.37,3.78],[-32.64,4.22],[-32.67,4.25],[-32.67,4.25],[-32.44,4.42],[-32.06,4.69],[-31.93,4.88],[-31.59,4.95],[-31.27,5.02],[-30.75,5.14],[-30.11,5.23],[-29.47,5.33],[-28.9,5.72],[-28.41,6.14],[-28.16,6.89],[-27.95,7.49],[-27.31,7.77],[-26.51,8.26],[-26.15,8.54],[-25.64,8.98],[-25.13,9.42],[-24.83,9.85],[-24.63,10.27],[-24.21,10.4],[-24.07,10.5],[-23.83,10.47],[-23.54,10.37],[-23.25,10.34],[-22.78,10.46],[-22.53,10.47],[-22.35,10.46],[-22.02,10.71],[-21.83,10.85],[-21.83,10.85],[-21.3,10],[-20.95,9.36],[-20.61,8.71],[-20.61,8.71],[-20.68,8.68],[-20.82,8.64],[-21.18,8.68],[-21.84,8.62],[-22.38,8.4],[-22.9,7.97],[-23.23,7.35],[-23.6,6.88],[-23.77,6.61],[-23.83,6.2],[-23.87,5.79],[-23.99,5.24],[-24.46,4.8],[-24.9,4.37],[-25.35,3.99],[-25.71,3.66],[-26.31,3.22],[-26.68,2.81],[-27.43,2.7],[-28.21,2.58],[-29.02,2.44],[-29.42,2.16],[-29.74,1.86],[-29.49,1.48],[-29.49,1.27],[-29.75,0.87],[-29.71,0.35],[-29.71,-0.57],[-29.69,-0.89],[-29.73,-1.32],[-29.85,-1.78],[-29.85,-1.78],[-29.48,-2.25],[-29.09,-3.03],[-29.09,-3.03],[-29.02,-2.95],[-28.79,-2.65],[-28.22,-2.53],[-27.86,-2.13],[-27.51,-1.73],[-27.17,-1.29],[-26.84,-0.85],[-26.33,-0.42],[-25.83,0.01],[-25.13,0.38],[-24.59,0.72],[-24.32,1.04],[-24.01,1.36],[-23.85,1.57],[-23.7,1.79],[-23.53,1.95],[-23.38,2.17],[-23.17,2.48],[-22.92,2.8],[-22.72,3.06],[-22.52,3.42],[-22.18,3.76],[-21.88,4.09],[-21.62,4.43],[-21.31,5.02],[-20.87,5.54],[-20.37,5.92],[-19.89,5.98],[-19.88,5.99],[-19.88,5.99],[-19.32,6.24],[-19.32,6.24],[-19.3,6.22],[-18.98,5.8],[-18.66,5.38],[-18.66,5.38],[-19.01,5.45],[-19.14,5.36],[-19.62,5.16],[-20.1,4.96],[-20.46,4.53],[-20.82,4.1],[-21.09,3.67],[-21.36,3.24],[-21.6,2.63],[-21.96,2.1],[-22.36,1.56],[-22.57,1.37],[-22.84,1.13],[-22.97,0.71],[-23.06,0.27],[-23.15,-0.51],[-23.38,-0.93],[-23.61,-1.29],[-23.92,-1.5],[-24.12,-1.77],[-24.27,-2.02],[-24.49,-2.36],[-24.93,-2.33],[-25.35,-2.31],[-25.97,-2.57],[-26.36,-2.87],[-26.63,-3.23],[-26.85,-4.01],[-26.85,-4.02],[-27.49,-3.54]]]}},{"type":"Feature","properties":{"ma":175,"type":"gpml:TopologicalNetwork","name":"WEC","pid":601,"deforming":true},"geometry":{"type":"Polygon","coordinates":[[[136.71,52],[135.31,52.34],[133.89,52.66],[132.44,52.96],[130.98,53.24],[129.5,53.51],[128,53.75],[126.49,53.98],[124.95,54.19],[123.89,53.82],[122.84,53.43],[121.73,53.26],[120.62,53.07],[119.53,52.87],[119.42,52.38],[119.31,51.88],[118.22,51.9],[117.12,51.91],[116.03,51.91],[114.75,52.07],[113.47,52.22],[112.18,52.35],[110.75,52.33],[109.33,52.29],[107.78,52],[106.25,51.69],[104.85,51.32],[103.47,50.94],[102.67,50.8],[102.67,50.8],[102.13,51.39],[101.56,51.78],[100.98,52.17],[99.9,52.79],[99.15,53.24],[98.39,53.69],[97.58,54.39],[97.21,55.24],[97.1,55.96],[97.02,56.81],[96.97,57.71],[96.92,58.38],[96.93,58.92],[96.95,59.36],[97.19,59.73],[97.42,60.08],[97.72,60.5],[97.95,61.04],[98.16,61.5],[98.42,62.05],[98.69,62.59],[98.97,63.13],[99.36,63.8],[99.76,64.47],[100.19,65.14],[100.81,66.03],[101.14,66.82],[101.5,67.62],[101.75,68.46],[101.94,69.07],[102.12,69.65],[102.32,70.23],[102.57,70.59],[102.57,70.59],[103.99,70.87],[105.94,71.22],[107.97,71.55],[110.81,71.96],[113.76,72.33],[115.53,72.52],[117.34,72.7],[119.94,72.92],[122.6,73.1],[124.62,73.22],[126.66,73.31],[128.89,73.39],[131.14,73.45],[133.8,73.49],[136.46,73.49],[138.95,73.46],[141.44,73.4],[143.91,73.31],[146.82,73.17],[149.68,72.99],[152.14,72.79],[154.55,72.57],[154.55,72.57],[153.49,71.68],[152.68,71.02],[151.91,70.37],[151.2,69.71],[150.31,68.83],[149.49,67.95],[148.85,67.22],[148.25,66.49],[147.49,65.77],[146.77,65.04],[145.94,64.14],[145.15,63.24],[144.48,62.47],[143.85,61.7],[143.24,60.93],[142.64,60.17],[142.06,59.4],[141.45,58.52],[140.87,57.63],[140.23,56.71],[139.62,55.79],[139.07,55.13],[138.54,54.46],[138.09,53.86],[137.65,53.26],[137.17,52.63],[136.71,52]]]}}]}