{"type":"FeatureCollection","features":[{"type":"Feature","properties":{"ma":220,"type":"gpml:TopologicalClosedPlateBoundary","name":"Junction Plate North","pid":498,"deforming":false},"geometry":{"type":"Polygon","coordinates":[[[112.92,-18.57],[112.96,-17.72],[112.99,-16.88],[113.03,-16.04],[113.06,-15.19],[113.04,-14.21],[113.02,-13.24],[113,-12.26],[112.97,-11.29],[112.95,-10.31],[112.93,-9.33],[112.91,-8.36],[112.89,-7.38],[112.89,-7.38],[113.83,-7.54],[114.77,-7.69],[115.72,-7.84],[116.66,-7.99],[117.61,-8.14],[118.55,-8.28],[119.5,-8.43],[120.45,-8.57],[121.4,-8.71],[122.29,-9.16],[123.2,-9.62],[124.1,-10.07],[125,-10.52],[125.91,-10.97],[126.82,-11.42],[127.74,-11.86],[128.65,-12.18],[129.56,-12.5],[130.48,-12.82],[131.39,-13.13],[132.31,-13.44],[133.24,-13.74],[134.16,-14.05],[134.31,-14.14],[134.31,-14.14],[134.6,-14.9],[134.89,-15.66],[135.19,-16.42],[135.49,-17.19],[135.5,-18.13],[135.52,-19.07],[135.53,-20.01],[135.54,-20.95],[135.56,-21.89],[135.57,-22.83],[135.59,-23.77],[135.6,-24.71],[135.6,-24.71],[134.55,-24.82],[133.5,-24.93],[132.44,-25.03],[131.39,-25.12],[130.33,-25.2],[129.27,-25.28],[129.2,-24.6],[129.13,-23.92],[128.16,-23.92],[127.19,-23.92],[126.22,-23.91],[125.25,-23.89],[124.28,-23.87],[123.31,-23.84],[122.34,-23.81],[122.25,-22.84],[122.17,-21.87],[122.08,-20.91],[122,-19.94],[121.91,-18.98],[120.92,-18.95],[119.93,-18.93],[118.94,-18.89],[117.95,-18.85],[116.96,-18.81],[115.97,-18.76],[114.98,-18.7],[114,-18.64],[113.01,-18.58],[112.92,-18.57]]]}},{"type":"Feature","properties":{"ma":220,"type":"gpml:TopologicalClosedPlateBoundary","name":"Mongol-Okhotsk Ocean","pid":380,"deforming":false},"geometry":{"type":"Polygon","coordinates":[[[-180,76.33],[-180,77.31],[-180,78.29],[-180,79.26],[-180,80.24],[-180,81.21],[-180,82.19],[-180,83.17],[-180,84.14],[-180,85.12],[-180,86.1],[-180,87.07],[-180,88.05],[-180,89.02],[-180,90],[180,90],[180,89.02],[180,88.05],[180,87.07],[180,86.1],[180,85.12],[180,84.14],[180,83.17],[180,82.19],[180,81.21],[180,80.24],[180,79.26],[180,78.29],[180,77.31],[180,76.33],[180,75.36],[178.16,74.66],[176.48,73.95],[174.94,73.22],[173.52,72.49],[172.21,71.75],[171.01,70.99],[169.39,70.2],[167.89,69.39],[166.51,68.56],[165.22,67.73],[164.02,66.89],[162.9,66.04],[161.85,65.18],[160.87,64.32],[159.95,63.44],[159.08,62.57],[158.27,61.69],[157.5,60.8],[156.77,59.91],[155.43,59.35],[154.13,58.79],[152.88,58.21],[151.67,57.62],[150.5,57.01],[149.37,56.4],[148.27,55.78],[147.18,55.2],[146.13,54.62],[145.1,54.03],[144.1,53.43],[143.14,52.82],[141.72,52.59],[140.31,52.34],[138.92,52.08],[137.55,51.8],[136.2,51.51],[135.26,51.15],[134.33,50.79],[133.42,50.42],[131.9,50.57],[130.37,50.7],[128.84,50.82],[127.73,50.79],[126.64,50.32],[125.33,50.35],[124.02,50.37],[122.9,50.4],[121.77,50.42],[120.92,50.54],[120.06,50.65],[119.07,50.8],[118.07,50.95],[118.07,50.95],[116.98,50.72],[115.9,50.48],[114.39,50.4],[113.48,50.49],[112.56,50.57],[112.07,50.58],[111.17,49.89],[110.11,49.93],[108.88,50.26],[107.77,50.65],[106.66,51.03],[105.52,51.4],[104.36,51.77],[102.95,52.1],[101.52,52.41],[100.62,52.36],[99.71,52.31],[98.2,52.5],[97.32,52.44],[96.44,52.37],[95.11,52.02],[93.8,51.66],[92.41,51.34],[91.04,51.01],[89.64,50.88],[88.26,50.73],[86.77,50.79],[85.27,50.83],[83.97,50.88],[82.66,50.93],[81.36,50.95],[79.97,51.01],[78.59,51.04],[77.2,51.06],[77.2,51.06],[76.59,50.18],[76.01,49.29],[75.45,48.41],[74.91,47.52],[74.39,46.63],[73.15,46.21],[71.93,45.79],[70.72,45.35],[69.54,44.9],[68.37,44.43],[67.36,44.05],[66.36,43.66],[65.37,43.26],[64.4,42.86],[64.4,42.86],[64.89,43.45],[65.39,44.03],[65.9,44.62],[66.58,45.31],[67.28,46.01],[67.99,46.69],[68.73,47.38],[69.48,48.06],[70.25,48.73],[70.88,49.44],[71.53,50.15],[72.21,50.85],[72.9,51.55],[73.61,52.25],[74.68,52.85],[75.78,53.44],[76.91,54.02],[78.07,54.59],[79.27,55.15],[80.49,55.69],[81.76,56.23],[83.05,56.75],[83.91,57.59],[84.81,58.42],[85.75,59.25],[86.74,60.07],[87.78,60.88],[88.87,61.69],[90.03,62.48],[91.24,63.27],[92.52,64.04],[93.87,64.8],[93.87,64.8],[92,65.19],[90.08,65.56],[88.1,65.9],[86.07,66.21],[83.99,66.5],[81.86,66.76],[80.02,67.39],[78.09,68.01],[76.04,68.59],[73.89,69.16],[71.64,69.69],[69.26,70.19],[66.77,70.67],[64.17,71.1],[61.69,71.25],[59.17,71.37],[56.63,71.45],[54.07,71.5],[51.51,71.51],[51.51,71.51],[50.1,72.34],[48.57,73.17],[46.88,73.98],[45.02,74.77],[42.96,75.55],[40.68,76.31],[38.14,77.05],[35.3,77.75],[32.13,78.43],[28.58,79.07],[24.62,79.66],[20.53,80.2],[15.99,80.69],[10.99,81.11],[5.54,81.47],[-0.33,81.74],[-6.52,81.92],[-12.91,82],[-19.35,81.98],[-25.69,81.87],[-29.99,81.55],[-29.99,81.55],[-32.29,81.03],[-34.32,80.49],[-38.16,79.87],[-41.55,79.22],[-44.16,78.54],[-46.48,77.84],[-48.09,77.23],[-49.56,76.61],[-50.9,75.99],[-51.98,75.43],[-52.97,74.86],[-53.53,74.2],[-53.53,74.2],[-55.59,74.93],[-57.86,75.64],[-60.35,76.33],[-63.1,76.98],[-66.12,77.61],[-69.46,78.2],[-73.12,78.75],[-77.14,79.25],[-81.11,79.83],[-85.53,80.36],[-90.43,80.83],[-95.8,81.22],[-101.62,81.53],[-107.81,81.75],[-114.26,81.87],[-120.82,81.89],[-127.32,81.8],[-133.6,81.61],[-139.54,81.32],[-145.61,81.02],[-151.22,80.62],[-156.33,80.15],[-160.95,79.6],[-165.09,79],[-168.78,78.34],[-172.08,77.64],[-175.02,76.91],[-177.65,76.15],[-180,75.36],[-180,76.33]]]}},{"type":"Feature","properties":{"ma":220,"type":"gpml:TopologicalClosedPlateBoundary","name":"North America","pid":101,"deforming":false},"geometry":{"type":"Polygon","coordinates":[[[-3.88,2.49],[-3.88,2.52],[-3.88,2.74],[-4,2.76],[-4.05,2.75],[-4.35,2.56],[-4.49,2.78],[-4.52,2.97],[-4.21,2.98],[-4.07,3.09],[-4.01,3.21],[-4.28,3.38],[-4.46,3.55],[-4.58,3.64],[-4.72,3.78],[-4.94,3.86],[-5.12,4.06],[-5.46,4.15],[-6.22,4.22],[-6.9,4.37],[-7.62,4.49],[-8.25,4.51],[-8.76,4.5],[-9.25,4.47],[-9.73,4.42],[-10.29,4.35],[-10.94,4.39],[-11.42,4.48],[-11.75,4.44],[-12.36,4.3],[-12.9,4.15],[-13.47,3.87],[-14.14,3.46],[-14.63,3.15],[-15.39,3],[-15.9,2.85],[-16.67,2.69],[-17.42,2.62],[-17.89,2.6],[-18.39,2.33],[-18.77,2.46],[-19.01,2.37],[-19.2,1.81],[-19.55,1.49],[-20.01,1.36],[-20.33,1.09],[-20.64,0.82],[-20.81,0.82],[-21.06,0.79],[-21.51,0.65],[-21.79,0.66],[-22.09,0.74],[-22.33,0.76],[-22.46,0.65],[-22.86,0.5],[-23.04,0.06],[-23.3,-0.39],[-23.78,-0.85],[-24.26,-1.32],[-24.6,-1.62],[-25.37,-2.15],[-25.99,-2.46],[-26.17,-3.08],[-26.38,-3.83],[-26.84,-4.27],[-27.4,-4.69],[-28.03,-4.82],[-28.66,-4.94],[-29.18,-5.08],[-29.49,-5.16],[-29.83,-5.24],[-29.95,-5.44],[-30.33,-5.72],[-30.71,-6.03],[-31.12,-6.41],[-31.42,-6.69],[-31.62,-6.81],[-31.62,-6.81],[-31.63,-6.8],[-32.34,-6.14],[-32.84,-5.66],[-33.35,-5.18],[-34.06,-4.72],[-34.78,-4.26],[-35.41,-3.71],[-36.08,-3.33],[-36.57,-3.04],[-37.06,-2.75],[-37.53,-2.5],[-38.01,-2.25],[-38.47,-1.98],[-38.93,-1.7],[-39.72,-1.11],[-40.43,-0.91],[-41.14,-0.71],[-41.64,-0.53],[-42.15,-0.36],[-43.14,-0.35],[-43.66,-0.29],[-44.18,-0.24],[-44.87,-0.62],[-45.57,-1],[-46.26,-1.38],[-47.01,-2.01],[-47.75,-2.65],[-48.49,-3.28],[-48.78,-3.97],[-49.18,-4.32],[-49.58,-4.68],[-50.26,-5.39],[-50.88,-5.75],[-51.58,-6.22],[-52.27,-6.7],[-53.07,-6.83],[-53.87,-6.96],[-54.83,-7.12],[-55.8,-7.29],[-56.57,-7.44],[-57.35,-7.6],[-58.31,-7.75],[-59.26,-7.89],[-60.17,-7.95],[-60.17,-7.95],[-60.06,-7.29],[-59.96,-6.62],[-59.78,-5.87],[-59.6,-5.12],[-59.42,-4.37],[-59.19,-3.59],[-58.96,-2.8],[-58.74,-2.01],[-58.44,-1.3],[-58.14,-0.59],[-57.85,0.12],[-57.44,0.46],[-57.03,0.81],[-56.48,1.25],[-55.92,1.69],[-55.47,2.15],[-55.01,2.61],[-54.97,2.68],[-54.97,2.68],[-55.02,3.52],[-55.07,4.37],[-55.11,5.22],[-55.16,6.06],[-55.2,6.91],[-55.29,7.86],[-55.37,8.82],[-55.45,9.77],[-55.54,10.72],[-55.62,11.67],[-55.71,12.63],[-55.8,13.58],[-55.8,14.35],[-55.81,15.12],[-55.82,15.9],[-55.83,16.67],[-55.41,17.43],[-54.98,18.19],[-54.56,18.95],[-54.12,19.71],[-53.69,20.47],[-53.04,21.18],[-52.38,21.89],[-51.72,22.6],[-51.05,23.3],[-50.52,23.83],[-49.98,24.37],[-49.44,24.9],[-49.44,24.9],[-49.01,25.77],[-48.58,26.63],[-48.14,27.49],[-47.92,28.47],[-47.71,29.45],[-47.48,30.43],[-47.26,31.41],[-47.03,32.39],[-46.79,33.36],[-46.62,34.26],[-46.44,35.17],[-46.26,36.07],[-46.07,36.97],[-45.88,37.87],[-45.69,38.77],[-45.49,39.67],[-45.65,40.61],[-45.82,41.54],[-45.99,42.47],[-46.17,43.4],[-46.78,44.12],[-47.4,44.84],[-47.13,45.77],[-46.86,46.71],[-46.59,47.64],[-46.3,48.57],[-45.99,49.5],[-45.84,50.12],[-45.68,50.73],[-45.68,50.73],[-46.49,51.19],[-47.31,51.64],[-48.14,52.08],[-49.02,52.72],[-49.93,53.35],[-50.87,53.98],[-51.83,54.6],[-52.9,55.31],[-54.01,56],[-55.17,56.69],[-55.88,57.26],[-56.62,57.82],[-56.62,57.82],[-55.3,58.31],[-53.95,58.79],[-52.73,59.12],[-51.49,59.44],[-50.22,59.75],[-48.43,60.07],[-46.6,60.35],[-45.33,60.58],[-44.04,60.8],[-42.72,61],[-41.17,61.36],[-39.58,61.71],[-37.95,62.04],[-36.71,62.38],[-35.45,62.71],[-34.15,63.03],[-32.4,63.22],[-30.63,63.39],[-28.83,63.54],[-26.81,63.95],[-24.72,64.34],[-23.16,64.81],[-21.54,65.26],[-19.86,65.7],[-19.86,65.7],[-19.03,64.89],[-18.26,64.09],[-17.52,63.28],[-16.83,62.46],[-16.33,61.6],[-15.86,60.73],[-15.41,59.86],[-14.99,58.99],[-14.96,58.93],[-14.81,58.6],[-14.77,58.48],[-14.71,58.33],[-14.59,58.04],[-14.35,57.47],[-14.12,56.89],[-14.02,56.56],[-14.02,56.56],[-13.61,55.79],[-13.21,55.01],[-12.83,54.24],[-12.41,53.42],[-12.01,52.61],[-11.62,51.79],[-11.24,50.97],[-10.88,50.15],[-10.48,49.46],[-10.1,48.77],[-9.73,48.07],[-10.11,47.46],[-9.68,46.53],[-9.27,45.6],[-8.87,44.66],[-8.48,43.73],[-8.1,42.79],[-8.14,41.8],[-8.18,40.82],[-8.21,39.83],[-8.25,38.84],[-7.38,38.64],[-6.51,38.44],[-5.64,38.23],[-4.61,38.11],[-3.58,37.97],[-2.55,37.83],[-1.56,38.14],[-0.55,38.45],[0.25,38.2],[1.04,37.95],[1.64,37.19],[2.22,36.42],[2.23,35.72],[2.24,35.03],[2.48,34.28],[2.71,33.53],[2.82,32.58],[2.93,31.62],[3.13,30.87],[3.33,30.12],[3.89,29.53],[4.2,28.97],[4.51,28.41],[4.64,27.88],[4.78,27.35],[4.7,26.69],[4.63,26.03],[4.36,25.47],[4.09,24.9],[3.74,24.15],[3.4,23.4],[2.9,22.8],[2.4,22.2],[1.56,21.68],[0.72,21.16],[0.38,20.36],[0.04,19.56],[-0.3,18.76],[-0.63,17.96],[-0.99,17.1],[-1.35,16.24],[-1.7,15.38],[-1.89,14.59],[-2.11,14.2],[-1.57,13.47],[-1.03,12.74],[-0.5,12.01],[0.06,12.42],[0.68,11.74],[1.29,11.06],[1.9,10.38],[2.5,9.69],[2.12,9.02],[1.74,8.35],[1.37,7.68],[0.68,6.99],[-0.01,6.3],[-0.69,5.62],[-1.41,4.98],[-2.13,4.34],[-2.84,3.7],[-3.56,3.06],[-3.88,2.49]]]}},{"type":"Feature","properties":{"ma":220,"type":"gpml:TopologicalClosedPlateBoundary","name":"Phoenix Plate","pid":919,"deforming":false},"geometry":{"type":"MultiPolygon","coordinates":[[[[180,-13.08],[180,-14.07],[180,-15.07],[180,-16.07],[180,-17.07],[180,-18.06],[180,-19.06],[180,-20.06],[180,-21.06],[180,-22.05],[180,-23.05],[180,-24.05],[180,-25.05],[180,-26.05],[180,-27.04],[180,-28.04],[180,-29.04],[180,-30.04],[180,-31.03],[180,-32.03],[180,-33.03],[180,-34.03],[180,-35.02],[180,-36.02],[180,-37.02],[180,-38.02],[180,-39.02],[180,-40.01],[180,-41.01],[180,-42.01],[180,-43.01],[180,-44],[180,-45],[180,-46],[180,-47],[180,-47.99],[180,-48.99],[180,-49.99],[180,-50.99],[180,-51.99],[180,-52.98],[180,-53.98],[180,-54.98],[180,-55.98],[180,-56.97],[180,-57.97],[180,-58.97],[180,-59.97],[180,-60.96],[180,-61.96],[180,-62.96],[180,-63.96],[180,-64.96],[180,-65.95],[180,-66.95],[180,-67.95],[180,-68.95],[180,-69.94],[177.2,-69.83],[174.43,-69.67],[171.71,-69.47],[169.04,-69.23],[166.44,-68.95],[163.91,-68.63],[161.72,-68.45],[159.56,-68.25],[157.45,-68.03],[155.38,-67.77],[153.35,-67.5],[153.35,-67.5],[152.87,-66.68],[152.43,-65.86],[152.01,-65.03],[150.89,-64.21],[151.16,-63.7],[152.08,-62.79],[152.96,-61.87],[153.73,-60.95],[154.46,-60.03],[154.73,-59.47],[154.98,-58.91],[154.89,-58.32],[154.8,-57.73],[154.22,-56.97],[153.66,-56.2],[153.12,-55.43],[152.61,-54.66],[151.94,-53.77],[151.29,-52.88],[150.67,-51.98],[150.08,-51.09],[149.51,-50.18],[149.35,-49.31],[149.21,-48.44],[149.06,-47.57],[148.92,-46.7],[148.79,-45.83],[148.58,-45.03],[148.37,-44.23],[148.17,-43.43],[147.98,-42.64],[147.79,-41.84],[147.65,-41.1],[147.51,-40.36],[147.38,-39.63],[147.38,-39.63],[146.38,-39.08],[145.38,-38.52],[144.41,-37.96],[143.45,-37.38],[142.38,-36.99],[141.32,-36.59],[140.72,-36.33],[140.13,-36.07],[139.69,-35.61],[139.26,-35.15],[138.79,-34.52],[138.34,-33.88],[137.66,-33.13],[137,-32.39],[136.34,-31.64],[135.7,-30.89],[135.69,-30],[135.67,-29.11],[135.66,-28.21],[135.64,-27.32],[135.63,-26.43],[135.61,-25.54],[135.6,-24.65],[135.59,-23.76],[135.59,-23.76],[136.32,-23.33],[137.06,-22.89],[137.79,-22.45],[138.51,-22],[139.42,-21.55],[140.33,-21.09],[141.22,-20.62],[142.12,-20.15],[143,-19.68],[143.89,-19.2],[144.76,-18.72],[145.63,-18.23],[146.5,-17.74],[147.36,-17.25],[148.22,-16.75],[149.07,-16.25],[149.92,-15.74],[150.77,-15.24],[151.61,-14.73],[152.44,-14.21],[153.28,-13.7],[154.11,-13.18],[154.93,-12.65],[155.75,-12.13],[156.19,-12.91],[156.63,-13.69],[157.08,-14.47],[157.52,-15.25],[157.97,-16.03],[158.98,-15.77],[159.97,-15.5],[160.97,-15.22],[161.96,-14.94],[162.96,-14.66],[163.94,-14.37],[164.93,-14.07],[165.91,-13.78],[166.89,-13.48],[167.87,-13.17],[168.85,-12.87],[169.82,-12.55],[170.79,-12.24],[171.76,-11.92],[172.73,-11.6],[173.16,-12.5],[173.59,-13.41],[174.02,-14.31],[174.88,-14],[175.74,-13.69],[176.6,-13.37],[177.45,-13.05],[178.3,-12.73],[179.15,-12.4],[180,-12.08],[180,-13.08]]],[[[-180,-68.95],[-180,-67.95],[-180,-66.95],[-180,-65.95],[-180,-64.96],[-180,-63.96],[-180,-62.96],[-180,-61.96],[-180,-60.96],[-180,-59.97],[-180,-58.97],[-180,-57.97],[-180,-56.97],[-180,-55.98],[-180,-54.98],[-180,-53.98],[-180,-52.98],[-180,-51.99],[-180,-50.99],[-180,-49.99],[-180,-48.99],[-180,-47.99],[-180,-47],[-180,-46],[-180,-45],[-180,-44],[-180,-43.01],[-180,-42.01],[-180,-41.01],[-180,-40.01],[-180,-39.02],[-180,-38.02],[-180,-37.02],[-180,-36.02],[-180,-35.02],[-180,-34.03],[-180,-33.03],[-180,-32.03],[-180,-31.03],[-180,-30.04],[-180,-29.04],[-180,-28.04],[-180,-27.04],[-180,-26.05],[-180,-25.05],[-180,-24.05],[-180,-23.05],[-180,-22.05],[-180,-21.06],[-180,-20.06],[-180,-19.06],[-180,-18.06],[-180,-17.07],[-180,-16.07],[-180,-15.07],[-180,-14.07],[-180,-13.08],[-180,-12.08],[-179.1,-11.72],[-178.19,-11.37],[-177.29,-11.01],[-176.39,-10.65],[-175.5,-10.28],[-174.6,-9.92],[-173.71,-9.55],[-172.82,-9.18],[-171.93,-8.8],[-171.61,-9.55],[-171.29,-10.31],[-170.97,-11.06],[-170.04,-10.68],[-169.11,-10.29],[-168.19,-9.9],[-167.26,-9.51],[-166.34,-9.12],[-165.43,-8.73],[-164.51,-8.33],[-163.6,-7.93],[-162.68,-7.53],[-161.77,-7.13],[-161.43,-7.97],[-161.09,-8.81],[-160.75,-9.65],[-159.82,-9.26],[-158.9,-8.86],[-157.98,-8.46],[-157.06,-8.05],[-156.15,-7.65],[-155.23,-7.24],[-154.32,-6.83],[-153.41,-6.42],[-152.5,-6.01],[-151.59,-5.59],[-151.22,-6.44],[-150.85,-7.3],[-150.48,-8.15],[-149.53,-7.8],[-148.58,-7.46],[-147.64,-7.11],[-146.7,-6.76],[-145.75,-6.41],[-144.81,-6.05],[-143.87,-5.7],[-142.94,-5.34],[-142,-4.98],[-141.06,-4.62],[-140.13,-4.26],[-139.19,-3.9],[-139.19,-3.9],[-139.19,-3.9],[-138.35,-4.44],[-137.51,-4.98],[-136.66,-5.51],[-135.82,-6.05],[-134.97,-6.58],[-134.12,-7.12],[-133.27,-7.65],[-132.41,-8.18],[-131.56,-8.71],[-130.7,-9.23],[-129.84,-9.76],[-128.98,-10.28],[-128.11,-10.8],[-127.24,-11.31],[-126.37,-11.83],[-125.49,-12.34],[-124.61,-12.85],[-123.73,-13.36],[-122.85,-13.86],[-121.96,-14.36],[-122.32,-15.17],[-122.68,-15.98],[-123.04,-16.79],[-122.14,-17.15],[-121.23,-17.51],[-120.32,-17.87],[-119.4,-18.22],[-118.48,-18.57],[-117.56,-18.91],[-116.64,-19.25],[-115.7,-19.58],[-114.77,-19.91],[-113.83,-20.23],[-112.89,-20.55],[-111.95,-20.87],[-111,-21.17],[-110.04,-21.48],[-109.08,-21.78],[-108.12,-22.07],[-108.41,-22.81],[-108.7,-23.55],[-108.99,-24.29],[-108.03,-24.63],[-107.06,-24.96],[-106.09,-25.28],[-105.11,-25.59],[-104.13,-25.9],[-103.14,-26.2],[-102.14,-26.5],[-101.14,-26.79],[-100.14,-27.07],[-99.13,-27.34],[-98.12,-27.61],[-97.1,-27.87],[-96.07,-28.12],[-95.05,-28.37],[-94.01,-28.6],[-92.97,-28.83],[-93.09,-29.52],[-93.2,-30.21],[-93.32,-30.9],[-92.19,-31.14],[-91.06,-31.37],[-89.92,-31.59],[-88.77,-31.79],[-87.62,-31.99],[-86.47,-32.18],[-85.31,-32.36],[-84.15,-32.52],[-82.98,-32.68],[-81.81,-32.82],[-80.63,-32.95],[-79.45,-33.08],[-78.27,-33.19],[-77.08,-33.29],[-75.9,-33.38],[-74.71,-33.45],[-73.51,-33.52],[-72.32,-33.57],[-71.13,-33.62],[-69.93,-33.65],[-68.73,-33.67],[-67.54,-33.68],[-66.34,-33.67],[-65.14,-33.66],[-63.95,-33.63],[-62.92,-33.71],[-61.89,-33.79],[-60.86,-33.85],[-59.83,-33.9],[-59.76,-34.57],[-59.83,-35.12],[-59.83,-35.49],[-59.84,-35.77],[-59.84,-35.77],[-59.87,-36.37],[-60.05,-36.84],[-60.39,-37.66],[-60.61,-38.1],[-60.76,-38.81],[-60.92,-39.37],[-60.99,-39.68],[-61.11,-40.07],[-61.22,-40.5],[-61.45,-41.35],[-61.69,-42.2],[-61.97,-42.95],[-62.25,-43.71],[-62.54,-44.46],[-62.84,-45.21],[-63.43,-45.93],[-64.04,-46.65],[-64.66,-47.36],[-65.3,-48.07],[-65.96,-48.78],[-66.22,-49.61],[-66.49,-50.43],[-66.72,-51.16],[-66.96,-51.88],[-67.65,-52.64],[-68.36,-53.4],[-68.54,-53.65],[-68.59,-53.77],[-68.59,-53.77],[-68.75,-54.09],[-68.75,-54.09],[-69.27,-54.63],[-69.63,-54.88],[-69.88,-55.22],[-70.07,-55.49],[-70.4,-55.92],[-70.63,-56.19],[-71.06,-56.67],[-71.37,-57.02],[-71.7,-57.39],[-72.03,-57.78],[-72.56,-58.39],[-72.77,-58.63],[-73.07,-58.96],[-73.35,-59.27],[-73.6,-59.55],[-73.88,-59.88],[-74.11,-60.17],[-74.3,-60.41],[-74.35,-60.49],[-74.48,-60.71],[-74.64,-60.98],[-74.84,-61.41],[-75.22,-61.7],[-75.68,-61.99],[-76.32,-62.33],[-77.02,-62.71],[-77.46,-62.96],[-77.83,-63.18],[-78.15,-63.36],[-78.64,-63.66],[-79.1,-64.06],[-79.32,-64.41],[-79.49,-64.73],[-79.65,-64.97],[-79.75,-65.27],[-79.9,-65.61],[-79.98,-65.99],[-80.05,-66.4],[-80.22,-66.71],[-80.37,-66.86],[-80.62,-67.17],[-80.93,-67.53],[-81.22,-67.88],[-81.44,-68.25],[-81.46,-68.32],[-81.43,-68.72],[-81.36,-68.82],[-81.36,-68.82],[-83.26,-69.45],[-85.28,-70.05],[-87.82,-70.44],[-90.45,-70.79],[-93.17,-71.1],[-95.97,-71.38],[-98.85,-71.6],[-101.38,-71.81],[-103.96,-71.98],[-106.59,-72.12],[-109.25,-72.22],[-111.64,-72.45],[-114.09,-72.66],[-116.6,-72.84],[-119.15,-72.98],[-121.89,-73.12],[-124.67,-73.23],[-127.47,-73.29],[-130.3,-73.32],[-133.11,-73.31],[-135.92,-73.27],[-138.7,-73.18],[-141.45,-73.06],[-144.45,-72.88],[-147.39,-72.66],[-150.25,-72.39],[-153.02,-72.09],[-155.7,-71.75],[-158.68,-71.48],[-161.58,-71.17],[-164.38,-70.81],[-167.07,-70.41],[-169.66,-69.98],[-172.24,-70.03],[-174.83,-70.04],[-177.42,-70.01],[-180,-69.94],[-180,-68.95]]]]}},{"type":"Feature","properties":{"ma":220,"type":"gpml:TopologicalClosedPlateBoundary","name":"Gondwana Plate","pid":701,"deforming":false},"geometry":{"type":"Polygon","coordinates":[[[180,-70.9],[180,-71.85],[180,-72.81],[180,-73.76],[180,-74.72],[180,-75.67],[180,-76.63],[180,-77.58],[180,-78.54],[180,-79.49],[180,-80.45],[180,-81.4],[180,-82.36],[180,-83.31],[180,-84.27],[180,-85.22],[180,-86.18],[180,-87.13],[180,-88.09],[180,-89.05],[180,-90],[-180,-90],[-180,-89.05],[-180,-88.09],[-180,-87.13],[-180,-86.18],[-180,-85.22],[-180,-84.27],[-180,-83.31],[-180,-82.36],[-180,-81.4],[-180,-80.45],[-180,-79.49],[-180,-78.54],[-180,-77.58],[-180,-76.63],[-180,-75.67],[-180,-74.72],[-180,-73.76],[-180,-72.81],[-180,-71.85],[-180,-70.9],[-180,-69.94],[-177.42,-70.01],[-174.83,-70.04],[-172.24,-70.03],[-169.66,-69.98],[-167.07,-70.41],[-164.38,-70.81],[-161.58,-71.17],[-158.68,-71.48],[-155.7,-71.75],[-153.02,-72.09],[-150.25,-72.39],[-147.39,-72.66],[-144.45,-72.88],[-141.45,-73.06],[-138.7,-73.18],[-135.92,-73.27],[-133.11,-73.31],[-130.3,-73.32],[-127.47,-73.29],[-124.67,-73.23],[-121.89,-73.12],[-119.15,-72.98],[-116.6,-72.84],[-114.09,-72.66],[-111.64,-72.45],[-109.25,-72.22],[-106.59,-72.12],[-103.96,-71.98],[-101.38,-71.81],[-98.85,-71.6],[-95.97,-71.38],[-93.17,-71.1],[-90.45,-70.79],[-87.82,-70.44],[-85.28,-70.05],[-83.26,-69.45],[-81.36,-68.82],[-81.36,-68.82],[-81.43,-68.72],[-81.46,-68.32],[-81.44,-68.25],[-81.22,-67.88],[-80.93,-67.53],[-80.62,-67.17],[-80.37,-66.86],[-80.22,-66.71],[-80.05,-66.4],[-79.98,-65.99],[-79.9,-65.61],[-79.75,-65.27],[-79.65,-64.97],[-79.49,-64.73],[-79.32,-64.41],[-79.1,-64.06],[-78.64,-63.66],[-78.15,-63.36],[-77.83,-63.18],[-77.46,-62.96],[-77.02,-62.71],[-76.32,-62.33],[-75.68,-61.99],[-75.22,-61.7],[-74.84,-61.41],[-74.64,-60.98],[-74.48,-60.71],[-74.35,-60.49],[-74.3,-60.41],[-74.11,-60.17],[-73.88,-59.88],[-73.6,-59.55],[-73.35,-59.27],[-73.07,-58.96],[-72.77,-58.63],[-72.56,-58.39],[-72.03,-57.78],[-71.7,-57.39],[-71.37,-57.02],[-71.06,-56.67],[-70.63,-56.19],[-70.4,-55.92],[-70.07,-55.49],[-69.88,-55.22],[-69.63,-54.88],[-69.27,-54.63],[-68.75,-54.09],[-68.75,-54.09],[-68.59,-53.77],[-68.59,-53.77],[-68.54,-53.65],[-68.36,-53.4],[-67.65,-52.64],[-66.96,-51.88],[-66.72,-51.16],[-66.49,-50.43],[-66.22,-49.61],[-65.96,-48.78],[-65.3,-48.07],[-64.66,-47.36],[-64.04,-46.65],[-63.43,-45.93],[-62.84,-45.21],[-62.54,-44.46],[-62.25,-43.71],[-61.97,-42.95],[-61.69,-42.2],[-61.45,-41.35],[-61.22,-40.5],[-61.11,-40.07],[-60.99,-39.68],[-60.92,-39.37],[-60.76,-38.81],[-60.61,-38.1],[-60.39,-37.66],[-60.05,-36.84],[-59.87,-36.37],[-59.84,-35.77],[-59.84,-35.77],[-59.83,-35.49],[-59.83,-35.12],[-59.76,-34.57],[-59.84,-33.82],[-59.88,-33.29],[-59.91,-32.76],[-60.43,-31.94],[-60.55,-31.25],[-60.66,-30.55],[-60.78,-29.85],[-60.93,-29.02],[-61.07,-28.19],[-61.21,-27.37],[-61.23,-26.51],[-61.25,-25.64],[-61.26,-24.78],[-61.28,-23.92],[-61.3,-23.06],[-61.32,-22.2],[-61.3,-21.33],[-61.29,-20.46],[-61.28,-19.59],[-60.86,-18.82],[-60.45,-18.06],[-60.04,-17.29],[-59.64,-16.52],[-59.24,-15.75],[-59.11,-15.49],[-59,-15.25],[-58.86,-15],[-58.68,-14.67],[-58.57,-14.48],[-58.47,-14.25],[-58.22,-13.92],[-58.01,-13.62],[-57.96,-13.57],[-57.96,-13.57],[-57.5,-14.46],[-57.5,-14.46],[-57.24,-14.49],[-56.66,-14.43],[-56.09,-14.37],[-55.5,-14.52],[-54.91,-14.67],[-54.4,-14.91],[-53.89,-15.15],[-53.23,-15.54],[-52.57,-15.94],[-51.7,-16.22],[-50.83,-16.5],[-49.98,-16.38],[-49.14,-16.25],[-48.36,-15.92],[-47.59,-15.59],[-46.91,-15.27],[-46.23,-14.95],[-45.58,-14.76],[-44.93,-14.56],[-44.35,-14.51],[-43.77,-14.45],[-43.24,-14.35],[-42.71,-14.26],[-42.09,-14.19],[-41.46,-14.12],[-40.82,-13.67],[-40.17,-13.21],[-39.4,-13.1],[-38.64,-12.98],[-37.96,-13.12],[-37.28,-13.26],[-36.6,-13.39],[-35.81,-13.5],[-35.02,-13.61],[-34.11,-13.93],[-33.59,-14],[-33.07,-14.06],[-32.48,-14.1],[-31.89,-14.13],[-31.27,-13.94],[-30.65,-13.75],[-29.83,-13.58],[-29.01,-13.4],[-28.2,-13.22],[-27.76,-12.68],[-27.33,-12.14],[-27.33,-12.14],[-26.98,-12.35],[-26.67,-12.44],[-26.67,-12.44],[-26.86,-12.05],[-26.85,-11.45],[-26.61,-10.57],[-26.39,-9.8],[-26.11,-9.44],[-25.71,-9.14],[-25.09,-8.89],[-24.66,-8.9],[-24.21,-8.94],[-23.99,-8.59],[-23.84,-8.34],[-23.64,-8.07],[-23.33,-7.86],[-23.1,-7.51],[-22.86,-7.08],[-22.78,-6.3],[-22.69,-5.86],[-22.56,-5.44],[-22.29,-5.2],[-22.08,-5.01],[-21.68,-4.46],[-21.33,-3.93],[-21.09,-3.32],[-20.82,-2.89],[-20.55,-2.45],[-20.2,-2.02],[-19.85,-1.59],[-19.37,-1.39],[-18.89,-1.18],[-18.76,-1.09],[-17.88,-1.26],[-16.93,-1.31],[-16.42,-1.34],[-16.27,-1.44],[-15.72,-1.53],[-14.99,-1.23],[-14.21,-0.85],[-13.77,-0.53],[-12.87,-0.25],[-12.33,0.03],[-11.61,0.17],[-10.8,0.28],[-10.14,0.54],[-9.69,0.6],[-9.09,0.43],[-8.65,0.15],[-8.16,-0.03],[-7.83,-0.19],[-7.5,-0.37],[-6.91,-0.48],[-6.38,-0.65],[-5.76,-0.43],[-5.48,-0.32],[-5.48,-0.32],[-5.73,-0.11],[-5.23,0.31],[-4.74,0.74],[-4.51,1.25],[-4.29,1.77],[-3.92,2.41],[-3.56,3.06],[-3.46,3.15],[-3.38,3.07],[-3.17,2.89],[-2.74,2.5],[-2.37,2.17],[-2,1.84],[-1.74,1.67],[-1.3,1.37],[-0.55,0.86],[0.24,0.33],[0.92,0.07],[1.44,-0.13],[1.95,-0.34],[2.42,-0.52],[2.89,-0.71],[3.37,-0.9],[3.84,-1.1],[4.59,-1.51],[5.33,-1.92],[5.33,-1.92],[6.18,-1.62],[7.04,-1.33],[7.89,-1.03],[8.75,-0.74],[9.55,-0.35],[10.34,0.04],[11.14,0.43],[11.94,0.82],[12.74,1.21],[12.55,1.94],[12.35,2.67],[12.16,3.4],[12.77,4.05],[13.38,4.7],[14,5.35],[14.61,6],[15.23,6.66],[15.23,6.66],[15.93,6.05],[16.63,5.45],[17.33,4.84],[18.03,4.24],[18.73,3.63],[19.43,3.02],[20.12,2.42],[20.82,1.81],[21.51,1.2],[22.21,0.59],[22.9,-0.01],[23.5,0.43],[24.1,0.87],[24.83,0.2],[25.57,-0.48],[26.3,-1.15],[27.03,-1.83],[27.77,-2.5],[28.5,-3.18],[29.24,-3.85],[29.79,-3.38],[30.34,-2.92],[30.95,-3.53],[31.56,-4.14],[32.17,-4.75],[32.78,-5.36],[33.39,-5.97],[34,-6.58],[34,-6.58],[34.52,-5.83],[35.05,-5.09],[35.57,-4.34],[36.09,-3.6],[36.61,-2.85],[37.13,-2.1],[37.65,-1.35],[37.65,-1.35],[38.45,-1.88],[39.25,-2.41],[40.05,-2.94],[40.85,-3.47],[41.65,-4],[42.46,-4.53],[43.26,-5.06],[44.07,-5.58],[44.87,-6.11],[45.68,-6.63],[46.49,-7.15],[46.13,-7.92],[46.94,-8.34],[47.76,-8.76],[48.57,-9.18],[49.39,-9.6],[50.21,-10.02],[51.03,-10.43],[51.86,-10.84],[51.55,-11.72],[52.47,-12.13],[53.38,-12.53],[54.29,-12.93],[55.21,-13.33],[56.14,-13.72],[57.06,-14.11],[57.99,-14.49],[58.92,-14.88],[59.86,-15.26],[60.79,-15.63],[61.74,-16],[62.68,-16.37],[63.63,-16.73],[63.32,-17.55],[63,-18.37],[62.68,-19.19],[62.35,-20.01],[62.35,-20.01],[63.29,-20.42],[64.23,-20.82],[65.18,-21.21],[66.13,-21.6],[67.08,-21.98],[68.05,-22.36],[69.01,-22.74],[69.99,-23.1],[70.96,-23.46],[71.95,-23.82],[72.93,-24.17],[73.93,-24.51],[74.93,-24.84],[75.93,-25.17],[76.94,-25.5],[76.84,-26],[76.73,-26.51],[77.82,-26.65],[78.91,-26.77],[80,-26.89],[81.1,-27],[82.19,-27.1],[83.29,-27.19],[84.39,-27.27],[85.49,-27.37],[86.59,-27.46],[87.69,-27.54],[88.79,-27.62],[89.89,-27.68],[89.89,-27.68],[90.36,-26.78],[90.82,-25.87],[91.27,-24.96],[91.72,-24.05],[92.17,-23.14],[92.6,-22.23],[93.03,-21.32],[93.95,-21.66],[94.87,-22],[95.8,-22.33],[96.73,-22.65],[97.06,-21.89],[97.39,-21.12],[97.71,-20.36],[98.02,-19.59],[98.98,-19.71],[99.94,-19.82],[100.91,-19.92],[101.87,-20.02],[102.83,-20.12],[103.14,-19.27],[103.43,-18.42],[103.73,-17.57],[104.02,-16.72],[104.31,-15.87],[104.6,-15.02],[105.37,-15.17],[106.15,-15.3],[106.93,-15.44],[107.71,-15.57],[107.97,-14.67],[108.24,-13.76],[108.51,-12.86],[108.77,-11.95],[109.03,-11.05],[109.88,-11.16],[110.72,-11.26],[111.57,-11.37],[111.69,-10.55],[111.81,-9.74],[111.93,-8.92],[112.92,-8.97],[112.92,-8.97],[112.94,-9.86],[112.96,-10.75],[112.98,-11.64],[113,-12.53],[113.02,-13.41],[113.04,-14.3],[113.06,-15.19],[113.03,-16.04],[112.99,-16.88],[112.96,-17.72],[112.92,-18.57],[112.92,-18.57],[113.01,-18.58],[114,-18.64],[114.98,-18.7],[115.97,-18.76],[116.96,-18.81],[117.95,-18.85],[118.94,-18.89],[119.93,-18.93],[120.92,-18.95],[121.91,-18.98],[122,-19.94],[122.08,-20.91],[122.17,-21.87],[122.25,-22.84],[122.34,-23.81],[123.31,-23.84],[124.28,-23.87],[125.25,-23.89],[126.22,-23.91],[127.19,-23.92],[128.16,-23.92],[129.13,-23.92],[129.2,-24.6],[129.27,-25.28],[130.33,-25.2],[131.39,-25.12],[132.44,-25.03],[133.5,-24.93],[134.55,-24.82],[135.6,-24.71],[135.6,-24.71],[135.61,-25.59],[135.63,-26.48],[135.64,-27.36],[135.66,-28.24],[135.67,-29.12],[135.69,-30],[135.7,-30.89],[136.34,-31.64],[137,-32.39],[137.66,-33.13],[138.34,-33.88],[138.79,-34.52],[139.26,-35.15],[139.69,-35.61],[140.13,-36.07],[140.72,-36.33],[141.32,-36.59],[142.38,-36.99],[143.45,-37.38],[144.41,-37.96],[145.38,-38.52],[146.38,-39.08],[147.38,-39.63],[147.38,-39.63],[147.51,-40.36],[147.65,-41.1],[147.79,-41.84],[147.98,-42.64],[148.17,-43.43],[148.37,-44.23],[148.58,-45.03],[148.79,-45.83],[148.92,-46.7],[149.06,-47.57],[149.21,-48.44],[149.35,-49.31],[149.51,-50.18],[150.08,-51.09],[150.67,-51.98],[151.29,-52.88],[151.94,-53.77],[152.61,-54.66],[153.12,-55.43],[153.66,-56.2],[154.22,-56.97],[154.8,-57.73],[154.89,-58.32],[154.98,-58.91],[154.73,-59.47],[154.46,-60.03],[153.73,-60.95],[152.96,-61.87],[152.08,-62.79],[151.16,-63.7],[150.89,-64.21],[152.01,-65.03],[152.43,-65.86],[152.87,-66.68],[153.35,-67.5],[153.35,-67.5],[155.38,-67.77],[157.45,-68.03],[159.56,-68.25],[161.72,-68.45],[163.91,-68.63],[166.44,-68.95],[169.04,-69.23],[171.71,-69.47],[174.43,-69.67],[177.2,-69.83],[180,-69.94],[180,-70.9]]]}},{"type":"Feature","properties":{"ma":220,"type":"gpml:TopologicalClosedPlateBoundary","name":"Eurasia","pid":301,"deforming":false},"geometry":{"type":"Polygon","coordinates":[[[-32.29,81.03],[-29.99,81.55],[-25.69,81.87],[-19.35,81.98],[-12.91,82],[-6.52,81.92],[-0.33,81.74],[5.54,81.47],[10.99,81.11],[15.99,80.69],[20.53,80.2],[24.62,79.66],[28.58,79.07],[32.13,78.43],[35.3,77.75],[38.14,77.05],[40.68,76.31],[42.96,75.55],[45.02,74.77],[46.88,73.98],[48.57,73.17],[50.1,72.34],[51.51,71.51],[51.51,71.51],[54.07,71.5],[56.63,71.45],[59.17,71.37],[61.69,71.25],[64.17,71.1],[66.77,70.67],[69.26,70.19],[71.64,69.69],[73.89,69.16],[76.04,68.59],[78.09,68.01],[80.02,67.39],[81.86,66.76],[83.99,66.5],[86.07,66.21],[88.1,65.9],[90.08,65.56],[92,65.19],[93.87,64.8],[93.87,64.8],[92.52,64.04],[91.24,63.27],[90.03,62.48],[88.87,61.69],[87.78,60.88],[86.74,60.07],[85.75,59.25],[84.81,58.42],[83.91,57.59],[83.05,56.75],[81.76,56.23],[80.49,55.69],[79.27,55.15],[78.07,54.59],[76.91,54.02],[75.78,53.44],[74.68,52.85],[73.61,52.25],[72.9,51.55],[72.21,50.85],[71.53,50.15],[70.88,49.44],[70.25,48.73],[69.48,48.06],[68.73,47.38],[67.99,46.69],[67.28,46.01],[66.58,45.31],[65.9,44.62],[65.24,43.86],[64.6,43.09],[63.97,42.33],[63.36,41.56],[62.76,40.78],[62.17,40.01],[61.6,39.23],[61.05,38.44],[60.5,37.66],[59.72,37.01],[58.96,36.36],[58.21,35.7],[57.47,35.04],[56.74,34.37],[56.03,33.7],[55.32,33.02],[54.63,32.34],[53.95,31.66],[53.39,30.94],[52.84,30.22],[52.84,30.22],[52.04,30.6],[51.23,30.97],[50.56,30.71],[49.88,30.44],[49.64,29.65],[49.4,28.87],[49.04,28.18],[48.68,27.49],[48.33,26.8],[47.43,26.3],[46.54,25.79],[45.66,25.28],[44.94,24.54],[44.24,23.8],[43.64,23.06],[43.05,22.32],[42.47,21.58],[42.16,20.8],[41.85,20.01],[41.61,19.28],[41.36,18.55],[41.25,18.04],[41.14,17.52],[40.87,16.94],[40.59,16.36],[39.95,16.01],[39.32,15.67],[38.68,15.32],[37.75,15.18],[36.83,15.04],[35.9,14.89],[34.99,14.54],[34.08,14.19],[33.43,13.94],[32.77,13.69],[32.12,13.44],[31.22,13.26],[30.33,13.09],[29.44,12.91],[28.54,12.98],[27.64,13.05],[26.75,13.12],[25.96,13.27],[25.17,13.41],[24.38,13.56],[23.59,13.7],[22.73,13.97],[21.88,14.24],[21.02,14.51],[20.16,14.77],[20.16,14.77],[19.74,14.07],[19.32,13.37],[18.9,12.67],[18.48,11.97],[18.07,11.27],[17.59,10.44],[17.11,9.61],[16.63,8.78],[16.15,7.95],[15.68,7.13],[15.09,6.51],[14.5,5.88],[13.91,5.26],[13.33,4.64],[12.74,4.02],[12.16,3.4],[12.35,2.67],[12.55,1.94],[12.74,1.21],[11.94,0.82],[11.14,0.43],[10.34,0.04],[9.55,-0.35],[8.75,-0.74],[7.89,-1.03],[7.04,-1.33],[6.18,-1.62],[5.33,-1.92],[5.33,-1.92],[4.59,-1.51],[3.84,-1.1],[3.37,-0.9],[2.89,-0.71],[2.42,-0.52],[1.95,-0.34],[1.44,-0.13],[0.92,0.07],[0.24,0.33],[-0.55,0.86],[-1.3,1.37],[-1.74,1.67],[-2,1.84],[-2.37,2.17],[-2.74,2.5],[-3.17,2.89],[-3.38,3.07],[-3.46,3.15],[-3.46,3.15],[-2.77,3.77],[-2.08,4.38],[-1.38,5],[-0.69,5.62],[-0.01,6.3],[0.68,6.99],[1.37,7.68],[1.74,8.35],[2.12,9.02],[2.5,9.69],[1.9,10.38],[1.29,11.06],[0.68,11.74],[0.06,12.42],[-0.5,12.01],[-1.03,12.74],[-1.57,13.47],[-2.11,14.2],[-1.89,14.59],[-1.7,15.38],[-1.35,16.24],[-0.99,17.1],[-0.63,17.96],[-0.3,18.76],[0.04,19.56],[0.38,20.36],[0.72,21.16],[1.56,21.68],[2.4,22.2],[2.9,22.8],[3.4,23.4],[3.74,24.15],[4.09,24.9],[4.36,25.47],[4.63,26.03],[4.7,26.69],[4.78,27.35],[4.64,27.88],[4.51,28.41],[4.2,28.97],[3.89,29.53],[3.33,30.12],[3.13,30.87],[2.93,31.62],[2.82,32.58],[2.71,33.53],[2.48,34.28],[2.24,35.03],[2.23,35.72],[2.22,36.42],[1.64,37.19],[1.04,37.95],[0.25,38.2],[-0.55,38.45],[-1.56,38.14],[-2.55,37.83],[-3.58,37.97],[-4.61,38.11],[-5.64,38.23],[-6.51,38.44],[-7.38,38.64],[-8.25,38.84],[-8.21,39.83],[-8.18,40.82],[-8.14,41.8],[-8.1,42.79],[-8.48,43.73],[-8.87,44.66],[-9.27,45.6],[-9.68,46.53],[-10.11,47.46],[-9.73,48.07],[-10.1,48.77],[-10.48,49.46],[-10.88,50.15],[-11.24,50.97],[-11.62,51.79],[-12.01,52.61],[-12.41,53.42],[-12.83,54.24],[-13.21,55.01],[-13.61,55.79],[-14.02,56.56],[-14.02,56.56],[-14.12,56.89],[-14.35,57.47],[-14.59,58.04],[-14.71,58.33],[-14.77,58.48],[-14.81,58.6],[-14.96,58.93],[-14.99,58.99],[-15.41,59.86],[-15.86,60.73],[-16.33,61.6],[-16.83,62.46],[-17.52,63.28],[-18.26,64.09],[-19.03,64.89],[-19.86,65.7],[-19.86,65.7],[-21.54,65.26],[-23.16,64.81],[-24.72,64.34],[-26.81,63.95],[-28.83,63.54],[-30.63,63.39],[-32.4,63.22],[-34.15,63.03],[-35.45,62.71],[-36.71,62.38],[-37.95,62.04],[-39.58,61.71],[-41.17,61.36],[-42.72,61],[-44.04,60.8],[-45.33,60.58],[-46.6,60.35],[-48.43,60.07],[-50.22,59.75],[-51.49,59.44],[-52.73,59.12],[-53.95,58.79],[-55.3,58.31],[-56.62,57.82],[-56.62,57.82],[-57.66,58.57],[-58.28,59.22],[-58.93,59.87],[-59.61,60.51],[-60.28,61.4],[-60.99,62.28],[-61.41,63.02],[-61.85,63.75],[-62.31,64.48],[-62.54,65.31],[-62.78,66.13],[-63.04,66.95],[-63.31,67.78],[-63.31,67.78],[-62.42,68.29],[-61.48,68.79],[-60.26,69.51],[-58.95,70.23],[-57.54,70.93],[-56.48,71.5],[-55.36,72.07],[-54.75,72.77],[-54.09,73.47],[-53.55,74.17],[-52.97,74.86],[-51.98,75.43],[-50.9,75.99],[-49.56,76.61],[-48.09,77.23],[-46.48,77.84],[-44.16,78.54],[-41.55,79.22],[-38.16,79.87],[-34.32,80.49],[-32.29,81.03]]]}},{"type":"Feature","properties":{"ma":220,"type":"gpml:TopologicalClosedPlateBoundary","name":"Izanagi Plate","pid":926,"deforming":false},"geometry":{"type":"MultiPolygon","coordinates":[[[[180,74.36],[180,73.37],[180,72.38],[180,71.38],[180,70.39],[180,69.4],[180,68.4],[180,67.41],[180,66.42],[180,65.42],[180,64.43],[180,63.43],[180,62.44],[180,61.45],[180,60.45],[180,59.46],[180,58.47],[180,57.47],[180,56.48],[180,55.49],[180,54.49],[180,53.5],[180,52.51],[180,51.51],[180,50.52],[180,49.52],[180,48.53],[180,47.54],[180,46.54],[180,45.55],[180,44.56],[180,43.56],[180,42.57],[180,41.58],[180,40.58],[180,39.59],[180,38.6],[180,37.6],[180,36.61],[180,35.61],[180,34.62],[180,33.63],[180,32.63],[180,31.64],[180,30.65],[180,29.65],[180,28.66],[180,27.67],[180,26.67],[180,25.68],[180,24.69],[180,23.69],[180,22.7],[180,21.7],[180,20.71],[180,19.72],[180,18.72],[180,17.73],[180,16.74],[180,15.74],[180,14.75],[180,13.76],[180,12.76],[180,11.77],[180,10.77],[180,9.78],[180,8.79],[180,7.79],[180,6.8],[180,5.81],[180,4.81],[180,3.82],[180,2.83],[180,1.83],[180,0.84],[180,-0.15],[180,-1.15],[180,-2.14],[180,-3.14],[180,-4.13],[180,-5.12],[180,-6.12],[180,-7.11],[180,-8.1],[180,-9.1],[180,-10.09],[180,-11.08],[180,-12.08],[179.15,-12.4],[178.3,-12.73],[177.45,-13.05],[176.6,-13.37],[175.74,-13.69],[174.88,-14],[174.02,-14.31],[173.59,-13.41],[173.16,-12.5],[172.73,-11.6],[171.76,-11.92],[170.79,-12.24],[169.82,-12.55],[168.85,-12.87],[167.87,-13.17],[166.89,-13.48],[165.91,-13.78],[164.93,-14.07],[163.94,-14.37],[162.96,-14.66],[161.96,-14.94],[160.97,-15.22],[159.97,-15.5],[158.98,-15.77],[157.97,-16.03],[157.52,-15.25],[157.08,-14.47],[156.63,-13.69],[156.19,-12.91],[155.75,-12.13],[154.93,-12.65],[154.11,-13.18],[153.28,-13.7],[152.44,-14.21],[151.61,-14.73],[150.77,-15.24],[149.92,-15.74],[149.07,-16.25],[148.22,-16.75],[147.36,-17.25],[146.5,-17.74],[145.63,-18.23],[144.76,-18.72],[143.89,-19.2],[143,-19.68],[142.12,-20.15],[141.22,-20.62],[140.33,-21.09],[139.42,-21.55],[138.51,-22],[137.79,-22.45],[137.06,-22.89],[136.32,-23.33],[135.59,-23.76],[135.57,-22.82],[135.56,-21.88],[135.54,-20.94],[135.53,-20.01],[135.52,-19.07],[135.5,-18.13],[135.49,-17.19],[135.19,-16.42],[134.89,-15.66],[134.6,-14.9],[134.31,-14.14],[134.31,-14.14],[134.16,-14.05],[133.24,-13.74],[132.31,-13.44],[131.39,-13.13],[130.48,-12.82],[129.56,-12.5],[128.65,-12.18],[127.74,-11.86],[126.82,-11.42],[125.91,-10.97],[125,-10.52],[124.1,-10.07],[123.2,-9.62],[122.29,-9.16],[121.4,-8.71],[120.41,-8.56],[119.42,-8.41],[118.44,-8.27],[117.45,-8.11],[116.47,-7.96],[115.48,-7.8],[114.5,-7.65],[113.52,-7.49],[112.53,-7.32],[112.53,-7.32],[112.8,-6.67],[113.06,-6.02],[113.42,-5.11],[113.78,-4.2],[114.13,-3.3],[114.65,-2.77],[115.16,-2.23],[115.67,-1.7],[116.4,-1.3],[117.12,-0.9],[117.85,-0.49],[118.58,-0.09],[119.27,0.41],[119.97,0.9],[120.66,1.39],[121.36,1.89],[122.04,2.38],[122.72,2.86],[123.4,3.35],[124.08,3.84],[124.77,4.32],[124.95,5.3],[125.13,6.28],[125.32,7.26],[125.5,8.24],[125.25,9.12],[124.99,10],[124.74,10.88],[124.53,11.8],[124.33,12.73],[123.86,13.55],[123.39,14.37],[123.08,15.07],[122.78,15.77],[122.47,16.46],[121.7,16.97],[120.93,17.48],[120.15,17.98],[119.75,18.64],[119.34,19.29],[118.93,19.95],[118.86,20.87],[118.78,21.78],[118.7,22.7],[118.63,23.61],[118.63,23.61],[117.61,23.44],[116.6,23.26],[115.6,23.07],[114.59,22.88],[113.59,22.69],[112.59,22.48],[111.6,22.27],[110.61,22.06],[110.61,22.06],[111.05,22.78],[111.5,23.51],[111.96,24.24],[112.42,24.96],[112.88,25.69],[112.58,26.51],[112.27,27.33],[111.96,28.15],[111.64,28.97],[111.59,29.93],[111.53,30.9],[111.47,31.86],[111.41,32.82],[111.35,33.78],[111.28,34.75],[111.22,35.71],[111.15,36.67],[111.54,37.42],[111.94,38.16],[112.35,38.91],[112.76,39.65],[113.36,40.39],[113.97,41.12],[114.6,41.85],[115.24,42.58],[115.9,43.31],[115.9,43.31],[116.32,43.76],[117.3,44.34],[118.3,44.9],[119.32,45.46],[120.36,46.01],[121.42,46.55],[122.62,46.54],[123.81,46.51],[125,46.47],[126.2,46.42],[127.38,46.36],[127.38,46.36],[128.17,47.08],[128.99,47.8],[129.82,48.52],[130.68,49.23],[131.74,49.7],[132.82,50.17],[133.93,50.63],[135.05,51.07],[136.2,51.51],[137.55,51.8],[138.92,52.08],[140.31,52.34],[141.72,52.59],[143.14,52.82],[144.1,53.43],[145.1,54.03],[146.13,54.62],[147.18,55.2],[148.27,55.78],[149.37,56.4],[150.5,57.01],[151.67,57.62],[152.88,58.21],[154.13,58.79],[155.43,59.35],[156.77,59.91],[157.5,60.8],[158.27,61.69],[159.08,62.57],[159.95,63.44],[160.87,64.32],[161.85,65.18],[162.9,66.04],[164.02,66.89],[165.22,67.73],[166.51,68.56],[167.89,69.39],[169.39,70.2],[171.01,70.99],[172.21,71.75],[173.52,72.49],[174.94,73.22],[176.48,73.95],[178.16,74.66],[180,75.36],[180,74.36]]],[[[-180,-11.08],[-180,-10.09],[-180,-9.1],[-180,-8.1],[-180,-7.11],[-180,-6.12],[-180,-5.12],[-180,-4.13],[-180,-3.14],[-180,-2.14],[-180,-1.15],[-180,-0.15],[-180,0.84],[-180,1.83],[-180,2.83],[-180,3.82],[-180,4.81],[-180,5.81],[-180,6.8],[-180,7.79],[-180,8.79],[-180,9.78],[-180,10.77],[-180,11.77],[-180,12.76],[-180,13.76],[-180,14.75],[-180,15.74],[-180,16.74],[-180,17.73],[-180,18.72],[-180,19.72],[-180,20.71],[-180,21.7],[-180,22.7],[-180,23.69],[-180,24.69],[-180,25.68],[-180,26.67],[-180,27.67],[-180,28.66],[-180,29.65],[-180,30.65],[-180,31.64],[-180,32.63],[-180,33.63],[-180,34.62],[-180,35.61],[-180,36.61],[-180,37.6],[-180,38.6],[-180,39.59],[-180,40.58],[-180,41.58],[-180,42.57],[-180,43.56],[-180,44.56],[-180,45.55],[-180,46.54],[-180,47.54],[-180,48.53],[-180,49.52],[-180,50.52],[-180,51.51],[-180,52.51],[-180,53.5],[-180,54.49],[-180,55.49],[-180,56.48],[-180,57.47],[-180,58.47],[-180,59.46],[-180,60.45],[-180,61.45],[-180,62.44],[-180,63.43],[-180,64.43],[-180,65.42],[-180,66.42],[-180,67.41],[-180,68.4],[-180,69.4],[-180,70.39],[-180,71.38],[-180,72.38],[-180,73.37],[-180,74.36],[-180,75.36],[-177.8,76.1],[-175.37,76.81],[-172.67,77.5],[-169.66,78.17],[-166.31,78.79],[-162.59,79.38],[-158.45,79.91],[-153.88,80.39],[-148.88,80.8],[-148.88,80.8],[-145.99,79.97],[-143.54,79.11],[-141.45,78.23],[-139.65,77.34],[-138.08,76.45],[-136.7,75.54],[-135.49,74.62],[-134.4,73.7],[-133.44,72.78],[-132.56,71.85],[-131.77,70.91],[-131.05,69.98],[-130.4,69.04],[-132.58,68.88],[-134.74,68.69],[-136.85,68.48],[-138.92,68.24],[-140.95,67.97],[-140.08,67.04],[-139.27,66.1],[-138.52,65.15],[-137.83,64.2],[-137.17,63.25],[-136.57,62.3],[-135.99,61.34],[-135.46,60.39],[-134.95,59.43],[-134.47,58.46],[-134.02,57.5],[-133.59,56.53],[-133.18,55.57],[-132.79,54.6],[-132.42,53.63],[-133.87,53.43],[-135.31,53.22],[-136.73,52.99],[-136.54,52],[-136.37,51.01],[-136.19,50.03],[-136.03,49.04],[-135.87,48.05],[-135.72,47.06],[-135.58,46.07],[-135.43,45.08],[-135.3,44.09],[-135.17,43.1],[-135.04,42.11],[-134.92,41.13],[-134.8,40.14],[-134.68,39.15],[-134.57,38.16],[-135.63,38.06],[-136.7,37.95],[-137.76,37.83],[-138.81,37.7],[-138.65,36.77],[-138.49,35.83],[-138.34,34.9],[-138.19,33.96],[-138.04,33.03],[-137.9,32.09],[-137.76,31.16],[-137.62,30.22],[-137.48,29.29],[-137.35,28.35],[-137.22,27.42],[-137.09,26.48],[-136.96,25.54],[-136.84,24.61],[-136.71,23.67],[-136.59,22.74],[-137.5,22.61],[-138.41,22.48],[-139.32,22.35],[-140.23,22.21],[-140.07,21.23],[-139.92,20.26],[-139.77,19.28],[-139.62,18.3],[-139.47,17.32],[-139.33,16.34],[-139.18,15.36],[-139.04,14.38],[-138.9,13.4],[-138.75,12.42],[-138.62,11.44],[-138.48,10.46],[-138.34,9.49],[-138.2,8.51],[-138.06,7.53],[-138.97,7.41],[-139.88,7.3],[-140.79,7.18],[-140.65,6.26],[-140.52,5.34],[-140.38,4.41],[-140.25,3.49],[-140.11,2.57],[-139.98,1.64],[-139.84,0.72],[-139.71,-0.2],[-139.57,-1.12],[-139.44,-2.05],[-139.3,-2.97],[-139.17,-3.89],[-139.17,-3.89],[-139.19,-3.9],[-140.13,-4.26],[-141.06,-4.62],[-142,-4.98],[-142.94,-5.34],[-143.87,-5.7],[-144.81,-6.05],[-145.75,-6.41],[-146.7,-6.76],[-147.64,-7.11],[-148.58,-7.46],[-149.53,-7.8],[-150.48,-8.15],[-150.85,-7.3],[-151.22,-6.44],[-151.59,-5.59],[-152.5,-6.01],[-153.41,-6.42],[-154.32,-6.83],[-155.23,-7.24],[-156.15,-7.65],[-157.06,-8.05],[-157.98,-8.46],[-158.9,-8.86],[-159.82,-9.26],[-160.75,-9.65],[-161.09,-8.81],[-161.43,-7.97],[-161.77,-7.13],[-162.68,-7.53],[-163.6,-7.93],[-164.51,-8.33],[-165.43,-8.73],[-166.34,-9.12],[-167.26,-9.51],[-168.19,-9.9],[-169.11,-10.29],[-170.04,-10.68],[-170.97,-11.06],[-171.29,-10.31],[-171.61,-9.55],[-171.93,-8.8],[-172.82,-9.18],[-173.71,-9.55],[-174.6,-9.92],[-175.5,-10.28],[-176.39,-10.65],[-177.29,-11.01],[-178.19,-11.37],[-179.1,-11.72],[-180,-12.08],[-180,-11.08]]]]}},{"type":"Feature","properties":{"ma":220,"type":"gpml:TopologicalClosedPlateBoundary","name":"Cimmerian-Neotethys Plate","pid":505,"deforming":false},"geometry":{"type":"Polygon","coordinates":[[[118.63,23.61],[118.7,22.7],[118.78,21.78],[118.86,20.87],[118.93,19.95],[119.34,19.29],[119.75,18.64],[120.15,17.98],[120.93,17.48],[121.7,16.97],[122.47,16.46],[122.78,15.77],[123.08,15.07],[123.39,14.37],[123.86,13.55],[124.33,12.73],[124.53,11.8],[124.74,10.88],[124.99,10],[125.25,9.12],[125.5,8.24],[125.32,7.26],[125.13,6.28],[124.95,5.3],[124.77,4.32],[124.08,3.84],[123.4,3.35],[122.72,2.86],[122.04,2.38],[121.36,1.89],[120.66,1.39],[119.97,0.9],[119.27,0.41],[118.58,-0.09],[117.85,-0.49],[117.12,-0.9],[116.4,-1.3],[115.67,-1.7],[115.16,-2.23],[114.65,-2.77],[114.13,-3.3],[113.78,-4.2],[113.42,-5.11],[113.06,-6.02],[112.8,-6.67],[112.53,-7.32],[112.53,-7.32],[112.89,-7.38],[112.89,-7.38],[112.9,-8.18],[112.92,-8.97],[112.92,-8.97],[111.93,-8.92],[111.81,-9.74],[111.69,-10.55],[111.57,-11.37],[110.72,-11.26],[109.88,-11.16],[109.03,-11.05],[108.77,-11.95],[108.51,-12.86],[108.24,-13.76],[107.97,-14.67],[107.71,-15.57],[106.93,-15.44],[106.15,-15.3],[105.37,-15.17],[104.6,-15.02],[104.31,-15.87],[104.02,-16.72],[103.73,-17.57],[103.43,-18.42],[103.14,-19.27],[102.83,-20.12],[101.87,-20.02],[100.91,-19.92],[99.94,-19.82],[98.98,-19.71],[98.02,-19.59],[97.71,-20.36],[97.39,-21.12],[97.06,-21.89],[96.73,-22.65],[95.8,-22.33],[94.87,-22],[93.95,-21.66],[93.03,-21.32],[92.6,-22.23],[92.17,-23.14],[91.72,-24.05],[91.27,-24.96],[90.82,-25.87],[90.36,-26.78],[89.89,-27.68],[89.89,-27.68],[88.79,-27.62],[87.69,-27.54],[86.59,-27.46],[85.49,-27.37],[84.39,-27.27],[83.29,-27.19],[82.19,-27.1],[81.1,-27],[80,-26.89],[78.91,-26.77],[77.82,-26.65],[76.73,-26.51],[76.84,-26],[76.94,-25.5],[75.93,-25.17],[74.93,-24.84],[73.93,-24.51],[72.93,-24.17],[71.95,-23.82],[70.96,-23.46],[69.99,-23.1],[69.01,-22.74],[68.05,-22.36],[67.08,-21.98],[66.13,-21.6],[65.18,-21.21],[64.23,-20.82],[63.29,-20.42],[62.35,-20.01],[62.35,-20.01],[62.68,-19.19],[63,-18.37],[63.32,-17.55],[63.63,-16.73],[62.68,-16.37],[61.74,-16],[60.79,-15.63],[59.86,-15.26],[58.92,-14.88],[57.99,-14.49],[57.06,-14.11],[56.14,-13.72],[55.21,-13.33],[54.29,-12.93],[53.38,-12.53],[52.47,-12.13],[51.55,-11.72],[51.86,-10.84],[51.03,-10.43],[50.21,-10.02],[49.39,-9.6],[48.57,-9.18],[47.76,-8.76],[46.94,-8.34],[46.13,-7.92],[46.49,-7.15],[45.68,-6.63],[44.87,-6.11],[44.07,-5.58],[43.26,-5.06],[42.46,-4.53],[41.65,-4],[40.85,-3.47],[40.05,-2.94],[39.25,-2.41],[38.45,-1.88],[37.65,-1.35],[37.65,-1.35],[37.13,-2.1],[36.61,-2.85],[36.09,-3.6],[35.57,-4.34],[35.05,-5.09],[34.52,-5.83],[34,-6.58],[34,-6.58],[33.39,-5.97],[32.78,-5.36],[32.17,-4.75],[31.56,-4.14],[30.95,-3.53],[30.34,-2.92],[29.79,-3.38],[29.24,-3.85],[28.5,-3.18],[27.77,-2.5],[27.03,-1.83],[26.3,-1.15],[25.57,-0.48],[24.83,0.2],[24.1,0.87],[23.5,0.43],[22.9,-0.01],[22.21,0.59],[21.51,1.2],[20.82,1.81],[20.12,2.42],[19.43,3.02],[18.73,3.63],[18.03,4.24],[17.33,4.84],[16.63,5.45],[15.93,6.05],[15.23,6.66],[15.23,6.66],[15.68,7.13],[16.15,7.95],[16.63,8.78],[17.11,9.61],[17.59,10.44],[18.07,11.27],[18.48,11.97],[18.9,12.67],[19.32,13.37],[19.74,14.07],[20.16,14.77],[20.16,14.77],[21.02,14.51],[21.88,14.24],[22.73,13.97],[23.59,13.7],[24.38,13.56],[25.17,13.41],[25.96,13.27],[26.75,13.12],[27.64,13.05],[28.54,12.98],[29.44,12.91],[30.33,13.09],[31.22,13.26],[32.12,13.44],[32.77,13.69],[33.43,13.94],[34.08,14.19],[34.99,14.54],[35.9,14.89],[36.83,15.04],[37.75,15.18],[38.68,15.32],[39.32,15.67],[39.95,16.01],[40.59,16.36],[40.87,16.94],[41.14,17.52],[41.25,18.04],[41.36,18.55],[41.61,19.28],[41.85,20.01],[42.16,20.8],[42.47,21.58],[43.05,22.32],[43.64,23.06],[44.24,23.8],[44.94,24.54],[45.66,25.28],[46.54,25.79],[47.43,26.3],[48.33,26.8],[48.68,27.49],[49.04,28.18],[49.4,28.87],[49.64,29.65],[49.88,30.44],[50.56,30.71],[51.23,30.97],[52.04,30.6],[52.84,30.22],[52.84,30.22],[53.39,30.94],[53.95,31.66],[54.63,32.34],[55.32,33.02],[56.03,33.7],[56.74,34.37],[57.47,35.04],[58.21,35.7],[58.96,36.36],[59.72,37.01],[60.5,37.66],[61.11,38.53],[61.73,39.41],[62.37,40.27],[63.03,41.14],[63.71,42],[64.4,42.86],[64.4,42.86],[65.37,43.26],[66.36,43.66],[67.36,44.05],[68.37,44.43],[69.54,44.9],[70.72,45.35],[71.93,45.79],[73.15,46.21],[74.39,46.63],[74.91,47.52],[75.45,48.41],[76.01,49.29],[76.59,50.18],[77.2,51.06],[77.2,51.06],[78.59,51.04],[79.97,51.01],[81.36,50.95],[82.66,50.93],[83.97,50.88],[85.27,50.83],[86.77,50.79],[88.26,50.73],[89.64,50.88],[91.04,51.01],[92.41,51.34],[93.8,51.66],[95.11,52.02],[96.44,52.37],[98.02,52.49],[98.02,52.49],[97.3,52.18],[96.05,51.61],[94.84,51.03],[93.65,50.43],[92.5,49.83],[91.37,49.21],[90.28,48.58],[89.2,47.94],[88.16,47.29],[87.14,46.64],[86.15,45.97],[85.18,45.29],[84.3,44.57],[83.44,43.84],[82.61,43.11],[81.79,42.36],[81,41.62],[80.22,40.86],[79.46,40.11],[78.72,39.34],[77.99,38.57],[77.25,37.9],[76.53,37.22],[75.82,36.54],[75.12,35.85],[74.43,35.16],[73.76,34.47],[73.09,33.77],[72.44,33.07],[72.44,33.07],[73.01,32.21],[73.56,31.35],[74.11,30.48],[74.64,29.62],[75.31,28.98],[75.97,28.33],[76.63,27.68],[77.27,27.03],[77.91,26.38],[78.81,25.88],[79.71,25.38],[80.6,24.87],[81.49,24.36],[82.36,23.84],[83.14,23.39],[83.92,22.93],[84.69,22.47],[85.45,22],[86.49,21.76],[87.52,21.52],[88.55,21.26],[89.58,21.01],[89.58,21.01],[90.51,20.86],[91.43,20.71],[92.36,20.55],[93.28,20.39],[94.26,20.28],[95.25,20.15],[96.23,20.02],[97.14,20.06],[98.06,20.1],[98.98,20.13],[99.9,20.16],[100.82,20.19],[101.76,20.27],[102.7,20.34],[103.64,20.4],[104.58,20.47],[105.52,20.52],[106.51,20.84],[107.49,21.14],[108.49,21.44],[109.49,21.74],[110.49,22.03],[111.49,22.25],[112.5,22.46],[113.52,22.67],[114.53,22.87],[115.55,23.07],[116.57,23.25],[117.6,23.44],[118.63,23.61]]]}},{"type":"Feature","properties":{"ma":220,"type":"gpml:TopologicalClosedPlateBoundary","name":"Cache Creek/Mezcalear Ocean","pid":131,"deforming":false},"geometry":{"type":"Polygon","coordinates":[[[-86.86,36.19],[-87.1,36.68],[-87.34,37.17],[-87.95,37.93],[-88.58,38.69],[-89.21,39.45],[-89.75,40.32],[-90.3,41.19],[-90.86,42.06],[-91.21,42.74],[-91.57,43.42],[-91.94,44.1],[-92.25,44.88],[-92.58,45.65],[-92.91,46.43],[-93.26,47.21],[-93.74,47.99],[-94.24,48.77],[-94.75,49.54],[-95.25,50.28],[-95.76,51.01],[-96.29,51.75],[-96.86,52.18],[-96.86,52.18],[-96.3,52.85],[-95.72,53.52],[-95.12,54.19],[-94.5,54.85],[-93.56,55.44],[-92.59,56.02],[-91.6,56.59],[-90.57,57.16],[-88.98,57.65],[-87.35,58.13],[-85.67,58.59],[-83.95,59.02],[-82.21,59.35],[-80.44,59.67],[-78.63,59.95],[-76.8,60.21],[-74.93,60.45],[-73.04,60.66],[-71.13,60.84],[-69.2,61],[-67.5,61.19],[-65.79,61.36],[-64.06,61.51],[-62.31,61.64],[-60.55,61.75],[-60.55,61.75],[-60.07,61.13],[-59.61,60.51],[-58.93,59.87],[-58.28,59.22],[-57.66,58.57],[-56.8,57.95],[-55.97,57.32],[-55.17,56.69],[-54.01,56],[-52.9,55.31],[-51.83,54.6],[-50.87,53.98],[-49.93,53.35],[-49.02,52.72],[-48.14,52.08],[-47.31,51.64],[-46.49,51.19],[-45.68,50.73],[-45.68,50.73],[-45.84,50.12],[-45.99,49.5],[-46.3,48.57],[-46.59,47.64],[-46.86,46.71],[-47.13,45.77],[-47.4,44.84],[-46.78,44.12],[-46.17,43.4],[-46.01,42.59],[-45.86,41.79],[-45.72,40.98],[-45.57,40.17],[-45.57,40.17],[-46.6,40.32],[-47.64,40.46],[-48.68,40.6],[-49.73,40.72],[-50.78,40.83],[-52.09,40.91],[-53.41,40.98],[-54.73,41.03],[-56.05,41.06],[-57.37,41.08],[-58.69,41.09],[-59.91,41.1],[-61.14,41.1],[-62.36,41.09],[-63.59,41.07],[-64.81,41.03],[-66.03,40.98],[-67.25,40.92],[-68.47,40.87],[-69.7,40.8],[-70.92,40.71],[-72.14,40.62],[-73.35,40.51],[-74.56,40.39],[-75.77,40.26],[-76.97,40.11],[-78.17,39.95],[-79.28,39.57],[-80.38,39.17],[-81.47,38.76],[-82.54,38.34],[-83.6,37.91],[-84.65,37.47],[-85.69,37.03],[-86.28,36.61],[-86.86,36.19]]]}},{"type":"Feature","properties":{"ma":220,"type":"gpml:TopologicalClosedPlateBoundary","name":"Farallon Plate","pid":902,"deforming":false},"geometry":{"type":"Polygon","coordinates":[[[-59.83,-33.9],[-60.86,-33.85],[-61.89,-33.79],[-62.92,-33.71],[-63.95,-33.63],[-65.14,-33.66],[-66.34,-33.67],[-67.54,-33.68],[-68.73,-33.67],[-69.93,-33.65],[-71.13,-33.62],[-72.32,-33.57],[-73.51,-33.52],[-74.71,-33.45],[-75.9,-33.38],[-77.08,-33.29],[-78.27,-33.19],[-79.45,-33.08],[-80.63,-32.95],[-81.81,-32.82],[-82.98,-32.68],[-84.15,-32.52],[-85.31,-32.36],[-86.47,-32.18],[-87.62,-31.99],[-88.77,-31.79],[-89.92,-31.59],[-91.06,-31.37],[-92.19,-31.14],[-93.32,-30.9],[-93.2,-30.21],[-93.09,-29.52],[-92.97,-28.83],[-94.01,-28.6],[-95.05,-28.37],[-96.07,-28.12],[-97.1,-27.87],[-98.12,-27.61],[-99.13,-27.34],[-100.14,-27.07],[-101.14,-26.79],[-102.14,-26.5],[-103.14,-26.2],[-104.13,-25.9],[-105.11,-25.59],[-106.09,-25.28],[-107.06,-24.96],[-108.03,-24.63],[-108.99,-24.29],[-108.7,-23.55],[-108.41,-22.81],[-108.12,-22.07],[-109.08,-21.78],[-110.04,-21.48],[-111,-21.17],[-111.95,-20.87],[-112.89,-20.55],[-113.83,-20.23],[-114.77,-19.91],[-115.7,-19.58],[-116.64,-19.25],[-117.56,-18.91],[-118.48,-18.57],[-119.4,-18.22],[-120.32,-17.87],[-121.23,-17.51],[-122.14,-17.15],[-123.04,-16.79],[-122.68,-15.98],[-122.32,-15.17],[-121.96,-14.36],[-122.85,-13.86],[-123.73,-13.36],[-124.61,-12.85],[-125.49,-12.34],[-126.37,-11.83],[-127.24,-11.31],[-128.11,-10.8],[-128.98,-10.28],[-129.84,-9.76],[-130.7,-9.23],[-131.56,-8.71],[-132.41,-8.18],[-133.27,-7.65],[-134.12,-7.12],[-134.97,-6.58],[-135.82,-6.05],[-136.66,-5.51],[-137.51,-4.98],[-138.35,-4.44],[-139.19,-3.9],[-139.19,-3.9],[-139.17,-3.89],[-139.17,-3.89],[-139.3,-2.97],[-139.44,-2.05],[-139.57,-1.12],[-139.71,-0.2],[-139.84,0.72],[-139.98,1.64],[-140.11,2.57],[-140.25,3.49],[-140.38,4.41],[-140.52,5.34],[-140.65,6.26],[-140.79,7.18],[-139.88,7.3],[-138.97,7.41],[-138.06,7.53],[-138.2,8.51],[-138.34,9.49],[-138.48,10.46],[-138.62,11.44],[-138.75,12.42],[-138.9,13.4],[-139.04,14.38],[-139.18,15.36],[-139.33,16.34],[-139.47,17.32],[-139.62,18.3],[-139.77,19.28],[-139.92,20.26],[-140.07,21.23],[-140.23,22.21],[-139.32,22.35],[-138.41,22.48],[-137.5,22.61],[-136.59,22.74],[-136.71,23.67],[-136.84,24.61],[-136.96,25.54],[-137.09,26.48],[-137.22,27.42],[-137.35,28.35],[-137.48,29.29],[-137.62,30.22],[-137.76,31.16],[-137.9,32.09],[-138.04,33.03],[-138.19,33.96],[-138.34,34.9],[-138.49,35.83],[-138.65,36.77],[-138.81,37.7],[-137.76,37.83],[-136.7,37.95],[-135.63,38.06],[-134.57,38.16],[-134.68,39.15],[-134.8,40.14],[-134.92,41.13],[-135.04,42.11],[-135.17,43.1],[-135.3,44.09],[-135.43,45.08],[-135.58,46.07],[-135.72,47.06],[-135.87,48.05],[-136.03,49.04],[-136.19,50.03],[-136.37,51.01],[-136.54,52],[-136.73,52.99],[-135.31,53.22],[-133.87,53.43],[-132.42,53.63],[-132.79,54.6],[-133.18,55.57],[-133.59,56.53],[-134.02,57.5],[-134.47,58.46],[-134.95,59.43],[-135.46,60.39],[-135.99,61.34],[-136.57,62.3],[-137.17,63.25],[-137.83,64.2],[-138.52,65.15],[-139.27,66.1],[-140.08,67.04],[-140.95,67.97],[-138.92,68.24],[-136.85,68.48],[-134.74,68.69],[-132.58,68.88],[-130.4,69.04],[-131.05,69.98],[-131.77,70.91],[-132.56,71.85],[-133.44,72.78],[-134.4,73.7],[-135.49,74.62],[-136.7,75.54],[-138.08,76.45],[-139.65,77.34],[-141.45,78.23],[-143.54,79.11],[-145.99,79.97],[-148.88,80.8],[-148.88,80.8],[-144.35,81.09],[-139.54,81.32],[-133.6,81.61],[-127.32,81.8],[-120.82,81.89],[-114.26,81.87],[-107.81,81.75],[-101.62,81.53],[-95.8,81.22],[-90.43,80.83],[-85.53,80.36],[-81.11,79.83],[-77.14,79.25],[-73.12,78.75],[-69.46,78.2],[-66.12,77.61],[-63.1,76.98],[-60.35,76.33],[-57.86,75.64],[-55.59,74.93],[-53.53,74.2],[-53.53,74.2],[-54.09,73.47],[-54.75,72.77],[-55.36,72.07],[-56.48,71.5],[-57.54,70.93],[-58.95,70.23],[-60.26,69.51],[-61.48,68.79],[-62.42,68.29],[-63.31,67.78],[-63.31,67.78],[-63.04,66.95],[-62.78,66.13],[-62.54,65.31],[-62.31,64.48],[-61.85,63.75],[-61.41,63.02],[-60.99,62.28],[-60.55,61.75],[-60.55,61.75],[-62.31,61.64],[-64.06,61.51],[-65.79,61.36],[-67.5,61.19],[-69.2,61],[-71.13,60.84],[-73.04,60.66],[-74.93,60.45],[-76.8,60.21],[-78.63,59.95],[-80.44,59.67],[-82.21,59.35],[-83.95,59.02],[-85.67,58.59],[-87.35,58.13],[-88.98,57.65],[-90.57,57.16],[-91.6,56.59],[-92.59,56.02],[-93.56,55.44],[-94.5,54.85],[-95.12,54.19],[-95.72,53.52],[-96.3,52.85],[-96.86,52.18],[-96.86,52.18],[-96.29,51.75],[-95.76,51.01],[-95.25,50.28],[-94.75,49.54],[-94.24,48.77],[-93.74,47.99],[-93.26,47.21],[-92.91,46.43],[-92.58,45.65],[-92.25,44.88],[-91.94,44.1],[-91.57,43.42],[-91.21,42.74],[-90.86,42.06],[-90.3,41.19],[-89.75,40.32],[-89.21,39.45],[-88.58,38.69],[-87.95,37.93],[-87.34,37.17],[-87.1,36.68],[-86.86,36.19],[-86.86,36.19],[-86.28,36.61],[-85.69,37.03],[-84.65,37.47],[-83.6,37.91],[-82.54,38.34],[-81.47,38.76],[-80.38,39.17],[-79.28,39.57],[-78.17,39.95],[-76.97,40.11],[-75.77,40.26],[-74.56,40.39],[-73.35,40.51],[-72.14,40.62],[-70.92,40.71],[-69.7,40.8],[-68.47,40.87],[-67.25,40.92],[-66.03,40.98],[-64.81,41.03],[-63.59,41.07],[-62.36,41.09],[-61.14,41.1],[-59.91,41.1],[-58.69,41.09],[-57.37,41.08],[-56.05,41.06],[-54.73,41.03],[-53.41,40.98],[-52.09,40.91],[-50.78,40.83],[-49.73,40.72],[-48.68,40.6],[-47.64,40.46],[-46.6,40.32],[-45.57,40.17],[-45.57,40.17],[-45.49,39.67],[-45.69,38.77],[-45.88,37.87],[-46.07,36.97],[-46.26,36.07],[-46.44,35.17],[-46.62,34.26],[-46.79,33.36],[-47.03,32.39],[-47.26,31.41],[-47.48,30.43],[-47.71,29.45],[-47.92,28.47],[-48.14,27.49],[-48.58,26.63],[-49.01,25.77],[-49.44,24.9],[-49.44,24.9],[-49.98,24.37],[-50.52,23.83],[-51.05,23.3],[-51.72,22.6],[-52.38,21.89],[-53.04,21.18],[-53.69,20.47],[-54.12,19.71],[-54.56,18.95],[-54.98,18.19],[-55.41,17.43],[-55.83,16.67],[-55.82,15.9],[-55.81,15.12],[-55.8,14.35],[-55.8,13.58],[-55.71,12.63],[-55.62,11.67],[-55.54,10.72],[-55.45,9.77],[-55.37,8.82],[-55.29,7.86],[-55.2,6.91],[-55.16,6.06],[-55.11,5.22],[-55.07,4.37],[-55.02,3.52],[-54.97,2.68],[-54.97,2.68],[-55.01,2.61],[-55.47,2.15],[-55.92,1.69],[-56.48,1.25],[-57.03,0.81],[-57.44,0.46],[-57.85,0.12],[-58.14,-0.59],[-58.44,-1.3],[-58.74,-2.01],[-58.96,-2.8],[-59.19,-3.59],[-59.42,-4.37],[-59.6,-5.12],[-59.78,-5.87],[-59.96,-6.62],[-60.08,-7.36],[-60.19,-8.11],[-59.82,-8.75],[-59.45,-9.4],[-59.26,-10.09],[-59.08,-10.78],[-58.89,-11.47],[-58.63,-12.12],[-58.38,-12.77],[-57.96,-13.57],[-57.96,-13.57],[-58.01,-13.62],[-58.22,-13.92],[-58.47,-14.25],[-58.57,-14.48],[-58.68,-14.67],[-58.86,-15],[-59,-15.25],[-59.11,-15.49],[-59.24,-15.75],[-59.64,-16.52],[-60.04,-17.29],[-60.45,-18.06],[-60.86,-18.82],[-61.28,-19.59],[-61.29,-20.46],[-61.3,-21.33],[-61.32,-22.2],[-61.3,-23.06],[-61.28,-23.92],[-61.26,-24.78],[-61.25,-25.64],[-61.23,-26.51],[-61.21,-27.37],[-61.07,-28.19],[-60.93,-29.02],[-60.78,-29.85],[-60.66,-30.55],[-60.55,-31.25],[-60.43,-31.94],[-59.91,-32.76],[-59.88,-33.29],[-59.84,-33.82],[-59.83,-33.9]]]}},{"type":"Feature","properties":{"ma":220,"type":"gpml:TopologicalClosedPlateBoundary","name":"South China plate","pid":602,"deforming":false},"geometry":{"type":"Polygon","coordinates":[[[110.49,22.03],[109.49,21.74],[108.49,21.44],[107.49,21.14],[106.51,20.84],[105.52,20.52],[104.58,20.47],[103.64,20.4],[102.7,20.34],[101.76,20.27],[100.82,20.19],[99.9,20.16],[98.98,20.13],[98.06,20.1],[97.14,20.06],[96.23,20.02],[95.25,20.15],[94.26,20.28],[93.28,20.39],[92.36,20.55],[91.43,20.71],[90.51,20.86],[89.58,21.01],[89.58,21.01],[88.55,21.26],[87.52,21.52],[86.49,21.76],[85.45,22],[84.69,22.47],[83.92,22.93],[83.14,23.39],[82.36,23.84],[81.49,24.36],[80.6,24.87],[79.71,25.38],[78.81,25.88],[77.91,26.38],[77.27,27.03],[76.63,27.68],[75.97,28.33],[75.31,28.98],[74.64,29.62],[74.11,30.48],[73.56,31.35],[73.01,32.21],[72.44,33.07],[72.44,33.07],[73.09,33.77],[73.76,34.47],[74.43,35.16],[75.12,35.85],[75.82,36.54],[76.53,37.22],[77.25,37.9],[77.99,38.57],[78.72,39.34],[79.46,40.11],[80.22,40.86],[81,41.62],[81.79,42.36],[82.61,43.11],[83.44,43.84],[84.3,44.57],[85.18,45.29],[86.15,45.97],[87.14,46.64],[88.16,47.29],[89.2,47.94],[90.28,48.58],[91.37,49.21],[92.5,49.83],[93.65,50.43],[94.84,51.03],[96.05,51.61],[97.3,52.18],[98.02,52.49],[98.02,52.49],[98.2,52.5],[99.71,52.31],[100.62,52.36],[101.52,52.41],[102.95,52.1],[104.36,51.77],[105.52,51.4],[106.66,51.03],[107.77,50.65],[108.88,50.26],[110.11,49.93],[111.17,49.89],[112.07,50.58],[112.56,50.57],[113.48,50.49],[114.39,50.4],[115.9,50.48],[116.98,50.72],[118.07,50.95],[118.07,50.95],[119.07,50.8],[120.06,50.65],[120.92,50.54],[121.77,50.42],[122.9,50.4],[124.02,50.37],[125.33,50.35],[126.64,50.32],[127.73,50.79],[128.84,50.82],[130.37,50.7],[131.9,50.57],[133.42,50.42],[133.42,50.42],[132.49,50.03],[131.57,49.63],[130.68,49.23],[129.82,48.52],[128.99,47.8],[128.17,47.08],[127.38,46.36],[127.38,46.36],[126.2,46.42],[125,46.47],[123.81,46.51],[122.62,46.54],[121.42,46.55],[120.36,46.01],[119.32,45.46],[118.3,44.9],[117.3,44.34],[116.32,43.76],[115.9,43.31],[115.9,43.31],[115.24,42.58],[114.6,41.85],[113.97,41.12],[113.36,40.39],[112.76,39.65],[112.35,38.91],[111.94,38.16],[111.54,37.42],[111.15,36.67],[111.22,35.71],[111.28,34.75],[111.35,33.78],[111.41,32.82],[111.47,31.86],[111.53,30.9],[111.59,29.93],[111.64,28.97],[111.96,28.15],[112.27,27.33],[112.58,26.51],[112.88,25.69],[112.42,24.96],[111.96,24.24],[111.5,23.51],[111.05,22.78],[110.61,22.06],[110.49,22.03]]]}},{"type":"Feature","properties":{"ma":220,"type":"gpml:TopologicalNetwork","name":"Central_Atlantic_Mesh","pid":101,"deforming":true},"geometry":{"type":"Polygon","coordinates":[[[-4.29,1.77],[-4.51,1.25],[-4.74,0.74],[-5.23,0.31],[-5.73,-0.11],[-5.48,-0.32],[-5.48,-0.32],[-5.76,-0.43],[-6.38,-0.65],[-6.91,-0.48],[-7.5,-0.37],[-7.83,-0.19],[-8.16,-0.03],[-8.65,0.15],[-9.09,0.43],[-9.69,0.6],[-10.14,0.54],[-10.8,0.28],[-11.61,0.17],[-12.33,0.03],[-12.87,-0.25],[-13.77,-0.53],[-14.21,-0.85],[-14.99,-1.23],[-15.72,-1.53],[-16.27,-1.44],[-16.42,-1.34],[-16.93,-1.31],[-17.88,-1.26],[-18.76,-1.09],[-18.89,-1.18],[-19.37,-1.39],[-19.85,-1.59],[-20.2,-2.02],[-20.55,-2.45],[-20.82,-2.89],[-21.09,-3.32],[-21.33,-3.93],[-21.68,-4.46],[-22.08,-5.01],[-22.29,-5.2],[-22.56,-5.44],[-22.69,-5.86],[-22.78,-6.3],[-22.86,-7.08],[-23.1,-7.51],[-23.33,-7.86],[-23.64,-8.07],[-23.84,-8.34],[-23.99,-8.59],[-24.21,-8.94],[-24.66,-8.9],[-25.09,-8.89],[-25.71,-9.14],[-26.11,-9.44],[-26.39,-9.8],[-26.61,-10.57],[-26.85,-11.45],[-26.86,-12.05],[-26.67,-12.44],[-26.67,-12.44],[-26.98,-12.35],[-26.98,-12.35],[-27.33,-12.14],[-27.33,-12.14],[-27.76,-12.68],[-28.2,-13.22],[-28.37,-13.26],[-28.37,-13.26],[-28.42,-13.19],[-28.44,-12.94],[-28.49,-12.66],[-28.44,-12.41],[-28.44,-12.16],[-28.57,-11.87],[-28.58,-11.71],[-28.54,-11.61],[-28.59,-11.41],[-28.68,-11.31],[-28.8,-11.2],[-28.88,-11.05],[-29.08,-10.78],[-29.32,-10.46],[-29.46,-10.23],[-29.42,-9.97],[-29.31,-9.62],[-29.31,-9.44],[-29.52,-9.32],[-29.63,-9.05],[-29.74,-8.91],[-29.86,-8.89],[-30.01,-8.54],[-30.13,-8.19],[-30.28,-7.86],[-30.34,-7.5],[-30.48,-7.12],[-30.62,-6.76],[-30.68,-6.55],[-30.7,-6.3],[-30.75,-6.07],[-30.75,-6.07],[-30.71,-6.03],[-30.33,-5.72],[-29.95,-5.44],[-29.83,-5.24],[-29.49,-5.16],[-29.18,-5.08],[-28.66,-4.94],[-28.03,-4.82],[-27.4,-4.69],[-26.84,-4.27],[-26.38,-3.83],[-26.17,-3.08],[-25.99,-2.46],[-25.37,-2.15],[-24.6,-1.62],[-24.26,-1.32],[-23.78,-0.85],[-23.3,-0.39],[-23.04,0.06],[-22.86,0.5],[-22.46,0.65],[-22.33,0.76],[-22.09,0.74],[-21.79,0.66],[-21.51,0.65],[-21.06,0.79],[-20.81,0.82],[-20.64,0.82],[-20.33,1.09],[-20.01,1.36],[-19.55,1.49],[-19.2,1.81],[-19.01,2.37],[-18.77,2.46],[-18.39,2.33],[-17.89,2.6],[-17.42,2.62],[-16.67,2.69],[-15.9,2.85],[-15.39,3],[-14.63,3.15],[-14.14,3.46],[-13.47,3.87],[-12.9,4.15],[-12.36,4.3],[-11.75,4.44],[-11.42,4.48],[-10.94,4.39],[-10.29,4.35],[-9.73,4.42],[-9.25,4.47],[-8.76,4.5],[-8.25,4.51],[-7.62,4.49],[-6.9,4.37],[-6.22,4.22],[-5.46,4.15],[-5.12,4.06],[-4.94,3.86],[-4.72,3.78],[-4.58,3.64],[-4.46,3.55],[-4.28,3.38],[-4.01,3.21],[-4.07,3.09],[-4.21,2.98],[-4.52,2.97],[-4.49,2.78],[-4.35,2.56],[-4.05,2.75],[-4,2.76],[-3.88,2.74],[-3.88,2.52],[-3.88,2.49],[-4.29,1.77]]]}},{"type":"Feature","properties":{"ma":220,"type":"gpml:TopologicalNetwork","name":"Proto_Caribbean_Mesh","pid":101,"deforming":true},"geometry":{"type":"Polygon","coordinates":[[[-31.42,-6.69],[-31.12,-6.41],[-30.75,-6.07],[-30.75,-6.07],[-30.7,-6.3],[-30.68,-6.55],[-30.62,-6.76],[-30.48,-7.12],[-30.34,-7.5],[-30.28,-7.86],[-30.13,-8.19],[-30.01,-8.54],[-29.86,-8.89],[-29.74,-8.91],[-29.63,-9.05],[-29.52,-9.32],[-29.31,-9.44],[-29.31,-9.62],[-29.42,-9.97],[-29.46,-10.23],[-29.32,-10.46],[-29.08,-10.78],[-28.88,-11.05],[-28.8,-11.2],[-28.68,-11.31],[-28.59,-11.41],[-28.54,-11.61],[-28.58,-11.71],[-28.57,-11.87],[-28.44,-12.16],[-28.44,-12.41],[-28.49,-12.66],[-28.44,-12.94],[-28.42,-13.19],[-28.37,-13.26],[-28.37,-13.26],[-29.13,-13.43],[-29.89,-13.59],[-30.65,-13.75],[-31.27,-13.94],[-31.89,-14.13],[-32.48,-14.1],[-33.07,-14.06],[-33.59,-14],[-34.11,-13.93],[-35.02,-13.61],[-35.81,-13.5],[-36.6,-13.39],[-37.28,-13.26],[-37.96,-13.12],[-38.64,-12.98],[-39.4,-13.1],[-40.17,-13.21],[-40.82,-13.67],[-41.46,-14.12],[-42.09,-14.19],[-42.71,-14.26],[-43.24,-14.35],[-43.77,-14.45],[-44.35,-14.51],[-44.93,-14.56],[-45.58,-14.76],[-46.23,-14.95],[-46.91,-15.27],[-47.59,-15.59],[-48.36,-15.92],[-49.14,-16.25],[-49.98,-16.38],[-50.83,-16.5],[-51.7,-16.22],[-52.57,-15.94],[-53.23,-15.54],[-53.89,-15.15],[-54.4,-14.91],[-54.91,-14.67],[-55.5,-14.52],[-56.09,-14.37],[-56.66,-14.43],[-57.24,-14.49],[-57.5,-14.46],[-57.5,-14.46],[-57.94,-13.61],[-58.38,-12.77],[-58.63,-12.12],[-58.89,-11.47],[-59.08,-10.78],[-59.26,-10.09],[-59.45,-9.4],[-59.82,-8.75],[-60.19,-8.11],[-60.17,-7.95],[-60.17,-7.95],[-59.26,-7.89],[-58.31,-7.75],[-57.35,-7.6],[-56.57,-7.44],[-55.8,-7.29],[-54.83,-7.12],[-53.87,-6.96],[-53.07,-6.83],[-52.27,-6.7],[-51.58,-6.22],[-50.88,-5.75],[-50.26,-5.39],[-49.58,-4.68],[-49.18,-4.32],[-48.78,-3.97],[-48.49,-3.28],[-47.75,-2.65],[-47.01,-2.01],[-46.26,-1.38],[-45.57,-1],[-44.87,-0.62],[-44.18,-0.24],[-43.66,-0.29],[-43.14,-0.35],[-42.15,-0.36],[-41.64,-0.53],[-41.14,-0.71],[-40.43,-0.91],[-39.72,-1.11],[-38.93,-1.7],[-38.47,-1.98],[-38.01,-2.25],[-37.53,-2.5],[-37.06,-2.75],[-36.57,-3.04],[-36.08,-3.33],[-35.41,-3.71],[-34.78,-4.26],[-34.06,-4.72],[-33.35,-5.18],[-32.84,-5.66],[-32.34,-6.14],[-31.63,-6.8],[-31.62,-6.81],[-31.42,-6.69]]]}}]}