{"type":"FeatureCollection","features":[{"type":"Feature","properties":{"ma":195,"type":"gpml:TopologicalNetwork","name":"Amer_anyui_mesh","pid":101,"deforming":true},"geometry":{"type":"Polygon","coordinates":[[[-3.16,49.32],[-4.44,49.35],[-5.72,49.36],[-7,49.35],[-8.39,49.19],[-9.78,49.02],[-11.01,49.06],[-12.24,49.1],[-13.3,49.24],[-14.36,49.37],[-15.42,49.5],[-16.58,49.7],[-17.75,49.89],[-18.92,50.07],[-20.06,49.99],[-21.2,49.9],[-22.58,49.59],[-23.94,49.26],[-24.79,49.03],[-25.63,48.79],[-26.38,48.61],[-27.13,48.42],[-27.85,48.23],[-28.56,48.03],[-29.42,47.91],[-29.51,47.9],[-29.51,47.9],[-29.12,48.4],[-28.2,49.01],[-27.98,49.23],[-27.26,49.91],[-26.98,50.11],[-26.39,50.36],[-25.7,50.82],[-24.99,51.28],[-24.02,52.03],[-23.35,52.28],[-22.8,52.44],[-21.75,52.64],[-21.19,52.68],[-20.55,52.84],[-19.86,53],[-19.08,53.05],[-18.17,53.11],[-17.42,53.15],[-16.43,53.2],[-15.59,53.23],[-14.57,53.26],[-13.62,53.27],[-12.31,53.28],[-11,53.28],[-9.48,53.12],[-7.97,52.95],[-6.47,52.75],[-5.1,52.48],[-3.75,52.2],[-3.75,52.2],[-3.51,51.41],[-3.28,50.61],[-3.06,49.82],[-3.16,49.32]]]}},{"type":"Feature","properties":{"ma":195,"type":"gpml:TopologicalClosedPlateBoundary","name":"East Gondwana Plate","pid":801,"deforming":false},"geometry":{"type":"Polygon","coordinates":[[[180,-76.75],[180,-77.7],[180,-78.64],[180,-79.59],[180,-80.54],[180,-81.48],[180,-82.43],[180,-83.37],[180,-84.32],[180,-85.27],[180,-86.21],[180,-87.16],[180,-88.11],[180,-89.05],[180,-90],[-180,-90],[-180,-89.05],[-180,-88.11],[-180,-87.16],[-180,-86.21],[-180,-85.27],[-180,-84.32],[-180,-83.37],[-180,-82.43],[-180,-81.48],[-180,-80.54],[-180,-79.59],[-180,-78.64],[-180,-77.7],[-180,-76.75],[-180,-75.8],[-176.27,-75.86],[-172.52,-75.86],[-168.79,-75.8],[-165.11,-75.69],[-161.49,-75.52],[-157.97,-75.29],[-154.56,-75.02],[-151.29,-74.69],[-147.6,-74.83],[-143.86,-74.9],[-140.11,-74.91],[-136.36,-74.86],[-132.65,-74.74],[-129.24,-74.73],[-125.85,-74.67],[-122.49,-74.55],[-119.19,-74.39],[-115.97,-74.17],[-113.16,-73.94],[-110.42,-73.67],[-107.78,-73.37],[-105.24,-73.03],[-102.78,-72.67],[-100.43,-72.27],[-98.18,-71.85],[-96.03,-71.41],[-94.06,-70.98],[-92.17,-70.54],[-90.37,-70.08],[-88.64,-69.6],[-86.57,-69.22],[-84.57,-68.82],[-82.64,-68.4],[-80.79,-67.95],[-78.67,-67.46],[-76.65,-66.94],[-74.72,-66.39],[-72.86,-65.82],[-71.09,-65.23],[-69.83,-64.48],[-68.64,-63.72],[-68.64,-63.72],[-68.68,-63.69],[-68.68,-63.69],[-66.71,-64.12],[-64.68,-64.52],[-62.59,-64.9],[-60.44,-65.24],[-58.24,-65.56],[-56.47,-65.72],[-54.68,-65.86],[-53,-65.94],[-51.31,-66],[-49.88,-66.15],[-48.88,-66.19],[-47.85,-66.32],[-46.48,-66.41],[-45.82,-66.4],[-45.3,-66.38],[-44.02,-66.36],[-42.58,-66.31],[-41.15,-66.25],[-40.2,-66.19],[-39.44,-66.13],[-38.04,-66.08],[-36.58,-65.93],[-35.36,-65.82],[-34.25,-65.69],[-33.14,-65.56],[-31.82,-65.37],[-31.06,-65.27],[-30.71,-65.22],[-30.58,-65.2],[-30.58,-65.2],[-30.12,-64.33],[-29.69,-63.45],[-29.29,-62.57],[-28.91,-61.69],[-28.56,-60.81],[-27.8,-59.96],[-27.07,-59.11],[-26.93,-58.43],[-26.8,-57.75],[-25.75,-57.35],[-24.73,-56.93],[-23.65,-57.22],[-22.55,-57.5],[-21.5,-56.79],[-20.49,-56.08],[-18.97,-56.08],[-17.46,-56.06],[-15.95,-56.02],[-14.47,-56.47],[-12.97,-56.89],[-11.43,-57.29],[-9.86,-57.68],[-8.71,-57.13],[-7.59,-56.56],[-5.97,-56.46],[-4.36,-56.34],[-3.08,-56.39],[-2.48,-55.94],[-1.88,-55.49],[-1.76,-54.92],[-1.63,-54.36],[-0.81,-53.9],[-0.01,-53.43],[0.13,-52.66],[0.26,-51.88],[1.09,-51.3],[1.87,-50.79],[2.64,-50.27],[2.67,-49.61],[3.04,-48.99],[2.73,-48.12],[2.43,-47.25],[2.15,-46.6],[1.87,-45.96],[1.29,-45.58],[0.71,-45.2],[0.73,-44.36],[0.76,-43.53],[1.5,-42.72],[1.56,-42.06],[1.61,-41.41],[2.15,-40.7],[2.68,-39.98],[3.32,-39.7],[3.96,-39.41],[4.69,-38.94],[5.4,-38.48],[6.24,-38.07],[7.07,-37.67],[7.96,-37.44],[8.84,-37.22],[8.79,-37.16],[8.28,-36.77],[7.77,-36.38],[8.21,-35.78],[8.65,-35.19],[9.63,-35.33],[10.47,-35],[11.3,-34.66],[12.12,-35.14],[12.95,-35.62],[13.79,-36.09],[14.64,-36.55],[15.5,-37.01],[16.09,-36.72],[16.68,-36.42],[17.44,-36.68],[17.43,-36.13],[17.43,-36.13],[18.45,-35.96],[19.26,-35.58],[20.06,-35.2],[20.86,-34.81],[21.55,-34.52],[22.23,-34.23],[22.23,-34.23],[23.41,-34.24],[24.59,-34.25],[25.79,-34.31],[26.99,-34.37],[28.2,-34.4],[29.4,-34.43],[30.6,-34.44],[31.81,-34.44],[33.01,-34.43],[34.14,-34.35],[35.26,-34.26],[36.38,-34.17],[37.5,-34.06],[38.62,-33.94],[39.73,-33.82],[40.01,-33.77],[40.01,-33.77],[40.95,-33.19],[41.88,-32.61],[42.79,-32.02],[43.7,-31.42],[44.59,-30.81],[45.47,-30.2],[46.34,-29.58],[47.2,-28.96],[47.27,-28.92],[47.27,-28.92],[47.97,-28.2],[48.66,-27.48],[49.34,-26.75],[50.05,-26.18],[50.74,-25.61],[51.43,-25.04],[52.12,-24.46],[52.8,-23.88],[53.47,-23.3],[54.11,-22.6],[54.75,-21.9],[55.37,-21.19],[56,-20.49],[56.62,-19.78],[57.23,-19.07],[57.84,-18.36],[58.44,-17.64],[59.03,-16.93],[59.63,-16.21],[60.15,-15.35],[60.67,-14.5],[61.19,-13.65],[61.71,-12.79],[62.22,-11.93],[62.72,-11.08],[63.23,-10.22],[63.73,-9.36],[64.06,-8.66],[64.39,-7.97],[64.39,-7.97],[65.32,-8.32],[66.26,-8.68],[67.2,-9.03],[68.14,-9.38],[67.85,-10.21],[67.56,-11.04],[67.26,-11.86],[66.96,-12.69],[66.96,-12.69],[67.87,-13.08],[68.79,-13.46],[69.7,-13.84],[70.62,-14.22],[71.54,-14.6],[72.46,-14.97],[73.39,-15.34],[74.32,-15.7],[75.25,-16.06],[76.19,-16.42],[77.13,-16.77],[78.08,-17.12],[79.02,-17.46],[79.97,-17.8],[80.93,-18.13],[80.82,-18.64],[80.72,-19.15],[81.75,-19.3],[82.78,-19.44],[83.81,-19.58],[84.84,-19.71],[85.88,-19.83],[86.91,-19.95],[87.95,-20.06],[88.98,-20.2],[90.02,-20.32],[91.05,-20.44],[92.09,-20.55],[93.13,-20.66],[93.13,-20.66],[93.62,-19.77],[94.1,-18.89],[94.58,-18],[95.05,-17.11],[95.52,-16.22],[95.98,-15.33],[96.44,-14.44],[97.31,-14.82],[98.18,-15.2],[99.05,-15.58],[99.92,-15.96],[100.28,-15.21],[100.64,-14.47],[100.99,-13.72],[101.35,-12.98],[102.27,-13.15],[103.19,-13.31],[104.11,-13.48],[105.03,-13.64],[105.95,-13.79],[106.31,-12.97],[106.66,-12.14],[107,-11.32],[107.35,-10.49],[107.69,-9.66],[108.03,-8.83],[108.78,-9.03],[109.53,-9.22],[110.27,-9.41],[111.02,-9.6],[111.35,-8.72],[111.69,-7.84],[112.02,-6.96],[112.35,-6.08],[112.68,-5.2],[113.5,-5.37],[114.32,-5.55],[115.14,-5.72],[115.16,-5.66],[115.16,-5.66],[115.23,-5.7],[116.09,-6.1],[116.94,-6.5],[117.8,-6.9],[118.66,-7.3],[119.52,-7.7],[119.25,-8.19],[118.97,-8.68],[119.79,-9.06],[120.61,-9.44],[121.44,-9.81],[122.26,-10.18],[123.09,-10.55],[123.92,-10.92],[124.75,-11.28],[124.48,-11.83],[124.2,-12.38],[125.02,-12.75],[125.84,-13.12],[126.67,-13.48],[127.49,-13.84],[128.32,-14.2],[129.15,-14.55],[129.98,-14.9],[130.82,-15.25],[130.51,-15.83],[130.2,-16.4],[131.02,-16.68],[131.85,-16.96],[132.68,-17.24],[133.51,-17.52],[134.34,-17.79],[135.18,-18.05],[135.79,-18.38],[135.79,-18.38],[135.82,-19.13],[135.85,-19.87],[135.83,-20.74],[135.8,-21.62],[135.78,-22.49],[135.76,-23.37],[135.74,-24.24],[135.72,-25.12],[135.69,-25.99],[135.68,-26.93],[135.67,-27.87],[135.66,-28.82],[135.65,-29.76],[135.64,-30.7],[135.63,-31.64],[135.62,-32.58],[135.61,-33.52],[135.61,-34.39],[135.61,-35.25],[135.62,-36.11],[135.62,-36.98],[135.62,-37.84],[136.29,-38.61],[136.96,-39.38],[137.66,-40.14],[138.37,-40.91],[138.84,-41.56],[139.33,-42.2],[139.78,-42.67],[140.25,-43.14],[140.9,-43.42],[141.56,-43.69],[142.72,-44.11],[143.9,-44.52],[144.96,-45.1],[146.04,-45.68],[147.14,-46.24],[148.26,-46.8],[148.41,-47.54],[148.55,-48.27],[148.7,-49.01],[148.91,-49.81],[149.13,-50.61],[149.35,-51.41],[149.58,-52.2],[149.83,-53],[149.98,-53.87],[150.14,-54.75],[150.3,-55.62],[150.48,-56.49],[150.66,-57.36],[151.34,-58.26],[152.06,-59.16],[152.82,-60.05],[153.62,-60.94],[154.46,-61.82],[155.12,-62.59],[155.82,-63.35],[156.55,-64.11],[157.32,-64.87],[157.47,-65.45],[157.63,-66.04],[157.35,-66.6],[157.05,-67.17],[156.17,-68.1],[155.21,-69.03],[154.11,-69.95],[152.9,-70.87],[152.55,-71.38],[154.12,-72.2],[154.76,-73.02],[155.47,-73.83],[156.24,-74.65],[156.24,-74.65],[159.22,-74.89],[162.28,-75.1],[165.42,-75.27],[168.62,-75.39],[171.86,-75.47],[174.53,-75.61],[177.25,-75.72],[180,-75.8],[180,-76.75]]]}},{"type":"Feature","properties":{"ma":195,"type":"gpml:TopologicalClosedPlateBoundary","name":"Farallon Plate 195-140 GS","pid":902,"deforming":false},"geometry":{"type":"Polygon","coordinates":[[[-61.08,-41.55],[-62.2,-41.53],[-63.32,-41.49],[-64.61,-41.44],[-65.89,-41.37],[-67.18,-41.28],[-68.45,-41.18],[-69.73,-41.06],[-71,-40.94],[-72.26,-40.79],[-73.52,-40.64],[-74.77,-40.47],[-76.02,-40.28],[-77.26,-40.09],[-78.49,-39.88],[-79.71,-39.65],[-80.93,-39.42],[-82.13,-39.17],[-83.33,-38.91],[-84.52,-38.64],[-85.7,-38.35],[-86.87,-38.06],[-88.03,-37.75],[-87.87,-36.85],[-87.71,-35.96],[-88.89,-35.66],[-90.05,-35.35],[-91.21,-35.03],[-92.35,-34.7],[-93.49,-34.36],[-94.61,-34],[-95.73,-33.64],[-96.84,-33.27],[-97.94,-32.89],[-99.03,-32.49],[-100.11,-32.09],[-101.18,-31.68],[-102.24,-31.26],[-103.29,-30.84],[-104.33,-30.4],[-105.36,-29.95],[-106.39,-29.5],[-107.4,-29.04],[-108.4,-28.57],[-109.4,-28.1],[-110.39,-27.62],[-111.37,-27.13],[-112.34,-26.63],[-113.3,-26.13],[-114.25,-25.62],[-113.89,-25],[-113.54,-24.38],[-114.43,-23.86],[-115.32,-23.33],[-116.2,-22.8],[-117.08,-22.26],[-117.94,-21.72],[-118.81,-21.18],[-119.66,-20.63],[-120.51,-20.07],[-121.35,-19.52],[-122.19,-18.95],[-123.02,-18.39],[-123.85,-17.82],[-124.67,-17.24],[-125.48,-16.67],[-126.29,-16.09],[-125.93,-15.41],[-125.56,-14.72],[-125.2,-14.04],[-125.85,-13.58],[-126.5,-13.12],[-127.14,-12.66],[-127.78,-12.2],[-128.46,-11.63],[-129.14,-11.06],[-129.82,-10.48],[-130.49,-9.91],[-131.16,-9.33],[-131.83,-8.76],[-132.5,-8.18],[-133.16,-7.6],[-133.87,-6.98],[-134.58,-6.35],[-135.29,-5.73],[-135.99,-5.1],[-136.69,-4.48],[-137.4,-3.85],[-138.1,-3.22],[-138.8,-2.59],[-139.5,-1.96],[-140.2,-1.34],[-140.9,-0.71],[-141.59,-0.08],[-142.29,0.55],[-142.99,1.18],[-143.38,1.55],[-143.77,1.91],[-143.77,1.91],[-143.69,2.68],[-143.61,3.44],[-143.53,4.43],[-143.46,5.41],[-143.39,6.4],[-143.31,7.38],[-143.24,8.37],[-143.16,9.35],[-143.08,10.34],[-143.01,11.32],[-142.93,12.31],[-142.85,13.29],[-142.77,14.28],[-142.7,15.26],[-142.62,16.25],[-142.54,17.23],[-141.6,17.17],[-140.67,17.11],[-139.74,17.04],[-138.81,16.97],[-138.73,17.97],[-138.65,18.96],[-138.57,19.96],[-138.49,20.96],[-138.41,21.95],[-138.32,22.95],[-138.24,23.94],[-138.15,24.94],[-138.07,25.93],[-137.98,26.93],[-137.89,27.92],[-137.8,28.92],[-137.7,29.91],[-137.61,30.9],[-137.51,31.9],[-136.37,31.84],[-135.24,31.77],[-134.1,31.69],[-133.97,32.65],[-133.83,33.61],[-133.7,34.57],[-133.55,35.53],[-133.41,36.49],[-133.26,37.45],[-133.11,38.41],[-132.95,39.37],[-132.79,40.33],[-132.62,41.29],[-132.45,42.25],[-132.28,43.21],[-132.09,44.17],[-131.91,45.13],[-131.71,46.09],[-131.51,47.05],[-131.3,48],[-131.08,48.96],[-130.86,49.92],[-130.63,50.87],[-130.38,51.83],[-130.13,52.78],[-129.86,53.74],[-128.19,53.66],[-126.52,53.56],[-124.86,53.44],[-123.21,53.29],[-122.92,54.24],[-122.62,55.19],[-122.3,56.13],[-121.97,57.08],[-121.62,58.02],[-121.25,58.96],[-120.86,59.9],[-120.45,60.84],[-120.01,61.78],[-119.54,62.72],[-119.05,63.65],[-118.52,64.58],[-117.95,65.52],[-117.34,66.45],[-116.69,67.37],[-115.98,68.3],[-114.22,68.17],[-112.49,68.02],[-111.87,68.97],[-111.21,69.92],[-110.48,70.86],[-109.67,71.8],[-108.78,72.74],[-107.8,73.67],[-106.7,74.6],[-105.46,75.52],[-104.06,76.43],[-102.46,77.34],[-100.62,78.23],[-98.48,79.11],[-95.98,79.97],[-93.02,80.81],[-89.48,81.62],[-84.57,81.18],[-80.15,80.68],[-76.52,81.15],[-72.49,81.58],[-68.06,81.97],[-68.06,81.97],[-67.84,81.35],[-67.64,80.73],[-67.7,80.01],[-67.76,79.28],[-68.85,78.64],[-69.82,78],[-71.1,77.26],[-72.25,76.5],[-73.27,75.74],[-73.27,75.74],[-72.44,74.93],[-71.7,74.11],[-71.03,73.29],[-69.92,72.54],[-68.9,71.78],[-67.96,71.02],[-67.09,70.25],[-65.94,69.59],[-64.86,68.92],[-63.84,68.25],[-62.89,67.56],[-61.75,66.91],[-60.68,66.25],[-59.66,65.58],[-58.69,64.91],[-57.06,64.27],[-55.51,63.61],[-54.03,62.93],[-52.56,62.27],[-51.16,61.59],[-49.81,60.9],[-48.3,60.26],[-46.84,59.59],[-46.84,59.59],[-47,58.92],[-47.16,58.24],[-47.31,57.56],[-47.54,56.82],[-47.76,56.07],[-47.97,55.33],[-47.97,55.33],[-49.66,55.42],[-51.35,55.49],[-53.05,55.53],[-54.63,55.53],[-56.21,55.52],[-57.79,55.48],[-59.51,55.29],[-61.21,55.08],[-61.21,55.08],[-60.99,54.25],[-60.78,53.42],[-60.93,52.63],[-61.06,51.83],[-61.2,51.03],[-61.33,50.19],[-61.45,49.34],[-61.57,48.5],[-61.8,47.71],[-62.02,46.91],[-62.23,46.11],[-62.44,45.31],[-62.52,44.59],[-62.6,43.86],[-62.68,43.13],[-62.67,42.17],[-62.65,41.21],[-62.63,40.24],[-62.45,39.35],[-62.27,38.46],[-62.09,37.57],[-62.11,37.04],[-62.13,36.51],[-62.13,36.51],[-61.39,36.71],[-60.64,36.91],[-59.47,36.99],[-58.3,37.06],[-57.12,37.12],[-55.95,37.17],[-54.77,37.21],[-53.59,37.23],[-52.41,37.25],[-51.39,37.05],[-50.37,36.84],[-49.36,36.62],[-48.35,36.4],[-48.35,36.4],[-48.52,35.5],[-48.97,34.63],[-49.4,33.75],[-49.82,32.87],[-49.82,32.87],[-50.38,32.32],[-50.94,31.76],[-51.48,31.21],[-52.17,30.48],[-52.84,29.75],[-53.5,29.02],[-54.16,28.28],[-54.58,27.5],[-54.99,26.72],[-55.4,25.94],[-55.81,25.16],[-56.21,24.38],[-56.16,23.61],[-56.11,22.84],[-56.05,22.07],[-56,21.29],[-55.86,20.35],[-55.73,19.4],[-55.59,18.45],[-55.45,17.51],[-55.32,16.56],[-55.19,15.61],[-55.06,14.66],[-54.97,13.82],[-54.88,12.98],[-54.79,12.13],[-54.71,11.29],[-54.62,10.44],[-54.62,10.44],[-54.66,10.38],[-55.1,9.89],[-55.54,9.41],[-56.08,8.95],[-56.61,8.48],[-57.01,8.11],[-57.4,7.75],[-57.66,7.02],[-57.92,6.3],[-58.18,5.57],[-58.37,4.78],[-58.55,3.98],[-58.73,3.18],[-58.87,2.42],[-59.01,1.66],[-59.15,0.91],[-59.22,0.16],[-59.3,-0.59],[-58.89,-1.21],[-58.49,-1.84],[-58.27,-2.52],[-58.05,-3.2],[-57.83,-3.88],[-57.54,-4.51],[-57.26,-5.14],[-56.9,-5.78],[-56.53,-6.41],[-56.17,-7.05],[-56.15,-7.08],[-56.15,-7.08],[-56.27,-7.24],[-56.46,-7.54],[-56.68,-7.89],[-56.77,-8.12],[-56.86,-8.31],[-57.01,-8.66],[-57.14,-8.92],[-57.23,-9.16],[-57.34,-9.42],[-57.68,-10.22],[-58.03,-11.01],[-58.37,-11.8],[-58.72,-12.59],[-59.07,-13.39],[-59.03,-14.25],[-58.98,-15.12],[-58.93,-15.99],[-58.85,-16.85],[-58.78,-17.71],[-58.7,-18.56],[-58.62,-19.42],[-58.54,-20.28],[-58.46,-21.14],[-58.27,-21.96],[-58.07,-22.77],[-57.87,-23.59],[-57.71,-24.28],[-57.55,-24.97],[-57.38,-25.66],[-56.83,-26.44],[-56.76,-26.97],[-56.69,-27.5],[-56.55,-28.24],[-56.58,-28.79],[-56.54,-29.16],[-56.53,-29.44],[-56.53,-29.44],[-56.52,-30.04],[-56.64,-30.52],[-56.88,-31.36],[-57.05,-31.81],[-57.12,-32.53],[-57.23,-33.09],[-57.26,-33.41],[-57.33,-33.8],[-57.4,-34.24],[-57.53,-35.1],[-57.67,-35.96],[-57.84,-36.73],[-58.02,-37.5],[-58.2,-38.26],[-58.39,-39.03],[-58.9,-39.87],[-59.42,-40.72],[-59.96,-41.56],[-61.08,-41.55]]]}},{"type":"Feature","properties":{"ma":195,"type":"gpml:TopologicalClosedPlateBoundary","name":"Laurasia Plate","pid":301,"deforming":false},"geometry":{"type":"Polygon","coordinates":[[[44.52,88],[57.69,87.33],[65.37,86.58],[70.22,85.8],[73.54,84.99],[72.28,84.07],[71.36,83.15],[70.66,82.24],[70.1,81.32],[69.65,80.39],[69.28,79.47],[68.97,78.55],[68.7,77.63],[68.47,76.71],[69.72,75.96],[70.85,75.2],[71.88,74.44],[72.81,73.67],[71.24,73.01],[69.79,72.33],[68.44,71.65],[68.42,70.95],[68.39,70.26],[68.37,69.56],[68.91,68.71],[69.41,67.86],[69.87,67.01],[70.31,66.15],[69.68,65.41],[69.09,64.66],[68.54,63.91],[68.01,63.16],[68.01,63.16],[67.51,62.39],[67.04,61.62],[66.58,60.84],[66.16,60.07],[67.37,59.6],[68.55,59.13],[69.7,58.64],[70.82,58.14],[72.12,57.79],[73.39,57.43],[74.64,57.05],[75.87,56.66],[76.07,56.09],[76.26,55.51],[75.58,54.82],[74.93,54.11],[74.05,53.5],[73.2,52.88],[72.38,52.25],[71.58,51.61],[70.63,50.85],[69.71,50.08],[68.82,49.31],[68.34,48.7],[67.87,48.09],[67.41,47.47],[66.96,46.58],[66.53,45.68],[66.12,44.77],[65.71,43.87],[65.32,42.97],[65.83,42.17],[66.32,41.38],[66.75,40.88],[67.17,40.39],[67.17,40.39],[67.08,39.39],[66.99,38.4],[66.9,37.4],[66.41,36.85],[65.92,36.31],[65.44,35.76],[64.8,35.21],[64.16,34.65],[63.54,34.09],[62.86,33.65],[62.18,33.2],[61.45,32.52],[60.72,31.84],[59.89,31.39],[59.06,30.95],[57.98,30.98],[56.89,31.01],[56.18,30.85],[55.46,30.68],[55.07,29.93],[54.69,29.19],[54.21,28.56],[53.73,27.93],[53.25,27.3],[52.27,26.93],[51.3,26.56],[50.33,26.18],[49.49,25.55],[48.66,24.91],[47.94,24.27],[47.23,23.62],[46.53,22.96],[46.09,22.23],[45.66,21.5],[45.3,20.82],[44.94,20.13],[44.75,19.63],[44.56,19.14],[44.2,18.6],[43.84,18.06],[43.15,17.81],[42.46,17.55],[41.77,17.3],[40.82,17.29],[39.87,17.27],[38.92,17.26],[37.96,17.03],[37,16.81],[36.3,16.65],[35.61,16.49],[34.92,16.32],[33.99,16.27],[33.07,16.22],[32.15,16.16],[31.3,16.33],[30.45,16.51],[29.6,16.68],[29.6,16.68],[30.25,17.31],[30.91,17.93],[31.57,18.56],[32.15,19.13],[32.73,19.7],[33.32,20.27],[33.91,20.84],[34.39,21.45],[34.88,22.07],[35.37,22.68],[35.87,23.29],[36.04,23.66],[36.04,23.66],[35.01,23.65],[33.98,23.62],[32.94,23.59],[31.91,23.55],[30.88,23.51],[29.85,23.46],[28.82,23.4],[27.79,23.34],[26.76,23.27],[25.73,23.19],[25.73,23.19],[24.87,22.7],[24.02,22.2],[23.17,21.7],[22.78,21.15],[22.39,20.6],[22.6,20.46],[22.04,19.63],[21.48,18.81],[21.64,18.77],[21.09,17.98],[20.54,17.2],[20.74,17.04],[20.26,16.25],[19.79,15.46],[19.31,14.67],[18.84,13.88],[18.38,13.08],[17.71,12.49],[17.05,11.9],[17.05,11.9],[16.93,11.98],[16.93,11.98],[16.34,11.52],[15.75,11.06],[15.16,10.6],[15.16,10.6],[15.41,10.2],[15.41,10.2],[14.8,9.75],[14.19,9.3],[13.59,8.86],[13.59,8.86],[13.69,8.28],[13.69,8.28],[12.79,7.93],[11.88,7.57],[10.97,7.21],[10.94,6.51],[10.07,6.21],[9.2,5.92],[8.33,5.62],[7.52,5.42],[6.71,5.23],[5.9,5.03],[5.09,4.83],[5.09,4.83],[4.64,5.05],[4.19,5.28],[3.73,5.49],[3.27,5.71],[2.77,5.95],[2.26,6.18],[1.6,6.49],[0.84,7.07],[0.11,7.63],[-0.02,7.73],[-0.02,7.73],[0.07,7.82],[0.29,8.03],[0.5,8.38],[0.58,8.78],[0.64,9.1],[0.76,9.34],[1.11,9.77],[1.5,10.08],[1.69,10.3],[1.92,10.68],[2.06,10.88],[2.19,11.22],[2.33,11.53],[2.5,11.81],[2.61,12.08],[2.69,12.34],[2.77,12.55],[2.82,12.68],[2.93,12.81],[3.02,12.98],[3.1,13.19],[3.22,13.34],[3.26,13.4],[3.26,13.4],[3.52,13.49],[4.03,13.57],[4.69,13.68],[5.25,13.81],[5.79,14.19],[6.04,14.37],[6.04,14.37],[6.2,14.67],[6.61,14.92],[7.2,15.22],[7.5,15.53],[7.83,15.73],[8.35,16.14],[8.79,16.53],[9.04,16.83],[9.26,17.05],[9.41,17.28],[9.56,17.5],[9.8,17.71],[10.14,17.81],[10.51,17.97],[10.94,18.03],[11.4,18.02],[11.85,17.93],[12.22,17.83],[12.54,17.66],[13.12,17.54],[13.65,17.46],[14.17,17.47],[14.45,17.48],[14.75,17.55],[15.09,17.7],[15.33,18.13],[15.54,18.46],[15.74,18.77],[15.98,19.15],[16.24,19.58],[16.38,19.91],[16.38,19.91],[16.09,20.01],[15.98,20.05],[15.68,20.21],[15.19,20.39],[14.62,20.64],[14.09,20.84],[13.55,21.07],[13.1,21.25],[12.91,21.42],[12.77,21.52],[12.58,21.74],[12.4,22.12],[12.23,22.42],[12.19,22.8],[12.12,23.35],[11.98,23.75],[11.73,24.26],[11.15,24.67],[10.91,24.93],[10.51,25.05],[10.14,24.98],[9.67,25.13],[9.46,25.25],[9.23,25.51],[9.21,25.71],[9.17,25.93],[9.08,26.18],[8.95,26.47],[8.93,26.71],[8.79,27.17],[8.61,27.74],[8.46,28.18],[8.27,28.65],[8.19,29.11],[8.14,29.22],[8.14,29.22],[8.17,29.3],[8.17,29.41],[8.15,29.57],[8.16,29.72],[8.17,29.95],[8.19,30.18],[8.32,30.48],[8.45,30.63],[8.56,30.87],[8.58,30.91],[8.65,31.01],[8.69,31.08],[8.73,31.23],[8.74,31.29],[8.59,31.44],[8.48,31.55],[8.39,31.81],[8.33,31.93],[8.26,32.08],[8.43,32.35],[8.5,32.56],[8.46,32.81],[8.31,33.04],[8.19,33.23],[8.02,33.51],[7.79,33.7],[7.64,33.86],[7.54,34],[7.55,34.16],[7.68,34.35],[7.73,34.51],[7.87,34.75],[7.91,34.98],[8.1,35.18],[8.25,35.38],[8.45,35.56],[8.52,35.9],[8.42,36.27],[8.36,36.47],[8.32,36.85],[8.3,37.14],[8.4,37.66],[8.42,37.93],[8.42,38.18],[8.57,38.51],[8.53,38.56],[8.53,38.56],[8.56,38.7],[8.51,38.96],[8.47,39.39],[8.31,39.72],[8.31,39.72],[8.09,39.8],[7.82,40.5],[7.55,41.21],[7.45,41.9],[7.33,42.58],[6.83,43.4],[6.3,44.22],[5.48,44.54],[4.64,44.86],[3.49,44.65],[2.35,44.43],[1.24,44.66],[0.12,44.88],[-1,45.09],[-1.93,45.37],[-2.86,45.63],[-3.81,45.9],[-3.63,46.88],[-3.45,47.86],[-3.26,48.84],[-3.06,49.82],[-3.33,50.78],[-3.61,51.74],[-3.91,52.7],[-4.22,53.65],[-4.54,54.61],[-3.98,55.19],[-4.28,55.91],[-4.59,56.62],[-4.91,57.34],[-5.17,58.18],[-5.43,59.02],[-5.71,59.86],[-6.01,60.7],[-6.32,61.54],[-6.61,62.4],[-6.91,63.26],[-7.24,64.12],[-7.24,64.12],[-7.25,64.26],[-7.38,64.84],[-7.51,65.43],[-7.57,65.72],[-7.6,65.88],[-7.62,65.99],[-7.7,66.33],[-7.73,66.4],[-7.99,67.29],[-8.27,68.18],[-8.57,69.07],[-8.9,69.96],[-9.5,70.8],[-10.16,71.65],[-10.88,72.5],[-11.66,73.34],[-11.66,73.34],[-14.24,73],[-16.71,72.63],[-19.08,72.23],[-22.13,71.92],[-25.07,71.56],[-27.61,71.45],[-30.13,71.31],[-32.6,71.14],[-34.42,70.82],[-36.18,70.49],[-37.89,70.14],[-40.11,69.8],[-42.25,69.43],[-44.32,69.03],[-46.07,68.8],[-47.77,68.55],[-49.44,68.28],[-51.8,67.93],[-54.09,67.54],[-55.68,67.17],[-57.21,66.79],[-58.69,66.39],[-60.13,65.89],[-60.13,65.89],[-61.46,66.74],[-62.89,67.56],[-63.84,68.25],[-64.86,68.92],[-65.94,69.59],[-67.09,70.25],[-67.96,71.02],[-68.9,71.78],[-69.92,72.54],[-71.03,73.29],[-71.7,74.11],[-72.44,74.93],[-73.27,75.74],[-73.27,75.74],[-72.25,76.5],[-71.1,77.26],[-69.82,78],[-68.85,78.64],[-67.76,79.28],[-67.7,80.01],[-67.64,80.73],[-67.87,81.44],[-68.14,82.15],[-67.5,82.76],[-66.74,83.38],[-65.62,84.07],[-64.22,84.76],[-62.39,85.44],[-58.79,86.24],[-53.27,87.02],[-42.05,87.77],[-21.45,88.35],[-20.99,88.37],[15.49,88.47],[44.52,88]]]}},{"type":"Feature","properties":{"ma":195,"type":"gpml:TopologicalClosedPlateBoundary","name":"Mongol-Okhotsk Ocean","pid":380,"deforming":false},"geometry":{"type":"Polygon","coordinates":[[[-180,78.06],[-180,79.05],[-180,80.05],[-180,81.04],[-180,82.04],[-180,83.03],[-180,84.03],[-180,85.02],[-180,86.02],[-180,87.01],[-180,88.01],[-180,89],[-180,90],[180,90],[180,89],[180,88.01],[180,87.01],[180,86.02],[180,85.02],[180,84.03],[180,83.03],[180,82.04],[180,81.04],[180,80.05],[180,79.05],[180,78.06],[180,77.06],[178.04,76.43],[176.25,75.78],[174.28,74.98],[172.52,74.17],[170.92,73.34],[169.31,72.49],[168.4,71.97],[167.55,71.45],[166.27,70.78],[165.08,70.1],[163.96,69.42],[162.48,68.71],[161.09,67.99],[159.78,67.26],[158.55,66.51],[157.42,65.76],[156.35,65],[155.34,64.23],[154.39,63.45],[153.41,62.72],[152.48,61.99],[151.59,61.24],[150.5,60.5],[149.46,59.74],[148.72,59.06],[148.01,58.38],[147.32,57.69],[146.5,56.99],[145.71,56.29],[144.94,55.58],[144.08,54.76],[143.25,53.94],[142.45,53.07],[141.69,52.19],[140.89,51.36],[140.12,50.53],[139.61,49.88],[139.12,49.23],[138.64,48.58],[137.98,47.81],[137.35,47.05],[136.73,46.28],[136.21,45.47],[135.7,44.67],[135.21,43.86],[134.72,43.1],[134.24,42.35],[133.77,41.59],[133.31,40.83],[132.86,40.07],[132.42,39.24],[131.99,38.41],[131.58,37.58],[131.17,36.75],[130.77,35.92],[130.63,35.59],[130.63,35.59],[130.05,34.98],[129.48,34.37],[128.92,33.76],[128.41,33.04],[127.91,32.31],[127.42,31.59],[126.93,30.86],[126.33,30.04],[125.74,29.22],[125.16,28.39],[124.62,27.83],[124.08,27.28],[123.55,26.72],[122.53,26.41],[121.52,26.09],[120.64,26.1],[119.76,26.11],[119.03,26.26],[118.31,26.41],[117.58,26.55],[116.71,26.72],[115.83,26.87],[114.95,27.02],[114.01,27.29],[113.06,27.55],[112.1,27.81],[111.37,27.99],[110.64,28.18],[109.91,28.36],[109.24,28.92],[108.56,29.48],[107.88,30.04],[107.37,30.57],[106.87,31.1],[106.35,31.63],[105.54,32.13],[104.72,32.63],[103.89,33.12],[102.96,33.67],[102.02,34.22],[101.06,34.75],[100.73,35.39],[100.39,36.04],[100.05,36.68],[99.44,37.36],[98.82,38.04],[98.22,38.69],[97.6,39.33],[96.98,39.97],[96.5,40.72],[96.02,41.45],[95.52,42.19],[95.16,42.92],[94.79,43.64],[94.41,44.37],[93.65,44.79],[92.89,45.22],[92.11,45.64],[91.04,45.85],[89.96,46.05],[88.87,46.24],[87.77,46.41],[86.59,46.1],[85.42,45.78],[84.27,45.44],[83.13,45.09],[82.08,44.69],[81.05,44.27],[80.04,43.84],[79.04,43.41],[78.06,42.97],[76.85,42.8],[75.65,42.62],[74.45,42.42],[73.27,42.22],[72.02,41.92],[70.78,41.6],[69.55,41.27],[68.36,40.86],[67.18,40.44],[67.17,40.39],[66.75,40.88],[66.32,41.38],[65.83,42.17],[65.32,42.97],[65.71,43.87],[66.12,44.77],[66.53,45.68],[66.96,46.58],[67.41,47.47],[67.87,48.09],[68.34,48.7],[68.82,49.31],[69.71,50.08],[70.63,50.85],[71.58,51.61],[72.38,52.25],[73.2,52.88],[74.05,53.5],[74.93,54.11],[75.58,54.82],[76.26,55.51],[76.07,56.09],[75.87,56.66],[74.64,57.05],[73.39,57.43],[72.12,57.79],[70.82,58.14],[69.7,58.64],[68.55,59.13],[67.37,59.6],[66.16,60.07],[66.58,60.84],[67.04,61.62],[67.51,62.39],[68.01,63.16],[68.01,63.16],[68.54,63.91],[69.09,64.66],[69.68,65.41],[70.31,66.15],[69.87,67.01],[69.41,67.86],[68.91,68.71],[68.37,69.56],[68.39,70.26],[68.42,70.95],[68.44,71.65],[69.79,72.33],[71.24,73.01],[72.81,73.67],[71.88,74.44],[70.85,75.2],[69.72,75.96],[68.47,76.71],[68.7,77.63],[68.97,78.55],[69.28,79.47],[69.65,80.39],[70.1,81.32],[70.66,82.24],[71.36,83.15],[72.28,84.07],[73.54,84.99],[70.22,85.8],[65.37,86.58],[57.69,87.33],[44.52,88],[15.49,88.47],[-20.99,88.37],[-20.99,88.37],[-21.45,88.35],[-42.05,87.77],[-53.27,87.02],[-58.79,86.24],[-62.39,85.44],[-64.22,84.76],[-65.62,84.07],[-66.74,83.38],[-67.5,82.76],[-68.14,82.15],[-68.06,81.97],[-68.06,81.97],[-72.49,81.58],[-76.52,81.15],[-80.15,80.68],[-84.57,81.18],[-89.48,81.62],[-89.74,81.57],[-89.74,81.57],[-95.46,82.05],[-101.83,82.44],[-108.81,82.73],[-115.69,82.82],[-122.63,82.8],[-129.44,82.68],[-136.48,82.46],[-143.04,82.14],[-149.02,81.72],[-154.37,81.22],[-159.12,80.66],[-163.31,80.04],[-167,79.37],[-170.24,78.67],[-173.11,77.93],[-176.82,77.95],[-178.46,77.51],[-180,77.06],[-180,78.06]]]}},{"type":"Feature","properties":{"ma":195,"type":"gpml:TopologicalClosedPlateBoundary","name":"North America","pid":101,"deforming":false},"geometry":{"type":"Polygon","coordinates":[[[-48.44,53.58],[-46.89,53.57],[-45.34,53.55],[-43.8,53.5],[-42.2,53.28],[-40.61,53.04],[-39.04,52.77],[-37.85,52.24],[-36.68,51.7],[-35.54,51.15],[-34.43,50.58],[-33.35,50.01],[-32.31,49.56],[-31.29,49.1],[-30.29,48.63],[-29.31,48.16],[-29.31,48.16],[-29.51,47.9],[-29.51,47.9],[-29.42,47.91],[-28.56,48.03],[-27.85,48.23],[-27.13,48.42],[-26.38,48.61],[-25.63,48.79],[-24.79,49.03],[-23.94,49.26],[-22.58,49.59],[-21.2,49.9],[-20.06,49.99],[-18.92,50.07],[-17.75,49.89],[-16.58,49.7],[-15.42,49.5],[-14.36,49.37],[-13.3,49.24],[-12.24,49.1],[-11.01,49.06],[-9.78,49.02],[-8.39,49.19],[-7,49.35],[-5.72,49.36],[-4.44,49.35],[-3.16,49.32],[-3.16,49.32],[-3.33,48.47],[-3.49,47.61],[-3.65,46.75],[-3.81,45.9],[-2.86,45.63],[-1.93,45.37],[-1,45.09],[0.12,44.88],[1.24,44.66],[2.35,44.43],[3.49,44.65],[4.64,44.86],[5.48,44.54],[6.3,44.22],[6.83,43.4],[7.33,42.58],[7.45,41.9],[7.55,41.21],[7.82,40.5],[8.09,39.8],[8.31,39.72],[8.31,39.72],[8.47,39.39],[8.51,38.96],[8.56,38.71],[8.56,38.71],[8.46,38.61],[8.22,38.41],[8,37.89],[7.83,37.45],[7.71,37.31],[7.64,37.11],[7.65,36.91],[7.67,36.73],[7.65,36.38],[7.58,36.13],[7.42,35.84],[7.29,35.69],[6.86,35.33],[6.65,34.91],[6.48,34.68],[6.36,34.52],[6.29,34.36],[6.33,34.18],[6.37,33.97],[6.37,33.78],[6.33,33.62],[6.3,33.44],[6.32,33.21],[6.42,33.04],[6.75,32.86],[6.95,32.79],[7.16,32.58],[7.11,32.44],[7.07,32.19],[7.04,31.52],[7.06,31.46],[7.37,31.13],[7.4,30.95],[7.13,30.44],[6.86,30.12],[6.43,29.49],[6.07,28.91],[5.85,28.19],[5.74,27.83],[5.4,27.26],[4.75,26.76],[4.33,26.36],[3.76,26.05],[3.3,25.65],[2.62,25.24],[1.89,24.94],[1.53,24.81],[1.4,24],[1.74,23.51],[2.09,23.01],[2.24,22.33],[2.04,21.65],[1.84,20.96],[1.5,20.46],[1.16,19.97],[0.72,19.55],[0.18,18.89],[-0.09,18.35],[-0.43,17.97],[-0.8,17.25],[-1,16.54],[-1.09,16.01],[-1.09,16.01],[-1.06,15.89],[-0.99,15.59],[-0.98,15.22],[-1,14.84],[-1.04,14.58],[-1.08,14.29],[-1.05,14.08],[-1.01,13.95],[-0.97,13.75],[-0.93,13.62],[-0.93,13.62],[-0.77,13.51],[-0.67,13.42],[-0.6,13.35],[-0.49,13.23],[-0.4,13.14],[-0.3,13],[-0.22,12.85],[-0.15,12.71],[-0.08,12.53],[-0.14,12.3],[-0.28,12.08],[-0.35,11.92],[-0.46,11.76],[-0.58,11.58],[-0.69,11.41],[-0.78,11.28],[-0.9,11.16],[-1.02,11.03],[-1.15,10.93],[-1.23,10.85],[-1.37,10.79],[-1.52,10.71],[-1.71,10.59],[-1.71,10.59],[-1.53,10.56],[-1.29,10.65],[-1.2,10.69],[-1.12,10.72],[-1,10.82],[-0.92,10.92],[-0.83,11],[-0.71,11.07],[-0.58,11.16],[-0.5,11.24],[-0.41,11.38],[-0.35,11.51],[-0.27,11.61],[-0.15,11.73],[-0.03,11.83],[0.1,11.95],[0.17,12.02],[0.24,12.08],[0.29,12.16],[0.35,12.23],[0.42,12.32],[0.51,12.44],[0.52,12.45],[0.52,12.45],[0.52,12.45],[0.55,12.28],[0.56,12.22],[0.58,12.16],[0.58,12.16],[0.51,12.12],[0.42,12.11],[0.35,12.1],[0.32,12.07],[0.25,12.02],[0.21,11.97],[0.1,11.85],[0.03,11.77],[-0.03,11.7],[-0.15,11.6],[-0.23,11.54],[-0.27,11.47],[-0.39,11.26],[-0.52,11.12],[-0.64,10.99],[-0.76,10.88],[-0.93,10.73],[-1.17,10.51],[-1.22,10.4],[-1.3,10.23],[-1.29,10.09],[-1.29,9.92],[-1.32,9.77],[-1.35,9.64],[-1.55,9.43],[-1.67,9.31],[-1.7,9.28],[-1.7,9.28],[-1.68,9.25],[-1.68,9.25],[-1.68,9.25],[-1.81,8.9],[-2.11,8.85],[-2.48,8.86],[-2.79,8.96],[-2.76,9.38],[-2.74,9.59],[-2.87,9.63],[-2.92,9.62],[-3.24,9.45],[-3.36,9.68],[-3.38,9.87],[-3.06,9.86],[-2.91,9.96],[-2.84,10.07],[-3.1,10.26],[-3.27,10.45],[-3.39,10.55],[-3.52,10.7],[-3.74,10.79],[-3.9,11.01],[-4.23,11.12],[-5.01,11.25],[-5.68,11.44],[-6.4,11.62],[-7.04,11.68],[-7.56,11.71],[-8.06,11.71],[-8.55,11.7],[-9.12,11.66],[-9.78,11.74],[-10.26,11.86],[-10.6,11.84],[-11.23,11.73],[-11.79,11.62],[-12.38,11.38],[-13.08,11],[-13.6,10.72],[-14.39,10.61],[-14.9,10.49],[-15.7,10.37],[-16.46,10.34],[-16.93,10.33],[-17.46,10.09],[-17.84,10.24],[-18.09,10.16],[-18.31,9.6],[-18.67,9.3],[-19.14,9.19],[-19.48,8.93],[-19.8,8.68],[-19.98,8.69],[-20.22,8.66],[-20.69,8.54],[-20.97,8.56],[-21.27,8.65],[-21.51,8.68],[-21.65,8.58],[-22.06,8.44],[-22.25,8],[-22.53,7.57],[-23.03,7.12],[-23.53,6.67],[-23.88,6.38],[-24.67,5.87],[-25.3,5.58],[-25.49,4.97],[-25.73,4.22],[-26.2,3.79],[-26.77,3.38],[-27.4,3.27],[-28.03,3.16],[-28.55,3.03],[-28.87,2.96],[-29.2,2.88],[-29.33,2.69],[-29.71,2.41],[-30.09,2.11],[-30.51,1.74],[-30.81,1.45],[-31,1.34],[-31,1.34],[-31.01,1.35],[-31.71,2.02],[-32.21,2.51],[-32.71,2.99],[-33.42,3.45],[-34.13,3.92],[-34.76,4.47],[-35.43,4.85],[-35.92,5.14],[-36.41,5.44],[-36.89,5.68],[-37.37,5.93],[-37.83,6.2],[-38.3,6.48],[-39.1,7.06],[-39.81,7.25],[-40.53,7.45],[-41.04,7.62],[-41.55,7.79],[-42.55,7.78],[-43.08,7.83],[-43.6,7.87],[-44.29,7.48],[-44.99,7.08],[-45.68,6.69],[-46.41,6.04],[-47.14,5.39],[-47.87,4.73],[-48.13,4.04],[-48.52,3.67],[-48.91,3.3],[-49.56,2.57],[-50.17,2.19],[-50.85,1.69],[-51.52,1.19],[-52.31,1.03],[-53.09,0.87],[-54.04,0.66],[-54.99,0.45],[-55.75,0.26],[-56.51,0.07],[-57.45,-0.13],[-58.39,-0.32],[-59.28,-0.43],[-59.28,-0.43],[-59.22,0.24],[-59.15,0.91],[-59.01,1.66],[-58.87,2.42],[-58.73,3.18],[-58.55,3.98],[-58.37,4.78],[-58.18,5.57],[-57.92,6.3],[-57.66,7.02],[-57.4,7.75],[-57.01,8.11],[-56.61,8.48],[-56.08,8.95],[-55.54,9.41],[-55.1,9.89],[-54.66,10.38],[-54.62,10.44],[-54.62,10.44],[-54.71,11.29],[-54.79,12.13],[-54.88,12.98],[-54.97,13.82],[-55.06,14.66],[-55.19,15.61],[-55.32,16.56],[-55.45,17.51],[-55.59,18.45],[-55.73,19.4],[-55.86,20.35],[-56,21.29],[-56.05,22.07],[-56.11,22.84],[-56.16,23.61],[-56.21,24.38],[-55.81,25.16],[-55.4,25.94],[-54.99,26.72],[-54.58,27.5],[-54.16,28.28],[-53.5,29.02],[-52.84,29.75],[-52.17,30.48],[-51.48,31.21],[-50.94,31.76],[-50.38,32.32],[-49.82,32.87],[-49.82,32.87],[-49.4,33.75],[-48.97,34.63],[-48.52,35.5],[-48.33,36.49],[-48.14,37.47],[-47.93,38.46],[-47.73,39.44],[-47.51,40.42],[-47.29,41.41],[-47.14,42.31],[-46.98,43.22],[-46.82,44.13],[-46.65,45.03],[-46.48,45.94],[-46.3,46.84],[-46.11,47.75],[-46.34,48.68],[-46.59,49.6],[-46.84,50.53],[-47.1,51.46],[-47.85,52.16],[-48.63,52.86],[-48.44,53.58]]]}},{"type":"Feature","properties":{"ma":195,"type":"gpml:TopologicalClosedPlateBoundary","name":"West Gondwana","pid":701,"deforming":false},"geometry":{"type":"Polygon","coordinates":[[[39.73,-33.82],[38.62,-33.94],[37.5,-34.06],[36.38,-34.17],[35.26,-34.26],[34.14,-34.35],[33.01,-34.43],[31.81,-34.44],[30.6,-34.44],[29.4,-34.43],[28.2,-34.4],[26.99,-34.37],[25.79,-34.31],[24.59,-34.25],[23.41,-34.24],[22.23,-34.23],[22.23,-34.23],[21.55,-34.52],[20.86,-34.81],[20.06,-35.2],[19.26,-35.58],[18.45,-35.96],[17.43,-36.13],[17.43,-36.13],[17.44,-36.68],[16.68,-36.42],[16.09,-36.72],[15.5,-37.01],[14.64,-36.55],[13.79,-36.09],[12.95,-35.62],[12.12,-35.14],[11.3,-34.66],[10.47,-35],[9.63,-35.33],[8.65,-35.19],[8.21,-35.78],[7.77,-36.38],[8.28,-36.77],[8.79,-37.16],[8.84,-37.22],[7.96,-37.44],[7.07,-37.67],[6.24,-38.07],[5.4,-38.48],[4.69,-38.94],[3.96,-39.41],[3.32,-39.7],[2.68,-39.98],[2.15,-40.7],[1.61,-41.41],[1.56,-42.06],[1.5,-42.72],[0.76,-43.53],[0.73,-44.36],[0.71,-45.2],[1.29,-45.58],[1.87,-45.96],[2.15,-46.6],[2.43,-47.25],[2.73,-48.12],[3.04,-48.99],[2.67,-49.61],[2.64,-50.27],[1.87,-50.79],[1.09,-51.3],[0.26,-51.88],[0.13,-52.66],[-0.01,-53.43],[-0.81,-53.9],[-1.63,-54.36],[-1.76,-54.92],[-1.88,-55.49],[-2.48,-55.94],[-3.08,-56.39],[-4.36,-56.34],[-5.97,-56.46],[-7.59,-56.56],[-8.71,-57.13],[-9.86,-57.68],[-11.43,-57.29],[-12.97,-56.89],[-14.47,-56.47],[-15.95,-56.02],[-17.46,-56.06],[-18.97,-56.08],[-20.49,-56.08],[-21.5,-56.79],[-22.55,-57.5],[-23.65,-57.22],[-24.73,-56.93],[-25.75,-57.35],[-26.8,-57.75],[-26.93,-58.43],[-27.07,-59.11],[-27.8,-59.96],[-28.56,-60.81],[-28.91,-61.69],[-29.29,-62.57],[-29.69,-63.45],[-30.12,-64.33],[-30.58,-65.2],[-30.58,-65.2],[-30.71,-65.22],[-31.06,-65.27],[-31.82,-65.37],[-33.14,-65.56],[-34.25,-65.69],[-35.36,-65.82],[-36.58,-65.93],[-38.04,-66.08],[-39.44,-66.13],[-40.2,-66.19],[-41.15,-66.25],[-42.58,-66.31],[-44.02,-66.36],[-45.3,-66.38],[-45.82,-66.4],[-46.48,-66.41],[-47.85,-66.32],[-48.88,-66.19],[-49.88,-66.15],[-51.31,-66],[-53,-65.94],[-54.68,-65.86],[-56.47,-65.72],[-58.24,-65.56],[-60.44,-65.24],[-62.59,-64.9],[-64.68,-64.52],[-66.71,-64.12],[-68.68,-63.69],[-68.68,-63.69],[-68.75,-63.63],[-68.97,-63.23],[-68.98,-63.17],[-68.98,-62.79],[-68.91,-62.43],[-68.81,-62.05],[-68.75,-61.72],[-68.69,-61.56],[-68.68,-61.24],[-68.79,-60.84],[-68.87,-60.46],[-68.88,-60.12],[-68.91,-59.81],[-68.87,-59.56],[-68.84,-59.24],[-68.78,-58.88],[-68.54,-58.44],[-68.23,-58.11],[-68.02,-57.91],[-67.78,-57.66],[-67.49,-57.38],[-67.02,-56.95],[-66.58,-56.57],[-66.28,-56.25],[-66.04,-55.93],[-65.99,-55.5],[-65.93,-55.22],[-65.88,-54.98],[-65.85,-54.91],[-65.75,-54.66],[-65.63,-54.35],[-65.48,-54],[-65.33,-53.7],[-65.17,-53.38],[-64.99,-53.03],[-64.86,-52.78],[-64.54,-52.14],[-64.34,-51.72],[-64.14,-51.33],[-63.94,-50.97],[-63.67,-50.46],[-63.52,-50.18],[-63.31,-49.72],[-63.2,-49.44],[-63.04,-49.09],[-62.78,-48.81],[-62.42,-48.25],[-62.42,-48.25],[-62.33,-47.92],[-62.33,-47.92],[-62.31,-47.8],[-62.2,-47.53],[-61.69,-46.73],[-61.21,-45.93],[-61.1,-45.19],[-61,-44.46],[-60.88,-43.62],[-60.76,-42.78],[-60.27,-42.03],[-59.78,-41.29],[-59.31,-40.54],[-58.85,-39.78],[-58.39,-39.03],[-58.2,-38.26],[-58.02,-37.5],[-57.84,-36.73],[-57.67,-35.96],[-57.53,-35.1],[-57.4,-34.24],[-57.33,-33.8],[-57.26,-33.41],[-57.23,-33.09],[-57.12,-32.53],[-57.05,-31.81],[-56.88,-31.36],[-56.64,-30.52],[-56.52,-30.04],[-56.53,-29.44],[-56.53,-29.44],[-56.54,-29.16],[-56.58,-28.79],[-56.55,-28.24],[-56.69,-27.5],[-56.76,-26.97],[-56.83,-26.44],[-57.38,-25.66],[-57.55,-24.97],[-57.71,-24.28],[-57.87,-23.59],[-58.07,-22.77],[-58.27,-21.96],[-58.46,-21.14],[-58.54,-20.28],[-58.62,-19.42],[-58.7,-18.56],[-58.78,-17.71],[-58.85,-16.85],[-58.93,-15.99],[-58.98,-15.12],[-59.03,-14.25],[-59.07,-13.39],[-58.72,-12.59],[-58.37,-11.8],[-58.03,-11.01],[-57.68,-10.22],[-57.34,-9.42],[-57.23,-9.16],[-57.14,-8.92],[-57.01,-8.66],[-56.86,-8.31],[-56.77,-8.12],[-56.68,-7.89],[-56.46,-7.54],[-56.27,-7.24],[-56.15,-7.08],[-56.15,-7.08],[-55.89,-7.56],[-55.63,-8.04],[-55.63,-8.04],[-55.46,-8.06],[-54.91,-7.97],[-54.35,-7.88],[-53.77,-8],[-53.18,-8.12],[-52.67,-8.33],[-52.16,-8.55],[-51.5,-8.91],[-50.84,-9.27],[-49.98,-9.51],[-49.12,-9.75],[-48.3,-9.6],[-47.49,-9.44],[-46.75,-9.08],[-46.01,-8.72],[-45.36,-8.38],[-44.71,-8.03],[-44.08,-7.82],[-43.45,-7.61],[-42.88,-7.53],[-42.32,-7.46],[-41.8,-7.35],[-41.29,-7.24],[-40.68,-7.15],[-40.08,-7.07],[-39.45,-6.6],[-38.83,-6.13],[-38.08,-6],[-37.34,-5.88],[-36.67,-6],[-36,-6.13],[-35.33,-6.25],[-34.56,-6.36],[-33.78,-6.46],[-32.9,-6.77],[-32.39,-6.83],[-31.87,-6.89],[-31.3,-6.92],[-30.73,-6.95],[-30.12,-6.76],[-29.51,-6.57],[-28.71,-6.4],[-27.91,-6.23],[-27.11,-6.05],[-26.6,-5.41],[-26.09,-4.76],[-26.03,-4.48],[-26.03,-4.48],[-25.78,-4.62],[-25.78,-4.62],[-25.77,-4.29],[-25.53,-3.41],[-25.31,-2.64],[-25.03,-2.28],[-24.63,-1.99],[-24.01,-1.74],[-23.59,-1.76],[-23.15,-1.8],[-22.93,-1.46],[-22.77,-1.21],[-22.57,-0.94],[-22.26,-0.74],[-22.03,-0.39],[-21.78,0.03],[-21.69,0.81],[-21.59,1.25],[-21.45,1.67],[-21.18,1.9],[-20.97,2.09],[-20.56,2.63],[-20.2,3.15],[-19.94,3.76],[-19.67,4.18],[-19.39,4.61],[-19.03,5.04],[-18.67,5.46],[-18.18,5.65],[-17.7,5.85],[-17.56,5.93],[-16.68,5.74],[-15.73,5.66],[-15.22,5.62],[-15.07,5.52],[-14.52,5.4],[-13.78,5.68],[-12.98,6.04],[-12.53,6.34],[-11.61,6.59],[-11.06,6.84],[-10.33,6.96],[-9.5,7.03],[-8.83,7.26],[-8.52,7.29],[-8.52,7.29],[-8.47,7.26],[-8.21,7.14],[-7.89,6.96],[-7.49,6.73],[-6.93,6.38],[-6.24,5.99],[-5.95,5.85],[-5.44,5.66],[-5.05,5.51],[-4.6,5.33],[-3.86,4.97],[-3.53,4.8],[-2.68,4.37],[-1.95,4.01],[-1.95,4.01],[-1.25,3.98],[-0.61,3.98],[0.04,3.98],[0.79,3.85],[1.67,3.74],[2.05,3.6],[2.05,3.6],[2.5,3.48],[2.93,3.39],[3.21,3.35],[3.61,3.47],[4,3.48],[4.88,3.37],[5.64,3.23],[6.37,3.18],[7.2,3.06],[7.91,2.99],[7.91,2.99],[7.3,3.4],[6.49,3.93],[6.49,3.93],[7.39,4.15],[8.28,4.38],[9.18,4.6],[10.07,4.83],[10.88,5.13],[11.69,5.43],[12.49,5.73],[13.3,6.02],[14.11,6.32],[14.11,6.32],[14.05,6.39],[13.89,7.21],[13.74,8.04],[13.59,8.86],[13.59,8.86],[14.19,9.3],[14.8,9.75],[15.41,10.2],[15.41,10.2],[15.16,10.6],[15.16,10.6],[15.75,11.06],[16.34,11.52],[16.93,11.98],[16.93,11.98],[17.37,11.66],[18.17,11.23],[18.97,10.8],[19.76,10.36],[20.55,9.93],[20.55,9.93],[21.23,10.4],[21.92,10.87],[22.6,11.34],[23.27,11.84],[23.93,12.33],[24.6,12.82],[25.27,13.31],[25.95,13.79],[25.95,13.79],[26.57,13.38],[27.18,12.96],[27.8,12.55],[28.36,12.88],[29.15,12.29],[29.95,11.7],[30.74,11.1],[31.53,10.51],[32.32,9.91],[33.1,9.31],[33.88,8.71],[34.66,8.1],[35.36,8.48],[36.06,7.87],[36.76,7.26],[37.46,6.64],[38.15,6.03],[38.84,5.41],[39.54,4.79],[40.23,4.17],[40.92,3.56],[40.92,3.56],[41.41,4.18],[41.89,4.79],[41.89,4.79],[42.72,4.32],[43.55,3.85],[44.38,3.38],[45.21,2.91],[46.04,2.44],[46.86,1.97],[47.69,1.49],[48.51,1.02],[49.34,0.55],[50.16,0.07],[50.99,-0.4],[50.67,-1.19],[51.5,-1.57],[52.33,-1.95],[53.15,-2.33],[53.98,-2.7],[54.81,-3.08],[55.63,-3.46],[56.46,-3.84],[56.2,-4.73],[57.11,-5.09],[58.01,-5.46],[58.92,-5.82],[59.83,-6.18],[60.74,-6.54],[61.65,-6.9],[62.56,-7.26],[63.47,-7.61],[64.39,-7.97],[64.39,-7.97],[64.06,-8.66],[63.73,-9.36],[63.23,-10.22],[62.72,-11.08],[62.22,-11.93],[61.71,-12.79],[61.19,-13.65],[60.67,-14.5],[60.15,-15.35],[59.63,-16.21],[59.03,-16.93],[58.44,-17.64],[57.84,-18.36],[57.23,-19.07],[56.62,-19.78],[56,-20.49],[55.37,-21.19],[54.75,-21.9],[54.11,-22.6],[53.47,-23.3],[52.8,-23.88],[52.12,-24.46],[51.43,-25.04],[50.74,-25.61],[50.05,-26.18],[49.34,-26.75],[48.66,-27.48],[47.97,-28.2],[47.27,-28.92],[47.27,-28.92],[47.2,-28.96],[46.34,-29.58],[45.47,-30.2],[44.59,-30.81],[43.7,-31.42],[42.79,-32.02],[41.88,-32.61],[40.95,-33.19],[40.01,-33.77],[39.73,-33.82]]]}},{"type":"Feature","properties":{"ma":195,"type":"gpml:TopologicalClosedPlateBoundary","name":"AACM","pid":18100,"deforming":false},"geometry":{"type":"Polygon","coordinates":[[[-7.24,64.12],[-6.91,63.26],[-6.61,62.4],[-6.32,61.54],[-6.01,60.7],[-5.71,59.86],[-5.43,59.02],[-5.17,58.18],[-4.91,57.34],[-4.59,56.62],[-4.28,55.91],[-3.98,55.19],[-4.54,54.61],[-4.27,53.81],[-4.01,53],[-3.75,52.2],[-3.75,52.2],[-5.1,52.48],[-6.47,52.75],[-7.97,52.95],[-9.48,53.12],[-11,53.28],[-12.31,53.28],[-13.62,53.27],[-14.57,53.26],[-15.59,53.23],[-16.43,53.2],[-17.42,53.15],[-18.17,53.11],[-19.08,53.05],[-19.86,53],[-20.55,52.84],[-21.19,52.68],[-21.75,52.64],[-22.8,52.44],[-23.35,52.28],[-24.02,52.03],[-24.99,51.28],[-25.7,50.82],[-26.39,50.36],[-26.98,50.11],[-27.26,49.91],[-27.98,49.23],[-28.2,49.01],[-29.12,48.4],[-29.31,48.16],[-29.31,48.16],[-30.29,48.63],[-31.29,49.1],[-32.31,49.56],[-33.35,50.01],[-34.43,50.58],[-35.54,51.15],[-36.68,51.7],[-37.85,52.24],[-39.04,52.77],[-40.61,53.04],[-42.2,53.28],[-43.8,53.5],[-45.34,53.55],[-46.89,53.57],[-48.44,53.58],[-48.44,53.58],[-48.24,54.38],[-48.02,55.17],[-47.79,55.97],[-47.56,56.76],[-47.31,57.56],[-47.16,58.24],[-47,58.92],[-46.84,59.59],[-46.84,59.59],[-48.3,60.26],[-49.81,60.9],[-51.16,61.59],[-52.56,62.27],[-54.03,62.93],[-55.51,63.61],[-57.06,64.27],[-58.69,64.91],[-59.4,65.4],[-60.13,65.89],[-60.13,65.89],[-58.69,66.39],[-57.21,66.79],[-55.68,67.17],[-54.09,67.54],[-51.8,67.93],[-49.44,68.28],[-47.77,68.55],[-46.07,68.8],[-44.32,69.03],[-42.25,69.43],[-40.11,69.8],[-37.89,70.14],[-36.18,70.49],[-34.42,70.82],[-32.6,71.14],[-30.13,71.31],[-27.61,71.45],[-25.07,71.56],[-22.13,71.92],[-19.08,72.23],[-16.71,72.63],[-14.24,73],[-11.66,73.34],[-11.66,73.34],[-10.88,72.5],[-10.16,71.65],[-9.5,70.8],[-8.9,69.96],[-8.57,69.07],[-8.27,68.18],[-7.99,67.29],[-7.73,66.4],[-7.7,66.33],[-7.62,65.99],[-7.6,65.88],[-7.57,65.72],[-7.51,65.43],[-7.38,64.84],[-7.25,64.26],[-7.24,64.12]]]}},{"type":"Feature","properties":{"ma":195,"type":"gpml:TopologicalClosedPlateBoundary","name":"Junction Plate North","pid":786,"deforming":false},"geometry":{"type":"Polygon","coordinates":[[[115.41,-0.63],[116.14,-1.25],[116.86,-1.87],[117.59,-2.49],[118.32,-3.11],[118.84,-3.88],[119.36,-4.65],[119.89,-5.43],[120.41,-6.2],[121.22,-6.74],[122.02,-7.28],[122.83,-7.82],[123.64,-8.35],[124.46,-8.89],[125.27,-9.42],[126.09,-9.95],[126.91,-10.48],[127.73,-11.01],[128.56,-11.54],[129.33,-12.02],[130.11,-12.51],[130.89,-12.99],[131.67,-13.47],[132.46,-13.95],[133.25,-14.43],[134.04,-14.9],[134.84,-15.37],[135.27,-15.72],[135.7,-16.07],[135.7,-16.07],[135.73,-16.84],[135.76,-17.61],[135.79,-18.38],[135.79,-18.38],[135.18,-18.05],[134.34,-17.79],[133.51,-17.52],[132.68,-17.24],[131.85,-16.96],[131.02,-16.68],[130.2,-16.4],[130.51,-15.83],[130.82,-15.25],[129.98,-14.9],[129.15,-14.55],[128.32,-14.2],[127.49,-13.84],[126.67,-13.48],[125.84,-13.12],[125.02,-12.75],[124.2,-12.38],[124.48,-11.83],[124.75,-11.28],[123.92,-10.92],[123.09,-10.55],[122.26,-10.18],[121.44,-9.81],[120.61,-9.44],[119.79,-9.06],[118.97,-8.68],[119.25,-8.19],[119.52,-7.7],[118.66,-7.3],[117.8,-6.9],[116.94,-6.5],[116.09,-6.1],[115.23,-5.7],[114.75,-5.47],[114.27,-5.24],[114.27,-5.24],[114.42,-4.43],[114.56,-3.62],[114.7,-2.81],[114.93,-2.09],[115.17,-1.36],[115.41,-0.63]]]}},{"type":"Feature","properties":{"ma":195,"type":"gpml:TopologicalClosedPlateBoundary","name":"Phoenix Plate","pid":919,"deforming":false},"geometry":{"type":"MultiPolygon","coordinates":[[[[180,-5.59],[180,-6.58],[180,-7.57],[180,-8.55],[180,-9.54],[180,-10.53],[180,-11.52],[180,-12.51],[180,-13.5],[180,-14.49],[180,-15.48],[180,-16.47],[180,-17.45],[180,-18.44],[180,-19.43],[180,-20.42],[180,-21.41],[180,-22.4],[180,-23.39],[180,-24.38],[180,-25.37],[180,-26.36],[180,-27.34],[180,-28.33],[180,-29.32],[180,-30.31],[180,-31.3],[180,-32.29],[180,-33.28],[180,-34.27],[180,-35.26],[180,-36.24],[180,-37.23],[180,-38.22],[180,-39.21],[180,-40.2],[180,-41.19],[180,-42.18],[180,-43.17],[180,-44.16],[180,-45.15],[180,-46.13],[180,-47.12],[180,-48.11],[180,-49.1],[180,-50.09],[180,-51.08],[180,-52.07],[180,-53.06],[180,-54.05],[180,-55.03],[180,-56.02],[180,-57.01],[180,-58],[180,-58.99],[180,-59.98],[180,-60.97],[180,-61.96],[180,-62.95],[180,-63.94],[180,-64.92],[180,-65.91],[180,-66.9],[180,-67.89],[180,-68.88],[180,-69.87],[180,-70.86],[180,-71.85],[180,-72.84],[180,-73.82],[180,-74.81],[180,-75.8],[177.25,-75.72],[174.53,-75.61],[171.86,-75.47],[168.62,-75.39],[165.42,-75.27],[162.28,-75.1],[159.22,-74.89],[156.24,-74.65],[156.24,-74.65],[155.47,-73.83],[154.76,-73.02],[154.12,-72.2],[152.55,-71.38],[152.9,-70.87],[154.11,-69.95],[155.21,-69.03],[156.17,-68.1],[157.05,-67.17],[157.35,-66.6],[157.63,-66.04],[157.47,-65.45],[157.32,-64.87],[156.55,-64.11],[155.82,-63.35],[155.12,-62.59],[154.46,-61.82],[153.62,-60.94],[152.82,-60.05],[152.06,-59.16],[151.34,-58.26],[150.66,-57.36],[150.48,-56.49],[150.3,-55.62],[150.14,-54.75],[149.98,-53.87],[149.83,-53],[149.58,-52.2],[149.35,-51.41],[149.13,-50.61],[148.91,-49.81],[148.7,-49.01],[148.55,-48.27],[148.41,-47.54],[148.26,-46.8],[148.26,-46.8],[147.14,-46.24],[146.04,-45.68],[144.96,-45.1],[143.9,-44.52],[142.72,-44.11],[141.56,-43.69],[140.9,-43.42],[140.25,-43.14],[139.78,-42.67],[139.33,-42.2],[138.84,-41.56],[138.37,-40.91],[137.66,-40.14],[136.96,-39.38],[136.29,-38.61],[135.62,-37.84],[135.62,-36.98],[135.62,-36.11],[135.61,-35.25],[135.61,-34.39],[135.61,-33.52],[135.62,-32.58],[135.63,-31.64],[135.64,-30.7],[135.65,-29.76],[135.66,-28.82],[135.67,-27.87],[135.68,-26.93],[135.69,-25.99],[135.72,-25.12],[135.74,-24.24],[135.76,-23.37],[135.78,-22.49],[135.8,-21.62],[135.83,-20.74],[135.85,-19.87],[135.81,-18.89],[135.77,-17.91],[135.74,-16.93],[135.7,-15.95],[135.66,-14.97],[135.63,-13.99],[135.59,-13.01],[136.47,-12.54],[137.35,-12.06],[138.23,-11.59],[139.1,-11.11],[139.97,-10.62],[140.83,-10.14],[141.7,-9.65],[142.56,-9.16],[143.42,-8.67],[144.27,-8.18],[145.13,-7.68],[145.98,-7.19],[146.41,-7.98],[146.83,-8.78],[147.27,-9.57],[147.7,-10.37],[148.13,-11.16],[149.11,-10.9],[150.08,-10.64],[151.05,-10.37],[152.02,-10.1],[152.98,-9.82],[153.95,-9.55],[154.91,-9.27],[155.87,-8.98],[156.83,-8.7],[157.79,-8.41],[158.75,-8.12],[159.7,-7.83],[160.66,-7.54],[161.61,-7.24],[162.56,-6.95],[162.88,-7.72],[163.2,-8.5],[164.14,-8.16],[165.08,-7.82],[166.01,-7.48],[166.94,-7.13],[167.88,-6.78],[168.81,-6.43],[169.73,-6.08],[170.66,-5.73],[171.59,-5.38],[172.51,-5.02],[173.44,-4.66],[174.36,-4.31],[175.28,-3.95],[176.21,-3.59],[177.13,-3.23],[177.42,-3.94],[177.72,-4.66],[178.02,-5.37],[178.68,-5.12],[179.34,-4.86],[180,-4.6],[180,-5.59]]],[[[-180,-74.81],[-180,-73.82],[-180,-72.84],[-180,-71.85],[-180,-70.86],[-180,-69.87],[-180,-68.88],[-180,-67.89],[-180,-66.9],[-180,-65.91],[-180,-64.92],[-180,-63.94],[-180,-62.95],[-180,-61.96],[-180,-60.97],[-180,-59.98],[-180,-58.99],[-180,-58],[-180,-57.01],[-180,-56.02],[-180,-55.03],[-180,-54.05],[-180,-53.06],[-180,-52.07],[-180,-51.08],[-180,-50.09],[-180,-49.1],[-180,-48.11],[-180,-47.12],[-180,-46.13],[-180,-45.15],[-180,-44.16],[-180,-43.17],[-180,-42.18],[-180,-41.19],[-180,-40.2],[-180,-39.21],[-180,-38.22],[-180,-37.23],[-180,-36.24],[-180,-35.26],[-180,-34.27],[-180,-33.28],[-180,-32.29],[-180,-31.3],[-180,-30.31],[-180,-29.32],[-180,-28.33],[-180,-27.34],[-180,-26.36],[-180,-25.37],[-180,-24.38],[-180,-23.39],[-180,-22.4],[-180,-21.41],[-180,-20.42],[-180,-19.43],[-180,-18.44],[-180,-17.45],[-180,-16.47],[-180,-15.48],[-180,-14.49],[-180,-13.5],[-180,-12.51],[-180,-11.52],[-180,-10.53],[-180,-9.54],[-180,-8.55],[-180,-7.57],[-180,-6.58],[-180,-5.59],[-180,-4.6],[-179.1,-4.24],[-178.2,-3.89],[-177.3,-3.53],[-176.4,-3.18],[-175.5,-2.82],[-174.6,-2.46],[-173.71,-2.1],[-172.81,-1.74],[-172.48,-2.54],[-172.15,-3.34],[-171.81,-4.14],[-170.9,-3.83],[-170,-3.53],[-169.09,-3.22],[-168.18,-2.91],[-167.27,-2.61],[-166.37,-2.3],[-165.46,-1.99],[-164.55,-1.68],[-163.65,-1.37],[-162.74,-1.06],[-162.44,-1.93],[-162.13,-2.81],[-161.82,-3.68],[-161.52,-4.55],[-160.61,-4.24],[-159.71,-3.93],[-158.81,-3.62],[-157.9,-3.31],[-157,-3],[-156.1,-2.69],[-155.2,-2.38],[-154.3,-2.06],[-153.4,-1.75],[-152.5,-1.43],[-151.6,-1.12],[-150.7,-0.8],[-149.8,-0.49],[-148.9,-0.17],[-148.01,0.14],[-147.11,0.46],[-146.21,0.78],[-145.31,1.09],[-144.53,1.49],[-143.75,1.9],[-143.75,1.9],[-143.37,1.54],[-142.99,1.18],[-142.29,0.55],[-141.59,-0.08],[-140.9,-0.71],[-140.2,-1.34],[-139.5,-1.96],[-138.8,-2.59],[-138.1,-3.22],[-137.4,-3.85],[-136.69,-4.48],[-135.99,-5.1],[-135.29,-5.73],[-134.58,-6.35],[-133.87,-6.98],[-133.16,-7.6],[-132.5,-8.18],[-131.83,-8.76],[-131.16,-9.33],[-130.49,-9.91],[-129.82,-10.48],[-129.14,-11.06],[-128.46,-11.63],[-127.78,-12.2],[-127.14,-12.66],[-126.5,-13.12],[-125.85,-13.58],[-125.2,-14.04],[-125.56,-14.72],[-125.93,-15.41],[-126.29,-16.09],[-125.48,-16.67],[-124.67,-17.24],[-123.85,-17.82],[-123.02,-18.39],[-122.19,-18.95],[-121.35,-19.52],[-120.51,-20.07],[-119.66,-20.63],[-118.81,-21.18],[-117.94,-21.72],[-117.08,-22.26],[-116.2,-22.8],[-115.32,-23.33],[-114.43,-23.86],[-113.54,-24.38],[-113.89,-25],[-114.25,-25.62],[-113.3,-26.13],[-112.34,-26.63],[-111.37,-27.13],[-110.39,-27.62],[-109.4,-28.1],[-108.4,-28.57],[-107.4,-29.04],[-106.39,-29.5],[-105.36,-29.95],[-104.33,-30.4],[-103.29,-30.84],[-102.24,-31.26],[-101.18,-31.68],[-100.11,-32.09],[-99.03,-32.49],[-97.94,-32.89],[-96.84,-33.27],[-95.73,-33.64],[-94.61,-34],[-93.49,-34.36],[-92.35,-34.7],[-91.21,-35.03],[-90.05,-35.35],[-88.89,-35.66],[-87.71,-35.96],[-87.87,-36.85],[-88.03,-37.75],[-86.87,-38.06],[-85.7,-38.35],[-84.52,-38.64],[-83.33,-38.91],[-82.13,-39.17],[-80.93,-39.42],[-79.71,-39.65],[-78.49,-39.88],[-77.26,-40.09],[-76.02,-40.28],[-74.77,-40.47],[-73.52,-40.64],[-72.26,-40.79],[-71,-40.94],[-69.73,-41.06],[-68.45,-41.18],[-67.18,-41.28],[-65.89,-41.37],[-64.61,-41.44],[-63.32,-41.49],[-62.2,-41.53],[-61.08,-41.55],[-59.96,-41.56],[-59.96,-41.56],[-60.36,-42.17],[-60.76,-42.78],[-60.88,-43.62],[-61,-44.46],[-61.1,-45.19],[-61.21,-45.93],[-61.69,-46.73],[-62.2,-47.53],[-62.31,-47.8],[-62.33,-47.92],[-62.33,-47.92],[-62.42,-48.25],[-62.42,-48.25],[-62.78,-48.81],[-63.04,-49.09],[-63.2,-49.44],[-63.31,-49.72],[-63.52,-50.18],[-63.67,-50.46],[-63.94,-50.97],[-64.14,-51.33],[-64.34,-51.72],[-64.54,-52.14],[-64.86,-52.78],[-64.99,-53.03],[-65.17,-53.38],[-65.33,-53.7],[-65.48,-54],[-65.63,-54.35],[-65.75,-54.66],[-65.85,-54.91],[-65.88,-54.98],[-65.93,-55.22],[-65.99,-55.5],[-66.04,-55.93],[-66.28,-56.25],[-66.58,-56.57],[-67.02,-56.95],[-67.49,-57.38],[-67.78,-57.66],[-68.02,-57.91],[-68.23,-58.11],[-68.54,-58.44],[-68.78,-58.88],[-68.84,-59.24],[-68.87,-59.56],[-68.91,-59.81],[-68.88,-60.12],[-68.87,-60.46],[-68.79,-60.84],[-68.68,-61.24],[-68.69,-61.56],[-68.75,-61.72],[-68.81,-62.05],[-68.91,-62.43],[-68.98,-62.79],[-68.98,-63.17],[-68.97,-63.23],[-68.75,-63.63],[-68.64,-63.72],[-68.64,-63.72],[-69.83,-64.48],[-71.09,-65.23],[-72.86,-65.82],[-74.72,-66.39],[-76.65,-66.94],[-78.67,-67.46],[-80.79,-67.95],[-82.64,-68.4],[-84.57,-68.82],[-86.57,-69.22],[-88.64,-69.6],[-90.37,-70.08],[-92.17,-70.54],[-94.06,-70.98],[-96.03,-71.41],[-98.18,-71.85],[-100.43,-72.27],[-102.78,-72.67],[-105.24,-73.03],[-107.78,-73.37],[-110.42,-73.67],[-113.16,-73.94],[-115.97,-74.17],[-119.19,-74.39],[-122.49,-74.55],[-125.85,-74.67],[-129.24,-74.73],[-132.65,-74.74],[-136.36,-74.86],[-140.11,-74.91],[-143.86,-74.9],[-147.6,-74.83],[-151.29,-74.69],[-154.56,-75.02],[-157.97,-75.29],[-161.49,-75.52],[-165.11,-75.69],[-168.79,-75.8],[-172.52,-75.86],[-176.27,-75.86],[-180,-75.8],[-180,-74.81]]]]}},{"type":"Feature","properties":{"ma":195,"type":"gpml:TopologicalClosedPlateBoundary","name":"Cimmerian-Neotethys Plate","pid":505,"deforming":false},"geometry":{"type":"Polygon","coordinates":[[[30.45,16.51],[31.3,16.33],[32.15,16.16],[33.07,16.22],[33.99,16.27],[34.92,16.32],[35.61,16.49],[36.3,16.65],[37,16.81],[37.96,17.03],[38.92,17.26],[39.87,17.27],[40.82,17.29],[41.77,17.3],[42.46,17.55],[43.15,17.81],[43.84,18.06],[44.2,18.6],[44.56,19.14],[44.75,19.63],[44.94,20.13],[45.3,20.82],[45.66,21.5],[46.09,22.23],[46.53,22.96],[47.23,23.62],[47.94,24.27],[48.66,24.91],[49.49,25.55],[50.33,26.18],[51.3,26.56],[52.27,26.93],[53.25,27.3],[53.73,27.93],[54.21,28.56],[54.69,29.19],[55.07,29.93],[55.46,30.68],[56.18,30.85],[56.89,31.01],[57.98,30.98],[59.06,30.95],[59.89,31.39],[60.72,31.84],[61.45,32.52],[62.18,33.2],[62.86,33.65],[63.54,34.09],[64.16,34.65],[64.8,35.21],[65.44,35.76],[65.92,36.31],[66.41,36.85],[66.9,37.4],[66.97,38.16],[67.04,38.92],[67.11,39.68],[67.18,40.44],[68.36,40.86],[69.55,41.27],[70.78,41.6],[72.02,41.92],[73.27,42.22],[74.45,42.42],[75.65,42.62],[76.85,42.8],[78.06,42.97],[79.04,43.41],[80.04,43.84],[81.05,44.27],[82.08,44.69],[83.13,45.09],[84.27,45.44],[85.42,45.78],[86.59,46.1],[87.77,46.41],[88.87,46.24],[89.96,46.05],[91.04,45.85],[92.11,45.64],[92.89,45.22],[93.65,44.79],[94.41,44.37],[94.79,43.64],[95.16,42.92],[95.52,42.19],[96.02,41.45],[96.5,40.72],[96.98,39.97],[97.6,39.33],[98.22,38.69],[98.82,38.04],[99.44,37.36],[100.05,36.68],[100.39,36.04],[100.73,35.39],[101.06,34.75],[102.02,34.22],[102.96,33.67],[103.89,33.12],[104.72,32.63],[105.54,32.13],[106.35,31.63],[106.87,31.1],[107.37,30.57],[107.88,30.04],[108.56,29.48],[109.24,28.92],[109.91,28.36],[110.64,28.18],[111.37,27.99],[112.1,27.81],[113.06,27.55],[114.01,27.29],[114.95,27.02],[115.83,26.87],[116.71,26.72],[117.58,26.55],[118.31,26.41],[119.03,26.26],[119.76,26.11],[120.64,26.1],[121.52,26.09],[122.53,26.41],[123.55,26.72],[124.28,27.48],[125.01,28.24],[125.01,28.24],[125.35,27.81],[125.68,27.37],[126.55,26.93],[127.42,26.47],[128.27,26.02],[128.65,25.34],[129.02,24.67],[129.39,23.99],[129.95,23.19],[130.49,22.4],[130.76,21.49],[131.03,20.57],[131.35,19.71],[131.67,18.85],[131.98,17.98],[131.84,17],[131.7,16.01],[131.57,15.02],[131.44,14.03],[130.76,13.51],[130.09,12.98],[129.42,12.46],[128.76,11.93],[128.1,11.4],[127.42,10.86],[126.75,10.33],[126.08,9.79],[125.41,9.25],[124.71,8.79],[124,8.33],[123.3,7.88],[122.6,7.42],[122.13,6.85],[121.66,6.28],[121.19,5.71],[120.91,4.77],[120.63,3.84],[120.35,2.9],[120.08,2.01],[119.81,1.12],[119.54,0.23],[119.27,-0.66],[119,-1.54],[118.73,-2.43],[118.46,-3.32],[118.46,-3.32],[118.32,-3.11],[117.59,-2.49],[116.86,-1.87],[116.14,-1.25],[115.41,-0.63],[115.41,-0.63],[115.17,-1.36],[114.93,-2.09],[114.7,-2.81],[114.56,-3.62],[114.42,-4.43],[114.27,-5.24],[114.27,-5.24],[115.16,-5.66],[115.16,-5.66],[115.14,-5.72],[114.32,-5.55],[113.5,-5.37],[112.68,-5.2],[112.35,-6.08],[112.02,-6.96],[111.69,-7.84],[111.35,-8.72],[111.02,-9.6],[110.27,-9.41],[109.53,-9.22],[108.78,-9.03],[108.03,-8.83],[107.69,-9.66],[107.35,-10.49],[107,-11.32],[106.66,-12.14],[106.31,-12.97],[105.95,-13.79],[105.03,-13.64],[104.11,-13.48],[103.19,-13.31],[102.27,-13.15],[101.35,-12.98],[100.99,-13.72],[100.64,-14.47],[100.28,-15.21],[99.92,-15.96],[99.05,-15.58],[98.18,-15.2],[97.31,-14.82],[96.44,-14.44],[95.98,-15.33],[95.52,-16.22],[95.05,-17.11],[94.58,-18],[94.1,-18.89],[93.62,-19.77],[93.13,-20.66],[93.13,-20.66],[92.09,-20.55],[91.05,-20.44],[90.02,-20.32],[88.98,-20.2],[87.95,-20.06],[86.91,-19.95],[85.88,-19.83],[84.84,-19.71],[83.81,-19.58],[82.78,-19.44],[81.75,-19.3],[80.72,-19.15],[80.82,-18.64],[80.93,-18.13],[79.97,-17.8],[79.02,-17.46],[78.08,-17.12],[77.13,-16.77],[76.19,-16.42],[75.25,-16.06],[74.32,-15.7],[73.39,-15.34],[72.46,-14.97],[71.54,-14.6],[70.62,-14.22],[69.7,-13.84],[68.79,-13.46],[67.87,-13.08],[66.96,-12.69],[66.96,-12.69],[67.26,-11.86],[67.56,-11.04],[67.85,-10.21],[68.14,-9.38],[67.21,-9.04],[66.29,-8.69],[65.36,-8.34],[64.44,-7.99],[63.52,-7.63],[62.6,-7.27],[61.68,-6.92],[60.77,-6.55],[59.85,-6.19],[58.94,-5.83],[58.02,-5.46],[57.11,-5.1],[56.2,-4.73],[56.46,-3.84],[55.63,-3.46],[54.81,-3.08],[53.98,-2.7],[53.15,-2.33],[52.33,-1.95],[51.5,-1.57],[50.67,-1.19],[50.99,-0.4],[50.16,0.07],[49.34,0.55],[48.51,1.02],[47.69,1.49],[46.86,1.97],[46.04,2.44],[45.21,2.91],[44.38,3.38],[43.55,3.85],[42.72,4.32],[41.89,4.79],[41.89,4.79],[41.41,4.18],[40.92,3.56],[40.92,3.56],[40.23,4.17],[39.54,4.79],[38.84,5.41],[38.15,6.03],[37.46,6.64],[36.76,7.26],[36.06,7.87],[35.36,8.48],[34.66,8.1],[33.88,8.71],[33.1,9.31],[32.32,9.91],[31.53,10.51],[30.74,11.1],[29.95,11.7],[29.15,12.29],[28.36,12.88],[27.8,12.55],[27.18,12.96],[26.57,13.38],[25.95,13.79],[25.95,13.79],[26.44,14.15],[27.12,14.68],[27.8,15.21],[28.49,15.74],[29.18,16.27],[29.6,16.68],[30.45,16.51]]]}},{"type":"Feature","properties":{"ma":195,"type":"gpml:TopologicalClosedPlateBoundary","name":"Moroccan-Plate","pid":706,"deforming":false},"geometry":{"type":"Polygon","coordinates":[[[0.22,7.54],[0.84,7.07],[1.6,6.49],[2.26,6.18],[2.77,5.95],[3.27,5.71],[3.73,5.49],[4.19,5.28],[4.65,5.05],[5.11,4.82],[5.84,4.35],[6.57,3.87],[7.3,3.4],[7.91,2.99],[7.91,2.99],[7.2,3.06],[6.37,3.18],[5.64,3.23],[4.88,3.37],[4,3.48],[3.61,3.47],[3.21,3.35],[2.93,3.39],[2.5,3.48],[2.05,3.6],[2.05,3.6],[1.67,3.74],[0.79,3.85],[0.04,3.98],[-0.61,3.98],[-1.25,3.98],[-1.95,4.01],[-1.95,4.01],[-2.68,4.37],[-3.53,4.8],[-3.86,4.97],[-4.6,5.33],[-5.05,5.51],[-5.44,5.66],[-5.95,5.85],[-6.24,5.99],[-6.93,6.38],[-7.49,6.73],[-7.89,6.96],[-8.21,7.14],[-8.47,7.26],[-8.52,7.29],[-8.52,7.29],[-8.38,7.3],[-7.78,7.11],[-7.35,6.81],[-6.86,6.6],[-6.55,6.42],[-6.22,6.23],[-5.64,6.1],[-5.1,5.89],[-4.47,6.09],[-3.91,6.26],[-3.43,6.41],[-2.91,6.57],[-2.29,6.76],[-1.57,6.98],[-0.96,7.16],[-0.33,7.35],[0.09,7.48],[0.22,7.54]]]}},{"type":"Feature","properties":{"ma":195,"type":"gpml:TopologicalClosedPlateBoundary","name":"Izanagi Plate 187_184.1","pid":926,"deforming":false},"geometry":{"type":"MultiPolygon","coordinates":[[[[180,76.07],[180,75.07],[180,74.08],[180,73.08],[180,72.08],[180,71.09],[180,70.09],[180,69.1],[180,68.1],[180,67.11],[180,66.11],[180,65.11],[180,64.12],[180,63.12],[180,62.13],[180,61.13],[180,60.13],[180,59.14],[180,58.14],[180,57.15],[180,56.15],[180,55.15],[180,54.16],[180,53.16],[180,52.17],[180,51.17],[180,50.18],[180,49.18],[180,48.18],[180,47.19],[180,46.19],[180,45.2],[180,44.2],[180,43.2],[180,42.21],[180,41.21],[180,40.22],[180,39.22],[180,38.22],[180,37.23],[180,36.23],[180,35.24],[180,34.24],[180,33.24],[180,32.25],[180,31.25],[180,30.26],[180,29.26],[180,28.27],[180,27.27],[180,26.27],[180,25.28],[180,24.28],[180,23.29],[180,22.29],[180,21.29],[180,20.3],[180,19.3],[180,18.31],[180,17.31],[180,16.32],[180,15.32],[180,14.32],[180,13.33],[180,12.33],[180,11.34],[180,10.34],[180,9.34],[180,8.35],[180,7.35],[180,6.36],[180,5.36],[180,4.36],[180,3.37],[180,2.37],[180,1.38],[180,0.38],[180,-0.62],[180,-1.61],[180,-2.61],[180,-3.6],[180,-4.6],[179.34,-4.86],[178.68,-5.12],[178.02,-5.37],[177.72,-4.66],[177.42,-3.94],[177.13,-3.23],[176.21,-3.59],[175.28,-3.95],[174.36,-4.31],[173.44,-4.66],[172.51,-5.02],[171.59,-5.38],[170.66,-5.73],[169.73,-6.08],[168.81,-6.43],[167.88,-6.78],[166.94,-7.13],[166.01,-7.48],[165.08,-7.82],[164.14,-8.16],[163.2,-8.5],[162.88,-7.72],[162.56,-6.95],[161.61,-7.24],[160.66,-7.54],[159.7,-7.83],[158.75,-8.12],[157.79,-8.41],[156.83,-8.7],[155.87,-8.98],[154.91,-9.27],[153.95,-9.55],[152.98,-9.82],[152.02,-10.1],[151.05,-10.37],[150.08,-10.64],[149.11,-10.9],[148.13,-11.16],[147.7,-10.37],[147.27,-9.57],[146.83,-8.78],[146.41,-7.98],[145.98,-7.19],[145.13,-7.68],[144.27,-8.18],[143.42,-8.67],[142.56,-9.16],[141.7,-9.65],[140.83,-10.14],[139.97,-10.62],[139.1,-11.11],[138.23,-11.59],[137.35,-12.06],[136.47,-12.54],[135.59,-13.01],[135.59,-13.01],[135.62,-13.78],[135.65,-14.54],[135.68,-15.3],[135.7,-16.07],[135.7,-16.07],[135.27,-15.72],[134.84,-15.37],[134.04,-14.9],[133.25,-14.43],[132.46,-13.95],[131.67,-13.47],[130.89,-12.99],[130.11,-12.51],[129.33,-12.02],[128.56,-11.54],[127.73,-11.01],[126.91,-10.48],[126.09,-9.95],[125.27,-9.42],[124.46,-8.89],[123.64,-8.35],[122.83,-7.82],[122.02,-7.28],[121.22,-6.74],[120.41,-6.2],[119.92,-5.48],[119.44,-4.76],[118.95,-4.04],[118.46,-3.32],[118.46,-3.32],[118.73,-2.43],[119,-1.54],[119.27,-0.66],[119.54,0.23],[119.81,1.12],[120.08,2.01],[120.35,2.9],[120.63,3.84],[120.91,4.77],[121.19,5.71],[121.66,6.28],[122.13,6.85],[122.6,7.42],[123.3,7.88],[124,8.33],[124.71,8.79],[125.41,9.25],[126.08,9.79],[126.75,10.33],[127.42,10.86],[128.1,11.4],[128.76,11.93],[129.42,12.46],[130.09,12.98],[130.76,13.51],[131.44,14.03],[131.57,15.02],[131.7,16.01],[131.84,17],[131.98,17.98],[131.67,18.85],[131.35,19.71],[131.03,20.57],[130.76,21.49],[130.49,22.4],[129.95,23.19],[129.39,23.99],[129.02,24.67],[128.65,25.34],[128.27,26.02],[127.42,26.47],[126.55,26.93],[125.68,27.37],[125.35,27.81],[125.01,28.24],[125.01,28.24],[125.16,28.39],[125.74,29.22],[126.33,30.04],[126.93,30.86],[127.42,31.59],[127.91,32.31],[128.41,33.04],[128.92,33.76],[129.48,34.37],[130.05,34.98],[130.63,35.59],[130.63,35.59],[130.77,35.92],[131.17,36.75],[131.58,37.58],[131.99,38.41],[132.42,39.24],[132.86,40.07],[133.31,40.83],[133.77,41.59],[134.24,42.35],[134.72,43.1],[135.21,43.86],[135.7,44.67],[136.21,45.47],[136.73,46.28],[137.35,47.05],[137.98,47.81],[138.64,48.58],[139.12,49.23],[139.61,49.88],[140.12,50.53],[140.89,51.36],[141.69,52.19],[142.45,53.07],[143.25,53.94],[144.08,54.76],[144.94,55.58],[145.71,56.29],[146.5,56.99],[147.32,57.69],[148.01,58.38],[148.72,59.06],[149.46,59.74],[150.5,60.5],[151.59,61.24],[152.48,61.99],[153.41,62.72],[154.39,63.45],[155.34,64.23],[156.35,65],[157.42,65.76],[158.55,66.51],[159.78,67.26],[161.09,67.99],[162.48,68.71],[163.96,69.42],[165.08,70.1],[166.27,70.78],[167.55,71.45],[168.4,71.97],[169.31,72.49],[170.92,73.34],[172.52,74.17],[174.28,74.98],[176.25,75.78],[178.04,76.43],[180,77.06],[180,76.07]]],[[[-180,-3.6],[-180,-2.61],[-180,-1.61],[-180,-0.62],[-180,0.38],[-180,1.38],[-180,2.37],[-180,3.37],[-180,4.36],[-180,5.36],[-180,6.36],[-180,7.35],[-180,8.35],[-180,9.34],[-180,10.34],[-180,11.34],[-180,12.33],[-180,13.33],[-180,14.32],[-180,15.32],[-180,16.32],[-180,17.31],[-180,18.31],[-180,19.3],[-180,20.3],[-180,21.29],[-180,22.29],[-180,23.29],[-180,24.28],[-180,25.28],[-180,26.27],[-180,27.27],[-180,28.27],[-180,29.26],[-180,30.26],[-180,31.25],[-180,32.25],[-180,33.24],[-180,34.24],[-180,35.24],[-180,36.23],[-180,37.23],[-180,38.22],[-180,39.22],[-180,40.22],[-180,41.21],[-180,42.21],[-180,43.2],[-180,44.2],[-180,45.2],[-180,46.19],[-180,47.19],[-180,48.18],[-180,49.18],[-180,50.18],[-180,51.17],[-180,52.17],[-180,53.16],[-180,54.16],[-180,55.15],[-180,56.15],[-180,57.15],[-180,58.14],[-180,59.14],[-180,60.13],[-180,61.13],[-180,62.13],[-180,63.12],[-180,64.12],[-180,65.11],[-180,66.11],[-180,67.11],[-180,68.1],[-180,69.1],[-180,70.09],[-180,71.09],[-180,72.08],[-180,73.08],[-180,74.08],[-180,75.07],[-180,76.07],[-180,77.06],[-178.46,77.51],[-176.82,77.95],[-173.11,77.93],[-170.24,78.67],[-167,79.37],[-163.31,80.04],[-159.12,80.66],[-154.37,81.22],[-149.02,81.72],[-143.04,82.14],[-136.48,82.46],[-129.44,82.68],[-122.63,82.8],[-115.69,82.82],[-108.81,82.73],[-101.83,82.44],[-95.46,82.05],[-89.74,81.57],[-93.22,80.76],[-96.14,79.92],[-98.61,79.06],[-100.72,78.19],[-102.53,77.29],[-104.12,76.39],[-105.51,75.48],[-106.73,74.57],[-107.83,73.64],[-108.81,72.71],[-109.69,71.78],[-110.49,70.85],[-111.21,69.91],[-111.88,68.96],[-112.49,68.02],[-114.22,68.17],[-115.98,68.3],[-116.69,67.37],[-117.34,66.45],[-117.95,65.52],[-118.52,64.58],[-119.05,63.65],[-119.54,62.72],[-120.01,61.78],[-120.45,60.84],[-120.86,59.9],[-121.25,58.96],[-121.62,58.02],[-121.97,57.08],[-122.3,56.13],[-122.62,55.19],[-122.92,54.24],[-123.21,53.29],[-124.86,53.44],[-126.52,53.56],[-128.19,53.66],[-129.86,53.74],[-130.13,52.78],[-130.38,51.83],[-130.63,50.87],[-130.86,49.92],[-131.08,48.96],[-131.3,48],[-131.51,47.05],[-131.71,46.09],[-131.91,45.13],[-132.09,44.17],[-132.28,43.21],[-132.45,42.25],[-132.62,41.29],[-132.79,40.33],[-132.95,39.37],[-133.11,38.41],[-133.26,37.45],[-133.41,36.49],[-133.55,35.53],[-133.7,34.57],[-133.83,33.61],[-133.97,32.65],[-134.1,31.69],[-135.24,31.77],[-136.37,31.84],[-137.51,31.9],[-137.61,30.9],[-137.7,29.91],[-137.8,28.92],[-137.89,27.92],[-137.98,26.93],[-138.07,25.93],[-138.15,24.94],[-138.24,23.94],[-138.32,22.95],[-138.41,21.95],[-138.49,20.96],[-138.57,19.96],[-138.65,18.96],[-138.73,17.97],[-138.81,16.97],[-139.74,17.04],[-140.67,17.11],[-141.6,17.17],[-142.54,17.23],[-142.62,16.25],[-142.7,15.26],[-142.77,14.28],[-142.85,13.29],[-142.93,12.31],[-143.01,11.32],[-143.08,10.34],[-143.16,9.35],[-143.24,8.37],[-143.31,7.38],[-143.39,6.4],[-143.46,5.41],[-143.53,4.43],[-143.61,3.44],[-143.69,2.67],[-143.77,1.89],[-143.77,1.89],[-144.54,1.49],[-145.31,1.09],[-146.21,0.78],[-147.11,0.46],[-148.01,0.14],[-148.9,-0.17],[-149.8,-0.49],[-150.7,-0.8],[-151.6,-1.12],[-152.5,-1.43],[-153.4,-1.75],[-154.3,-2.06],[-155.2,-2.38],[-156.1,-2.69],[-157,-3],[-157.9,-3.31],[-158.81,-3.62],[-159.71,-3.93],[-160.61,-4.24],[-161.52,-4.55],[-161.82,-3.68],[-162.13,-2.81],[-162.44,-1.93],[-162.74,-1.06],[-163.65,-1.37],[-164.55,-1.68],[-165.46,-1.99],[-166.37,-2.3],[-167.27,-2.61],[-168.18,-2.91],[-169.09,-3.22],[-170,-3.53],[-170.9,-3.83],[-171.81,-4.14],[-172.15,-3.34],[-172.48,-2.54],[-172.81,-1.74],[-173.71,-2.1],[-174.6,-2.46],[-175.5,-2.82],[-176.4,-3.18],[-177.3,-3.53],[-178.2,-3.89],[-179.1,-4.24],[-180,-4.6],[-180,-3.6]]]]}},{"type":"Feature","properties":{"ma":195,"type":"gpml:TopologicalClosedPlateBoundary","name":"Cache Creek Ocean GS12","pid":131,"deforming":false},"geometry":{"type":"Polygon","coordinates":[[[-62.13,36.51],[-62.11,37.04],[-62.09,37.57],[-62.27,38.46],[-62.45,39.35],[-62.63,40.24],[-62.65,41.21],[-62.67,42.17],[-62.68,43.13],[-62.6,43.86],[-62.52,44.59],[-62.44,45.31],[-62.23,46.11],[-62.02,46.91],[-61.8,47.71],[-61.57,48.5],[-61.45,49.34],[-61.33,50.19],[-61.2,51.03],[-61.06,51.83],[-60.93,52.63],[-60.78,53.42],[-60.99,54.25],[-61.21,55.08],[-61.21,55.08],[-59.51,55.29],[-57.79,55.48],[-56.21,55.52],[-54.63,55.53],[-53.05,55.53],[-51.35,55.49],[-49.66,55.42],[-47.97,55.33],[-47.97,55.33],[-48.2,54.51],[-48.42,53.68],[-48.63,52.86],[-47.85,52.16],[-47.1,51.46],[-46.84,50.53],[-46.59,49.6],[-46.34,48.68],[-46.11,47.75],[-46.3,46.84],[-46.48,45.94],[-46.65,45.03],[-46.82,44.13],[-46.98,43.22],[-47.14,42.31],[-47.29,41.41],[-47.48,40.57],[-47.66,39.74],[-47.84,38.9],[-48.01,38.07],[-48.18,37.23],[-48.35,36.4],[-48.35,36.4],[-49.36,36.62],[-50.37,36.84],[-51.39,37.05],[-52.41,37.25],[-53.59,37.23],[-54.77,37.21],[-55.95,37.17],[-57.12,37.12],[-58.3,37.06],[-59.47,36.99],[-60.64,36.91],[-61.39,36.71],[-62.13,36.51]]]}},{"type":"Feature","properties":{"ma":195,"type":"gpml:TopologicalClosedPlateBoundary","name":"AlCaPa-Tisza-Dacia-Moesia","pid":319,"deforming":false},"geometry":{"type":"Polygon","coordinates":[[[36.04,23.66],[35.87,23.29],[35.37,22.68],[34.88,22.07],[34.39,21.45],[33.91,20.84],[33.32,20.27],[32.73,19.7],[32.15,19.13],[31.57,18.56],[30.97,17.99],[30.37,17.42],[29.77,16.85],[29.18,16.27],[28.49,15.74],[27.8,15.21],[27.12,14.68],[26.44,14.15],[25.66,13.59],[24.89,13.03],[24.13,12.47],[23.36,11.91],[22.6,11.34],[21.92,10.87],[21.23,10.4],[20.55,9.93],[20.55,9.93],[19.76,10.36],[18.97,10.8],[18.17,11.23],[17.37,11.66],[17.05,11.9],[17.05,11.9],[17.71,12.49],[18.38,13.08],[18.84,13.88],[19.31,14.67],[19.79,15.46],[20.26,16.25],[20.74,17.04],[20.54,17.2],[21.09,17.98],[21.64,18.77],[21.48,18.81],[22.04,19.63],[22.6,20.46],[22.39,20.6],[22.78,21.15],[23.17,21.7],[24.02,22.2],[24.87,22.7],[25.73,23.19],[25.73,23.19],[26.76,23.27],[27.79,23.34],[28.82,23.4],[29.85,23.46],[30.88,23.51],[31.91,23.55],[32.94,23.59],[33.98,23.62],[35.01,23.65],[36.04,23.66]]]}},{"type":"Feature","properties":{"ma":195,"type":"gpml:TopologicalClosedPlateBoundary","name":"AlKaPeCa","pid":329,"deforming":false},"geometry":{"type":"Polygon","coordinates":[[[14.11,6.32],[13.3,6.02],[12.49,5.73],[11.69,5.43],[10.88,5.13],[10.07,4.83],[9.18,4.6],[8.28,4.38],[7.39,4.15],[6.49,3.93],[6.49,3.93],[5.8,4.37],[5.11,4.82],[5.09,4.83],[5.09,4.83],[5.9,5.03],[6.71,5.23],[7.52,5.42],[8.33,5.62],[9.2,5.92],[10.07,6.21],[10.94,6.51],[10.97,7.21],[11.88,7.57],[12.79,7.93],[13.69,8.28],[13.69,8.28],[13.87,7.34],[14.05,6.39],[14.11,6.32]]]}},{"type":"Feature","properties":{"ma":195,"type":"gpml:TopologicalNetwork","name":"Central_Atlantic_Mesh","pid":101,"deforming":true},"geometry":{"type":"Polygon","coordinates":[[[-1.27,8.84],[-0.92,8.49],[-0.56,8.14],[-0.31,7.95],[0.11,7.63],[0.22,7.54],[0.22,7.54],[0.22,7.54],[0.22,7.54],[0.22,7.54],[0.22,7.54],[0.09,7.48],[-0.33,7.35],[-0.96,7.16],[-1.57,6.98],[-2.29,6.76],[-2.91,6.57],[-3.43,6.41],[-3.91,6.26],[-4.47,6.09],[-5.1,5.89],[-5.64,6.1],[-6.22,6.23],[-6.55,6.42],[-6.86,6.6],[-7.35,6.81],[-7.78,7.11],[-8.38,7.3],[-8.83,7.26],[-9.5,7.03],[-10.33,6.96],[-11.06,6.84],[-11.61,6.59],[-12.53,6.34],[-12.98,6.04],[-13.78,5.68],[-14.52,5.4],[-15.07,5.52],[-15.22,5.62],[-15.73,5.66],[-16.68,5.74],[-17.56,5.93],[-17.7,5.85],[-18.18,5.65],[-18.67,5.46],[-19.03,5.04],[-19.39,4.61],[-19.67,4.18],[-19.94,3.76],[-20.2,3.15],[-20.56,2.63],[-20.97,2.09],[-21.18,1.9],[-21.45,1.67],[-21.59,1.25],[-21.69,0.81],[-21.78,0.03],[-22.03,-0.39],[-22.26,-0.74],[-22.57,-0.94],[-22.77,-1.21],[-22.93,-1.46],[-23.15,-1.8],[-23.59,-1.76],[-24.01,-1.74],[-24.63,-1.99],[-25.03,-2.28],[-25.31,-2.64],[-25.53,-3.41],[-25.77,-4.29],[-25.78,-4.62],[-25.78,-4.62],[-26.03,-4.48],[-26.03,-4.48],[-26.09,-4.76],[-26.52,-5.31],[-26.96,-5.86],[-26.96,-5.86],[-27.02,-5.83],[-27.23,-5.73],[-27.56,-5.47],[-27.81,-5.3],[-27.96,-5.1],[-27.97,-4.84],[-28.02,-4.56],[-27.96,-4.31],[-27.96,-4.06],[-28.08,-3.77],[-28.09,-3.61],[-28.05,-3.51],[-28.09,-3.31],[-28.18,-3.21],[-28.3,-3.09],[-28.37,-2.94],[-28.56,-2.67],[-28.79,-2.34],[-28.93,-2.11],[-28.88,-1.86],[-28.76,-1.51],[-28.76,-1.33],[-28.96,-1.21],[-29.07,-0.93],[-29.17,-0.79],[-29.3,-0.76],[-29.44,-0.41],[-29.55,-0.06],[-29.7,0.27],[-29.75,0.64],[-29.88,1.01],[-30.01,1.38],[-30.06,1.59],[-30.09,1.84],[-30.13,2.07],[-30.13,2.07],[-30.09,2.11],[-29.71,2.41],[-29.33,2.69],[-29.2,2.88],[-28.87,2.96],[-28.55,3.03],[-28.03,3.16],[-27.4,3.27],[-26.77,3.38],[-26.2,3.79],[-25.73,4.22],[-25.49,4.97],[-25.3,5.58],[-24.67,5.87],[-23.88,6.38],[-23.53,6.67],[-23.03,7.12],[-22.53,7.57],[-22.25,8],[-22.06,8.44],[-21.65,8.58],[-21.51,8.68],[-21.27,8.65],[-20.97,8.56],[-20.69,8.54],[-20.22,8.66],[-19.98,8.69],[-19.8,8.68],[-19.48,8.93],[-19.14,9.19],[-18.67,9.3],[-18.31,9.6],[-18.09,10.16],[-17.84,10.24],[-17.46,10.09],[-16.93,10.33],[-16.46,10.34],[-15.7,10.37],[-14.9,10.49],[-14.39,10.61],[-13.6,10.72],[-13.08,11],[-12.38,11.38],[-11.79,11.62],[-11.23,11.73],[-10.6,11.84],[-10.26,11.86],[-9.78,11.74],[-9.12,11.66],[-8.55,11.7],[-8.06,11.71],[-7.56,11.71],[-7.04,11.68],[-6.4,11.62],[-5.68,11.44],[-5.01,11.25],[-4.23,11.12],[-3.9,11.01],[-3.74,10.79],[-3.52,10.7],[-3.39,10.55],[-3.27,10.45],[-3.1,10.26],[-2.84,10.07],[-2.91,9.96],[-3.06,9.86],[-3.38,9.87],[-3.36,9.68],[-3.24,9.45],[-2.92,9.62],[-2.87,9.63],[-2.74,9.59],[-2.76,9.38],[-2.79,8.96],[-2.48,8.86],[-2.11,8.85],[-1.81,8.9],[-1.68,9.25],[-1.27,8.84]]]}},{"type":"Feature","properties":{"ma":195,"type":"gpml:TopologicalNetwork","name":"North_Atlantic_Phase1_Deformation_Mesh","pid":301,"deforming":true},"geometry":{"type":"Polygon","coordinates":[[[8.14,29.22],[8.19,29.11],[8.27,28.65],[8.46,28.18],[8.61,27.74],[8.79,27.17],[8.93,26.71],[8.95,26.47],[9.08,26.18],[9.17,25.93],[9.21,25.71],[9.23,25.51],[9.46,25.25],[9.67,25.13],[10.14,24.98],[10.51,25.05],[10.91,24.93],[11.15,24.67],[11.73,24.26],[11.98,23.75],[12.12,23.35],[12.19,22.8],[12.23,22.42],[12.4,22.12],[12.58,21.74],[12.77,21.52],[12.91,21.42],[13.1,21.25],[13.55,21.07],[14.09,20.84],[14.62,20.64],[15.19,20.39],[15.68,20.21],[15.98,20.05],[16.09,20.01],[16.38,19.91],[16.38,19.91],[16.24,19.58],[15.98,19.15],[15.74,18.77],[15.54,18.46],[15.33,18.13],[15.09,17.7],[14.75,17.55],[14.45,17.48],[14.17,17.47],[13.65,17.46],[13.12,17.54],[12.54,17.66],[12.22,17.83],[11.85,17.93],[11.4,18.02],[10.94,18.03],[10.51,17.97],[10.14,17.81],[9.8,17.71],[9.56,17.5],[9.41,17.28],[9.26,17.05],[9.04,16.83],[8.79,16.53],[8.35,16.14],[7.83,15.73],[7.5,15.53],[7.2,15.22],[6.61,14.92],[6.2,14.67],[6.04,14.37],[6.04,14.37],[5.79,14.19],[5.25,13.81],[4.69,13.68],[4.03,13.57],[3.52,13.49],[3.26,13.4],[3.26,13.4],[3.22,13.34],[3.1,13.19],[3.02,12.98],[2.93,12.81],[2.82,12.68],[2.77,12.55],[2.69,12.34],[2.61,12.08],[2.5,11.81],[2.33,11.53],[2.19,11.22],[2.06,10.88],[1.92,10.68],[1.69,10.3],[1.5,10.08],[1.11,9.77],[0.76,9.34],[0.64,9.1],[0.58,8.78],[0.5,8.38],[0.29,8.03],[0.07,7.82],[-0.02,7.73],[-0.02,7.73],[-0.31,7.95],[-0.56,8.14],[-0.92,8.49],[-1.27,8.84],[-1.68,9.25],[-1.7,9.28],[-1.7,9.28],[-1.67,9.31],[-1.55,9.43],[-1.35,9.64],[-1.32,9.77],[-1.29,9.92],[-1.29,10.09],[-1.3,10.23],[-1.22,10.4],[-1.17,10.51],[-0.93,10.73],[-0.76,10.88],[-0.64,10.99],[-0.52,11.12],[-0.39,11.26],[-0.27,11.47],[-0.23,11.54],[-0.15,11.6],[-0.03,11.7],[0.03,11.77],[0.1,11.85],[0.21,11.97],[0.25,12.02],[0.32,12.07],[0.35,12.1],[0.42,12.11],[0.51,12.12],[0.58,12.16],[0.58,12.16],[0.56,12.22],[0.55,12.28],[0.52,12.45],[0.52,12.45],[0.52,12.45],[0.51,12.44],[0.42,12.32],[0.35,12.23],[0.29,12.16],[0.24,12.08],[0.17,12.02],[0.1,11.95],[-0.03,11.83],[-0.15,11.73],[-0.27,11.61],[-0.35,11.51],[-0.41,11.38],[-0.5,11.24],[-0.58,11.16],[-0.71,11.07],[-0.83,11],[-0.92,10.92],[-1,10.82],[-1.12,10.72],[-1.2,10.69],[-1.29,10.65],[-1.53,10.56],[-1.71,10.59],[-1.71,10.59],[-1.52,10.71],[-1.37,10.79],[-1.23,10.85],[-1.15,10.93],[-1.02,11.03],[-0.9,11.16],[-0.78,11.28],[-0.69,11.41],[-0.58,11.58],[-0.46,11.76],[-0.35,11.92],[-0.28,12.08],[-0.14,12.3],[-0.08,12.53],[-0.15,12.71],[-0.22,12.85],[-0.3,13],[-0.4,13.14],[-0.49,13.23],[-0.6,13.35],[-0.67,13.42],[-0.77,13.51],[-0.93,13.62],[-0.93,13.62],[-0.97,13.75],[-1.01,13.95],[-1.05,14.08],[-1.08,14.29],[-1.04,14.58],[-1,14.84],[-0.98,15.22],[-0.99,15.59],[-1.06,15.89],[-1.09,16.01],[-1.09,16.01],[-1,16.54],[-0.8,17.25],[-0.43,17.97],[-0.09,18.35],[0.18,18.89],[0.72,19.55],[1.16,19.97],[1.5,20.46],[1.84,20.96],[2.04,21.65],[2.24,22.33],[2.09,23.01],[1.74,23.51],[1.4,24],[1.53,24.81],[1.89,24.94],[2.62,25.24],[3.3,25.65],[3.76,26.05],[4.33,26.36],[4.75,26.76],[5.4,27.26],[5.74,27.83],[5.85,28.19],[6.07,28.91],[6.43,29.49],[6.86,30.12],[7.13,30.44],[7.4,30.95],[7.37,31.13],[7.06,31.46],[7.04,31.52],[7.07,32.19],[7.11,32.44],[7.16,32.58],[6.95,32.79],[6.75,32.86],[6.42,33.04],[6.32,33.21],[6.3,33.44],[6.33,33.62],[6.37,33.78],[6.37,33.97],[6.33,34.18],[6.29,34.36],[6.36,34.52],[6.48,34.68],[6.65,34.91],[6.86,35.33],[7.29,35.69],[7.42,35.84],[7.58,36.13],[7.65,36.38],[7.67,36.73],[7.65,36.91],[7.64,37.11],[7.71,37.31],[7.83,37.45],[8,37.89],[8.22,38.41],[8.46,38.61],[8.56,38.71],[8.56,38.71],[8.56,38.7],[8.53,38.56],[8.53,38.56],[8.57,38.51],[8.42,38.18],[8.42,37.93],[8.4,37.66],[8.3,37.14],[8.32,36.85],[8.36,36.47],[8.42,36.27],[8.52,35.9],[8.45,35.56],[8.25,35.38],[8.1,35.18],[7.91,34.98],[7.87,34.75],[7.73,34.51],[7.68,34.35],[7.55,34.16],[7.54,34],[7.64,33.86],[7.79,33.7],[8.02,33.51],[8.19,33.23],[8.31,33.04],[8.46,32.81],[8.5,32.56],[8.43,32.35],[8.26,32.08],[8.33,31.93],[8.39,31.81],[8.48,31.55],[8.59,31.44],[8.74,31.29],[8.73,31.23],[8.69,31.08],[8.65,31.01],[8.58,30.91],[8.56,30.87],[8.45,30.63],[8.32,30.48],[8.19,30.18],[8.17,29.95],[8.16,29.72],[8.15,29.57],[8.17,29.41],[8.17,29.3],[8.14,29.22]]]}},{"type":"Feature","properties":{"ma":195,"type":"gpml:TopologicalNetwork","name":"Proto_Caribbean_Mesh","pid":101,"deforming":true},"geometry":{"type":"Polygon","coordinates":[[[-30.81,1.45],[-30.51,1.74],[-30.13,2.07],[-30.13,2.07],[-30.09,1.84],[-30.06,1.59],[-30.01,1.38],[-29.88,1.01],[-29.75,0.64],[-29.7,0.27],[-29.55,-0.06],[-29.44,-0.41],[-29.3,-0.76],[-29.17,-0.79],[-29.07,-0.93],[-28.96,-1.21],[-28.76,-1.33],[-28.76,-1.51],[-28.88,-1.86],[-28.93,-2.11],[-28.79,-2.34],[-28.56,-2.67],[-28.37,-2.94],[-28.3,-3.09],[-28.18,-3.21],[-28.09,-3.31],[-28.05,-3.51],[-28.09,-3.61],[-28.08,-3.77],[-27.96,-4.06],[-27.96,-4.31],[-28.02,-4.56],[-27.97,-4.84],[-27.96,-5.1],[-27.81,-5.3],[-27.56,-5.47],[-27.23,-5.73],[-27.02,-5.83],[-26.96,-5.86],[-26.96,-5.86],[-27.11,-6.05],[-27.91,-6.23],[-28.71,-6.4],[-29.51,-6.57],[-30.12,-6.76],[-30.73,-6.95],[-31.3,-6.92],[-31.87,-6.89],[-32.39,-6.83],[-32.9,-6.77],[-33.78,-6.46],[-34.56,-6.36],[-35.33,-6.25],[-36,-6.13],[-36.67,-6],[-37.34,-5.88],[-38.08,-6],[-38.83,-6.13],[-39.45,-6.6],[-40.08,-7.07],[-40.68,-7.15],[-41.29,-7.24],[-41.8,-7.35],[-42.32,-7.46],[-42.88,-7.53],[-43.45,-7.61],[-44.08,-7.82],[-44.71,-8.03],[-45.36,-8.38],[-46.01,-8.72],[-46.75,-9.08],[-47.49,-9.44],[-48.3,-9.6],[-49.12,-9.75],[-49.98,-9.51],[-50.84,-9.27],[-51.5,-8.91],[-52.16,-8.55],[-52.67,-8.33],[-53.18,-8.12],[-53.77,-8],[-54.35,-7.88],[-54.91,-7.97],[-55.46,-8.06],[-55.63,-8.04],[-55.63,-8.04],[-55.9,-7.55],[-56.17,-7.05],[-56.53,-6.41],[-56.9,-5.78],[-57.26,-5.14],[-57.54,-4.51],[-57.83,-3.88],[-58.05,-3.2],[-58.27,-2.52],[-58.49,-1.84],[-58.89,-1.21],[-59.3,-0.59],[-59.28,-0.43],[-59.28,-0.43],[-58.39,-0.32],[-57.45,-0.13],[-56.51,0.07],[-55.75,0.26],[-54.99,0.45],[-54.04,0.66],[-53.09,0.87],[-52.31,1.03],[-51.52,1.19],[-50.85,1.69],[-50.17,2.19],[-49.56,2.57],[-48.91,3.3],[-48.52,3.67],[-48.13,4.04],[-47.87,4.73],[-47.14,5.39],[-46.41,6.04],[-45.68,6.69],[-44.99,7.08],[-44.29,7.48],[-43.6,7.87],[-43.08,7.83],[-42.55,7.78],[-41.55,7.79],[-41.04,7.62],[-40.53,7.45],[-39.81,7.25],[-39.1,7.06],[-38.3,6.48],[-37.83,6.2],[-37.37,5.93],[-36.89,5.68],[-36.41,5.44],[-35.92,5.14],[-35.43,4.85],[-34.76,4.47],[-34.13,3.92],[-33.42,3.45],[-32.71,2.99],[-32.21,2.51],[-31.71,2.02],[-31.01,1.35],[-31,1.34],[-30.81,1.45]]]}},{"type":"Feature","properties":{"ma":195,"type":"gpml:TopologicalNetwork","name":"WEC","pid":601,"deforming":true},"geometry":{"type":"Polygon","coordinates":[[[105.56,51.95],[105.11,52.58],[104.6,53.01],[104.08,53.44],[103.1,54.13],[102.43,54.64],[101.74,55.14],[101.06,55.9],[100.86,56.76],[100.92,57.48],[101.04,58.33],[101.21,59.23],[101.35,59.9],[101.5,60.43],[101.65,60.87],[102.01,61.22],[102.35,61.54],[102.79,61.94],[103.2,62.46],[103.57,62.9],[104.02,63.42],[104.49,63.94],[104.98,64.45],[105.64,65.08],[106.32,65.71],[107.04,66.34],[108.08,67.17],[108.81,67.93],[109.58,68.68],[110.31,69.49],[110.86,70.07],[111.41,70.62],[111.99,71.17],[112.51,71.51],[112.51,71.51],[114.15,71.67],[116.38,71.87],[118.66,72.04],[121.79,72.23],[124.98,72.36],[126.84,72.42],[128.72,72.45],[131.37,72.48],[134.03,72.46],[136,72.43],[137.97,72.38],[140.07,72.3],[142.16,72.2],[144.58,72.05],[146.95,71.88],[149.14,71.69],[151.29,71.47],[153.39,71.23],[155.83,70.92],[158.19,70.57],[160.22,70.24],[162.19,69.88],[164.09,69.5],[164.09,69.5],[163.96,69.42],[162.48,68.71],[161.09,67.99],[159.78,67.26],[158.55,66.51],[157.42,65.76],[156.35,65],[155.34,64.23],[154.39,63.45],[153.41,62.72],[152.48,61.99],[151.59,61.24],[150.5,60.5],[149.46,59.74],[148.72,59.06],[148.01,58.38],[147.32,57.69],[146.5,56.99],[145.71,56.29],[144.94,55.58],[144.08,54.76],[143.25,53.94],[142.45,53.07],[141.69,52.19],[140.89,51.36],[140.12,50.53],[140.03,50.42],[140.03,50.42],[138.68,50.88],[137.31,51.33],[135.9,51.76],[134.47,52.17],[133.01,52.57],[131.53,52.94],[130.02,53.3],[128.49,53.64],[127.36,53.35],[126.25,53.04],[125.12,52.95],[124,52.85],[122.88,52.74],[122.66,52.25],[122.46,51.77],[121.38,51.87],[120.29,51.96],[119.2,52.05],[117.96,52.3],[116.71,52.54],[115.45,52.77],[114.01,52.86],[112.57,52.93],[110.95,52.75],[109.35,52.56],[107.85,52.3],[106.38,52.02],[105.56,51.95]]]}}]}