{"type":"FeatureCollection","features":[{"type":"Feature","properties":{"ma":210,"type":"gpml:TopologicalClosedPlateBoundary","name":"Izanagi Plate","pid":926,"deforming":false},"geometry":{"type":"MultiPolygon","coordinates":[[[[180,73.88],[180,72.89],[180,71.9],[180,70.91],[180,69.92],[180,68.93],[180,67.93],[180,66.94],[180,65.95],[180,64.96],[180,63.97],[180,62.98],[180,61.99],[180,61],[180,60.01],[180,59.01],[180,58.02],[180,57.03],[180,56.04],[180,55.05],[180,54.06],[180,53.07],[180,52.08],[180,51.09],[180,50.09],[180,49.1],[180,48.11],[180,47.12],[180,46.13],[180,45.14],[180,44.15],[180,43.16],[180,42.17],[180,41.17],[180,40.18],[180,39.19],[180,38.2],[180,37.21],[180,36.22],[180,35.23],[180,34.24],[180,33.25],[180,32.26],[180,31.26],[180,30.27],[180,29.28],[180,28.29],[180,27.3],[180,26.31],[180,25.32],[180,24.33],[180,23.34],[180,22.34],[180,21.35],[180,20.36],[180,19.37],[180,18.38],[180,17.39],[180,16.4],[180,15.41],[180,14.42],[180,13.42],[180,12.43],[180,11.44],[180,10.45],[180,9.46],[180,8.47],[180,7.48],[180,6.49],[180,5.5],[180,4.5],[180,3.51],[180,2.52],[180,1.53],[180,0.54],[180,-0.45],[180,-1.44],[180,-2.43],[180,-3.42],[180,-4.42],[180,-5.41],[180,-6.4],[180,-7.39],[179.13,-7.73],[178.26,-8.08],[177.39,-8.42],[176.52,-8.76],[175.64,-9.1],[174.76,-9.44],[173.89,-9.77],[173.01,-10.1],[172.13,-10.43],[171.24,-10.76],[170.36,-11.08],[169.47,-11.41],[169.06,-10.52],[168.66,-9.63],[168.26,-8.74],[167.35,-9.04],[166.45,-9.33],[165.55,-9.62],[164.64,-9.9],[163.73,-10.19],[162.82,-10.47],[161.91,-10.75],[161,-11.02],[160.08,-11.3],[159.17,-11.57],[158.25,-11.84],[157.33,-12.1],[156.41,-12.36],[155.48,-12.62],[154.56,-12.88],[153.63,-13.13],[153.19,-12.34],[152.75,-11.55],[152.32,-10.76],[151.89,-9.96],[151.45,-9.17],[150.64,-9.71],[149.83,-10.25],[149.01,-10.79],[148.19,-11.33],[147.37,-11.86],[146.55,-12.39],[145.72,-12.92],[144.88,-13.44],[144.05,-13.97],[143.21,-14.49],[142.36,-15],[141.52,-15.52],[140.66,-16.03],[139.81,-16.53],[138.95,-17.04],[138.08,-17.54],[137.21,-18.03],[136.34,-18.53],[135.45,-19.01],[135.23,-19.15],[135.23,-19.15],[134.93,-18.34],[134.64,-17.53],[134.34,-16.72],[134.05,-15.91],[133.77,-15.11],[133.48,-14.3],[133.48,-14.3],[132.58,-13.95],[131.69,-13.6],[130.8,-13.25],[129.91,-12.9],[129.03,-12.54],[128.15,-12.18],[127.26,-11.7],[126.37,-11.21],[125.48,-10.72],[124.6,-10.22],[123.72,-9.73],[122.84,-9.23],[121.97,-8.73],[121.05,-8.55],[120.12,-8.36],[119.2,-8.18],[118.28,-7.99],[117.36,-7.8],[116.44,-7.61],[115.53,-7.42],[114.61,-7.23],[114.61,-7.23],[114.91,-6.37],[115.22,-5.51],[115.52,-4.65],[115.82,-3.8],[116.12,-2.94],[116.42,-2.08],[116.72,-1.22],[117.04,-0.3],[117.36,0.62],[117.68,1.54],[118.17,2.09],[118.66,2.64],[119.15,3.2],[119.86,3.63],[120.57,4.06],[121.29,4.49],[122,4.92],[122.68,5.44],[123.36,5.95],[124.05,6.47],[124.73,6.98],[125.4,7.49],[126.07,8],[126.75,8.5],[127.42,9.01],[128.1,9.51],[128.26,10.5],[128.42,11.48],[128.58,12.47],[128.74,13.45],[128.47,14.32],[128.18,15.19],[127.9,16.06],[127.67,16.98],[127.43,17.9],[126.93,18.71],[126.42,19.52],[126.08,20.21],[125.75,20.9],[125.41,21.59],[124.6,22.07],[123.78,22.55],[122.96,23.02],[122.56,23.61],[122.16,24.19],[121.75,24.76],[120.76,24.76],[119.77,24.75],[118.77,24.74],[117.78,24.72],[116.79,24.69],[116.79,24.69],[117.39,25.32],[118,25.95],[118.62,26.58],[119.25,27.2],[119.88,27.83],[119.77,28.69],[119.66,29.55],[119.54,30.41],[119.43,31.27],[119.61,32.22],[119.8,33.17],[119.99,34.12],[120.19,35.07],[120.39,36.02],[120.59,36.97],[120.8,37.92],[121.02,38.87],[121.63,39.52],[122.26,40.17],[122.9,40.82],[123.55,41.46],[124.39,42.06],[125.24,42.66],[126.11,43.25],[127,43.84],[127.91,44.42],[127.91,44.42],[128.48,44.77],[129.46,45.09],[130.46,45.39],[131.46,45.69],[131.46,45.69],[131.75,46.22],[132.04,46.75],[132.73,47.53],[133.43,48.31],[134.15,49.09],[134.9,49.86],[135.67,50.62],[136.47,51.38],[137.29,52.14],[138.36,52.67],[139.45,53.18],[140.57,53.69],[141.72,54.19],[142.89,54.68],[144.31,55.03],[145.75,55.37],[147.22,55.69],[148.71,56],[150.22,56.28],[151.21,56.93],[152.22,57.56],[153.28,58.19],[154.37,58.81],[155.5,59.42],[156.64,60.08],[157.83,60.73],[159.06,61.36],[160.35,61.99],[161.69,62.6],[163.09,63.2],[164.54,63.79],[165.26,64.68],[166.03,65.56],[166.86,66.44],[167.75,67.32],[168.7,68.19],[169.73,69.06],[170.84,69.92],[172.05,70.77],[173.36,71.61],[174.79,72.45],[176.37,73.27],[178.09,74.08],[180,74.87],[180,73.88]]],[[[-180,-6.4],[-180,-5.41],[-180,-4.42],[-180,-3.42],[-180,-2.43],[-180,-1.44],[-180,-0.45],[-180,0.54],[-180,1.53],[-180,2.52],[-180,3.51],[-180,4.5],[-180,5.5],[-180,6.49],[-180,7.48],[-180,8.47],[-180,9.46],[-180,10.45],[-180,11.44],[-180,12.43],[-180,13.42],[-180,14.42],[-180,15.41],[-180,16.4],[-180,17.39],[-180,18.38],[-180,19.37],[-180,20.36],[-180,21.35],[-180,22.34],[-180,23.34],[-180,24.33],[-180,25.32],[-180,26.31],[-180,27.3],[-180,28.29],[-180,29.28],[-180,30.27],[-180,31.26],[-180,32.26],[-180,33.25],[-180,34.24],[-180,35.23],[-180,36.22],[-180,37.21],[-180,38.2],[-180,39.19],[-180,40.18],[-180,41.17],[-180,42.17],[-180,43.16],[-180,44.15],[-180,45.14],[-180,46.13],[-180,47.12],[-180,48.11],[-180,49.1],[-180,50.09],[-180,51.09],[-180,52.08],[-180,53.07],[-180,54.06],[-180,55.05],[-180,56.04],[-180,57.03],[-180,58.02],[-180,59.01],[-180,60.01],[-180,61],[-180,61.99],[-180,62.98],[-180,63.97],[-180,64.96],[-180,65.95],[-180,66.94],[-180,67.93],[-180,68.93],[-180,69.92],[-180,70.91],[-180,71.9],[-180,72.89],[-180,73.88],[-180,74.87],[-179.52,75.06],[-177.73,75.94],[-175.72,76.81],[-173.42,77.67],[-170.8,78.49],[-167.79,79.3],[-164.3,80.07],[-160.25,80.79],[-155.54,81.47],[-150.07,82.08],[-143.76,82.6],[-136.59,83.03],[-128.64,83.33],[-120.12,83.5],[-111.35,83.52],[-111.35,83.52],[-112.39,82.63],[-113.21,81.75],[-113.87,80.86],[-114.42,79.98],[-114.88,79.09],[-115.27,78.2],[-115.6,77.31],[-115.89,76.42],[-116.15,75.53],[-120,75.45],[-123.78,75.31],[-127.49,75.11],[-127.29,74.12],[-127.11,73.12],[-126.95,72.13],[-126.81,71.14],[-126.68,70.15],[-126.56,69.16],[-126.45,68.17],[-126.36,67.17],[-126.27,66.18],[-126.18,65.19],[-126.11,64.2],[-126.03,63.21],[-125.97,62.21],[-125.9,61.22],[-125.84,60.23],[-127.47,60.13],[-129.08,60.01],[-130.68,59.87],[-130.68,58.87],[-130.68,57.87],[-130.68,56.87],[-130.68,55.88],[-130.68,54.88],[-130.68,53.88],[-130.68,52.88],[-130.68,51.88],[-130.68,50.88],[-130.68,49.88],[-130.68,48.88],[-130.68,47.89],[-130.68,46.89],[-130.68,45.89],[-130.68,44.89],[-132.03,44.86],[-133.37,44.82],[-134.71,44.77],[-136.05,44.7],[-136.06,43.75],[-136.06,42.8],[-136.07,41.86],[-136.07,40.91],[-136.08,39.96],[-136.08,39.01],[-136.09,38.07],[-136.09,37.12],[-136.09,36.17],[-136.1,35.23],[-136.1,34.28],[-136.1,33.33],[-136.11,32.39],[-136.11,31.44],[-136.12,30.49],[-136.12,29.54],[-137.15,29.42],[-138.19,29.29],[-139.21,29.15],[-139.17,28.18],[-139.12,27.21],[-139.07,26.24],[-139.03,25.27],[-138.98,24.3],[-138.94,23.33],[-138.9,22.37],[-138.85,21.4],[-138.81,20.43],[-138.77,19.46],[-138.73,18.49],[-138.69,17.52],[-138.65,16.55],[-138.61,15.58],[-138.57,14.61],[-139.39,14.52],[-140.22,14.43],[-141.04,14.34],[-141.86,14.24],[-141.8,13.31],[-141.74,12.37],[-141.68,11.43],[-141.63,10.5],[-141.57,9.56],[-141.5,8.6],[-141.43,7.65],[-141.36,6.69],[-141.3,5.73],[-141.23,4.78],[-141.16,3.82],[-141.09,2.86],[-141.03,1.91],[-140.96,0.95],[-140.89,-0.01],[-140.83,-0.96],[-140.83,-0.96],[-141.72,-1.28],[-142.61,-1.6],[-143.5,-1.92],[-144.4,-2.23],[-145.29,-2.55],[-146.18,-2.87],[-147.08,-3.18],[-147.97,-3.49],[-148.86,-3.81],[-149.76,-4.12],[-150.66,-4.43],[-151.55,-4.74],[-152.45,-5.05],[-153.35,-5.36],[-154.25,-5.67],[-155.15,-5.97],[-155.51,-5.09],[-155.88,-4.22],[-156.24,-3.34],[-157.15,-3.73],[-158.07,-4.12],[-158.99,-4.51],[-159.91,-4.9],[-160.83,-5.29],[-161.75,-5.68],[-162.67,-6.06],[-163.59,-6.44],[-164.52,-6.83],[-165.44,-7.21],[-165.74,-6.3],[-166.04,-5.4],[-166.34,-4.5],[-167.25,-4.89],[-168.17,-5.27],[-169.09,-5.65],[-170.01,-6.03],[-170.93,-6.41],[-171.86,-6.78],[-172.78,-7.16],[-173.71,-7.53],[-174.64,-7.9],[-175.57,-8.27],[-175.9,-7.51],[-176.23,-6.76],[-176.56,-6],[-177.42,-6.35],[-178.28,-6.7],[-179.14,-7.04],[-180,-7.39],[-180,-6.4]]]]}},{"type":"Feature","properties":{"ma":210,"type":"gpml:TopologicalClosedPlateBoundary","name":"Junction Plate North","pid":498,"deforming":false},"geometry":{"type":"Polygon","coordinates":[[[113.09,-17.6],[113.1,-16.66],[113.12,-15.73],[113.14,-14.8],[113.16,-13.87],[113.18,-12.94],[113.2,-12.01],[113.22,-11.07],[113.23,-10.14],[113.25,-9.21],[113.27,-8.28],[113.29,-7.35],[113.34,-6.95],[113.34,-6.95],[114.3,-7.16],[115.25,-7.36],[116.21,-7.56],[117.17,-7.76],[118.13,-7.96],[119.08,-8.16],[120.04,-8.35],[121.01,-8.54],[121.97,-8.73],[122.84,-9.23],[123.72,-9.73],[124.6,-10.22],[125.48,-10.72],[126.37,-11.21],[127.26,-11.7],[128.15,-12.18],[129.03,-12.54],[129.91,-12.9],[130.8,-13.25],[131.69,-13.6],[132.58,-13.95],[133.48,-14.3],[133.48,-14.3],[133.81,-15.22],[134.14,-16.15],[134.47,-17.08],[134.81,-18.01],[135.15,-18.93],[135.5,-19.86],[135.85,-20.78],[135.84,-21.72],[135.84,-22.65],[135.83,-23.59],[135.83,-23.59],[134.78,-23.7],[133.73,-23.81],[132.68,-23.91],[131.63,-24.01],[130.58,-24.1],[129.52,-24.18],[128.46,-24.25],[128.39,-23.57],[128.33,-22.89],[127.36,-22.89],[126.4,-22.89],[125.44,-22.87],[124.48,-22.85],[123.52,-22.83],[122.56,-22.8],[121.59,-22.77],[121.51,-21.8],[121.42,-20.83],[121.34,-19.87],[121.26,-18.9],[121.17,-17.94],[120.16,-17.91],[119.15,-17.88],[118.14,-17.85],[117.13,-17.81],[116.12,-17.76],[115.1,-17.71],[114.09,-17.66],[113.09,-17.6]]]}},{"type":"Feature","properties":{"ma":210,"type":"gpml:TopologicalClosedPlateBoundary","name":"Mongol-Okhotsk Ocean","pid":380,"deforming":false},"geometry":{"type":"Polygon","coordinates":[[[-180,75.82],[-180,76.76],[-180,77.71],[-180,78.65],[-180,79.6],[-180,80.54],[-180,81.49],[-180,82.44],[-180,83.38],[-180,84.33],[-180,85.27],[-180,86.22],[-180,87.16],[-180,88.11],[-180,89.05],[-180,90],[180,90],[180,89.05],[180,88.11],[180,87.16],[180,86.22],[180,85.27],[180,84.33],[180,83.38],[180,82.44],[180,81.49],[180,80.54],[180,79.6],[180,78.65],[180,77.71],[180,76.76],[180,75.82],[180,74.87],[178.09,74.08],[176.37,73.27],[174.79,72.45],[173.36,71.61],[172.05,70.77],[170.84,69.92],[169.73,69.06],[168.7,68.19],[167.75,67.32],[166.86,66.44],[166.03,65.56],[165.26,64.68],[164.54,63.79],[163.09,63.2],[161.69,62.6],[160.35,61.99],[159.06,61.36],[157.83,60.73],[156.64,60.08],[155.5,59.42],[154.37,58.81],[153.28,58.19],[152.22,57.56],[151.21,56.93],[150.22,56.28],[148.71,56],[147.22,55.69],[145.75,55.37],[144.31,55.03],[142.89,54.68],[141.94,54.29],[141.01,53.89],[140.09,53.48],[138.45,53.56],[136.8,53.61],[135.15,53.64],[133.98,53.56],[132.89,53.03],[131.5,52.99],[130.11,52.93],[128.93,52.9],[127.74,52.86],[126.82,52.92],[125.91,52.98],[124.84,53.07],[123.77,53.15],[123.77,53.15],[122.67,52.86],[121.58,52.56],[120.03,52.38],[119.07,52.41],[118.1,52.43],[117.59,52.41],[116.78,51.66],[115.68,51.63],[114.35,51.88],[113.15,52.19],[111.93,52.5],[110.7,52.79],[109.45,53.07],[107.94,53.3],[106.42,53.52],[105.51,53.41],[104.6,53.29],[103.03,53.38],[102.15,53.25],[101.28,53.12],[100,52.68],[98.75,52.23],[97.41,51.82],[96.1,51.39],[94.73,51.15],[93.37,50.91],[91.87,50.86],[90.37,50.8],[89.07,50.76],[87.78,50.71],[86.48,50.64],[85.3,50.6],[84.12,50.55],[82.95,50.49],[82.95,50.49],[82.2,49.65],[81.48,48.8],[80.79,47.95],[80.12,47.1],[79.47,46.25],[78.83,45.39],[77.57,45.05],[76.32,44.71],[75.09,44.35],[73.87,43.97],[72.66,43.59],[71.62,43.28],[70.59,42.95],[69.57,42.62],[68.56,42.28],[68.56,42.28],[69.11,42.83],[69.68,43.39],[70.26,43.94],[71.02,44.58],[71.8,45.23],[72.59,45.86],[73.4,46.5],[74.24,47.12],[75.09,47.74],[75.81,48.41],[76.55,49.07],[77.31,49.73],[78.1,50.38],[78.9,51.03],[80.03,51.56],[81.2,52.08],[82.38,52.58],[83.6,53.08],[84.84,53.56],[86.11,54.03],[87.41,54.48],[88.74,54.92],[89.71,55.71],[90.72,56.49],[91.78,57.26],[92.88,58.02],[94.02,58.77],[95.22,59.51],[96.46,60.24],[97.77,60.95],[99.13,61.65],[100.56,62.34],[100.56,62.34],[98.95,62.82],[97.3,63.29],[95.59,63.73],[93.83,64.15],[92.01,64.55],[90.14,64.93],[88.67,65.66],[87.12,66.38],[85.47,67.08],[83.73,67.77],[81.89,68.43],[79.93,69.08],[77.86,69.7],[75.67,70.29],[73.41,70.6],[71.09,70.88],[68.71,71.13],[66.27,71.35],[63.78,71.53],[63.78,71.53],[62.99,72.44],[62.12,73.34],[61.16,74.25],[60.08,75.14],[58.86,76.03],[57.49,76.92],[55.92,77.79],[54.11,78.66],[52.01,79.51],[49.55,80.34],[46.63,81.16],[43.52,81.93],[39.77,82.68],[35.2,83.38],[29.59,84.04],[22.68,84.62],[14.25,85.11],[4.22,85.47],[-7.13,85.68],[-19.09,85.7],[-27.37,85.43],[-27.37,85.43],[-31.61,84.91],[-35.04,84.37],[-41.09,83.72],[-45.97,83.02],[-49.38,82.3],[-52.2,81.55],[-54.02,80.91],[-55.6,80.25],[-56.98,79.6],[-57.22,79.46],[-57.22,79.46],[-60.69,80.18],[-64.68,80.86],[-69.28,81.49],[-74.57,82.05],[-80.6,82.54],[-87.38,82.94],[-94.85,83.22],[-102.83,83.39],[-111.44,83.52],[-120.21,83.5],[-128.72,83.33],[-136.66,83.03],[-143.81,82.6],[-150.11,82.07],[-155.57,81.47],[-160.27,80.79],[-164.31,80.06],[-167.8,79.29],[-170.81,78.49],[-173.43,77.66],[-175.72,76.81],[-177.73,75.94],[-179.52,75.06],[-180,74.87],[-180,75.82]]]}},{"type":"Feature","properties":{"ma":210,"type":"gpml:TopologicalClosedPlateBoundary","name":"North America","pid":101,"deforming":false},"geometry":{"type":"Polygon","coordinates":[[[-46.28,54.5],[-47.18,54.94],[-48.09,55.37],[-49.03,55.8],[-50.04,56.42],[-51.07,57.04],[-52.14,57.64],[-53.25,58.24],[-54.49,58.91],[-55.78,59.58],[-57.12,60.24],[-57.98,60.78],[-58.86,61.32],[-58.86,61.32],[-57.46,61.85],[-56,62.37],[-54.68,62.73],[-53.32,63.08],[-51.93,63.42],[-49.95,63.78],[-47.91,64.1],[-46.49,64.35],[-45.03,64.59],[-43.56,64.81],[-41.81,65.19],[-40.01,65.56],[-38.15,65.9],[-36.74,66.25],[-35.29,66.59],[-33.8,66.91],[-31.78,67.11],[-29.72,67.27],[-27.64,67.41],[-25.27,67.82],[-22.82,68.18],[-20.96,68.64],[-19.03,69.06],[-17.01,69.47],[-17.01,69.47],[-16.15,68.66],[-15.34,67.83],[-14.58,67.01],[-13.88,66.18],[-13.43,65.35],[-13.01,64.52],[-12.61,63.69],[-12.23,62.85],[-12.23,62.85],[-12.76,62.86],[-12.76,62.86],[-12.27,62.03],[-11.81,61.21],[-11.37,60.38],[-10.95,59.54],[-10.56,58.71],[-10.18,57.87],[-9.78,57.05],[-9.4,56.22],[-9.04,55.4],[-8.69,54.57],[-8.36,53.74],[-7.98,53.04],[-7.61,52.34],[-7.26,51.63],[-7.7,51.03],[-7.31,50.09],[-6.92,49.15],[-6.55,48.2],[-6.2,47.26],[-5.86,46.31],[-5.95,45.32],[-6.04,44.34],[-6.13,43.35],[-6.22,42.36],[-5.31,42.14],[-4.41,41.92],[-3.51,41.68],[-2.43,41.52],[-1.36,41.35],[-0.29,41.17],[0.77,41.45],[1.84,41.71],[2.66,41.44],[3.48,41.16],[4.05,40.37],[4.61,39.58],[4.58,38.89],[4.54,38.19],[4.74,37.44],[4.94,36.68],[4.99,35.72],[5.05,34.76],[5.22,34],[5.38,33.24],[5.93,32.63],[6.22,32.06],[6.5,31.49],[6.61,30.96],[6.72,30.42],[6.61,29.77],[6.5,29.11],[6.19,28.55],[5.88,28],[5.49,27.27],[5.1,26.53],[4.55,25.95],[4.02,25.37],[3.13,24.89],[2.25,24.4],[1.86,23.61],[1.48,22.83],[1.11,22.04],[0.74,21.25],[0.33,20.4],[-0.06,19.55],[-0.46,18.71],[-0.68,17.92],[-0.92,17.54],[-0.4,16.8],[0.12,16.05],[0.63,15.3],[1.22,15.69],[1.81,14.99],[2.41,14.28],[2.99,13.58],[3.58,12.87],[3.17,12.21],[2.76,11.56],[2.35,10.9],[1.63,10.24],[0.91,9.58],[0.2,8.92],[-0.55,8.3],[-1.29,7.69],[-2.03,7.07],[-2.77,6.46],[-3.11,5.9],[-3.11,5.9],[-3.11,5.93],[-3.1,6.15],[-3.23,6.18],[-3.28,6.17],[-3.59,5.98],[-3.71,6.21],[-3.74,6.4],[-3.43,6.4],[-3.29,6.51],[-3.22,6.62],[-3.49,6.8],[-3.67,6.98],[-3.78,7.08],[-3.92,7.22],[-4.14,7.3],[-4.31,7.51],[-4.65,7.61],[-5.42,7.71],[-6.09,7.87],[-6.81,8.02],[-7.44,8.05],[-7.96,8.06],[-8.46,8.04],[-8.94,8.01],[-9.5,7.94],[-10.16,8],[-10.63,8.1],[-10.97,8.08],[-11.59,7.94],[-12.13,7.81],[-12.71,7.55],[-13.39,7.15],[-13.9,6.85],[-14.67,6.71],[-15.18,6.57],[-15.96,6.43],[-16.71,6.37],[-17.18,6.36],[-17.69,6.1],[-18.07,6.23],[-18.31,6.15],[-18.52,5.59],[-18.87,5.27],[-19.33,5.15],[-19.66,4.89],[-19.97,4.63],[-20.15,4.63],[-20.39,4.6],[-20.85,4.46],[-21.13,4.47],[-21.43,4.56],[-21.67,4.58],[-21.8,4.47],[-22.21,4.32],[-22.38,3.89],[-22.66,3.45],[-23.14,2.99],[-23.62,2.53],[-23.97,2.23],[-24.74,1.7],[-25.36,1.4],[-25.54,0.78],[-25.76,0.03],[-26.23,-0.41],[-26.79,-0.82],[-27.42,-0.94],[-28.05,-1.07],[-28.56,-1.2],[-28.87,-1.28],[-29.21,-1.36],[-29.33,-1.56],[-29.71,-1.84],[-30.09,-2.15],[-30.5,-2.52],[-30.8,-2.81],[-30.99,-2.93],[-30.99,-2.93],[-31,-2.92],[-31.71,-2.26],[-32.21,-1.77],[-32.71,-1.29],[-33.43,-0.84],[-34.15,-0.38],[-34.78,0.16],[-35.44,0.54],[-35.93,0.83],[-36.42,1.12],[-36.9,1.37],[-37.38,1.61],[-37.84,1.89],[-38.3,2.16],[-39.1,2.74],[-39.81,2.93],[-40.52,3.13],[-41.03,3.3],[-41.53,3.47],[-42.53,3.47],[-43.05,3.51],[-43.57,3.56],[-44.26,3.17],[-44.95,2.78],[-45.64,2.39],[-46.37,1.74],[-47.11,1.1],[-47.84,0.45],[-48.11,-0.24],[-48.5,-0.61],[-48.89,-0.97],[-49.55,-1.69],[-50.17,-2.06],[-50.85,-2.56],[-51.53,-3.05],[-52.32,-3.2],[-53.11,-3.34],[-54.06,-3.53],[-55.02,-3.72],[-55.78,-3.9],[-56.55,-4.08],[-57.5,-4.25],[-58.45,-4.43],[-59.34,-4.51],[-59.34,-4.51],[-59.26,-3.85],[-59.17,-3.18],[-59.02,-2.42],[-58.86,-1.67],[-58.7,-0.92],[-58.5,-0.12],[-58.3,0.67],[-58.1,1.47],[-57.82,2.18],[-57.55,2.9],[-57.27,3.62],[-56.87,3.98],[-56.47,4.34],[-55.93,4.79],[-55.39,5.24],[-54.94,5.72],[-54.5,6.19],[-54.46,6.26],[-54.46,6.26],[-54.53,7.1],[-54.6,7.95],[-54.67,8.8],[-54.74,9.64],[-54.81,10.49],[-54.92,11.44],[-55.03,12.39],[-55.14,13.34],[-55.25,14.29],[-55.36,15.24],[-55.48,16.18],[-55.59,17.13],[-55.63,17.91],[-55.66,18.68],[-55.69,19.45],[-55.72,20.22],[-55.31,21],[-54.9,21.77],[-54.49,22.54],[-54.07,23.31],[-53.65,24.08],[-53,24.81],[-52.35,25.53],[-51.69,26.25],[-51.02,26.97],[-50.48,27.52],[-49.94,28.06],[-49.39,28.61],[-49.39,28.61],[-48.97,29.48],[-48.55,30.35],[-48.11,31.22],[-47.92,32.21],[-47.72,33.19],[-47.51,34.17],[-47.3,35.15],[-47.08,36.14],[-46.86,37.12],[-46.7,38.02],[-46.54,38.93],[-46.37,39.83],[-46.2,40.74],[-46.03,41.64],[-45.85,42.55],[-45.66,43.45],[-45.86,44.38],[-46.07,45.31],[-46.29,46.24],[-46.51,47.16],[-47.18,47.87],[-47.87,48.58],[-47.63,49.52],[-47.38,50.46],[-47.12,51.39],[-46.85,52.33],[-46.56,53.27],[-46.42,53.88],[-46.28,54.5]]]}},{"type":"Feature","properties":{"ma":210,"type":"gpml:TopologicalClosedPlateBoundary","name":"Phoenix Plate","pid":919,"deforming":false},"geometry":{"type":"MultiPolygon","coordinates":[[[[180,-8.38],[180,-9.38],[180,-10.37],[180,-11.37],[180,-12.36],[180,-13.36],[180,-14.35],[180,-15.35],[180,-16.34],[180,-17.33],[180,-18.33],[180,-19.32],[180,-20.32],[180,-21.31],[180,-22.31],[180,-23.3],[180,-24.3],[180,-25.29],[180,-26.29],[180,-27.28],[180,-28.27],[180,-29.27],[180,-30.26],[180,-31.26],[180,-32.25],[180,-33.25],[180,-34.24],[180,-35.24],[180,-36.23],[180,-37.23],[180,-38.22],[180,-39.22],[180,-40.21],[180,-41.2],[180,-42.2],[180,-43.19],[180,-44.19],[180,-45.18],[180,-46.18],[180,-47.17],[180,-48.17],[180,-49.16],[180,-50.16],[180,-51.15],[180,-52.15],[180,-53.14],[180,-54.13],[180,-55.13],[180,-56.12],[180,-57.12],[180,-58.11],[180,-59.11],[180,-60.1],[180,-61.1],[180,-62.09],[180,-63.09],[180,-64.08],[180,-65.08],[180,-66.07],[180,-67.06],[180,-68.06],[180,-69.05],[180,-70.05],[180,-71.04],[180,-72.04],[180,-73.03],[176.71,-72.91],[173.47,-72.74],[170.3,-72.52],[167.22,-72.24],[164.58,-72.11],[161.98,-71.94],[159.44,-71.73],[156.95,-71.5],[154.53,-71.23],[154.53,-71.23],[153.95,-70.41],[153.4,-69.59],[152.9,-68.77],[151.6,-67.94],[151.91,-67.43],[152.97,-66.52],[153.96,-65.61],[154.82,-64.68],[155.63,-63.75],[155.92,-63.19],[156.2,-62.63],[156.08,-62.04],[155.97,-61.46],[155.31,-60.7],[154.67,-59.93],[154.07,-59.16],[153.5,-58.39],[152.75,-57.5],[152.04,-56.61],[151.36,-55.72],[150.71,-54.82],[150.09,-53.92],[149.93,-53.05],[149.78,-52.17],[149.62,-51.3],[149.48,-50.43],[149.34,-49.56],[149.12,-48.76],[148.9,-47.96],[148.69,-47.16],[148.49,-46.37],[148.29,-45.57],[148.15,-44.83],[148.01,-44.09],[147.88,-43.35],[147.88,-43.35],[146.82,-42.8],[145.78,-42.24],[144.75,-41.67],[143.75,-41.09],[142.63,-40.68],[141.52,-40.27],[140.9,-40],[140.27,-39.74],[139.83,-39.27],[139.38,-38.81],[138.91,-38.16],[138.44,-37.52],[137.76,-36.77],[137.08,-36.01],[136.42,-35.25],[135.77,-34.49],[135.77,-33.51],[135.78,-32.53],[135.78,-31.55],[135.79,-30.57],[135.8,-29.59],[135.8,-28.61],[135.81,-27.64],[135.81,-26.66],[135.82,-25.68],[135.83,-24.7],[135.83,-23.72],[135.84,-22.74],[135.84,-21.76],[135.85,-20.78],[135.54,-19.97],[135.23,-19.15],[135.23,-19.15],[135.45,-19.01],[136.34,-18.53],[137.21,-18.03],[138.08,-17.54],[138.95,-17.04],[139.81,-16.53],[140.66,-16.03],[141.52,-15.52],[142.36,-15],[143.21,-14.49],[144.05,-13.97],[144.88,-13.44],[145.72,-12.92],[146.55,-12.39],[147.37,-11.86],[148.19,-11.33],[149.01,-10.79],[149.83,-10.25],[150.64,-9.71],[151.45,-9.17],[151.89,-9.96],[152.32,-10.76],[152.75,-11.55],[153.19,-12.34],[153.63,-13.13],[154.56,-12.88],[155.48,-12.62],[156.41,-12.36],[157.33,-12.1],[158.25,-11.84],[159.17,-11.57],[160.08,-11.3],[161,-11.02],[161.91,-10.75],[162.82,-10.47],[163.73,-10.19],[164.64,-9.9],[165.55,-9.62],[166.45,-9.33],[167.35,-9.04],[168.26,-8.74],[168.66,-9.63],[169.06,-10.52],[169.47,-11.41],[170.36,-11.08],[171.24,-10.76],[172.13,-10.43],[173.01,-10.1],[173.89,-9.77],[174.76,-9.44],[175.64,-9.1],[176.52,-8.76],[177.39,-8.42],[178.26,-8.08],[179.13,-7.73],[180,-7.39],[180,-8.38]]],[[[-180,-72.04],[-180,-71.04],[-180,-70.05],[-180,-69.05],[-180,-68.06],[-180,-67.06],[-180,-66.07],[-180,-65.08],[-180,-64.08],[-180,-63.09],[-180,-62.09],[-180,-61.1],[-180,-60.1],[-180,-59.11],[-180,-58.11],[-180,-57.12],[-180,-56.12],[-180,-55.13],[-180,-54.13],[-180,-53.14],[-180,-52.15],[-180,-51.15],[-180,-50.16],[-180,-49.16],[-180,-48.17],[-180,-47.17],[-180,-46.18],[-180,-45.18],[-180,-44.19],[-180,-43.19],[-180,-42.2],[-180,-41.2],[-180,-40.21],[-180,-39.22],[-180,-38.22],[-180,-37.23],[-180,-36.23],[-180,-35.24],[-180,-34.24],[-180,-33.25],[-180,-32.25],[-180,-31.26],[-180,-30.26],[-180,-29.27],[-180,-28.27],[-180,-27.28],[-180,-26.29],[-180,-25.29],[-180,-24.3],[-180,-23.3],[-180,-22.31],[-180,-21.31],[-180,-20.32],[-180,-19.32],[-180,-18.33],[-180,-17.33],[-180,-16.34],[-180,-15.35],[-180,-14.35],[-180,-13.36],[-180,-12.36],[-180,-11.37],[-180,-10.37],[-180,-9.38],[-180,-8.38],[-180,-7.39],[-179.14,-7.04],[-178.28,-6.7],[-177.42,-6.35],[-176.56,-6],[-176.23,-6.76],[-175.9,-7.51],[-175.57,-8.27],[-174.64,-7.9],[-173.71,-7.53],[-172.78,-7.16],[-171.86,-6.78],[-170.93,-6.41],[-170.01,-6.03],[-169.09,-5.65],[-168.17,-5.27],[-167.25,-4.89],[-166.34,-4.5],[-166.04,-5.4],[-165.74,-6.3],[-165.44,-7.21],[-164.52,-6.83],[-163.59,-6.44],[-162.67,-6.06],[-161.75,-5.68],[-160.83,-5.29],[-159.91,-4.9],[-158.99,-4.51],[-158.07,-4.12],[-157.15,-3.73],[-156.24,-3.34],[-155.88,-4.22],[-155.51,-5.09],[-155.15,-5.97],[-154.25,-5.67],[-153.35,-5.36],[-152.45,-5.05],[-151.55,-4.74],[-150.66,-4.43],[-149.76,-4.12],[-148.86,-3.81],[-147.97,-3.49],[-147.08,-3.18],[-146.18,-2.87],[-145.29,-2.55],[-144.4,-2.23],[-143.5,-1.92],[-142.61,-1.6],[-141.72,-1.28],[-140.83,-0.96],[-140.83,-0.96],[-140.8,-1.39],[-140.8,-1.39],[-139.99,-1.93],[-139.19,-2.47],[-138.38,-3.01],[-137.57,-3.55],[-136.76,-4.1],[-135.95,-4.64],[-135.14,-5.17],[-134.33,-5.71],[-133.51,-6.25],[-132.7,-6.78],[-131.88,-7.32],[-131.06,-7.85],[-130.24,-8.38],[-129.41,-8.91],[-128.59,-9.44],[-127.76,-9.96],[-126.93,-10.49],[-126.09,-11.01],[-125.25,-11.53],[-124.41,-12.05],[-123.57,-12.56],[-122.72,-13.07],[-123.03,-13.84],[-123.34,-14.6],[-123.65,-15.36],[-123.97,-16.12],[-124.28,-16.89],[-123.34,-17.29],[-122.39,-17.68],[-121.44,-18.08],[-120.48,-18.46],[-119.52,-18.85],[-118.56,-19.22],[-117.59,-19.6],[-116.61,-19.97],[-115.63,-20.33],[-114.65,-20.68],[-113.66,-21.04],[-112.67,-21.38],[-111.67,-21.72],[-110.67,-22.05],[-109.66,-22.38],[-108.65,-22.7],[-108.91,-23.57],[-109.18,-24.44],[-109.44,-25.31],[-108.45,-25.64],[-107.45,-25.96],[-106.44,-26.27],[-105.43,-26.58],[-104.42,-26.87],[-103.39,-27.17],[-102.37,-27.45],[-101.34,-27.72],[-100.3,-27.99],[-99.26,-28.25],[-98.21,-28.51],[-97.16,-28.75],[-96.1,-28.99],[-95.04,-29.21],[-93.97,-29.43],[-94.04,-30.18],[-94.11,-30.93],[-94.19,-31.68],[-93.06,-31.98],[-91.93,-32.26],[-90.8,-32.54],[-89.65,-32.81],[-88.5,-33.06],[-87.34,-33.31],[-86.18,-33.54],[-85.01,-33.76],[-83.83,-33.97],[-82.65,-34.18],[-81.47,-34.36],[-80.27,-34.54],[-79.08,-34.71],[-77.88,-34.86],[-76.67,-35.01],[-75.46,-35.14],[-74.24,-35.25],[-73.03,-35.36],[-71.81,-35.46],[-70.58,-35.54],[-69.36,-35.61],[-68.13,-35.66],[-66.9,-35.71],[-65.72,-35.76],[-64.55,-35.79],[-63.37,-35.82],[-62.19,-35.83],[-61,-35.83],[-59.82,-35.82],[-58.64,-35.8],[-58.73,-36.17],[-58.77,-36.48],[-58.87,-36.87],[-58.95,-37.3],[-59.13,-38.16],[-59.31,-39.02],[-59.53,-39.78],[-59.75,-40.55],[-59.98,-41.31],[-60.21,-42.07],[-60.72,-42.81],[-61.25,-43.54],[-61.79,-44.28],[-62.34,-45.01],[-62.91,-45.74],[-63.08,-46.58],[-63.26,-47.41],[-63.42,-48.14],[-63.58,-48.87],[-64.15,-49.66],[-64.74,-50.44],[-64.88,-50.7],[-64.92,-50.83],[-64.92,-50.83],[-65.04,-51.15],[-65.04,-51.15],[-65.46,-51.7],[-65.77,-51.97],[-65.96,-52.32],[-66.11,-52.6],[-66.36,-53.04],[-66.55,-53.32],[-66.89,-53.81],[-67.13,-54.17],[-67.39,-54.56],[-67.64,-54.96],[-68.04,-55.59],[-68.21,-55.84],[-68.44,-56.18],[-68.65,-56.5],[-68.84,-56.79],[-69.05,-57.14],[-69.21,-57.43],[-69.35,-57.68],[-69.38,-57.76],[-69.46,-57.98],[-69.56,-58.26],[-69.67,-58.7],[-69.97,-59.01],[-70.35,-59.31],[-70.86,-59.67],[-71.43,-60.09],[-71.79,-60.36],[-72.08,-60.59],[-72.34,-60.78],[-72.73,-61.1],[-73.05,-61.53],[-73.18,-61.88],[-73.26,-62.2],[-73.35,-62.46],[-73.38,-62.76],[-73.42,-63.1],[-73.41,-63.48],[-73.36,-63.89],[-73.44,-64.2],[-73.53,-64.36],[-73.67,-64.69],[-73.85,-65.06],[-74,-65.42],[-74.09,-65.79],[-74.09,-65.86],[-73.94,-66.26],[-73.84,-66.36],[-73.84,-66.36],[-75.33,-67.07],[-76.91,-67.76],[-79.02,-68.27],[-81.23,-68.75],[-83.53,-69.2],[-85.93,-69.62],[-88.42,-70.01],[-90.62,-70.36],[-92.88,-70.68],[-95.22,-70.97],[-97.63,-71.22],[-99.71,-71.6],[-101.87,-71.95],[-104.11,-72.28],[-106.43,-72.59],[-108.96,-72.9],[-111.56,-73.18],[-114.25,-73.43],[-117.02,-73.64],[-119.83,-73.81],[-122.7,-73.95],[-125.61,-74.05],[-128.55,-74.11],[-131.83,-74.12],[-135.11,-74.09],[-138.36,-74.01],[-141.57,-73.88],[-144.73,-73.7],[-148.19,-73.61],[-151.6,-73.46],[-154.95,-73.26],[-158.21,-73.01],[-161.36,-72.7],[-164.39,-72.88],[-167.47,-73],[-170.59,-73.08],[-173.73,-73.11],[-176.87,-73.1],[-180,-73.03],[-180,-72.04]]]]}},{"type":"Feature","properties":{"ma":210,"type":"gpml:TopologicalClosedPlateBoundary","name":"Gondwana Plate","pid":701,"deforming":false},"geometry":{"type":"Polygon","coordinates":[[[180,-74.03],[180,-75.03],[180,-76.03],[180,-77.02],[180,-78.02],[180,-79.02],[180,-80.02],[180,-81.02],[180,-82.02],[180,-83.01],[180,-84.01],[180,-85.01],[180,-86.01],[180,-87.01],[180,-88],[180,-89],[180,-90],[-180,-90],[-180,-89],[-180,-88],[-180,-87.01],[-180,-86.01],[-180,-85.01],[-180,-84.01],[-180,-83.01],[-180,-82.02],[-180,-81.02],[-180,-80.02],[-180,-79.02],[-180,-78.02],[-180,-77.02],[-180,-76.03],[-180,-75.03],[-180,-74.03],[-180,-73.03],[-176.87,-73.1],[-173.73,-73.11],[-170.59,-73.08],[-167.47,-73],[-164.39,-72.88],[-161.36,-72.7],[-158.21,-73.01],[-154.95,-73.26],[-151.6,-73.46],[-148.19,-73.61],[-144.73,-73.7],[-141.57,-73.88],[-138.36,-74.01],[-135.11,-74.09],[-131.83,-74.12],[-128.55,-74.11],[-125.61,-74.05],[-122.7,-73.95],[-119.83,-73.81],[-117.02,-73.64],[-114.25,-73.43],[-111.56,-73.18],[-108.96,-72.9],[-106.43,-72.59],[-104.11,-72.28],[-101.87,-71.95],[-99.71,-71.6],[-97.63,-71.22],[-95.22,-70.97],[-92.88,-70.68],[-90.62,-70.36],[-88.42,-70.01],[-85.93,-69.62],[-83.53,-69.2],[-81.23,-68.75],[-79.02,-68.27],[-76.91,-67.76],[-75.33,-67.07],[-73.84,-66.36],[-73.84,-66.36],[-73.94,-66.26],[-74.09,-65.86],[-74.09,-65.79],[-74,-65.42],[-73.85,-65.06],[-73.67,-64.69],[-73.53,-64.36],[-73.44,-64.2],[-73.36,-63.89],[-73.41,-63.48],[-73.42,-63.1],[-73.38,-62.76],[-73.35,-62.46],[-73.26,-62.2],[-73.18,-61.88],[-73.05,-61.53],[-72.73,-61.1],[-72.34,-60.78],[-72.08,-60.59],[-71.79,-60.36],[-71.43,-60.09],[-70.86,-59.67],[-70.35,-59.31],[-69.97,-59.01],[-69.67,-58.7],[-69.56,-58.26],[-69.46,-57.98],[-69.38,-57.76],[-69.35,-57.68],[-69.21,-57.43],[-69.05,-57.14],[-68.84,-56.79],[-68.65,-56.5],[-68.44,-56.18],[-68.21,-55.84],[-68.04,-55.59],[-67.64,-54.96],[-67.39,-54.56],[-67.13,-54.17],[-66.89,-53.81],[-66.55,-53.32],[-66.36,-53.04],[-66.11,-52.6],[-65.96,-52.32],[-65.77,-51.97],[-65.46,-51.7],[-65.04,-51.15],[-65.04,-51.15],[-64.92,-50.83],[-64.92,-50.83],[-64.88,-50.7],[-64.74,-50.44],[-64.15,-49.66],[-63.58,-48.87],[-63.42,-48.14],[-63.26,-47.41],[-63.08,-46.58],[-62.91,-45.74],[-62.34,-45.01],[-61.79,-44.28],[-61.25,-43.54],[-60.72,-42.81],[-60.21,-42.07],[-59.98,-41.31],[-59.75,-40.55],[-59.53,-39.78],[-59.31,-39.02],[-59.13,-38.16],[-58.95,-37.3],[-58.87,-36.87],[-58.77,-36.48],[-58.73,-36.17],[-58.6,-35.61],[-58.5,-34.89],[-58.3,-34.44],[-58.02,-33.61],[-57.87,-33.13],[-57.87,-32.54],[-57.87,-32.54],[-57.87,-32.25],[-57.89,-31.89],[-57.85,-31.34],[-57.96,-30.59],[-58.02,-30.06],[-58.07,-29.53],[-58.61,-28.73],[-58.75,-28.04],[-58.9,-27.34],[-59.04,-26.65],[-59.22,-25.83],[-59.39,-25.01],[-59.56,-24.19],[-59.62,-23.33],[-59.67,-22.47],[-59.72,-21.6],[-59.77,-20.74],[-59.82,-19.88],[-59.87,-19.02],[-59.9,-18.16],[-59.92,-17.29],[-59.94,-16.42],[-59.56,-15.64],[-59.18,-14.85],[-58.81,-14.07],[-58.43,-13.29],[-58.06,-12.51],[-57.95,-12.24],[-57.85,-12.01],[-57.72,-11.75],[-57.55,-11.41],[-57.45,-11.22],[-57.36,-10.99],[-57.13,-10.65],[-56.93,-10.35],[-56.87,-10.27],[-56.87,-10.27],[-56.62,-10.72],[-56.38,-11.16],[-56.38,-11.16],[-56.14,-11.19],[-55.57,-11.11],[-55.01,-11.04],[-54.42,-11.17],[-53.84,-11.3],[-53.33,-11.53],[-52.82,-11.75],[-52.16,-12.13],[-51.5,-12.5],[-50.63,-12.76],[-49.77,-13.02],[-48.94,-12.88],[-48.11,-12.74],[-47.35,-12.39],[-46.6,-12.05],[-45.94,-11.71],[-45.27,-11.38],[-44.64,-11.17],[-44,-10.97],[-43.43,-10.9],[-42.86,-10.83],[-42.34,-10.73],[-41.81,-10.62],[-41.2,-10.55],[-40.59,-10.47],[-39.96,-10.01],[-39.32,-9.54],[-38.57,-9.42],[-37.82,-9.3],[-37.14,-9.43],[-36.47,-9.56],[-35.8,-9.69],[-35.02,-9.79],[-34.24,-9.89],[-33.34,-10.21],[-32.83,-10.28],[-32.31,-10.34],[-31.73,-10.37],[-31.15,-10.4],[-30.54,-10.21],[-29.93,-10.01],[-29.12,-9.84],[-28.31,-9.67],[-27.51,-9.49],[-27.06,-8.93],[-26.62,-8.36],[-26.62,-8.36],[-26.42,-8.49],[-26.05,-8.59],[-26.05,-8.59],[-26.05,-8.59],[-26.18,-8.31],[-26.17,-7.72],[-25.93,-6.84],[-25.71,-6.07],[-25.43,-5.71],[-25.04,-5.41],[-24.41,-5.16],[-23.99,-5.18],[-23.55,-5.22],[-23.33,-4.87],[-23.18,-4.62],[-22.98,-4.35],[-22.66,-4.15],[-22.44,-3.79],[-22.2,-3.37],[-22.11,-2.59],[-22.02,-2.15],[-21.88,-1.73],[-21.61,-1.49],[-21.4,-1.3],[-21,-0.76],[-20.64,-0.23],[-20.4,0.38],[-20.13,0.81],[-19.86,1.24],[-19.5,1.67],[-19.14,2.09],[-18.66,2.29],[-18.18,2.49],[-18.05,2.58],[-17.17,2.4],[-16.23,2.34],[-15.72,2.3],[-15.56,2.2],[-15.01,2.1],[-14.28,2.39],[-13.49,2.76],[-13.05,3.07],[-12.14,3.34],[-11.59,3.6],[-10.87,3.73],[-10.05,3.83],[-9.39,4.07],[-8.94,4.12],[-8.34,3.94],[-7.91,3.65],[-7.42,3.45],[-7.1,3.28],[-6.77,3.1],[-6.18,2.98],[-5.65,2.79],[-5.02,3],[-4.76,3.09],[-4.76,3.09],[-5.05,3.36],[-4.54,3.77],[-4.03,4.18],[-3.79,4.68],[-3.55,5.19],[-3.16,5.82],[-2.77,6.46],[-2.66,6.55],[-2.66,6.55],[-2.54,6.44],[-2.34,6.24],[-1.91,5.85],[-1.56,5.51],[-1.19,5.16],[-0.94,4.98],[-0.51,4.67],[0.24,4.14],[1.01,3.59],[1.68,3.3],[2.19,3.08],[2.7,2.86],[3.16,2.66],[3.63,2.46],[4.09,2.25],[4.56,2.03],[5.28,1.6],[6,1.17],[6,1.17],[6.85,1.43],[7.7,1.68],[8.56,1.94],[9.41,2.19],[10.23,2.54],[11.04,2.89],[11.86,3.25],[12.67,3.6],[13.49,3.95],[13.33,4.69],[13.18,5.42],[13.02,6.16],[13.73,6.85],[14.44,7.53],[15.16,8.22],[15.88,8.9],[16.6,9.58],[17.35,8.99],[18.11,8.39],[18.86,7.8],[19.61,7.2],[20.36,6.6],[21.1,6.01],[21.85,5.41],[22.59,4.8],[23.33,4.2],[24.07,3.6],[24.81,3],[25.4,3.46],[25.99,3.92],[26.74,3.27],[27.5,2.62],[28.25,1.97],[29,1.32],[29.76,0.66],[30.51,0.01],[31.26,-0.64],[31.8,-0.16],[32.34,0.32],[33.04,-0.34],[33.73,-1.01],[34.43,-1.67],[35.12,-2.34],[35.82,-3],[35.82,-3],[36.38,-2.29],[36.94,-1.58],[37.5,-0.87],[38.06,-0.17],[38.62,0.54],[39.18,1.25],[39.59,2.07],[39.59,2.07],[40.4,1.55],[41.21,1.04],[42.02,0.52],[42.83,0],[43.64,-0.51],[44.45,-1.03],[45.26,-1.55],[46.07,-2.06],[46.89,-2.58],[47.7,-3.09],[48.51,-3.61],[48.16,-4.38],[48.97,-4.79],[49.78,-5.21],[50.6,-5.62],[51.41,-6.03],[52.23,-6.44],[53.04,-6.85],[53.86,-7.26],[53.57,-8.14],[54.47,-8.54],[55.37,-8.94],[56.28,-9.34],[57.19,-9.74],[58.1,-10.13],[59.01,-10.52],[59.92,-10.91],[60.84,-11.29],[61.76,-11.67],[62.68,-12.05],[63.61,-12.43],[64.54,-12.8],[65.47,-13.17],[65.15,-13.99],[64.83,-14.81],[64.51,-15.63],[64.18,-16.44],[64.18,-16.44],[65.1,-16.86],[66.02,-17.26],[66.94,-17.67],[67.86,-18.07],[68.79,-18.46],[69.73,-18.85],[70.67,-19.24],[71.61,-19.62],[72.56,-19.99],[73.51,-20.36],[74.47,-20.73],[75.43,-21.09],[76.39,-21.45],[77.37,-21.8],[78.34,-22.14],[78.23,-22.64],[78.11,-23.15],[79.17,-23.31],[80.23,-23.46],[81.28,-23.6],[82.35,-23.74],[83.41,-23.87],[84.48,-23.99],[85.54,-24.11],[86.61,-24.24],[87.67,-24.36],[88.74,-24.48],[89.81,-24.59],[90.88,-24.69],[90.88,-24.69],[91.37,-23.8],[91.86,-22.91],[92.34,-22.02],[92.82,-21.13],[93.29,-20.23],[93.76,-19.34],[94.22,-18.44],[95.11,-18.82],[96,-19.19],[96.89,-19.55],[97.79,-19.92],[98.15,-19.17],[98.5,-18.42],[98.85,-17.67],[99.2,-16.92],[100.14,-17.07],[101.08,-17.22],[102.02,-17.37],[102.96,-17.51],[103.91,-17.65],[104.25,-16.81],[104.58,-15.98],[104.92,-15.15],[105.25,-14.31],[105.57,-13.48],[105.9,-12.64],[106.66,-12.82],[107.42,-12.99],[108.18,-13.16],[108.95,-13.33],[109.26,-12.44],[109.57,-11.56],[109.88,-10.66],[110.19,-9.77],[110.49,-8.88],[111.32,-9.03],[112.16,-9.18],[112.99,-9.33],[113.13,-8.62],[113.28,-7.91],[113.28,-7.91],[113.26,-8.88],[113.24,-9.85],[113.22,-10.82],[113.2,-11.79],[113.18,-12.75],[113.16,-13.72],[113.14,-14.69],[113.13,-15.66],[113.11,-16.63],[113.09,-17.6],[113.09,-17.6],[114.09,-17.66],[115.1,-17.71],[116.12,-17.76],[117.13,-17.81],[118.14,-17.85],[119.15,-17.88],[120.16,-17.91],[121.17,-17.94],[121.26,-18.9],[121.34,-19.87],[121.42,-20.83],[121.51,-21.8],[121.59,-22.77],[122.56,-22.8],[123.52,-22.83],[124.48,-22.85],[125.44,-22.87],[126.4,-22.89],[127.36,-22.89],[128.33,-22.89],[128.39,-23.57],[128.46,-24.25],[129.52,-24.18],[130.58,-24.1],[131.63,-24.01],[132.68,-23.91],[133.73,-23.81],[134.78,-23.7],[135.83,-23.59],[135.83,-23.59],[135.83,-24.58],[135.82,-25.57],[135.81,-26.56],[135.81,-27.55],[135.8,-28.54],[135.8,-29.53],[135.79,-30.52],[135.78,-31.51],[135.78,-32.5],[135.77,-33.49],[135.77,-34.49],[136.42,-35.25],[137.08,-36.01],[137.76,-36.77],[138.44,-37.52],[138.91,-38.16],[139.38,-38.81],[139.83,-39.27],[140.27,-39.74],[140.9,-40],[141.52,-40.27],[142.63,-40.68],[143.75,-41.09],[144.75,-41.67],[145.78,-42.24],[146.82,-42.8],[147.88,-43.35],[147.88,-43.35],[148.01,-44.09],[148.15,-44.83],[148.29,-45.57],[148.49,-46.37],[148.69,-47.16],[148.9,-47.96],[149.12,-48.76],[149.34,-49.56],[149.48,-50.43],[149.62,-51.3],[149.78,-52.17],[149.93,-53.05],[150.09,-53.92],[150.71,-54.82],[151.36,-55.72],[152.04,-56.61],[152.75,-57.5],[153.5,-58.39],[154.07,-59.16],[154.67,-59.93],[155.31,-60.7],[155.97,-61.46],[156.08,-62.04],[156.2,-62.63],[155.92,-63.19],[155.63,-63.75],[154.82,-64.68],[153.96,-65.61],[152.97,-66.52],[151.91,-67.43],[151.6,-67.94],[152.9,-68.77],[153.4,-69.59],[153.95,-70.41],[154.53,-71.23],[154.53,-71.23],[156.95,-71.5],[159.44,-71.73],[161.98,-71.94],[164.58,-72.11],[167.22,-72.24],[170.3,-72.52],[173.47,-72.74],[176.71,-72.91],[180,-73.03],[180,-74.03]]]}},{"type":"Feature","properties":{"ma":210,"type":"gpml:TopologicalClosedPlateBoundary","name":"Eurasia","pid":301,"deforming":false},"geometry":{"type":"Polygon","coordinates":[[[-31.61,84.91],[-27.37,85.43],[-19.09,85.7],[-7.13,85.68],[4.22,85.47],[14.25,85.11],[22.68,84.62],[29.59,84.04],[35.2,83.38],[39.77,82.68],[43.52,81.93],[46.63,81.16],[49.55,80.34],[52.01,79.51],[54.11,78.66],[55.92,77.79],[57.49,76.92],[58.86,76.03],[60.08,75.14],[61.16,74.25],[62.12,73.34],[62.99,72.44],[63.78,71.53],[63.78,71.53],[66.27,71.35],[68.71,71.13],[71.09,70.88],[73.41,70.6],[75.67,70.29],[77.86,69.7],[79.93,69.08],[81.89,68.43],[83.73,67.77],[85.47,67.08],[87.12,66.38],[88.67,65.66],[90.14,64.93],[92.01,64.55],[93.83,64.15],[95.59,63.73],[97.3,63.29],[98.95,62.82],[100.56,62.34],[100.56,62.34],[99.13,61.65],[97.77,60.95],[96.46,60.24],[95.22,59.51],[94.02,58.77],[92.88,58.02],[91.78,57.26],[90.72,56.49],[89.71,55.71],[88.74,54.92],[87.41,54.48],[86.11,54.03],[84.84,53.56],[83.6,53.08],[82.38,52.58],[81.2,52.08],[80.03,51.56],[78.9,51.03],[78.1,50.38],[77.31,49.73],[76.55,49.07],[75.81,48.41],[75.09,47.74],[74.24,47.12],[73.4,46.5],[72.59,45.86],[71.8,45.23],[71.02,44.58],[70.26,43.94],[69.51,43.22],[68.78,42.5],[68.07,41.78],[67.37,41.06],[66.69,40.32],[66.02,39.59],[65.37,38.85],[64.73,38.11],[64.1,37.36],[63.26,36.77],[62.44,36.17],[61.62,35.57],[60.82,34.96],[60.03,34.34],[59.25,33.72],[58.48,33.09],[57.72,32.46],[56.98,31.83],[56.36,31.15],[55.74,30.47],[55.74,30.47],[54.97,30.9],[54.2,31.33],[53.5,31.11],[52.8,30.89],[52.49,30.12],[52.18,29.35],[51.76,28.69],[51.34,28.03],[50.92,27.36],[49.98,26.92],[49.05,26.48],[48.12,26.03],[47.34,25.34],[46.57,24.64],[45.92,23.95],[45.27,23.25],[44.62,22.54],[44.25,21.78],[43.89,21.02],[43.58,20.31],[43.28,19.6],[43.14,19.09],[42.99,18.59],[42.67,18.02],[42.36,17.46],[41.69,17.16],[41.03,16.85],[40.36,16.55],[39.42,16.47],[38.48,16.39],[37.54,16.3],[36.6,16.01],[35.67,15.71],[34.99,15.5],[34.32,15.29],[33.64,15.08],[32.73,14.97],[31.82,14.85],[30.91,14.72],[30.01,14.85],[29.12,14.97],[28.22,15.09],[27.43,15.28],[26.65,15.47],[25.86,15.66],[25.07,15.85],[24.22,16.17],[23.38,16.49],[22.53,16.8],[21.67,17.11],[21.67,17.11],[21.21,16.44],[20.74,15.76],[20.28,15.08],[19.82,14.4],[19.37,13.72],[18.83,12.92],[18.31,12.12],[17.78,11.32],[17.25,10.52],[16.73,9.71],[16.11,9.12],[15.49,8.53],[14.87,7.94],[14.25,7.35],[13.63,6.76],[13.02,6.16],[13.18,5.42],[13.33,4.69],[13.49,3.95],[12.67,3.6],[11.86,3.25],[11.04,2.89],[10.23,2.54],[9.41,2.19],[8.56,1.94],[7.7,1.68],[6.85,1.43],[6,1.17],[6,1.17],[5.28,1.6],[4.56,2.03],[4.09,2.25],[3.63,2.46],[3.16,2.66],[2.7,2.86],[2.19,3.08],[1.68,3.3],[1.01,3.59],[0.24,4.14],[-0.51,4.67],[-0.94,4.98],[-1.19,5.16],[-1.56,5.51],[-1.91,5.85],[-2.34,6.24],[-2.54,6.44],[-2.66,6.55],[-2.66,6.55],[-1.95,7.15],[-1.23,7.74],[-0.52,8.33],[0.2,8.92],[0.91,9.58],[1.63,10.24],[2.35,10.9],[2.76,11.56],[3.17,12.21],[3.58,12.87],[2.99,13.58],[2.41,14.28],[1.81,14.99],[1.22,15.69],[0.63,15.3],[0.12,16.05],[-0.4,16.8],[-0.92,17.54],[-0.68,17.92],[-0.46,18.71],[-0.06,19.55],[0.33,20.4],[0.74,21.25],[1.11,22.04],[1.48,22.83],[1.86,23.61],[2.25,24.4],[3.13,24.89],[4.02,25.37],[4.55,25.95],[5.1,26.53],[5.49,27.27],[5.88,28],[6.19,28.55],[6.5,29.11],[6.61,29.77],[6.72,30.42],[6.61,30.96],[6.5,31.49],[6.22,32.06],[5.93,32.63],[5.38,33.24],[5.22,34],[5.05,34.76],[4.99,35.72],[4.94,36.68],[4.74,37.44],[4.54,38.19],[4.58,38.89],[4.61,39.58],[4.05,40.37],[3.48,41.16],[2.66,41.44],[1.84,41.71],[0.77,41.45],[-0.29,41.17],[-1.36,41.35],[-2.43,41.52],[-3.51,41.68],[-4.41,41.92],[-5.31,42.14],[-6.22,42.36],[-6.13,43.35],[-6.04,44.34],[-5.95,45.32],[-5.86,46.31],[-6.2,47.26],[-6.55,48.2],[-6.92,49.15],[-7.31,50.09],[-7.7,51.03],[-7.26,51.63],[-7.61,52.34],[-7.98,53.04],[-8.36,53.74],[-8.69,54.57],[-9.04,55.4],[-9.4,56.22],[-9.78,57.05],[-10.18,57.87],[-10.56,58.71],[-10.95,59.54],[-11.37,60.38],[-11.81,61.21],[-12.27,62.03],[-12.76,62.86],[-12.76,62.86],[-12.23,62.85],[-12.23,62.85],[-12.61,63.69],[-13.01,64.52],[-13.43,65.35],[-13.88,66.18],[-14.58,67.01],[-15.34,67.83],[-16.15,68.66],[-17.01,69.47],[-17.01,69.47],[-19.03,69.06],[-20.96,68.64],[-22.82,68.18],[-25.27,67.82],[-27.64,67.41],[-29.72,67.27],[-31.78,67.11],[-33.8,66.91],[-35.29,66.59],[-36.74,66.25],[-38.15,65.9],[-40.01,65.56],[-41.81,65.19],[-43.56,64.81],[-45.03,64.59],[-46.49,64.35],[-47.91,64.1],[-49.95,63.78],[-51.93,63.42],[-53.32,63.08],[-54.68,62.73],[-56,62.37],[-57.46,61.85],[-58.86,61.32],[-58.86,61.32],[-60.1,62.03],[-60.89,62.66],[-61.71,63.29],[-62.56,63.91],[-63.46,64.77],[-64.41,65.63],[-65.03,66.34],[-65.68,67.06],[-66.37,67.77],[-66.83,68.58],[-67.33,69.39],[-67.86,70.2],[-68.44,71],[-68.44,71],[-67.57,71.55],[-66.66,72.09],[-65.47,72.85],[-64.18,73.61],[-62.77,74.36],[-61.72,74.96],[-60.58,75.57],[-60.14,76.29],[-59.65,77],[-59.33,77.71],[-58.98,78.41],[-58.03,79.01],[-56.98,79.6],[-55.6,80.25],[-54.02,80.91],[-52.2,81.55],[-49.38,82.3],[-45.97,83.02],[-41.09,83.72],[-35.04,84.37],[-31.61,84.91]]]}},{"type":"Feature","properties":{"ma":210,"type":"gpml:TopologicalClosedPlateBoundary","name":"Cimmerian-Neotethys Plate","pid":505,"deforming":false},"geometry":{"type":"Polygon","coordinates":[[[113.13,-8.62],[112.99,-9.33],[112.16,-9.18],[111.32,-9.03],[110.49,-8.88],[110.19,-9.77],[109.88,-10.66],[109.57,-11.56],[109.26,-12.44],[108.95,-13.33],[108.18,-13.16],[107.42,-12.99],[106.66,-12.82],[105.9,-12.64],[105.57,-13.48],[105.25,-14.31],[104.92,-15.15],[104.58,-15.98],[104.25,-16.81],[103.91,-17.65],[102.96,-17.51],[102.02,-17.37],[101.08,-17.22],[100.14,-17.07],[99.2,-16.92],[98.85,-17.67],[98.5,-18.42],[98.15,-19.17],[97.79,-19.92],[96.89,-19.55],[96,-19.19],[95.11,-18.82],[94.22,-18.44],[93.76,-19.34],[93.29,-20.23],[92.82,-21.13],[92.34,-22.02],[91.86,-22.91],[91.37,-23.8],[90.88,-24.69],[90.88,-24.69],[89.81,-24.59],[88.74,-24.48],[87.67,-24.36],[86.61,-24.24],[85.54,-24.11],[84.48,-23.99],[83.41,-23.87],[82.35,-23.74],[81.28,-23.6],[80.23,-23.46],[79.17,-23.31],[78.11,-23.15],[78.23,-22.64],[78.34,-22.14],[77.37,-21.8],[76.39,-21.45],[75.43,-21.09],[74.47,-20.73],[73.51,-20.36],[72.56,-19.99],[71.61,-19.62],[70.67,-19.24],[69.73,-18.85],[68.79,-18.46],[67.86,-18.07],[66.94,-17.67],[66.02,-17.26],[65.1,-16.86],[64.18,-16.44],[64.18,-16.44],[64.51,-15.63],[64.83,-14.81],[65.15,-13.99],[65.47,-13.17],[64.54,-12.8],[63.61,-12.43],[62.68,-12.05],[61.76,-11.67],[60.84,-11.29],[59.92,-10.91],[59.01,-10.52],[58.1,-10.13],[57.19,-9.74],[56.28,-9.34],[55.37,-8.94],[54.47,-8.54],[53.57,-8.14],[53.86,-7.26],[53.04,-6.85],[52.23,-6.44],[51.41,-6.03],[50.6,-5.62],[49.78,-5.21],[48.97,-4.79],[48.16,-4.38],[48.51,-3.61],[47.7,-3.09],[46.89,-2.58],[46.07,-2.06],[45.26,-1.55],[44.45,-1.03],[43.64,-0.51],[42.83,0],[42.02,0.52],[41.21,1.04],[40.4,1.55],[39.59,2.07],[39.59,2.07],[39.18,1.25],[38.62,0.54],[38.06,-0.17],[37.5,-0.87],[36.94,-1.58],[36.38,-2.29],[35.82,-3],[35.82,-3],[35.12,-2.34],[34.43,-1.67],[33.73,-1.01],[33.04,-0.34],[32.34,0.32],[31.8,-0.16],[31.26,-0.64],[30.51,0.01],[29.76,0.66],[29,1.32],[28.25,1.97],[27.5,2.62],[26.74,3.27],[25.99,3.92],[25.4,3.46],[24.81,3],[24.07,3.6],[23.33,4.2],[22.59,4.8],[21.85,5.41],[21.1,6.01],[20.36,6.6],[19.61,7.2],[18.86,7.8],[18.11,8.39],[17.35,8.99],[16.6,9.58],[16.6,9.58],[16.73,9.71],[17.25,10.52],[17.78,11.32],[18.31,12.12],[18.83,12.92],[19.37,13.72],[19.82,14.4],[20.28,15.08],[20.74,15.76],[21.21,16.44],[21.67,17.11],[21.67,17.11],[22.53,16.8],[23.38,16.49],[24.22,16.17],[25.07,15.85],[25.86,15.66],[26.65,15.47],[27.43,15.28],[28.22,15.09],[29.12,14.97],[30.01,14.85],[30.91,14.72],[31.82,14.85],[32.73,14.97],[33.64,15.08],[34.32,15.29],[34.99,15.5],[35.67,15.71],[36.6,16.01],[37.54,16.3],[38.48,16.39],[39.42,16.47],[40.36,16.55],[41.03,16.85],[41.69,17.16],[42.36,17.46],[42.67,18.02],[42.99,18.59],[43.14,19.09],[43.28,19.6],[43.58,20.31],[43.89,21.02],[44.25,21.78],[44.62,22.54],[45.27,23.25],[45.92,23.95],[46.57,24.64],[47.34,25.34],[48.12,26.03],[49.05,26.48],[49.98,26.92],[50.92,27.36],[51.34,28.03],[51.76,28.69],[52.18,29.35],[52.49,30.12],[52.8,30.89],[53.5,31.11],[54.2,31.33],[54.97,30.9],[55.74,30.47],[55.74,30.47],[56.36,31.15],[56.98,31.83],[57.72,32.46],[58.48,33.09],[59.25,33.72],[60.03,34.34],[60.82,34.96],[61.62,35.57],[62.44,36.17],[63.26,36.77],[64.1,37.36],[64.8,38.2],[65.52,39.02],[66.25,39.84],[67,40.66],[67.77,41.47],[68.56,42.28],[68.56,42.28],[69.57,42.62],[70.59,42.95],[71.62,43.28],[72.66,43.59],[73.87,43.97],[75.09,44.35],[76.32,44.71],[77.57,45.05],[78.83,45.39],[79.47,46.25],[80.12,47.1],[80.79,47.95],[81.48,48.8],[82.2,49.65],[82.95,50.49],[82.95,50.49],[84.12,50.55],[85.3,50.6],[86.48,50.64],[87.78,50.71],[89.07,50.76],[90.37,50.8],[91.87,50.86],[93.37,50.91],[94.44,51.1],[95.52,51.29],[95.52,51.29],[94.3,50.71],[93.11,50.11],[91.96,49.5],[90.83,48.88],[89.72,48.25],[88.65,47.61],[87.6,46.96],[86.58,46.3],[85.59,45.74],[84.62,45.17],[83.66,44.59],[82.73,44],[81.81,43.41],[80.92,42.81],[80.04,42.2],[79.17,41.59],[79.17,41.59],[79.63,40.67],[80.08,39.75],[80.52,38.83],[80.94,37.9],[81.55,37.18],[82.15,36.46],[82.74,35.73],[83.32,35],[83.88,34.27],[84.76,33.66],[85.63,33.04],[86.49,32.42],[87.33,31.79],[88.16,31.15],[88.9,30.59],[89.63,30.03],[90.36,29.46],[91.07,28.88],[92.11,28.49],[93.14,28.09],[94.16,27.69],[95.18,27.27],[95.18,27.27],[96.11,26.98],[97.04,26.69],[97.96,26.39],[98.88,26.08],[99.87,25.8],[100.85,25.52],[101.83,25.22],[102.77,25.11],[103.72,24.99],[104.66,24.87],[105.6,24.74],[106.54,24.61],[107.5,24.52],[108.47,24.43],[109.43,24.32],[110.4,24.22],[111.36,24.11],[112.41,24.24],[113.47,24.36],[114.54,24.48],[115.6,24.58],[116.66,24.68],[117.68,24.71],[118.7,24.74],[119.72,24.75],[120.73,24.76],[121.75,24.76],[121.75,24.76],[122.16,24.19],[122.56,23.61],[122.96,23.02],[123.78,22.55],[124.6,22.07],[125.41,21.59],[125.75,20.9],[126.08,20.21],[126.42,19.52],[126.93,18.71],[127.43,17.9],[127.67,16.98],[127.9,16.06],[128.18,15.19],[128.47,14.32],[128.74,13.45],[128.58,12.47],[128.42,11.48],[128.26,10.5],[128.1,9.51],[127.42,9.01],[126.75,8.5],[126.07,8],[125.4,7.49],[124.73,6.98],[124.05,6.47],[123.36,5.95],[122.68,5.44],[122,4.92],[121.29,4.49],[120.57,4.06],[119.86,3.63],[119.15,3.2],[118.66,2.64],[118.17,2.09],[117.68,1.54],[117.36,0.62],[117.04,-0.3],[116.72,-1.22],[116.42,-2.08],[116.12,-2.94],[115.82,-3.8],[115.52,-4.65],[115.22,-5.51],[114.91,-6.37],[114.61,-7.23],[114.61,-7.23],[113.98,-7.09],[113.34,-6.95],[113.34,-6.95],[113.29,-7.35],[113.28,-7.91],[113.13,-8.62]]]}},{"type":"Feature","properties":{"ma":210,"type":"gpml:TopologicalClosedPlateBoundary","name":"Farallon Plate","pid":902,"deforming":false},"geometry":{"type":"Polygon","coordinates":[[[-58.64,-35.8],[-59.82,-35.82],[-61,-35.83],[-62.19,-35.83],[-63.37,-35.82],[-64.55,-35.79],[-65.72,-35.76],[-66.9,-35.71],[-68.13,-35.66],[-69.36,-35.61],[-70.58,-35.54],[-71.81,-35.46],[-73.03,-35.36],[-74.24,-35.25],[-75.46,-35.14],[-76.67,-35.01],[-77.88,-34.86],[-79.08,-34.71],[-80.27,-34.54],[-81.47,-34.36],[-82.65,-34.18],[-83.83,-33.97],[-85.01,-33.76],[-86.18,-33.54],[-87.34,-33.31],[-88.5,-33.06],[-89.65,-32.81],[-90.8,-32.54],[-91.93,-32.26],[-93.06,-31.98],[-94.19,-31.68],[-94.11,-30.93],[-94.04,-30.18],[-93.97,-29.43],[-95.04,-29.21],[-96.1,-28.99],[-97.16,-28.75],[-98.21,-28.51],[-99.26,-28.25],[-100.3,-27.99],[-101.34,-27.72],[-102.37,-27.45],[-103.39,-27.17],[-104.42,-26.87],[-105.43,-26.58],[-106.44,-26.27],[-107.45,-25.96],[-108.45,-25.64],[-109.44,-25.31],[-109.18,-24.44],[-108.91,-23.57],[-108.65,-22.7],[-109.66,-22.38],[-110.67,-22.05],[-111.67,-21.72],[-112.67,-21.38],[-113.66,-21.04],[-114.65,-20.68],[-115.63,-20.33],[-116.61,-19.97],[-117.59,-19.6],[-118.56,-19.22],[-119.52,-18.85],[-120.48,-18.46],[-121.44,-18.08],[-122.39,-17.68],[-123.34,-17.29],[-124.28,-16.89],[-123.97,-16.12],[-123.65,-15.36],[-123.34,-14.6],[-123.03,-13.84],[-122.72,-13.07],[-123.57,-12.56],[-124.41,-12.05],[-125.25,-11.53],[-126.09,-11.01],[-126.93,-10.49],[-127.76,-9.96],[-128.59,-9.44],[-129.41,-8.91],[-130.24,-8.38],[-131.06,-7.85],[-131.88,-7.32],[-132.7,-6.78],[-133.51,-6.25],[-134.33,-5.71],[-135.14,-5.17],[-135.95,-4.64],[-136.76,-4.1],[-137.57,-3.55],[-138.38,-3.01],[-139.19,-2.47],[-139.99,-1.93],[-140.8,-1.39],[-140.8,-1.39],[-140.87,-0.39],[-140.94,0.6],[-141.01,1.6],[-141.08,2.59],[-141.15,3.59],[-141.21,4.59],[-141.28,5.58],[-141.35,6.58],[-141.42,7.57],[-141.5,8.57],[-141.57,9.56],[-141.63,10.5],[-141.68,11.43],[-141.74,12.37],[-141.8,13.31],[-141.86,14.24],[-141.04,14.34],[-140.22,14.43],[-139.39,14.52],[-138.57,14.61],[-138.61,15.58],[-138.65,16.55],[-138.69,17.52],[-138.73,18.49],[-138.77,19.46],[-138.81,20.43],[-138.85,21.4],[-138.9,22.37],[-138.94,23.33],[-138.98,24.3],[-139.03,25.27],[-139.07,26.24],[-139.12,27.21],[-139.17,28.18],[-139.21,29.15],[-138.19,29.29],[-137.15,29.42],[-136.12,29.54],[-136.12,30.49],[-136.11,31.44],[-136.11,32.39],[-136.1,33.33],[-136.1,34.28],[-136.1,35.23],[-136.09,36.17],[-136.09,37.12],[-136.09,38.07],[-136.08,39.01],[-136.08,39.96],[-136.07,40.91],[-136.07,41.86],[-136.06,42.8],[-136.06,43.75],[-136.05,44.7],[-134.71,44.77],[-133.37,44.82],[-132.03,44.86],[-130.68,44.89],[-130.68,45.89],[-130.68,46.89],[-130.68,47.89],[-130.68,48.88],[-130.68,49.88],[-130.68,50.88],[-130.68,51.88],[-130.68,52.88],[-130.68,53.88],[-130.68,54.88],[-130.68,55.88],[-130.68,56.87],[-130.68,57.87],[-130.68,58.87],[-130.68,59.87],[-129.08,60.01],[-127.47,60.13],[-125.84,60.23],[-125.9,61.22],[-125.97,62.21],[-126.03,63.21],[-126.11,64.2],[-126.18,65.19],[-126.27,66.18],[-126.36,67.17],[-126.45,68.17],[-126.56,69.16],[-126.68,70.15],[-126.81,71.14],[-126.95,72.13],[-127.11,73.12],[-127.29,74.12],[-127.49,75.11],[-123.78,75.31],[-120,75.45],[-116.15,75.53],[-115.89,76.42],[-115.6,77.31],[-115.27,78.2],[-114.88,79.09],[-114.42,79.98],[-113.87,80.86],[-113.21,81.75],[-112.39,82.63],[-111.35,83.52],[-111.35,83.52],[-102.83,83.39],[-94.85,83.22],[-87.38,82.94],[-80.6,82.54],[-74.57,82.05],[-69.28,81.49],[-64.68,80.86],[-60.69,80.18],[-57.22,79.46],[-57.22,79.46],[-58.14,78.94],[-58.98,78.41],[-59.33,77.71],[-59.65,77],[-60.14,76.29],[-60.58,75.57],[-61.72,74.96],[-62.77,74.36],[-64.18,73.61],[-65.47,72.85],[-66.66,72.09],[-67.57,71.55],[-68.44,71],[-68.44,71],[-67.86,70.2],[-67.33,69.39],[-66.83,68.58],[-66.37,67.77],[-65.68,67.06],[-65.03,66.34],[-64.41,65.63],[-63.46,64.77],[-62.56,63.91],[-61.71,63.29],[-60.89,62.66],[-60.1,62.03],[-59.07,61.44],[-58.08,60.84],[-57.12,60.24],[-55.95,59.67],[-55.95,59.67],[-57.65,59.71],[-59.36,59.73],[-61.06,59.73],[-62.77,59.71],[-64.47,59.66],[-66.16,59.59],[-68.08,59.42],[-69.99,59.22],[-71.86,59],[-73.72,58.75],[-75.04,58.35],[-76.33,57.94],[-77.59,57.51],[-78.82,57.07],[-79.75,56.52],[-80.65,55.95],[-81.53,55.38],[-82.38,54.8],[-82.38,54.8],[-81.96,54.3],[-81.69,53.52],[-81.43,52.73],[-81.18,51.94],[-80.92,51.11],[-80.67,50.28],[-80.43,49.45],[-80.32,48.64],[-80.21,47.83],[-80.11,47.02],[-80.01,46.22],[-79.82,45.5],[-79.64,44.78],[-79.47,44.07],[-79.12,43.13],[-78.79,42.2],[-78.47,41.27],[-78,40.44],[-77.55,39.6],[-77.11,38.77],[-76.98,38.25],[-76.85,37.73],[-76.85,37.73],[-76.17,38.06],[-75.49,38.39],[-74.35,38.68],[-73.2,38.96],[-72.04,39.23],[-70.87,39.49],[-69.69,39.74],[-68.51,39.97],[-67.32,40.19],[-66.1,40.18],[-64.89,40.15],[-63.67,40.11],[-62.46,40.05],[-61.25,39.99],[-60.04,39.91],[-58.84,39.82],[-57.64,39.71],[-56.44,39.6],[-55.25,39.49],[-54.07,39.37],[-52.89,39.24],[-51.71,39.09],[-50.54,38.94],[-49.38,38.77],[-48.22,38.59],[-47.43,38.48],[-46.64,38.36],[-46.64,38.36],[-46.75,37.74],[-46.86,37.12],[-47.08,36.14],[-47.3,35.15],[-47.51,34.17],[-47.72,33.19],[-47.92,32.21],[-48.11,31.22],[-48.55,30.35],[-48.97,29.48],[-49.39,28.61],[-49.39,28.61],[-49.94,28.06],[-50.48,27.52],[-51.02,26.97],[-51.69,26.25],[-52.35,25.53],[-53,24.81],[-53.65,24.08],[-54.07,23.31],[-54.49,22.54],[-54.9,21.77],[-55.31,21],[-55.72,20.22],[-55.69,19.45],[-55.66,18.68],[-55.63,17.91],[-55.59,17.13],[-55.48,16.18],[-55.36,15.24],[-55.25,14.29],[-55.14,13.34],[-55.03,12.39],[-54.92,11.44],[-54.81,10.49],[-54.74,9.64],[-54.67,8.8],[-54.6,7.95],[-54.53,7.1],[-54.46,6.26],[-54.46,6.26],[-54.5,6.19],[-54.94,5.72],[-55.39,5.24],[-55.93,4.79],[-56.47,4.34],[-56.87,3.98],[-57.27,3.62],[-57.55,2.9],[-57.82,2.18],[-58.1,1.47],[-58.3,0.67],[-58.5,-0.12],[-58.7,-0.92],[-58.86,-1.67],[-59.02,-2.42],[-59.17,-3.18],[-59.27,-3.92],[-59.36,-4.67],[-58.97,-5.3],[-58.58,-5.94],[-58.37,-6.62],[-58.17,-7.31],[-57.96,-7.99],[-57.69,-8.63],[-57.42,-9.27],[-57.14,-9.77],[-56.87,-10.27],[-56.87,-10.27],[-56.93,-10.35],[-57.13,-10.65],[-57.36,-10.99],[-57.45,-11.22],[-57.55,-11.41],[-57.72,-11.75],[-57.85,-12.01],[-57.95,-12.24],[-58.06,-12.51],[-58.43,-13.29],[-58.81,-14.07],[-59.18,-14.85],[-59.56,-15.64],[-59.94,-16.42],[-59.92,-17.29],[-59.9,-18.16],[-59.87,-19.02],[-59.82,-19.88],[-59.77,-20.74],[-59.72,-21.6],[-59.67,-22.47],[-59.62,-23.33],[-59.56,-24.19],[-59.39,-25.01],[-59.22,-25.83],[-59.04,-26.65],[-58.9,-27.34],[-58.75,-28.04],[-58.61,-28.73],[-58.07,-29.53],[-58.02,-30.06],[-57.96,-30.59],[-57.85,-31.34],[-57.89,-31.89],[-57.87,-32.25],[-57.87,-32.54],[-57.87,-32.54],[-57.87,-33.13],[-58.02,-33.61],[-58.3,-34.44],[-58.5,-34.89],[-58.6,-35.61],[-58.64,-35.8]]]}},{"type":"Feature","properties":{"ma":210,"type":"gpml:TopologicalClosedPlateBoundary","name":"Cache Creek/Mezcalear Ocean","pid":131,"deforming":false},"geometry":{"type":"Polygon","coordinates":[[[-76.85,37.73],[-76.98,38.25],[-77.11,38.77],[-77.55,39.6],[-78,40.44],[-78.47,41.27],[-78.79,42.2],[-79.12,43.13],[-79.47,44.07],[-79.64,44.78],[-79.82,45.5],[-80.01,46.22],[-80.11,47.02],[-80.21,47.83],[-80.32,48.64],[-80.43,49.45],[-80.67,50.28],[-80.92,51.11],[-81.18,51.94],[-81.43,52.73],[-81.69,53.52],[-81.96,54.3],[-82.38,54.8],[-82.38,54.8],[-81.53,55.38],[-80.65,55.95],[-79.75,56.52],[-78.82,57.07],[-77.59,57.51],[-76.33,57.94],[-75.04,58.35],[-73.72,58.75],[-71.86,59],[-69.99,59.22],[-68.08,59.42],[-66.16,59.59],[-64.47,59.66],[-62.77,59.71],[-61.06,59.73],[-59.36,59.73],[-57.65,59.71],[-55.95,59.67],[-55.95,59.67],[-54.57,58.96],[-53.25,58.24],[-52.14,57.64],[-51.07,57.04],[-50.04,56.42],[-49.03,55.8],[-48.09,55.37],[-47.18,54.94],[-46.28,54.5],[-46.28,54.5],[-46.42,53.88],[-46.56,53.27],[-46.85,52.33],[-47.12,51.39],[-47.38,50.46],[-47.63,49.52],[-47.87,48.58],[-47.18,47.87],[-46.51,47.16],[-46.29,46.24],[-46.07,45.31],[-45.86,44.38],[-45.66,43.45],[-45.84,42.6],[-46.01,41.75],[-46.17,40.91],[-46.33,40.06],[-46.49,39.21],[-46.64,38.36],[-46.64,38.36],[-47.43,38.48],[-48.22,38.59],[-49.38,38.77],[-50.54,38.94],[-51.71,39.09],[-52.89,39.24],[-54.07,39.37],[-55.25,39.49],[-56.44,39.6],[-57.64,39.71],[-58.84,39.82],[-60.04,39.91],[-61.25,39.99],[-62.46,40.05],[-63.67,40.11],[-64.89,40.15],[-66.1,40.18],[-67.32,40.19],[-68.51,39.97],[-69.69,39.74],[-70.87,39.49],[-72.04,39.23],[-73.2,38.96],[-74.35,38.68],[-75.49,38.39],[-76.17,38.06],[-76.85,37.73]]]}},{"type":"Feature","properties":{"ma":210,"type":"gpml:TopologicalClosedPlateBoundary","name":"South China plate","pid":602,"deforming":false},"geometry":{"type":"Polygon","coordinates":[[[116.66,24.68],[115.6,24.58],[114.54,24.48],[113.47,24.36],[112.41,24.24],[111.36,24.11],[110.4,24.22],[109.43,24.32],[108.47,24.43],[107.5,24.52],[106.54,24.61],[105.6,24.74],[104.66,24.87],[103.72,24.99],[102.77,25.11],[101.83,25.22],[100.85,25.52],[99.87,25.8],[98.88,26.08],[97.96,26.39],[97.04,26.69],[96.11,26.98],[95.18,27.27],[95.18,27.27],[94.16,27.69],[93.14,28.09],[92.11,28.49],[91.07,28.88],[90.36,29.46],[89.63,30.03],[88.9,30.59],[88.16,31.15],[87.33,31.79],[86.49,32.42],[85.63,33.04],[84.76,33.66],[83.88,34.27],[83.32,35],[82.74,35.73],[82.15,36.46],[81.55,37.18],[80.94,37.9],[80.52,38.83],[80.08,39.75],[79.63,40.67],[79.17,41.59],[79.17,41.59],[80.04,42.2],[80.92,42.81],[81.81,43.41],[82.73,44],[83.66,44.59],[84.62,45.17],[85.59,45.74],[86.58,46.3],[87.6,46.96],[88.65,47.61],[89.72,48.25],[90.83,48.88],[91.96,49.5],[93.11,50.11],[94.3,50.71],[95.52,51.29],[95.52,51.29],[96.1,51.39],[97.41,51.82],[98.75,52.23],[100,52.68],[101.28,53.12],[102.15,53.25],[103.03,53.38],[104.6,53.29],[105.51,53.41],[106.42,53.52],[107.94,53.3],[109.45,53.07],[110.7,52.79],[111.93,52.5],[113.15,52.19],[114.35,51.88],[115.68,51.63],[116.78,51.66],[117.59,52.41],[118.1,52.43],[119.07,52.41],[120.03,52.38],[121.58,52.56],[122.67,52.86],[123.77,53.15],[123.77,53.15],[124.84,53.07],[125.91,52.98],[126.82,52.92],[127.74,52.86],[128.93,52.9],[130.11,52.93],[131.5,52.99],[132.89,53.03],[133.98,53.56],[135.15,53.64],[136.8,53.61],[138.45,53.56],[140.09,53.48],[140.09,53.48],[139.14,53.04],[138.21,52.59],[137.29,52.14],[136.47,51.38],[135.67,50.62],[134.9,49.86],[134.15,49.09],[133.43,48.31],[132.73,47.53],[132.04,46.75],[131.75,46.22],[131.46,45.69],[131.46,45.69],[130.46,45.39],[129.46,45.09],[128.48,44.77],[127.91,44.42],[127.91,44.42],[127,43.84],[126.11,43.25],[125.24,42.66],[124.39,42.06],[123.55,41.46],[122.9,40.82],[122.26,40.17],[121.63,39.52],[121.02,38.87],[120.8,37.92],[120.59,36.97],[120.39,36.02],[120.19,35.07],[119.99,34.12],[119.8,33.17],[119.61,32.22],[119.43,31.27],[119.54,30.41],[119.66,29.55],[119.77,28.69],[119.88,27.83],[119.25,27.2],[118.62,26.58],[118,25.95],[117.39,25.32],[116.79,24.69],[116.66,24.68]]]}},{"type":"Feature","properties":{"ma":210,"type":"gpml:TopologicalNetwork","name":"Central_Atlantic_Mesh","pid":101,"deforming":true},"geometry":{"type":"Polygon","coordinates":[[[-3.55,5.19],[-3.79,4.68],[-4.03,4.18],[-4.54,3.77],[-5.05,3.36],[-4.76,3.09],[-4.76,3.09],[-5.02,3],[-5.65,2.79],[-6.18,2.98],[-6.77,3.1],[-7.1,3.28],[-7.42,3.45],[-7.91,3.65],[-8.34,3.94],[-8.94,4.12],[-9.39,4.07],[-10.05,3.83],[-10.87,3.73],[-11.59,3.6],[-12.14,3.34],[-13.05,3.07],[-13.49,2.76],[-14.28,2.39],[-15.01,2.1],[-15.56,2.2],[-15.72,2.3],[-16.23,2.34],[-17.17,2.4],[-18.05,2.58],[-18.18,2.49],[-18.66,2.29],[-19.14,2.09],[-19.5,1.67],[-19.86,1.24],[-20.13,0.81],[-20.4,0.38],[-20.64,-0.23],[-21,-0.76],[-21.4,-1.3],[-21.61,-1.49],[-21.88,-1.73],[-22.02,-2.15],[-22.11,-2.59],[-22.2,-3.37],[-22.44,-3.79],[-22.66,-4.15],[-22.98,-4.35],[-23.18,-4.62],[-23.33,-4.87],[-23.55,-5.22],[-23.99,-5.18],[-24.41,-5.16],[-25.04,-5.41],[-25.43,-5.71],[-25.71,-6.07],[-25.93,-6.84],[-26.17,-7.72],[-26.18,-8.31],[-26.05,-8.59],[-26.05,-8.59],[-26.05,-8.59],[-26.42,-8.49],[-26.42,-8.49],[-26.62,-8.36],[-26.62,-8.36],[-27.06,-8.93],[-27.51,-9.49],[-27.68,-9.53],[-27.68,-9.53],[-27.69,-9.52],[-27.84,-9.32],[-27.86,-9.07],[-27.91,-8.78],[-27.86,-8.53],[-27.86,-8.29],[-27.98,-8],[-27.99,-7.84],[-27.95,-7.73],[-28,-7.54],[-28.09,-7.44],[-28.21,-7.32],[-28.29,-7.17],[-28.48,-6.9],[-28.72,-6.58],[-28.86,-6.35],[-28.82,-6.1],[-28.71,-5.75],[-28.71,-5.57],[-28.91,-5.45],[-29.02,-5.17],[-29.13,-5.03],[-29.25,-5.01],[-29.4,-4.66],[-29.52,-4.31],[-29.67,-3.98],[-29.72,-3.62],[-29.87,-3.24],[-30,-2.88],[-30.05,-2.67],[-30.08,-2.42],[-30.13,-2.19],[-30.13,-2.19],[-30.09,-2.15],[-29.71,-1.84],[-29.33,-1.56],[-29.21,-1.36],[-28.87,-1.28],[-28.56,-1.2],[-28.05,-1.07],[-27.42,-0.94],[-26.79,-0.82],[-26.23,-0.41],[-25.76,0.03],[-25.54,0.78],[-25.36,1.4],[-24.74,1.7],[-23.97,2.23],[-23.62,2.53],[-23.14,2.99],[-22.66,3.45],[-22.38,3.89],[-22.21,4.32],[-21.8,4.47],[-21.67,4.58],[-21.43,4.56],[-21.13,4.47],[-20.85,4.46],[-20.39,4.6],[-20.15,4.63],[-19.97,4.63],[-19.66,4.89],[-19.33,5.15],[-18.87,5.27],[-18.52,5.59],[-18.31,6.15],[-18.07,6.23],[-17.69,6.1],[-17.18,6.36],[-16.71,6.37],[-15.96,6.43],[-15.18,6.57],[-14.67,6.71],[-13.9,6.85],[-13.39,7.15],[-12.71,7.55],[-12.13,7.81],[-11.59,7.94],[-10.97,8.08],[-10.63,8.1],[-10.16,8],[-9.5,7.94],[-8.94,8.01],[-8.46,8.04],[-7.96,8.06],[-7.44,8.05],[-6.81,8.02],[-6.09,7.87],[-5.42,7.71],[-4.65,7.61],[-4.31,7.51],[-4.14,7.3],[-3.92,7.22],[-3.78,7.08],[-3.67,6.98],[-3.49,6.8],[-3.22,6.62],[-3.29,6.51],[-3.43,6.4],[-3.74,6.4],[-3.71,6.21],[-3.59,5.98],[-3.28,6.17],[-3.23,6.18],[-3.1,6.15],[-3.11,5.93],[-3.11,5.9],[-3.55,5.19]]]}},{"type":"Feature","properties":{"ma":210,"type":"gpml:TopologicalNetwork","name":"Proto_Caribbean_Mesh","pid":101,"deforming":true},"geometry":{"type":"Polygon","coordinates":[[[-30.8,-2.81],[-30.5,-2.52],[-30.13,-2.19],[-30.13,-2.19],[-30.08,-2.42],[-30.05,-2.67],[-30,-2.88],[-29.87,-3.24],[-29.72,-3.62],[-29.67,-3.98],[-29.52,-4.31],[-29.4,-4.66],[-29.25,-5.01],[-29.13,-5.03],[-29.02,-5.17],[-28.91,-5.45],[-28.71,-5.57],[-28.71,-5.75],[-28.82,-6.1],[-28.86,-6.35],[-28.72,-6.58],[-28.48,-6.9],[-28.29,-7.17],[-28.21,-7.32],[-28.09,-7.44],[-28,-7.54],[-27.95,-7.73],[-27.99,-7.84],[-27.98,-8],[-27.86,-8.29],[-27.86,-8.53],[-27.91,-8.78],[-27.86,-9.07],[-27.84,-9.32],[-27.69,-9.52],[-27.68,-9.53],[-27.68,-9.53],[-28.43,-9.69],[-29.18,-9.85],[-29.93,-10.01],[-30.54,-10.21],[-31.15,-10.4],[-31.73,-10.37],[-32.31,-10.34],[-32.83,-10.28],[-33.34,-10.21],[-34.24,-9.89],[-35.02,-9.79],[-35.8,-9.69],[-36.47,-9.56],[-37.14,-9.43],[-37.82,-9.3],[-38.57,-9.42],[-39.32,-9.54],[-39.96,-10.01],[-40.59,-10.47],[-41.2,-10.55],[-41.81,-10.62],[-42.34,-10.73],[-42.86,-10.83],[-43.43,-10.9],[-44,-10.97],[-44.64,-11.17],[-45.27,-11.38],[-45.94,-11.71],[-46.6,-12.05],[-47.35,-12.39],[-48.11,-12.74],[-48.94,-12.88],[-49.77,-13.02],[-50.63,-12.76],[-51.5,-12.5],[-52.16,-12.13],[-52.82,-11.75],[-53.33,-11.53],[-53.84,-11.3],[-54.42,-11.17],[-55.01,-11.04],[-55.57,-11.11],[-56.14,-11.19],[-56.38,-11.16],[-56.38,-11.16],[-56.72,-10.53],[-57.07,-9.9],[-57.42,-9.27],[-57.69,-8.63],[-57.96,-7.99],[-58.17,-7.31],[-58.37,-6.62],[-58.58,-5.94],[-58.97,-5.3],[-59.36,-4.67],[-59.34,-4.51],[-59.34,-4.51],[-58.45,-4.43],[-57.5,-4.25],[-56.55,-4.08],[-55.78,-3.9],[-55.02,-3.72],[-54.06,-3.53],[-53.11,-3.34],[-52.32,-3.2],[-51.53,-3.05],[-50.85,-2.56],[-50.17,-2.06],[-49.55,-1.69],[-48.89,-0.97],[-48.5,-0.61],[-48.11,-0.24],[-47.84,0.45],[-47.11,1.1],[-46.37,1.74],[-45.64,2.39],[-44.95,2.78],[-44.26,3.17],[-43.57,3.56],[-43.05,3.51],[-42.53,3.47],[-41.53,3.47],[-41.03,3.3],[-40.52,3.13],[-39.81,2.93],[-39.1,2.74],[-38.3,2.16],[-37.84,1.89],[-37.38,1.61],[-36.9,1.37],[-36.42,1.12],[-35.93,0.83],[-35.44,0.54],[-34.78,0.16],[-34.15,-0.38],[-33.43,-0.84],[-32.71,-1.29],[-32.21,-1.77],[-31.71,-2.26],[-31,-2.92],[-30.99,-2.93],[-30.8,-2.81]]]}}]}