{"type":"FeatureCollection","features":[{"type":"Feature","properties":{"ma":230,"type":"gpml:TopologicalClosedPlateBoundary","name":"Eurasia","pid":301,"deforming":false},"geometry":{"type":"Polygon","coordinates":[[[-19.03,60.57],[-19.74,61.37],[-20.49,62.17],[-21.28,62.97],[-22.78,62.52],[-24.23,62.05],[-25.64,61.57],[-27.53,61.18],[-29.36,60.75],[-31,60.6],[-32.62,60.43],[-34.22,60.25],[-35.41,59.93],[-36.57,59.6],[-37.71,59.26],[-39.21,58.94],[-40.68,58.6],[-42.12,58.25],[-43.34,58.06],[-44.54,57.86],[-45.73,57.64],[-47.43,57.38],[-49.1,57.09],[-50.29,56.8],[-51.46,56.49],[-52.62,56.18],[-53.91,55.73],[-55.16,55.26],[-55.16,55.26],[-56.08,56.03],[-56.62,56.69],[-57.18,57.35],[-57.76,58.01],[-58.31,58.91],[-58.89,59.81],[-59.2,60.55],[-59.53,61.29],[-59.88,62.03],[-59.99,62.86],[-60.11,63.69],[-60.24,64.52],[-60.38,65.34],[-60.38,65.34],[-59.5,65.83],[-58.58,66.32],[-57.37,67.01],[-56.1,67.7],[-54.74,68.37],[-53.72,68.93],[-52.64,69.48],[-52,70.17],[-51.31,70.86],[-50.73,71.54],[-50.11,72.22],[-49.16,72.77],[-48.15,73.32],[-46.9,73.93],[-45.56,74.53],[-44.12,75.12],[-42.11,75.8],[-39.91,76.45],[-37.15,77.09],[-34.1,77.7],[-32.53,78.24],[-30.8,78.76],[-30.8,78.76],[-27.61,79.09],[-22.9,79.25],[-18.09,79.33],[-13.24,79.34],[-8.41,79.27],[-3.68,79.13],[0.91,78.92],[5.3,78.64],[9.46,78.31],[13.38,77.91],[17.28,77.47],[20.92,76.98],[24.28,76.45],[27.38,75.87],[30.24,75.26],[32.87,74.61],[35.28,73.94],[37.5,73.24],[39.55,72.51],[41.44,71.77],[43.18,71.02],[43.18,71.02],[45.67,71.12],[48.18,71.2],[50.71,71.24],[53.24,71.25],[55.77,71.22],[58.57,70.92],[61.28,70.57],[63.89,70.19],[66.4,69.77],[68.81,69.31],[71.12,68.83],[73.32,68.31],[75.43,67.76],[77.71,67.61],[79.96,67.41],[82.18,67.19],[84.34,66.94],[86.47,66.66],[88.54,66.35],[88.54,66.35],[87.29,65.54],[86.12,64.71],[85.02,63.88],[83.99,63.04],[83.01,62.19],[82.09,61.33],[81.21,60.47],[80.38,59.6],[79.59,58.73],[78.85,57.86],[77.59,57.28],[76.38,56.69],[75.21,56.09],[74.07,55.48],[72.96,54.85],[71.89,54.22],[70.86,53.58],[69.85,52.93],[69.22,52.2],[68.61,51.47],[68.01,50.74],[67.44,50],[66.88,49.26],[66.18,48.56],[65.49,47.84],[64.82,47.13],[64.17,46.4],[63.54,45.68],[62.93,44.95],[62.34,44.16],[61.76,43.37],[61.2,42.57],[60.66,41.77],[60.13,40.97],[59.61,40.17],[59.1,39.36],[58.61,38.56],[58.12,37.75],[57.4,37.06],[56.68,36.37],[55.98,35.68],[55.29,34.98],[54.62,34.28],[53.95,33.57],[53.3,32.87],[52.65,32.15],[52.02,31.44],[51.51,30.7],[51.01,29.95],[51.01,29.95],[50.19,30.29],[49.36,30.62],[48.71,30.33],[48.06,30.03],[47.87,29.23],[47.68,28.43],[47.36,27.73],[47.04,27.02],[46.73,26.31],[45.87,25.77],[45.02,25.22],[44.17,24.67],[43.5,23.9],[42.84,23.12],[42.29,22.36],[41.74,21.59],[41.2,20.82],[40.94,20.03],[40.68,19.23],[40.47,18.49],[40.26,17.75],[40.18,17.23],[40.1,16.71],[39.85,16.12],[39.61,15.52],[38.99,15.15],[38.38,14.77],[37.76,14.4],[36.85,14.22],[35.93,14.03],[35.02,13.85],[34.13,13.45],[33.24,13.06],[32.6,12.78],[31.96,12.5],[31.32,12.22],[30.44,12.01],[29.56,11.8],[28.68,11.58],[27.79,11.62],[26.9,11.65],[26,11.67],[25.21,11.79],[24.42,11.9],[23.63,12.02],[22.84,12.13],[21.98,12.37],[21.12,12.6],[20.25,12.83],[19.39,13.06],[19.39,13.06],[19,12.35],[18.61,11.63],[18.22,10.92],[17.84,10.2],[17.46,9.48],[17.01,8.64],[16.56,7.79],[16.12,6.95],[15.67,6.1],[15.23,5.26],[14.67,4.62],[14.1,3.97],[13.54,3.33],[12.98,2.69],[12.42,2.05],[11.86,1.41],[12.08,0.68],[12.29,-0.04],[12.51,-0.76],[11.72,-1.18],[10.94,-1.59],[10.15,-2.01],[9.37,-2.42],[8.58,-2.84],[7.72,-3.17],[6.87,-3.49],[6.01,-3.82],[5.15,-4.14],[5.15,-4.14],[4.38,-3.75],[3.62,-3.35],[3.13,-3.17],[2.65,-2.98],[2.18,-2.81],[1.71,-2.63],[1.18,-2.44],[0.66,-2.25],[-0.02,-2],[-0.82,-1.49],[-1.59,-1],[-2.03,-0.71],[-2.29,-0.54],[-2.67,-0.22],[-3.04,0.11],[-3.48,0.48],[-3.7,0.67],[-3.73,0.7],[-3.73,0.7],[-3.06,1.33],[-2.38,1.97],[-1.7,2.61],[-1.03,3.24],[-0.36,3.95],[0.3,4.65],[0.97,5.36],[1.33,6.04],[1.68,6.72],[2.04,7.4],[1.42,8.07],[0.8,8.73],[0.17,9.4],[-0.45,10.06],[-1,9.64],[-1.55,10.36],[-2.1,11.07],[-2.65,11.79],[-2.45,12.18],[-2.28,12.97],[-1.95,13.84],[-1.62,14.71],[-1.29,15.58],[-0.98,16.39],[-0.68,17.2],[-0.37,18.01],[-0.05,18.82],[0.76,19.36],[1.57,19.9],[2.04,20.51],[2.51,21.13],[2.83,21.89],[3.15,22.65],[3.39,23.22],[3.64,23.79],[3.68,24.45],[3.73,25.12],[3.58,25.64],[3.43,26.17],[3.11,26.72],[2.78,27.27],[2.22,27.84],[2,28.59],[1.77,29.33],[1.63,30.28],[1.48,31.24],[1.23,31.98],[0.97,32.72],[0.93,33.41],[0.9,34.1],[0.3,34.86],[-0.31,35.61],[-1.09,35.84],[-1.87,36.06],[-2.83,35.73],[-3.79,35.39],[-4.79,35.52],[-5.79,35.63],[-6.79,35.73],[-7.64,35.92],[-8.48,36.11],[-9.33,36.28],[-9.33,37.27],[-9.33,38.26],[-9.32,39.25],[-9.32,40.24],[-9.71,41.17],[-10.12,42.1],[-10.53,43.02],[-10.96,43.95],[-11.4,44.87],[-11.06,45.49],[-11.44,46.17],[-11.84,46.86],[-12.24,47.54],[-12.62,48.36],[-13,49.17],[-13.41,49.98],[-13.82,50.79],[-14.25,51.6],[-14.64,52.37],[-15.05,53.14],[-15.46,53.9],[-15.46,53.9],[-15.58,54.23],[-15.82,54.8],[-16.07,55.38],[-16.19,55.66],[-16.25,55.82],[-16.29,55.93],[-16.45,56.26],[-16.48,56.32],[-16.92,57.19],[-17.37,58.05],[-17.85,58.91],[-18.35,59.77],[-19.03,60.57]]]}},{"type":"Feature","properties":{"ma":230,"type":"gpml:TopologicalClosedPlateBoundary","name":"Gondwana Plate","pid":701,"deforming":false},"geometry":{"type":"Polygon","coordinates":[[[180,-68.7],[180,-69.66],[180,-70.63],[180,-71.6],[180,-72.57],[180,-73.54],[180,-74.51],[180,-75.47],[180,-76.44],[180,-77.41],[180,-78.38],[180,-79.35],[180,-80.32],[180,-81.28],[180,-82.25],[180,-83.22],[180,-84.19],[180,-85.16],[180,-86.13],[180,-87.09],[180,-88.06],[180,-89.03],[180,-90],[-180,-90],[-180,-89.03],[-180,-88.06],[-180,-87.09],[-180,-86.13],[-180,-85.16],[-180,-84.19],[-180,-83.22],[-180,-82.25],[-180,-81.28],[-180,-80.32],[-180,-79.35],[-180,-78.38],[-180,-77.41],[-180,-76.44],[-180,-75.47],[-180,-74.51],[-180,-73.54],[-180,-72.57],[-180,-71.6],[-180,-70.63],[-180,-69.66],[-180,-68.7],[-180,-67.73],[-178,-67.79],[-175.99,-67.83],[-173.97,-67.84],[-171.72,-68.34],[-169.37,-68.81],[-166.93,-69.25],[-164.38,-69.65],[-161.75,-70.01],[-159.42,-70.44],[-156.99,-70.84],[-154.47,-71.21],[-151.86,-71.54],[-149.15,-71.84],[-146.65,-72.07],[-144.1,-72.26],[-141.49,-72.43],[-138.84,-72.56],[-136.14,-72.65],[-133.42,-72.71],[-130.69,-72.73],[-127.96,-72.72],[-125.4,-72.69],[-122.84,-72.63],[-120.31,-72.54],[-117.81,-72.42],[-115.09,-72.44],[-112.37,-72.43],[-109.66,-72.38],[-106.97,-72.29],[-103.9,-72.19],[-100.87,-72.05],[-97.9,-71.85],[-94.99,-71.62],[-92.16,-71.34],[-89.8,-70.82],[-87.56,-70.28],[-87.56,-70.28],[-87.61,-70.18],[-87.51,-69.77],[-87.47,-69.71],[-87.12,-69.35],[-86.72,-69.01],[-86.28,-68.67],[-85.93,-68.36],[-85.74,-68.22],[-85.47,-67.92],[-85.3,-67.51],[-85.11,-67.14],[-84.88,-66.81],[-84.7,-66.52],[-84.48,-66.28],[-84.22,-65.97],[-83.92,-65.63],[-83.35,-65.25],[-82.78,-64.96],[-82.4,-64.8],[-81.96,-64.59],[-81.45,-64.36],[-80.64,-64],[-79.91,-63.7],[-79.37,-63.42],[-78.92,-63.14],[-78.64,-62.72],[-78.43,-62.46],[-78.26,-62.24],[-78.19,-62.17],[-77.95,-61.94],[-77.67,-61.66],[-77.33,-61.33],[-77.02,-61.06],[-76.69,-60.77],[-76.33,-60.44],[-76.07,-60.21],[-75.44,-59.62],[-75.04,-59.24],[-74.65,-58.88],[-74.28,-58.55],[-73.78,-58.08],[-73.5,-57.82],[-73.11,-57.4],[-72.88,-57.14],[-72.58,-56.8],[-72.18,-56.56],[-71.59,-56.05],[-71.59,-56.05],[-71.39,-55.73],[-71.39,-55.73],[-71.32,-55.61],[-71.11,-55.37],[-70.3,-54.63],[-69.51,-53.89],[-69.2,-53.18],[-68.89,-52.46],[-68.55,-51.64],[-68.23,-50.83],[-67.49,-50.14],[-66.77,-49.45],[-66.08,-48.75],[-65.4,-48.05],[-64.74,-47.35],[-64.39,-46.61],[-64.05,-45.86],[-63.72,-45.12],[-63.39,-44.37],[-63.1,-43.53],[-62.82,-42.68],[-62.68,-42.26],[-62.54,-41.88],[-62.46,-41.56],[-62.27,-41.01],[-62.09,-40.31],[-61.83,-39.87],[-61.46,-39.06],[-61.25,-38.59],[-61.19,-38],[-61.19,-38],[-61.17,-37.71],[-61.16,-37.35],[-61.06,-36.8],[-61.12,-36.05],[-61.13,-35.52],[-61.15,-34.99],[-61.65,-34.16],[-61.75,-33.46],[-61.84,-32.75],[-61.94,-32.05],[-62.06,-31.22],[-62.17,-30.39],[-62.29,-29.56],[-62.28,-28.7],[-62.27,-27.84],[-62.26,-26.98],[-62.25,-26.12],[-62.24,-25.25],[-62.23,-24.39],[-62.2,-23.52],[-62.16,-22.66],[-62.12,-21.79],[-61.67,-21.03],[-61.23,-20.27],[-60.8,-19.51],[-60.37,-18.75],[-59.94,-17.99],[-59.8,-17.74],[-59.69,-17.51],[-59.54,-17.26],[-59.35,-16.93],[-59.23,-16.74],[-59.12,-16.52],[-58.87,-16.19],[-58.65,-15.9],[-58.61,-15.87],[-58.61,-15.87],[-58.18,-16.74],[-58.18,-16.74],[-57.89,-16.78],[-57.31,-16.74],[-56.73,-16.69],[-56.13,-16.86],[-55.54,-17.02],[-55.03,-17.27],[-54.52,-17.52],[-53.86,-17.93],[-53.2,-18.33],[-52.32,-18.63],[-51.45,-18.93],[-50.59,-18.82],[-49.73,-18.71],[-48.94,-18.39],[-48.15,-18.07],[-47.45,-17.77],[-46.76,-17.45],[-46.1,-17.27],[-45.44,-17.09],[-44.85,-17.04],[-44.26,-16.99],[-43.72,-16.9],[-43.18,-16.81],[-42.55,-16.75],[-41.92,-16.69],[-41.26,-16.24],[-40.6,-15.79],[-39.82,-15.69],[-39.05,-15.58],[-38.36,-15.72],[-37.68,-15.86],[-36.99,-16],[-36.19,-16.12],[-35.39,-16.23],[-34.48,-16.56],[-33.95,-16.63],[-33.42,-16.7],[-32.82,-16.73],[-32.23,-16.76],[-31.6,-16.58],[-30.97,-16.39],[-30.14,-16.22],[-29.31,-16.04],[-28.48,-15.87],[-28.07,-15.35],[-27.65,-14.83],[-27.65,-14.83],[-27.62,-14.84],[-27.14,-15.13],[-26.89,-15.2],[-26.89,-15.2],[-27.13,-14.69],[-27.12,-14.1],[-26.88,-13.22],[-26.66,-12.44],[-26.37,-12.08],[-25.98,-11.78],[-25.34,-11.53],[-24.92,-11.54],[-24.46,-11.58],[-24.24,-11.23],[-24.09,-10.98],[-23.89,-10.71],[-23.58,-10.5],[-23.35,-10.14],[-23.11,-9.72],[-23.03,-8.94],[-22.94,-8.5],[-22.81,-8.07],[-22.54,-7.83],[-22.33,-7.64],[-21.93,-7.09],[-21.58,-6.56],[-21.34,-5.95],[-21.08,-5.51],[-20.81,-5.08],[-20.46,-4.64],[-20.11,-4.21],[-19.64,-4],[-19.16,-3.79],[-19.03,-3.7],[-18.14,-3.87],[-17.19,-3.91],[-16.68,-3.93],[-16.53,-4.03],[-15.97,-4.12],[-15.25,-3.81],[-14.47,-3.42],[-14.03,-3.09],[-13.14,-2.8],[-12.6,-2.52],[-11.88,-2.37],[-11.07,-2.25],[-10.41,-1.98],[-9.97,-1.91],[-9.36,-2.08],[-8.92,-2.34],[-8.42,-2.52],[-8.09,-2.68],[-7.76,-2.86],[-7.17,-2.95],[-6.63,-3.12],[-6.01,-2.88],[-5.73,-2.77],[-5.73,-2.77],[-5.92,-2.61],[-5.43,-2.17],[-4.95,-1.73],[-4.73,-1.21],[-4.52,-0.69],[-4.17,-0.04],[-3.82,0.61],[-3.73,0.7],[-3.73,0.7],[-3.7,0.67],[-3.48,0.48],[-3.04,0.11],[-2.67,-0.22],[-2.29,-0.54],[-2.03,-0.71],[-1.59,-1],[-0.82,-1.49],[-0.02,-2],[0.66,-2.25],[1.18,-2.44],[1.71,-2.63],[2.18,-2.81],[2.65,-2.98],[3.13,-3.17],[3.62,-3.35],[4.38,-3.75],[5.15,-4.14],[6.01,-3.82],[6.87,-3.49],[7.72,-3.17],[8.58,-2.84],[9.47,-2.37],[9.47,-2.37],[9.69,-2.96],[9.91,-3.73],[10.13,-4.51],[10.35,-5.29],[10.57,-6.06],[10.79,-6.84],[11.67,-6.65],[11.97,-7.39],[12.28,-8.12],[12.59,-8.86],[12.89,-9.6],[13.63,-9.45],[14.35,-9.3],[15.08,-9.15],[15.44,-9.97],[15.81,-10.79],[16.17,-11.61],[16.54,-12.43],[16.91,-13.25],[17.64,-12.9],[18.37,-12.55],[19.1,-12.2],[20.01,-11.8],[20.91,-11.38],[21.32,-11.93],[21.73,-12.48],[22.14,-13.03],[22.83,-12.72],[23.51,-12.41],[24.19,-12.09],[24.74,-12.82],[25.29,-13.54],[26.12,-13.13],[26.94,-12.73],[27.46,-13.29],[27.99,-13.84],[28.7,-13.33],[29.4,-12.82],[30.09,-12.31],[30.91,-12.9],[31.71,-12.37],[32.5,-11.84],[32.5,-11.84],[32.32,-11.46],[32,-11.06],[31.68,-10.67],[31.68,-10.67],[32.29,-9.95],[32.89,-9.22],[33.49,-8.5],[34.09,-7.78],[34.62,-6.94],[35.16,-6.11],[35.69,-5.28],[36.22,-4.44],[36.22,-4.44],[37,-5],[37.78,-5.56],[38.56,-6.12],[39.34,-6.67],[40.12,-7.23],[40.91,-7.78],[41.7,-8.33],[42.49,-8.88],[43.28,-9.43],[44.08,-9.98],[44.88,-10.52],[44.49,-11.28],[45.29,-11.73],[46.1,-12.17],[46.92,-12.62],[47.73,-13.06],[48.55,-13.49],[49.37,-13.93],[50.19,-14.36],[49.86,-15.24],[50.78,-15.66],[51.69,-16.09],[52.61,-16.51],[53.54,-16.93],[54.47,-17.34],[55.4,-17.75],[56.34,-18.15],[57.28,-18.55],[58.23,-18.94],[59.18,-19.33],[60.13,-19.72],[61.09,-20.09],[62.06,-20.47],[61.72,-21.29],[61.39,-22.1],[61.05,-22.92],[60.7,-23.73],[60.7,-23.73],[61.66,-24.15],[62.62,-24.56],[63.59,-24.97],[64.56,-25.37],[65.54,-25.76],[66.53,-26.14],[67.52,-26.52],[68.52,-26.89],[69.53,-27.26],[70.54,-27.62],[71.56,-27.97],[72.59,-28.31],[73.62,-28.64],[74.66,-28.97],[75.7,-29.29],[75.6,-29.8],[75.5,-30.31],[76.62,-30.44],[77.75,-30.56],[78.89,-30.67],[80.02,-30.77],[81.16,-30.86],[82.3,-30.94],[83.44,-31.01],[84.58,-31.09],[85.72,-31.17],[86.86,-31.23],[88.01,-31.28],[89.15,-31.33],[89.15,-31.33],[89.61,-30.41],[90.07,-29.5],[90.51,-28.58],[90.95,-27.66],[91.39,-26.75],[91.81,-25.82],[92.23,-24.9],[93.18,-25.22],[94.14,-25.54],[95.1,-25.84],[96.07,-26.14],[96.38,-25.37],[96.69,-24.6],[96.99,-23.83],[97.29,-23.05],[98.28,-23.14],[99.27,-23.22],[100.26,-23.3],[101.25,-23.37],[102.24,-23.43],[102.51,-22.57],[102.78,-21.72],[103.05,-20.86],[103.32,-20],[103.58,-19.14],[103.84,-18.28],[104.63,-18.39],[105.43,-18.5],[106.22,-18.61],[107.02,-18.71],[107.26,-17.8],[107.49,-16.89],[107.72,-15.97],[107.95,-15.06],[108.18,-14.15],[109.04,-14.22],[109.9,-14.29],[110.76,-14.36],[110.84,-13.54],[110.93,-12.72],[111.02,-11.9],[111.94,-11.91],[112.87,-11.92],[113.09,-11.03],[113.09,-11.03],[113.13,-11.73],[113.16,-12.44],[113.2,-13.14],[113.19,-14.03],[113.18,-14.92],[113.18,-15.82],[113.17,-16.71],[113.16,-17.6],[113.16,-17.6],[114.17,-17.62],[115.19,-17.64],[116.21,-17.65],[117.22,-17.65],[118.24,-17.65],[119.25,-17.65],[120.27,-17.64],[121.28,-17.62],[122.3,-17.6],[122.36,-18.45],[122.43,-19.3],[122.49,-20.15],[122.55,-20.99],[122.62,-21.84],[122.68,-22.69],[123.67,-22.66],[124.65,-22.62],[125.63,-22.58],[126.62,-22.53],[127.6,-22.47],[128.58,-22.41],[129.56,-22.34],[129.69,-23.25],[129.83,-24.16],[130.81,-24.06],[131.79,-23.96],[132.76,-23.84],[133.74,-23.73],[134.71,-23.6],[135.68,-23.47],[135.68,-23.47],[135.72,-24.45],[135.75,-25.42],[135.78,-26.4],[135.81,-27.37],[135.84,-28.35],[136.48,-29.09],[137.13,-29.84],[137.79,-30.57],[138.46,-31.31],[138.91,-31.94],[139.37,-32.57],[139.8,-33.03],[140.23,-33.48],[140.81,-33.74],[141.39,-33.99],[142.42,-34.39],[143.46,-34.77],[144.39,-35.34],[145.34,-35.9],[146.3,-36.45],[147.28,-36.99],[147.28,-36.99],[147.41,-37.73],[147.54,-38.47],[147.68,-39.2],[147.87,-40],[148.06,-40.8],[148.26,-41.59],[148.46,-42.39],[148.66,-43.19],[148.8,-44.06],[148.93,-44.93],[149.07,-45.8],[149.22,-46.67],[149.37,-47.54],[149.92,-48.44],[150.48,-49.34],[151.07,-50.23],[151.68,-51.13],[152.31,-52.01],[152.79,-52.79],[153.29,-53.56],[153.81,-54.33],[154.35,-55.09],[154.43,-55.68],[154.51,-56.26],[154.27,-56.83],[154.02,-57.39],[153.34,-58.31],[152.62,-59.23],[151.82,-60.14],[150.97,-61.05],[150.73,-61.57],[151.75,-62.39],[152.13,-63.21],[152.54,-64.03],[152.97,-64.85],[152.97,-64.85],[154.79,-65.13],[156.65,-65.39],[158.54,-65.63],[160.46,-65.84],[162.42,-66.03],[164.47,-66.35],[166.57,-66.63],[168.71,-66.89],[170.9,-67.12],[173.13,-67.32],[175.39,-67.49],[177.68,-67.62],[180,-67.73],[180,-68.7]]]}},{"type":"Feature","properties":{"ma":230,"type":"gpml:TopologicalClosedPlateBoundary","name":"Mongol-Okhotsk Ocean","pid":380,"deforming":false},"geometry":{"type":"Polygon","coordinates":[[[-180,70.61],[-180,71.58],[-180,72.55],[-180,73.51],[-180,74.48],[-180,75.45],[-180,76.42],[-180,77.39],[-180,78.36],[-180,79.33],[-180,80.3],[-180,81.27],[-180,82.24],[-180,83.21],[-180,84.18],[-180,85.15],[-180,86.12],[-180,87.09],[-180,88.06],[-180,89.03],[-180,90],[180,90],[180,89.03],[180,88.06],[180,87.09],[180,86.12],[180,85.15],[180,84.18],[180,83.21],[180,82.24],[180,81.27],[180,80.3],[180,79.33],[180,78.36],[180,77.39],[180,76.42],[180,75.45],[180,74.48],[180,73.51],[180,72.55],[180,71.58],[180,70.61],[180,69.64],[177.83,69],[175.78,68.33],[173.84,67.65],[172.02,66.94],[170.31,66.21],[168.69,65.46],[167.16,64.7],[165.72,63.92],[164.16,63.25],[162.67,62.56],[161.25,61.85],[159.89,61.13],[158.6,60.4],[157.36,59.65],[156.17,58.9],[155.04,58.13],[153.96,57.35],[152.92,56.57],[151.92,55.78],[150.96,54.98],[150.04,54.17],[149.16,53.35],[147.89,52.73],[146.65,52.09],[145.44,51.44],[144.27,50.78],[143.14,50.11],[142.03,49.42],[140.96,48.73],[139.91,48.02],[138.9,47.31],[137.91,46.59],[136.92,46.49],[135.93,46.39],[134.95,46.28],[133.9,46.09],[132.86,45.89],[131.82,45.69],[130.79,45.47],[129.79,45.16],[128.81,44.84],[128.81,44.84],[127.73,45.03],[126.65,45.21],[125.56,45.38],[124.46,45.54],[123.46,45.58],[122.42,45.19],[121.24,45.3],[120.06,45.4],[119.05,45.51],[118.03,45.61],[117.28,45.78],[116.52,45.95],[115.64,46.18],[114.76,46.39],[114.76,46.39],[113.73,46.25],[112.71,46.1],[111.32,46.14],[110.5,46.29],[109.68,46.44],[109.23,46.5],[108.28,45.88],[107.32,46.01],[106.24,46.44],[105.31,46.93],[104.35,47.4],[103.39,47.87],[102.4,48.33],[101.17,48.79],[99.92,49.23],[99.08,49.27],[98.23,49.3],[96.87,49.64],[96.04,49.66],[95.21,49.68],[93.88,49.47],[92.56,49.24],[91.18,49.06],[89.8,48.87],[88.45,48.88],[87.1,48.88],[85.7,49.09],[84.28,49.29],[83.05,49.49],[81.81,49.67],[80.57,49.84],[79.26,50.03],[77.95,50.22],[76.63,50.38],[75.3,50.53],[74.07,50.51],[72.84,50.48],[72.84,50.48],[72.43,49.7],[72.04,48.92],[71.66,48.14],[71.29,47.37],[70.07,46.89],[68.88,46.41],[67.71,45.91],[66.56,45.41],[65.43,44.89],[64.45,44.46],[63.48,44.02],[62.53,43.58],[61.59,43.12],[61.59,43.12],[62.03,43.73],[62.47,44.34],[62.93,44.95],[63.54,45.68],[64.17,46.4],[64.82,47.13],[65.49,47.84],[66.18,48.56],[66.88,49.26],[67.44,50],[68.01,50.74],[68.61,51.47],[69.22,52.2],[69.85,52.93],[70.86,53.58],[71.89,54.22],[72.96,54.85],[74.07,55.48],[75.21,56.09],[76.38,56.69],[77.59,57.28],[78.85,57.86],[79.59,58.73],[80.38,59.6],[81.21,60.47],[82.09,61.33],[83.01,62.19],[83.99,63.04],[85.02,63.88],[86.12,64.71],[87.29,65.54],[88.54,66.35],[88.54,66.35],[86.47,66.66],[84.34,66.94],[82.18,67.19],[79.96,67.41],[77.71,67.61],[75.43,67.76],[73.32,68.31],[71.12,68.83],[68.81,69.31],[66.4,69.77],[63.89,70.19],[61.28,70.57],[58.57,70.92],[55.77,71.22],[53.24,71.25],[50.71,71.24],[48.18,71.2],[45.67,71.12],[43.18,71.02],[43.18,71.02],[41.44,71.77],[39.55,72.51],[37.5,73.24],[35.28,73.94],[32.87,74.61],[30.24,75.26],[27.38,75.87],[24.28,76.45],[20.92,76.98],[17.28,77.47],[13.38,77.91],[9.46,78.31],[5.3,78.64],[0.91,78.92],[-3.68,79.13],[-8.41,79.27],[-13.24,79.34],[-18.09,79.33],[-22.9,79.25],[-27.61,79.09],[-30.8,78.76],[-32.53,78.24],[-34.1,77.7],[-37.15,77.09],[-39.91,76.45],[-42.11,75.8],[-44.12,75.12],[-45.56,74.53],[-46.9,73.93],[-48.15,73.32],[-49.16,72.77],[-50.11,72.22],[-50.75,71.52],[-50.75,71.52],[-53.1,72.13],[-55.6,72.7],[-58.26,73.25],[-61.09,73.76],[-64.1,74.22],[-66.99,74.8],[-70.09,75.34],[-73.42,75.83],[-76.97,76.27],[-80.74,76.66],[-84.71,76.99],[-88.86,77.26],[-93.17,77.46],[-97.58,77.59],[-102.07,77.64],[-106.56,77.63],[-111.02,77.53],[-115.33,77.56],[-119.63,77.52],[-123.88,77.41],[-123.88,77.41],[-128.05,77.32],[-132.15,77.16],[-136.13,76.94],[-139.96,76.66],[-143.63,76.32],[-147.11,75.94],[-150.39,75.51],[-153.48,75.03],[-156.38,74.51],[-159.09,73.96],[-161.62,73.38],[-163.97,72.77],[-166.58,72.41],[-169.08,72.02],[-171.48,71.6],[-173.77,71.14],[-175.95,70.67],[-178.02,70.16],[-180,69.64],[-180,70.61]]]}},{"type":"Feature","properties":{"ma":230,"type":"gpml:TopologicalClosedPlateBoundary","name":"North America","pid":101,"deforming":false},"geometry":{"type":"Polygon","coordinates":[[[-4.13,0.04],[-4.13,0.07],[-4.13,0.29],[-4.26,0.31],[-4.31,0.3],[-4.61,0.1],[-4.74,0.31],[-4.78,0.5],[-4.47,0.52],[-4.33,0.64],[-4.28,0.75],[-4.55,0.92],[-4.74,1.09],[-4.86,1.18],[-5,1.31],[-5.22,1.38],[-5.41,1.58],[-5.74,1.66],[-6.51,1.72],[-7.18,1.85],[-7.91,1.96],[-8.53,1.96],[-9.05,1.94],[-9.53,1.91],[-10.01,1.85],[-10.57,1.76],[-11.22,1.79],[-11.69,1.87],[-12.02,1.83],[-12.63,1.67],[-13.17,1.52],[-13.73,1.23],[-14.39,0.81],[-14.88,0.49],[-15.64,0.33],[-16.14,0.17],[-16.91,0.01],[-17.66,-0.07],[-18.12,-0.1],[-18.62,-0.38],[-19,-0.25],[-19.24,-0.34],[-19.43,-0.91],[-19.77,-1.23],[-20.23,-1.37],[-20.55,-1.64],[-20.85,-1.91],[-21.03,-1.91],[-21.27,-1.94],[-21.73,-2.09],[-22.01,-2.09],[-22.3,-2.01],[-22.55,-1.99],[-22.67,-2.1],[-23.08,-2.26],[-23.25,-2.7],[-23.51,-3.14],[-23.98,-3.61],[-24.46,-4.08],[-24.8,-4.38],[-25.57,-4.92],[-26.19,-5.23],[-26.36,-5.85],[-26.57,-6.61],[-27.04,-7.05],[-27.59,-7.47],[-28.23,-7.6],[-28.86,-7.72],[-29.38,-7.86],[-29.7,-7.94],[-30.04,-8.03],[-30.16,-8.23],[-30.54,-8.51],[-30.92,-8.82],[-31.34,-9.19],[-31.64,-9.48],[-31.83,-9.6],[-31.83,-9.6],[-31.84,-9.59],[-32.56,-8.93],[-33.07,-8.45],[-33.57,-7.96],[-34.29,-7.51],[-35.02,-7.05],[-35.65,-6.5],[-36.31,-6.12],[-36.8,-5.82],[-37.29,-5.53],[-37.77,-5.28],[-38.25,-5.03],[-38.71,-4.75],[-39.17,-4.47],[-39.96,-3.88],[-40.67,-3.67],[-41.38,-3.46],[-41.88,-3.29],[-42.38,-3.11],[-43.38,-3.09],[-43.9,-3.03],[-44.42,-2.97],[-45.12,-3.34],[-45.82,-3.72],[-46.52,-4.09],[-47.27,-4.71],[-48.02,-5.34],[-48.78,-5.96],[-49.08,-6.64],[-49.48,-6.99],[-49.89,-7.34],[-50.58,-8.04],[-51.21,-8.39],[-51.92,-8.86],[-52.63,-9.32],[-53.43,-9.44],[-54.24,-9.55],[-55.21,-9.7],[-56.19,-9.84],[-56.97,-9.99],[-57.75,-10.13],[-58.72,-10.25],[-59.69,-10.38],[-60.6,-10.41],[-60.6,-10.41],[-60.48,-9.75],[-60.36,-9.09],[-60.16,-8.35],[-59.96,-7.6],[-59.76,-6.86],[-59.52,-6.08],[-59.27,-5.29],[-59.03,-4.51],[-58.72,-3.81],[-58.4,-3.1],[-58.09,-2.4],[-57.68,-2.06],[-57.26,-1.73],[-56.7,-1.3],[-56.14,-0.87],[-55.8,-0.54],[-55.8,-0.54],[-55.51,0.36],[-55.21,1.27],[-55.21,1.27],[-55.24,2.04],[-55.26,2.81],[-55.29,3.57],[-55.32,4.34],[-55.38,5.29],[-55.45,6.25],[-55.51,7.2],[-55.58,8.15],[-55.64,9.11],[-55.71,10.06],[-55.78,11.02],[-55.77,11.79],[-55.76,12.56],[-55.75,13.33],[-55.75,14.11],[-55.31,14.86],[-54.88,15.61],[-54.44,16.37],[-54,17.12],[-53.56,17.87],[-52.91,18.57],[-52.25,19.27],[-51.59,19.96],[-50.92,20.65],[-50.38,21.18],[-49.85,21.71],[-49.3,22.23],[-49.3,22.23],[-48.87,23.09],[-48.43,23.95],[-47.99,24.81],[-47.77,25.78],[-47.54,26.76],[-47.31,27.73],[-47.07,28.71],[-46.83,29.68],[-46.58,30.66],[-46.4,31.56],[-46.21,32.46],[-46.02,33.36],[-45.83,34.26],[-45.63,35.16],[-45.42,36.06],[-45.22,36.95],[-45.36,37.89],[-45.5,38.82],[-45.65,39.76],[-45.8,40.69],[-46.37,41.42],[-46.95,42.14],[-46.67,43.07],[-46.4,44],[-46.11,44.93],[-45.81,45.86],[-45.5,46.79],[-45.34,47.4],[-45.18,48.01],[-45.18,48.01],[-45.92,48.48],[-46.69,48.94],[-47.46,49.39],[-48.27,50.04],[-49.11,50.69],[-49.96,51.33],[-50.84,51.96],[-51.82,52.68],[-52.83,53.4],[-53.87,54.11],[-54.51,54.68],[-55.16,55.26],[-55.16,55.26],[-53.91,55.73],[-52.62,56.18],[-51.46,56.49],[-50.29,56.8],[-49.1,57.09],[-47.43,57.38],[-45.73,57.64],[-44.54,57.86],[-43.34,58.06],[-42.12,58.25],[-40.68,58.6],[-39.21,58.94],[-37.71,59.26],[-36.57,59.6],[-35.41,59.93],[-34.22,60.25],[-32.62,60.43],[-31,60.6],[-29.36,60.75],[-27.53,61.18],[-25.64,61.57],[-24.23,62.05],[-22.78,62.52],[-21.28,62.97],[-21.28,62.97],[-20.49,62.17],[-19.74,61.37],[-19.03,60.57],[-18.35,59.77],[-17.85,58.91],[-17.37,58.05],[-16.92,57.19],[-16.48,56.32],[-16.45,56.26],[-16.29,55.93],[-16.25,55.82],[-16.19,55.66],[-16.07,55.38],[-15.82,54.8],[-15.58,54.23],[-15.46,53.9],[-15.46,53.9],[-15.05,53.14],[-14.64,52.37],[-14.25,51.6],[-13.82,50.79],[-13.41,49.98],[-13,49.17],[-12.62,48.36],[-12.24,47.54],[-11.84,46.86],[-11.44,46.17],[-11.06,45.49],[-11.4,44.87],[-10.96,43.95],[-10.53,43.02],[-10.12,42.1],[-9.71,41.17],[-9.32,40.24],[-9.32,39.25],[-9.33,38.26],[-9.33,37.27],[-9.33,36.28],[-8.48,36.11],[-7.64,35.92],[-6.79,35.73],[-5.79,35.63],[-4.79,35.52],[-3.79,35.39],[-2.83,35.73],[-1.87,36.06],[-1.09,35.84],[-0.31,35.61],[0.3,34.86],[0.9,34.1],[0.93,33.41],[0.97,32.72],[1.23,31.98],[1.48,31.24],[1.63,30.28],[1.77,29.33],[2,28.59],[2.22,27.84],[2.78,27.27],[3.11,26.72],[3.43,26.17],[3.58,25.64],[3.73,25.12],[3.68,24.45],[3.64,23.79],[3.39,23.22],[3.15,22.65],[2.83,21.89],[2.51,21.13],[2.04,20.51],[1.57,19.9],[0.76,19.36],[-0.05,18.82],[-0.37,18.01],[-0.68,17.2],[-0.98,16.39],[-1.29,15.58],[-1.62,14.71],[-1.95,13.84],[-2.28,12.97],[-2.45,12.18],[-2.65,11.79],[-2.1,11.07],[-1.55,10.36],[-1,9.64],[-0.45,10.06],[0.17,9.4],[0.8,8.73],[1.42,8.07],[2.04,7.4],[1.68,6.72],[1.33,6.04],[0.97,5.36],[0.3,4.65],[-0.36,3.95],[-1.03,3.24],[-1.73,2.58],[-2.42,1.93],[-3.12,1.27],[-3.82,0.61],[-4.13,0.04]]]}},{"type":"Feature","properties":{"ma":230,"type":"gpml:TopologicalClosedPlateBoundary","name":"Farallon Plate","pid":902,"deforming":false},"geometry":{"type":"Polygon","coordinates":[[[-135.34,-6.11],[-135.88,-5.82],[-136.14,-4.87],[-136.4,-3.92],[-136.66,-2.97],[-136.92,-2.03],[-137.17,-1.08],[-137.43,-0.13],[-137.69,0.82],[-137.93,1.72],[-138.18,2.63],[-138.42,3.54],[-138.67,4.44],[-138.91,5.35],[-139.16,6.25],[-139.41,7.16],[-139.65,8.07],[-139.9,8.97],[-140.15,9.88],[-139.18,10.1],[-138.2,10.32],[-137.22,10.54],[-137.41,11.51],[-137.61,12.48],[-137.81,13.45],[-138.02,14.42],[-138.22,15.39],[-138.43,16.37],[-138.64,17.34],[-138.85,18.31],[-139.06,19.28],[-139.28,20.25],[-139.49,21.22],[-139.72,22.19],[-139.94,23.16],[-140.17,24.13],[-140.4,25.09],[-139.45,25.28],[-138.49,25.46],[-137.54,25.63],[-137.77,26.61],[-138.01,27.58],[-138.25,28.55],[-138.5,29.52],[-138.76,30.49],[-139.01,31.46],[-139.28,32.43],[-139.54,33.4],[-139.82,34.37],[-140.1,35.34],[-140.39,36.31],[-140.69,37.27],[-140.99,38.24],[-141.3,39.21],[-141.62,40.17],[-141.95,41.13],[-142.29,42.1],[-142.64,43.06],[-143,44.02],[-143.37,44.98],[-142.01,45.25],[-140.64,45.51],[-139.26,45.75],[-139.59,46.71],[-139.93,47.66],[-140.28,48.62],[-140.65,49.57],[-141.03,50.53],[-141.43,51.48],[-141.85,52.43],[-142.28,53.37],[-142.74,54.32],[-143.21,55.26],[-143.71,56.21],[-144.23,57.15],[-144.78,58.09],[-145.36,59.02],[-145.98,59.95],[-144.52,60.26],[-143.04,60.55],[-141.54,60.82],[-142.23,61.74],[-142.96,62.65],[-143.75,63.56],[-144.58,64.46],[-145.47,65.36],[-146.42,66.26],[-147.44,67.15],[-148.54,68.03],[-149.73,68.9],[-151.01,69.77],[-152.4,70.62],[-153.92,71.46],[-155.57,72.29],[-157.38,73.11],[-159.36,73.9],[-159.36,73.9],[-156.64,74.46],[-153.73,74.99],[-150.63,75.47],[-147.32,75.91],[-143.81,76.31],[-140.12,76.65],[-136.25,76.93],[-132.24,77.16],[-128.1,77.32],[-123.88,77.41],[-123.88,77.41],[-119.63,77.52],[-115.33,77.56],[-111.02,77.53],[-106.56,77.63],[-102.07,77.64],[-97.58,77.59],[-93.17,77.46],[-88.86,77.26],[-84.71,76.99],[-80.74,76.66],[-76.97,76.27],[-73.42,75.83],[-70.09,75.34],[-66.99,74.8],[-64.1,74.22],[-61.09,73.76],[-58.26,73.25],[-55.6,72.7],[-53.1,72.13],[-50.75,71.52],[-50.75,71.52],[-51.31,70.86],[-52,70.17],[-52.64,69.48],[-53.72,68.93],[-54.74,68.37],[-56.1,67.7],[-57.37,67.01],[-58.58,66.32],[-59.5,65.83],[-60.38,65.34],[-60.38,65.34],[-60.26,64.61],[-60.14,63.89],[-60.04,63.16],[-60.04,63.16],[-61.93,62.86],[-63.78,62.53],[-65.59,62.19],[-67.65,62],[-69.69,61.78],[-71.7,61.53],[-73.67,61.25],[-75.61,60.94],[-77.51,60.6],[-79.37,60.24],[-81.19,59.85],[-82.96,59.44],[-84.69,59.01],[-86.37,58.55],[-88.04,58.17],[-89.66,57.77],[-91.26,57.35],[-92.81,56.9],[-94.33,56.44],[-95.81,55.97],[-97.25,55.47],[-98.66,54.96],[-100.02,54.35],[-101.33,53.74],[-102.61,53.1],[-103.85,52.46],[-104.59,51.8],[-105.3,51.14],[-106,50.48],[-106.67,49.81],[-107.06,49.1],[-107.43,48.39],[-107.79,47.67],[-108.14,46.95],[-108.14,46.95],[-107.54,46.58],[-106.91,45.9],[-106.29,45.23],[-105.7,44.54],[-105.08,43.82],[-104.47,43.1],[-103.88,42.38],[-103.42,41.64],[-102.96,40.9],[-102.52,40.17],[-102.09,39.43],[-101.63,38.79],[-101.18,38.16],[-100.73,37.52],[-100.06,36.72],[-99.4,35.91],[-98.76,35.1],[-98.03,34.42],[-97.32,33.74],[-96.63,33.05],[-96.32,32.59],[-96.01,32.13],[-96.01,32.13],[-95.53,32.61],[-95.04,33.08],[-94.14,33.64],[-93.22,34.19],[-92.29,34.74],[-91.35,35.27],[-90.4,35.8],[-89.44,36.32],[-88.46,36.84],[-87.36,37.13],[-86.25,37.42],[-85.13,37.7],[-84,37.96],[-82.86,38.22],[-81.72,38.46],[-80.57,38.7],[-79.41,38.92],[-78.25,39.13],[-77.09,39.34],[-75.93,39.55],[-74.75,39.74],[-73.58,39.92],[-72.39,40.09],[-71.2,40.25],[-70.01,40.39],[-68.72,40.56],[-67.42,40.71],[-66.12,40.85],[-64.81,40.98],[-63.49,41.09],[-62.18,41.18],[-61.01,41.21],[-59.85,41.23],[-58.69,41.23],[-57.52,41.23],[-56.36,41.21],[-55.2,41.18],[-54.02,41.08],[-52.85,40.97],[-51.68,40.85],[-50.52,40.71],[-49.36,40.56],[-48.21,40.41],[-47.07,40.24],[-46.37,40.07],[-45.67,39.9],[-45.67,39.9],[-45.52,38.92],[-45.36,37.94],[-45.22,36.95],[-45.42,36.06],[-45.63,35.16],[-45.83,34.26],[-46.02,33.36],[-46.21,32.46],[-46.4,31.56],[-46.58,30.66],[-46.83,29.68],[-47.07,28.71],[-47.31,27.73],[-47.54,26.76],[-47.77,25.78],[-47.99,24.81],[-48.43,23.95],[-48.87,23.09],[-49.3,22.23],[-49.3,22.23],[-49.85,21.71],[-50.38,21.18],[-50.92,20.65],[-51.59,19.96],[-52.25,19.27],[-52.91,18.57],[-53.56,17.87],[-54,17.12],[-54.44,16.37],[-54.88,15.61],[-55.31,14.86],[-55.75,14.11],[-55.75,13.33],[-55.76,12.56],[-55.77,11.79],[-55.78,11.02],[-55.71,10.06],[-55.64,9.11],[-55.58,8.15],[-55.51,7.2],[-55.45,6.25],[-55.38,5.29],[-55.32,4.34],[-55.29,3.49],[-55.26,2.64],[-55.23,1.8],[-55.2,0.95],[-55.17,0.1],[-55.17,0.1],[-55.21,0.04],[-55.67,-0.42],[-56.14,-0.87],[-56.7,-1.3],[-57.26,-1.73],[-57.68,-2.06],[-58.09,-2.4],[-58.4,-3.1],[-58.72,-3.81],[-59.03,-4.51],[-59.27,-5.29],[-59.52,-6.08],[-59.76,-6.86],[-59.96,-7.6],[-60.16,-8.35],[-60.36,-9.09],[-60.49,-9.83],[-60.63,-10.57],[-60.27,-11.22],[-59.91,-11.88],[-59.74,-12.57],[-59.56,-13.27],[-59.39,-13.96],[-59.15,-14.62],[-58.91,-15.27],[-58.61,-15.87],[-58.61,-15.87],[-58.65,-15.9],[-58.87,-16.19],[-59.12,-16.52],[-59.23,-16.74],[-59.35,-16.93],[-59.54,-17.26],[-59.69,-17.51],[-59.8,-17.74],[-59.94,-17.99],[-60.37,-18.75],[-60.8,-19.51],[-61.23,-20.27],[-61.67,-21.03],[-62.12,-21.79],[-62.16,-22.66],[-62.2,-23.52],[-62.23,-24.39],[-62.24,-25.25],[-62.25,-26.12],[-62.26,-26.98],[-62.27,-27.84],[-62.28,-28.7],[-62.29,-29.56],[-62.17,-30.39],[-62.06,-31.22],[-61.94,-32.05],[-61.87,-32.53],[-61.87,-32.53],[-63,-32.58],[-64.12,-32.61],[-65.25,-32.64],[-66.38,-32.66],[-67.5,-32.67],[-68.63,-32.66],[-69.76,-32.65],[-70.88,-32.63],[-72.01,-32.59],[-73.13,-32.55],[-74.26,-32.5],[-75.38,-32.44],[-76.5,-32.36],[-77.62,-32.28],[-78.73,-32.19],[-79.85,-32.09],[-80.96,-31.97],[-81.06,-31],[-81.16,-30.02],[-82.23,-29.87],[-83.3,-29.72],[-84.36,-29.56],[-85.42,-29.38],[-86.48,-29.21],[-87.53,-29.02],[-88.58,-28.82],[-89.63,-28.62],[-90.67,-28.4],[-91.71,-28.18],[-92.74,-27.96],[-93.77,-27.72],[-94.79,-27.48],[-95.81,-27.23],[-96.82,-26.97],[-97.83,-26.7],[-97.62,-25.91],[-97.4,-25.12],[-98.38,-24.88],[-99.35,-24.64],[-100.32,-24.39],[-101.29,-24.13],[-102.25,-23.87],[-103.21,-23.6],[-104.17,-23.32],[-105.12,-23.04],[-106.06,-22.76],[-107.01,-22.46],[-107.94,-22.17],[-107.63,-21.26],[-107.32,-20.36],[-108.23,-20.05],[-109.15,-19.74],[-110.05,-19.43],[-110.96,-19.11],[-111.86,-18.78],[-112.76,-18.46],[-113.65,-18.12],[-114.54,-17.79],[-115.43,-17.45],[-116.31,-17.1],[-117.19,-16.76],[-116.98,-16.1],[-116.77,-15.45],[-116.56,-14.79],[-117.5,-14.4],[-118.43,-14],[-119.37,-13.61],[-120.3,-13.21],[-121.22,-12.8],[-122.15,-12.39],[-123.07,-11.98],[-123.98,-11.57],[-124.9,-11.15],[-125.81,-10.73],[-126.72,-10.31],[-127.63,-9.89],[-128.53,-9.46],[-129.43,-9.03],[-130.34,-8.6],[-131.23,-8.16],[-132.13,-7.73],[-133.02,-7.29],[-133.92,-6.85],[-134.81,-6.41],[-135.34,-6.11]]]}},{"type":"Feature","properties":{"ma":230,"type":"gpml:TopologicalClosedPlateBoundary","name":"Junction Plate North","pid":498,"deforming":false},"geometry":{"type":"Polygon","coordinates":[[[113.16,-17.6],[113.17,-16.71],[113.18,-15.82],[113.18,-14.92],[113.19,-14.03],[113.2,-13.14],[113.15,-12.26],[113.11,-11.39],[113.06,-10.51],[113.02,-9.64],[112.97,-8.76],[112.97,-8.76],[113.9,-8.88],[114.83,-9],[115.76,-9.11],[116.69,-9.22],[117.63,-9.33],[118.56,-9.44],[119.49,-9.54],[120.43,-9.64],[121.36,-9.74],[122.28,-10.17],[123.2,-10.59],[124.13,-11],[125.05,-11.42],[125.98,-11.83],[126.91,-12.24],[127.85,-12.64],[128.77,-12.93],[129.7,-13.21],[130.63,-13.49],[131.57,-13.76],[132.5,-14.03],[133.44,-14.3],[134.38,-14.56],[134.91,-14.85],[135.44,-15.15],[135.44,-15.15],[135.46,-16.07],[135.49,-17],[135.52,-17.92],[135.54,-18.85],[135.57,-19.77],[135.6,-20.7],[135.63,-21.62],[135.66,-22.55],[135.68,-23.47],[135.68,-23.47],[134.71,-23.6],[133.74,-23.73],[132.76,-23.84],[131.79,-23.96],[130.81,-24.06],[129.83,-24.16],[129.69,-23.25],[129.56,-22.34],[128.58,-22.41],[127.6,-22.47],[126.62,-22.53],[125.63,-22.58],[124.65,-22.62],[123.67,-22.66],[122.68,-22.69],[122.62,-21.84],[122.55,-20.99],[122.49,-20.15],[122.43,-19.3],[122.36,-18.45],[122.3,-17.6],[121.28,-17.62],[120.27,-17.64],[119.25,-17.65],[118.24,-17.65],[117.22,-17.65],[116.21,-17.65],[115.19,-17.64],[114.17,-17.62],[113.16,-17.6]]]}},{"type":"Feature","properties":{"ma":230,"type":"gpml:TopologicalClosedPlateBoundary","name":"Cimmerian-Neotethys Plate","pid":505,"deforming":false},"geometry":{"type":"Polygon","coordinates":[[[114.3,20.74],[114.49,19.91],[114.68,19.08],[114.87,18.25],[115.06,17.43],[115.24,16.6],[115.42,15.77],[115.91,15.17],[116.4,14.57],[116.88,13.97],[117.7,13.57],[118.52,13.17],[119.34,12.76],[119.74,12.11],[120.13,11.46],[120.53,10.81],[121.1,10.06],[121.67,9.3],[122,8.41],[122.32,7.52],[122.69,6.69],[123.06,5.85],[123.43,5.02],[123.38,4.02],[123.33,3.02],[123.29,2.03],[123.24,1.03],[122.63,0.46],[122.01,-0.11],[121.4,-0.69],[120.79,-1.26],[120.18,-1.83],[119.56,-2.41],[118.93,-2.99],[118.3,-3.57],[117.67,-4.15],[117,-4.64],[116.33,-5.13],[115.66,-5.62],[114.98,-6.11],[114.54,-6.71],[114.09,-7.3],[113.65,-7.89],[113.4,-8.82],[113.4,-8.82],[112.97,-8.76],[112.97,-8.76],[113.01,-9.52],[113.05,-10.28],[113.09,-11.03],[113.09,-11.03],[112.87,-11.92],[111.94,-11.91],[111.02,-11.9],[110.93,-12.72],[110.84,-13.54],[110.76,-14.36],[109.9,-14.29],[109.04,-14.22],[108.18,-14.15],[107.95,-15.06],[107.72,-15.97],[107.49,-16.89],[107.26,-17.8],[107.02,-18.71],[106.22,-18.61],[105.43,-18.5],[104.63,-18.39],[103.84,-18.28],[103.58,-19.14],[103.32,-20],[103.05,-20.86],[102.78,-21.72],[102.51,-22.57],[102.24,-23.43],[101.25,-23.37],[100.26,-23.3],[99.27,-23.22],[98.28,-23.14],[97.29,-23.05],[96.99,-23.83],[96.69,-24.6],[96.38,-25.37],[96.07,-26.14],[95.1,-25.84],[94.14,-25.54],[93.18,-25.22],[92.23,-24.9],[91.81,-25.82],[91.39,-26.75],[90.95,-27.66],[90.51,-28.58],[90.07,-29.5],[89.61,-30.41],[89.15,-31.33],[89.15,-31.33],[88.01,-31.28],[86.86,-31.23],[85.72,-31.17],[84.58,-31.09],[83.44,-31.01],[82.3,-30.94],[81.16,-30.86],[80.02,-30.77],[78.89,-30.67],[77.75,-30.56],[76.62,-30.44],[75.5,-30.31],[75.6,-29.8],[75.7,-29.29],[74.66,-28.97],[73.62,-28.64],[72.59,-28.31],[71.56,-27.97],[70.54,-27.62],[69.53,-27.26],[68.52,-26.89],[67.52,-26.52],[66.53,-26.14],[65.54,-25.76],[64.56,-25.37],[63.59,-24.97],[62.62,-24.56],[61.66,-24.15],[60.7,-23.73],[60.7,-23.73],[61.05,-22.92],[61.39,-22.1],[61.72,-21.29],[62.06,-20.47],[61.09,-20.09],[60.13,-19.72],[59.18,-19.33],[58.23,-18.94],[57.28,-18.55],[56.34,-18.15],[55.4,-17.75],[54.47,-17.34],[53.54,-16.93],[52.61,-16.51],[51.69,-16.09],[50.78,-15.66],[49.86,-15.24],[50.19,-14.36],[49.37,-13.93],[48.55,-13.49],[47.73,-13.06],[46.92,-12.62],[46.1,-12.17],[45.29,-11.73],[44.49,-11.28],[44.88,-10.52],[44.08,-9.98],[43.28,-9.43],[42.49,-8.88],[41.7,-8.33],[40.91,-7.78],[40.12,-7.23],[39.34,-6.67],[38.56,-6.12],[37.78,-5.56],[37,-5],[36.22,-4.44],[36.22,-4.44],[35.69,-5.28],[35.16,-6.11],[34.62,-6.94],[34.09,-7.78],[33.49,-8.5],[32.89,-9.22],[32.29,-9.95],[31.68,-10.67],[31.68,-10.67],[31.07,-9.9],[30.45,-9.14],[30.84,-8.73],[31.22,-8.32],[31.22,-8.32],[30.61,-7.66],[30.01,-6.99],[29.4,-6.33],[28.8,-5.67],[28.23,-6.11],[27.65,-6.55],[26.94,-5.85],[26.24,-5.14],[25.54,-4.43],[24.84,-3.72],[24.14,-3.01],[23.44,-2.3],[22.74,-1.58],[22.12,-2],[21.49,-2.41],[20.79,-1.73],[20.09,-1.05],[19.39,-0.36],[18.69,0.32],[17.99,1],[17.29,1.68],[16.59,2.36],[15.89,3.04],[15.18,3.72],[14.48,4.4],[14.48,4.4],[14.85,4.83],[15.23,5.26],[15.67,6.1],[16.12,6.95],[16.56,7.79],[17.01,8.64],[17.46,9.48],[17.84,10.2],[18.22,10.92],[18.61,11.63],[19,12.35],[19.39,13.06],[19.39,13.06],[20.25,12.83],[21.12,12.6],[21.98,12.37],[22.84,12.13],[23.63,12.02],[24.42,11.9],[25.21,11.79],[26,11.67],[26.9,11.65],[27.79,11.62],[28.68,11.58],[29.56,11.8],[30.44,12.01],[31.32,12.22],[31.96,12.5],[32.6,12.78],[33.24,13.06],[34.13,13.45],[35.02,13.85],[35.93,14.03],[36.85,14.22],[37.76,14.4],[38.38,14.77],[38.99,15.15],[39.61,15.52],[39.85,16.12],[40.1,16.71],[40.18,17.23],[40.26,17.75],[40.47,18.49],[40.68,19.23],[40.94,20.03],[41.2,20.82],[41.74,21.59],[42.29,22.36],[42.84,23.12],[43.5,23.9],[44.17,24.67],[45.02,25.22],[45.87,25.77],[46.73,26.31],[47.04,27.02],[47.36,27.73],[47.68,28.43],[47.87,29.23],[48.06,30.03],[48.71,30.33],[49.36,30.62],[50.19,30.29],[51.01,29.95],[51.01,29.95],[51.51,30.7],[52.02,31.44],[52.65,32.15],[53.3,32.87],[53.95,33.57],[54.62,34.28],[55.29,34.98],[55.98,35.68],[56.68,36.37],[57.4,37.06],[58.12,37.75],[58.66,38.65],[59.22,39.55],[59.79,40.45],[60.37,41.34],[60.97,42.23],[61.59,43.12],[61.59,43.12],[62.53,43.58],[63.48,44.02],[64.45,44.46],[65.43,44.89],[66.56,45.41],[67.71,45.91],[68.88,46.41],[70.07,46.89],[71.29,47.37],[71.66,48.14],[72.04,48.92],[72.43,49.7],[72.84,50.48],[72.84,50.48],[74.07,50.51],[75.3,50.53],[76.63,50.38],[77.95,50.22],[79.26,50.03],[80.57,49.84],[81.81,49.67],[83.05,49.49],[84.28,49.29],[85.7,49.09],[87.1,48.88],[88.45,48.88],[89.8,48.87],[91.18,49.06],[92.56,49.24],[93.41,49.39],[93.41,49.39],[92.36,48.73],[91.33,48.06],[90.34,47.39],[89.36,46.7],[88.42,46.01],[87.49,45.31],[86.6,44.6],[85.72,43.87],[84.87,43.14],[84.03,42.41],[83.22,41.67],[82.42,40.92],[81.65,40.17],[80.89,39.41],[80.14,38.65],[79.41,37.88],[78.7,37.11],[78.07,36.3],[77.45,35.49],[76.85,34.67],[76.26,33.85],[75.68,33.03],[75.1,32.21],[74.54,31.38],[73.99,30.56],[73.45,29.73],[72.88,28.99],[72.32,28.25],[71.77,27.51],[71.22,26.76],[70.69,26.01],[70.15,25.27],[69.63,24.52],[69.11,23.76],[69.11,23.76],[69.72,22.96],[70.32,22.15],[70.91,21.33],[71.5,20.52],[72.19,19.94],[72.87,19.36],[73.55,18.77],[74.23,18.19],[74.9,17.6],[75.8,17.2],[76.7,16.79],[77.6,16.38],[78.49,15.96],[79.38,15.54],[80.17,15.18],[80.96,14.81],[81.75,14.44],[82.53,14.06],[83.55,13.95],[84.56,13.83],[85.57,13.71],[86.59,13.58],[86.59,13.58],[87.49,13.55],[88.39,13.52],[89.29,13.49],[90.2,13.46],[91.15,13.47],[92.11,13.48],[93.07,13.49],[93.94,13.66],[94.81,13.83],[95.68,14],[96.56,14.16],[97.43,14.32],[98.32,14.54],[99.2,14.75],[100.09,14.96],[100.98,15.17],[101.87,15.37],[102.76,15.84],[103.66,16.3],[104.55,16.75],[105.45,17.21],[106.36,17.65],[107.23,18.01],[108.1,18.37],[108.97,18.72],[109.85,19.07],[110.73,19.41],[111.62,19.75],[112.51,20.08],[113.4,20.41],[114.3,20.74]]]}},{"type":"Feature","properties":{"ma":230,"type":"gpml:TopologicalClosedPlateBoundary","name":"Phoenix Plate","pid":919,"deforming":false},"geometry":{"type":"MultiPolygon","coordinates":[[[[180,-17.92],[180,-18.91],[180,-19.91],[180,-20.91],[180,-21.9],[180,-22.9],[180,-23.89],[180,-24.89],[180,-25.89],[180,-26.88],[180,-27.88],[180,-28.88],[180,-29.87],[180,-30.87],[180,-31.86],[180,-32.86],[180,-33.86],[180,-34.85],[180,-35.85],[180,-36.85],[180,-37.84],[180,-38.84],[180,-39.83],[180,-40.83],[180,-41.83],[180,-42.82],[180,-43.82],[180,-44.81],[180,-45.81],[180,-46.81],[180,-47.8],[180,-48.8],[180,-49.8],[180,-50.79],[180,-51.79],[180,-52.78],[180,-53.78],[180,-54.78],[180,-55.77],[180,-56.77],[180,-57.77],[180,-58.76],[180,-59.76],[180,-60.75],[180,-61.75],[180,-62.75],[180,-63.74],[180,-64.74],[180,-65.73],[180,-66.73],[180,-67.73],[177.68,-67.62],[175.39,-67.49],[173.13,-67.32],[170.9,-67.12],[168.71,-66.89],[166.57,-66.63],[164.47,-66.35],[162.42,-66.03],[160.46,-65.84],[158.54,-65.63],[156.65,-65.39],[154.79,-65.13],[152.97,-64.85],[152.97,-64.85],[152.54,-64.03],[152.13,-63.21],[151.75,-62.39],[150.73,-61.57],[150.97,-61.05],[151.82,-60.14],[152.62,-59.23],[153.34,-58.31],[154.02,-57.39],[154.27,-56.83],[154.51,-56.26],[154.43,-55.68],[154.35,-55.09],[153.81,-54.33],[153.29,-53.56],[152.79,-52.79],[152.31,-52.01],[151.68,-51.13],[151.07,-50.23],[150.48,-49.34],[149.92,-48.44],[149.37,-47.54],[149.22,-46.67],[149.07,-45.8],[148.93,-44.93],[148.8,-44.06],[148.66,-43.19],[148.46,-42.39],[148.26,-41.59],[148.06,-40.8],[147.87,-40],[147.68,-39.2],[147.54,-38.47],[147.41,-37.73],[147.28,-36.99],[147.28,-36.99],[146.3,-36.45],[145.34,-35.9],[144.39,-35.34],[143.46,-34.77],[142.42,-34.39],[141.39,-33.99],[140.81,-33.74],[140.23,-33.48],[139.8,-33.03],[139.37,-32.57],[138.91,-31.94],[138.46,-31.31],[137.79,-30.57],[137.13,-29.84],[136.48,-29.09],[135.84,-28.35],[135.81,-27.37],[135.78,-26.38],[135.78,-26.38],[136.82,-26.05],[137.86,-25.72],[138.89,-25.37],[139.92,-25.02],[140.94,-24.67],[141.95,-24.3],[142.96,-23.93],[143.96,-23.55],[144.96,-23.17],[145.95,-22.78],[146.94,-22.38],[147.91,-21.98],[148.88,-21.59],[149.84,-21.2],[150.8,-20.8],[151.75,-20.39],[152.7,-19.99],[153.64,-19.57],[154.58,-19.15],[155.51,-18.73],[156.44,-18.3],[157.36,-17.86],[158.28,-17.43],[159.19,-16.99],[160.1,-16.54],[160.59,-17.3],[161.08,-18.07],[161.58,-18.83],[162.09,-19.59],[163.01,-19.23],[163.93,-18.85],[164.85,-18.48],[165.76,-18.1],[166.67,-17.71],[167.58,-17.33],[168.48,-16.93],[169.38,-16.54],[170.27,-16.14],[171.16,-15.73],[172.05,-15.32],[172.94,-14.91],[173.82,-14.5],[174.69,-14.08],[175.57,-13.66],[175.98,-14.51],[176.4,-15.37],[176.82,-16.22],[177.25,-17.07],[177.67,-17.93],[178.45,-17.59],[179.23,-17.26],[180,-16.92],[180,-17.92]]],[[[-180,-66.73],[-180,-65.73],[-180,-64.74],[-180,-63.74],[-180,-62.75],[-180,-61.75],[-180,-60.75],[-180,-59.76],[-180,-58.76],[-180,-57.77],[-180,-56.77],[-180,-55.77],[-180,-54.78],[-180,-53.78],[-180,-52.78],[-180,-51.79],[-180,-50.79],[-180,-49.8],[-180,-48.8],[-180,-47.8],[-180,-46.81],[-180,-45.81],[-180,-44.81],[-180,-43.82],[-180,-42.82],[-180,-41.83],[-180,-40.83],[-180,-39.83],[-180,-38.84],[-180,-37.84],[-180,-36.85],[-180,-35.85],[-180,-34.85],[-180,-33.86],[-180,-32.86],[-180,-31.86],[-180,-30.87],[-180,-29.87],[-180,-28.88],[-180,-27.88],[-180,-26.88],[-180,-25.89],[-180,-24.89],[-180,-23.89],[-180,-22.9],[-180,-21.9],[-180,-20.91],[-180,-19.91],[-180,-18.91],[-180,-17.92],[-180,-16.92],[-179.1,-16.52],[-178.2,-16.12],[-177.31,-15.72],[-176.42,-15.31],[-175.54,-14.89],[-174.66,-14.48],[-173.78,-14.06],[-172.9,-13.63],[-172.03,-13.21],[-171.16,-12.78],[-170.29,-12.35],[-169.43,-11.91],[-168.57,-11.48],[-168.06,-12.13],[-167.55,-12.78],[-167.04,-13.42],[-166.16,-12.96],[-165.29,-12.49],[-164.42,-12.01],[-163.55,-11.54],[-162.69,-11.06],[-161.82,-10.58],[-160.97,-10.1],[-160.11,-9.61],[-159.26,-9.12],[-158.41,-8.64],[-158.05,-9.49],[-157.69,-10.34],[-157.33,-11.19],[-156.42,-10.8],[-155.51,-10.41],[-154.6,-10.02],[-153.69,-9.63],[-152.79,-9.23],[-151.88,-8.84],[-150.98,-8.44],[-150.09,-8.03],[-149.19,-7.63],[-148.29,-7.22],[-147.4,-6.81],[-146.51,-6.41],[-145.62,-5.99],[-144.73,-5.58],[-143.84,-5.17],[-142.95,-4.75],[-142.09,-4.38],[-141.22,-4.01],[-140.35,-3.63],[-139.49,-3.25],[-138.62,-2.88],[-137.76,-2.5],[-136.89,-2.12],[-136.89,-2.12],[-136.64,-3.04],[-136.39,-3.97],[-136.13,-4.89],[-135.88,-5.82],[-135.34,-6.11],[-134.81,-6.41],[-133.92,-6.85],[-133.02,-7.29],[-132.13,-7.73],[-131.23,-8.16],[-130.34,-8.6],[-129.43,-9.03],[-128.53,-9.46],[-127.63,-9.89],[-126.72,-10.31],[-125.81,-10.73],[-124.9,-11.15],[-123.98,-11.57],[-123.07,-11.98],[-122.15,-12.39],[-121.22,-12.8],[-120.3,-13.21],[-119.37,-13.61],[-118.43,-14],[-117.5,-14.4],[-116.56,-14.79],[-116.77,-15.45],[-116.98,-16.1],[-117.19,-16.76],[-116.31,-17.1],[-115.43,-17.45],[-114.54,-17.79],[-113.65,-18.12],[-112.76,-18.46],[-111.86,-18.78],[-110.96,-19.11],[-110.05,-19.43],[-109.15,-19.74],[-108.23,-20.05],[-107.32,-20.36],[-107.63,-21.26],[-107.94,-22.17],[-107.01,-22.46],[-106.06,-22.76],[-105.12,-23.04],[-104.17,-23.32],[-103.21,-23.6],[-102.25,-23.87],[-101.29,-24.13],[-100.32,-24.39],[-99.35,-24.64],[-98.38,-24.88],[-97.4,-25.12],[-97.62,-25.91],[-97.83,-26.7],[-96.82,-26.97],[-95.81,-27.23],[-94.79,-27.48],[-93.77,-27.72],[-92.74,-27.96],[-91.71,-28.18],[-90.67,-28.4],[-89.63,-28.62],[-88.58,-28.82],[-87.53,-29.02],[-86.48,-29.21],[-85.42,-29.38],[-84.36,-29.56],[-83.3,-29.72],[-82.23,-29.87],[-81.16,-30.02],[-81.06,-31],[-80.96,-31.97],[-79.85,-32.09],[-78.73,-32.19],[-77.62,-32.28],[-76.5,-32.36],[-75.38,-32.44],[-74.26,-32.5],[-73.13,-32.55],[-72.01,-32.59],[-70.88,-32.63],[-69.76,-32.65],[-68.63,-32.66],[-67.5,-32.67],[-66.38,-32.66],[-65.25,-32.64],[-64.12,-32.61],[-63,-32.58],[-61.87,-32.53],[-61.87,-32.53],[-61.76,-33.34],[-61.65,-34.16],[-61.15,-34.99],[-61.13,-35.52],[-61.12,-36.05],[-61.06,-36.8],[-61.16,-37.35],[-61.17,-37.71],[-61.19,-38],[-61.19,-38],[-61.25,-38.59],[-61.46,-39.06],[-61.83,-39.87],[-62.09,-40.31],[-62.27,-41.01],[-62.46,-41.56],[-62.54,-41.88],[-62.68,-42.26],[-62.82,-42.68],[-63.1,-43.53],[-63.39,-44.37],[-63.72,-45.12],[-64.05,-45.86],[-64.39,-46.61],[-64.74,-47.35],[-65.4,-48.05],[-66.08,-48.75],[-66.77,-49.45],[-67.49,-50.14],[-68.23,-50.83],[-68.55,-51.64],[-68.89,-52.46],[-69.2,-53.18],[-69.51,-53.89],[-70.3,-54.63],[-71.11,-55.37],[-71.32,-55.61],[-71.39,-55.73],[-71.39,-55.73],[-71.59,-56.05],[-71.59,-56.05],[-72.18,-56.56],[-72.58,-56.8],[-72.88,-57.14],[-73.11,-57.4],[-73.5,-57.82],[-73.78,-58.08],[-74.28,-58.55],[-74.65,-58.88],[-75.04,-59.24],[-75.44,-59.62],[-76.07,-60.21],[-76.33,-60.44],[-76.69,-60.77],[-77.02,-61.06],[-77.33,-61.33],[-77.67,-61.66],[-77.95,-61.94],[-78.19,-62.17],[-78.26,-62.24],[-78.43,-62.46],[-78.64,-62.72],[-78.92,-63.14],[-79.37,-63.42],[-79.91,-63.7],[-80.64,-64],[-81.45,-64.36],[-81.96,-64.59],[-82.4,-64.8],[-82.78,-64.96],[-83.35,-65.25],[-83.92,-65.63],[-84.22,-65.97],[-84.48,-66.28],[-84.7,-66.52],[-84.88,-66.81],[-85.11,-67.14],[-85.3,-67.51],[-85.47,-67.92],[-85.74,-68.22],[-85.93,-68.36],[-86.28,-68.67],[-86.72,-69.01],[-87.12,-69.35],[-87.47,-69.71],[-87.51,-69.77],[-87.61,-70.18],[-87.56,-70.28],[-87.56,-70.28],[-89.8,-70.82],[-92.16,-71.34],[-94.99,-71.62],[-97.9,-71.85],[-100.87,-72.05],[-103.9,-72.19],[-106.97,-72.29],[-109.66,-72.38],[-112.37,-72.43],[-115.09,-72.44],[-117.81,-72.42],[-120.31,-72.54],[-122.84,-72.63],[-125.4,-72.69],[-127.96,-72.72],[-130.69,-72.73],[-133.42,-72.71],[-136.14,-72.65],[-138.84,-72.56],[-141.49,-72.43],[-144.1,-72.26],[-146.65,-72.07],[-149.15,-71.84],[-151.86,-71.54],[-154.47,-71.21],[-156.99,-70.84],[-159.42,-70.44],[-161.75,-70.01],[-164.38,-69.65],[-166.93,-69.25],[-169.37,-68.81],[-171.72,-68.34],[-173.97,-67.84],[-175.99,-67.83],[-178,-67.79],[-180,-67.73],[-180,-66.73]]]]}},{"type":"Feature","properties":{"ma":230,"type":"gpml:TopologicalClosedPlateBoundary","name":"Izanagi Plate","pid":926,"deforming":false},"geometry":{"type":"MultiPolygon","coordinates":[[[[180,68.64],[180,67.65],[180,66.65],[180,65.66],[180,64.66],[180,63.67],[180,62.67],[180,61.68],[180,60.68],[180,59.69],[180,58.69],[180,57.7],[180,56.7],[180,55.71],[180,54.71],[180,53.72],[180,52.72],[180,51.73],[180,50.73],[180,49.74],[180,48.74],[180,47.75],[180,46.75],[180,45.76],[180,44.76],[180,43.77],[180,42.77],[180,41.78],[180,40.78],[180,39.79],[180,38.79],[180,37.8],[180,36.8],[180,35.81],[180,34.81],[180,33.82],[180,32.82],[180,31.83],[180,30.83],[180,29.84],[180,28.84],[180,27.85],[180,26.85],[180,25.86],[180,24.86],[180,23.87],[180,22.87],[180,21.88],[180,20.89],[180,19.89],[180,18.9],[180,17.9],[180,16.91],[180,15.91],[180,14.92],[180,13.92],[180,12.93],[180,11.93],[180,10.94],[180,9.94],[180,8.95],[180,7.95],[180,6.96],[180,5.96],[180,4.97],[180,3.97],[180,2.98],[180,1.98],[180,0.99],[180,-0.01],[180,-1],[180,-2],[180,-2.99],[180,-3.99],[180,-4.98],[180,-5.98],[180,-6.97],[180,-7.97],[180,-8.96],[180,-9.96],[180,-10.95],[180,-11.95],[180,-12.94],[180,-13.94],[180,-14.93],[180,-15.93],[180,-16.92],[179.23,-17.26],[178.45,-17.59],[177.67,-17.93],[177.25,-17.07],[176.82,-16.22],[176.4,-15.37],[175.98,-14.51],[175.57,-13.66],[174.69,-14.08],[173.82,-14.5],[172.94,-14.91],[172.05,-15.32],[171.16,-15.73],[170.27,-16.14],[169.38,-16.54],[168.48,-16.93],[167.58,-17.33],[166.67,-17.71],[165.76,-18.1],[164.85,-18.48],[163.93,-18.85],[163.01,-19.23],[162.09,-19.59],[161.58,-18.83],[161.08,-18.07],[160.59,-17.3],[160.1,-16.54],[159.19,-16.99],[158.28,-17.43],[157.36,-17.86],[156.44,-18.3],[155.51,-18.73],[154.58,-19.15],[153.64,-19.57],[152.7,-19.99],[151.75,-20.39],[150.8,-20.8],[149.84,-21.2],[148.88,-21.59],[147.91,-21.98],[146.94,-22.38],[145.95,-22.78],[144.96,-23.17],[143.96,-23.55],[142.96,-23.93],[141.95,-24.3],[140.94,-24.67],[139.92,-25.02],[138.89,-25.37],[137.86,-25.72],[136.82,-26.05],[135.78,-26.38],[135.78,-26.38],[135.75,-25.44],[135.72,-24.51],[135.69,-23.57],[135.66,-22.64],[135.63,-21.7],[135.6,-20.76],[135.57,-19.83],[135.55,-18.89],[135.52,-17.95],[135.49,-17.02],[135.46,-16.08],[135.44,-15.15],[135.44,-15.15],[134.91,-14.85],[134.38,-14.56],[133.44,-14.3],[132.5,-14.03],[131.57,-13.76],[130.63,-13.49],[129.7,-13.21],[128.77,-12.93],[127.85,-12.64],[126.91,-12.24],[125.98,-11.83],[125.05,-11.42],[124.13,-11],[123.2,-10.59],[122.28,-10.17],[121.36,-9.74],[120.37,-9.64],[119.37,-9.53],[118.37,-9.42],[117.38,-9.3],[116.38,-9.19],[115.39,-9.07],[114.4,-8.94],[113.4,-8.82],[113.4,-8.82],[113.65,-7.89],[114.09,-7.3],[114.54,-6.71],[114.98,-6.11],[115.66,-5.62],[116.33,-5.13],[117,-4.64],[117.67,-4.15],[118.3,-3.57],[118.93,-2.99],[119.56,-2.41],[120.18,-1.83],[120.79,-1.26],[121.4,-0.69],[122.01,-0.11],[122.63,0.46],[123.24,1.03],[123.29,2.03],[123.33,3.02],[123.38,4.02],[123.43,5.02],[123.06,5.85],[122.69,6.69],[122.32,7.52],[122,8.41],[121.67,9.3],[121.1,10.06],[120.53,10.81],[120.13,11.46],[119.74,12.11],[119.34,12.76],[118.52,13.17],[117.7,13.57],[116.88,13.97],[116.4,14.57],[115.91,15.17],[115.42,15.77],[115.24,16.6],[115.06,17.43],[114.87,18.25],[114.68,19.08],[114.49,19.91],[114.3,20.74],[114.3,20.74],[113.3,20.38],[112.31,20.01],[111.33,19.64],[110.35,19.26],[109.37,18.88],[108.4,18.49],[107.43,18.1],[106.47,17.7],[106.47,17.7],[106.76,18.49],[107.05,19.28],[107.35,20.07],[107.65,20.86],[107.95,21.65],[107.5,22.41],[107.04,23.16],[106.58,23.92],[106.11,24.67],[105.86,25.61],[105.6,26.54],[105.34,27.48],[105.07,28.41],[104.8,29.35],[104.53,30.28],[104.25,31.22],[103.96,32.15],[104.14,32.94],[104.33,33.73],[104.52,34.53],[104.72,35.32],[105.08,36.14],[105.45,36.95],[105.82,37.77],[106.21,38.59],[106.6,39.4],[106.6,39.4],[106.85,39.91],[107.58,40.63],[108.32,41.35],[109.08,42.06],[109.86,42.77],[110.65,43.48],[111.77,43.67],[112.89,43.85],[114.02,44.02],[115.16,44.18],[116.3,44.32],[117.25,44.72],[118.21,45.11],[119.18,45.49],[119.18,45.49],[120.06,45.4],[121.24,45.3],[122.42,45.19],[123.46,45.58],[124.46,45.54],[125.56,45.38],[126.65,45.21],[127.73,45.03],[128.81,44.84],[128.81,44.84],[129.79,45.16],[130.79,45.47],[131.82,45.69],[132.86,45.89],[133.9,46.09],[134.95,46.28],[135.93,46.39],[136.92,46.49],[137.91,46.59],[138.9,47.31],[139.91,48.02],[140.96,48.73],[142.03,49.42],[143.14,50.11],[144.27,50.78],[145.44,51.44],[146.65,52.09],[147.89,52.73],[149.16,53.35],[150.04,54.17],[150.96,54.98],[151.92,55.78],[152.92,56.57],[153.96,57.35],[155.04,58.13],[156.17,58.9],[157.36,59.65],[158.6,60.4],[159.89,61.13],[161.25,61.85],[162.67,62.56],[164.16,63.25],[165.72,63.92],[167.16,64.7],[168.69,65.46],[170.31,66.21],[172.02,66.94],[173.84,67.65],[175.78,68.33],[177.83,69],[180,69.64],[180,68.64]]],[[[-180,-15.93],[-180,-14.93],[-180,-13.94],[-180,-12.94],[-180,-11.95],[-180,-10.95],[-180,-9.96],[-180,-8.96],[-180,-7.97],[-180,-6.97],[-180,-5.98],[-180,-4.98],[-180,-3.99],[-180,-2.99],[-180,-2],[-180,-1],[-180,-0.01],[-180,0.99],[-180,1.98],[-180,2.98],[-180,3.97],[-180,4.97],[-180,5.96],[-180,6.96],[-180,7.95],[-180,8.95],[-180,9.94],[-180,10.94],[-180,11.93],[-180,12.93],[-180,13.92],[-180,14.92],[-180,15.91],[-180,16.91],[-180,17.9],[-180,18.9],[-180,19.89],[-180,20.89],[-180,21.88],[-180,22.87],[-180,23.87],[-180,24.86],[-180,25.86],[-180,26.85],[-180,27.85],[-180,28.84],[-180,29.84],[-180,30.83],[-180,31.83],[-180,32.82],[-180,33.82],[-180,34.81],[-180,35.81],[-180,36.8],[-180,37.8],[-180,38.79],[-180,39.79],[-180,40.78],[-180,41.78],[-180,42.77],[-180,43.77],[-180,44.76],[-180,45.76],[-180,46.75],[-180,47.75],[-180,48.74],[-180,49.74],[-180,50.73],[-180,51.73],[-180,52.72],[-180,53.72],[-180,54.71],[-180,55.71],[-180,56.7],[-180,57.7],[-180,58.69],[-180,59.69],[-180,60.68],[-180,61.68],[-180,62.67],[-180,63.67],[-180,64.66],[-180,65.66],[-180,66.65],[-180,67.65],[-180,68.64],[-180,69.64],[-178.02,70.16],[-175.95,70.67],[-173.77,71.14],[-171.48,71.6],[-169.08,72.02],[-166.58,72.41],[-163.97,72.77],[-161.74,73.35],[-159.36,73.9],[-157.38,73.11],[-155.57,72.29],[-153.92,71.46],[-152.4,70.62],[-151.01,69.77],[-149.73,68.9],[-148.54,68.03],[-147.44,67.15],[-146.42,66.26],[-145.47,65.36],[-144.58,64.46],[-143.75,63.56],[-142.96,62.65],[-142.23,61.74],[-141.54,60.82],[-143.04,60.55],[-144.52,60.26],[-145.98,59.95],[-145.36,59.02],[-144.78,58.09],[-144.23,57.15],[-143.71,56.21],[-143.21,55.26],[-142.74,54.32],[-142.28,53.37],[-141.85,52.43],[-141.43,51.48],[-141.03,50.53],[-140.65,49.57],[-140.28,48.62],[-139.93,47.66],[-139.59,46.71],[-139.26,45.75],[-140.64,45.51],[-142.01,45.25],[-143.37,44.98],[-143,44.02],[-142.64,43.06],[-142.29,42.1],[-141.95,41.13],[-141.62,40.17],[-141.3,39.21],[-140.99,38.24],[-140.69,37.27],[-140.39,36.31],[-140.1,35.34],[-139.82,34.37],[-139.54,33.4],[-139.28,32.43],[-139.01,31.46],[-138.76,30.49],[-138.5,29.52],[-138.25,28.55],[-138.01,27.58],[-137.77,26.61],[-137.54,25.63],[-138.49,25.46],[-139.45,25.28],[-140.4,25.09],[-140.17,24.13],[-139.94,23.16],[-139.72,22.19],[-139.49,21.22],[-139.28,20.25],[-139.06,19.28],[-138.85,18.31],[-138.64,17.34],[-138.43,16.37],[-138.22,15.39],[-138.02,14.42],[-137.81,13.45],[-137.61,12.48],[-137.41,11.51],[-137.22,10.54],[-138.2,10.32],[-139.18,10.1],[-140.15,9.88],[-139.9,8.97],[-139.65,8.07],[-139.41,7.16],[-139.16,6.25],[-138.91,5.35],[-138.67,4.44],[-138.42,3.54],[-138.18,2.63],[-137.93,1.72],[-137.69,0.82],[-137.49,0.08],[-137.29,-0.65],[-137.09,-1.39],[-136.89,-2.12],[-136.89,-2.12],[-137.76,-2.5],[-138.62,-2.88],[-139.49,-3.25],[-140.35,-3.63],[-141.22,-4.01],[-142.09,-4.38],[-142.95,-4.75],[-143.84,-5.17],[-144.73,-5.58],[-145.62,-5.99],[-146.51,-6.41],[-147.4,-6.81],[-148.29,-7.22],[-149.19,-7.63],[-150.09,-8.03],[-150.98,-8.44],[-151.88,-8.84],[-152.79,-9.23],[-153.69,-9.63],[-154.6,-10.02],[-155.51,-10.41],[-156.42,-10.8],[-157.33,-11.19],[-157.69,-10.34],[-158.05,-9.49],[-158.41,-8.64],[-159.26,-9.12],[-160.11,-9.61],[-160.97,-10.1],[-161.82,-10.58],[-162.69,-11.06],[-163.55,-11.54],[-164.42,-12.01],[-165.29,-12.49],[-166.16,-12.96],[-167.04,-13.42],[-167.55,-12.78],[-168.06,-12.13],[-168.57,-11.48],[-169.43,-11.91],[-170.29,-12.35],[-171.16,-12.78],[-172.03,-13.21],[-172.9,-13.63],[-173.78,-14.06],[-174.66,-14.48],[-175.54,-14.89],[-176.42,-15.31],[-177.31,-15.72],[-178.2,-16.12],[-179.1,-16.52],[-180,-16.92],[-180,-15.93]]]]}},{"type":"Feature","properties":{"ma":230,"type":"gpml:TopologicalClosedPlateBoundary","name":"Cache Creek/Mezcalear Ocean","pid":131,"deforming":false},"geometry":{"type":"Polygon","coordinates":[[[-96.01,32.13],[-96.32,32.59],[-96.63,33.05],[-97.32,33.74],[-98.03,34.42],[-98.76,35.1],[-99.4,35.91],[-100.06,36.72],[-100.73,37.52],[-101.18,38.16],[-101.63,38.79],[-102.09,39.43],[-102.52,40.17],[-102.96,40.9],[-103.42,41.64],[-103.88,42.38],[-104.47,43.1],[-105.08,43.82],[-105.7,44.54],[-106.29,45.23],[-106.91,45.9],[-107.54,46.58],[-108.14,46.95],[-108.14,46.95],[-107.79,47.67],[-107.43,48.39],[-107.06,49.1],[-106.67,49.81],[-106,50.48],[-105.3,51.14],[-104.59,51.8],[-103.85,52.46],[-102.61,53.1],[-101.33,53.74],[-100.02,54.35],[-98.66,54.96],[-97.25,55.47],[-95.81,55.97],[-94.33,56.44],[-92.81,56.9],[-91.26,57.35],[-89.66,57.77],[-88.04,58.17],[-86.37,58.55],[-84.69,59.01],[-82.96,59.44],[-81.19,59.85],[-79.37,60.24],[-77.51,60.6],[-75.61,60.94],[-73.67,61.25],[-71.7,61.53],[-69.69,61.78],[-67.65,62],[-65.59,62.19],[-63.78,62.53],[-61.93,62.86],[-60.04,63.16],[-60.04,63.16],[-59.96,62.59],[-59.88,62.03],[-59.53,61.29],[-59.2,60.55],[-58.89,59.81],[-58.31,58.91],[-57.76,58.01],[-57.18,57.35],[-56.62,56.69],[-56.08,56.03],[-55.32,55.39],[-54.58,54.75],[-53.87,54.11],[-52.83,53.4],[-51.82,52.68],[-50.84,51.96],[-49.96,51.33],[-49.11,50.69],[-48.27,50.04],[-47.46,49.39],[-46.69,48.94],[-45.92,48.48],[-45.18,48.01],[-45.18,48.01],[-45.34,47.4],[-45.5,46.79],[-45.81,45.86],[-46.11,44.93],[-46.4,44],[-46.67,43.07],[-46.95,42.14],[-46.37,41.42],[-45.8,40.69],[-45.67,39.9],[-45.67,39.9],[-46.37,40.07],[-47.07,40.24],[-48.21,40.41],[-49.36,40.56],[-50.52,40.71],[-51.68,40.85],[-52.85,40.97],[-54.02,41.08],[-55.2,41.18],[-56.36,41.21],[-57.52,41.23],[-58.69,41.23],[-59.85,41.23],[-61.01,41.21],[-62.18,41.18],[-63.49,41.09],[-64.81,40.98],[-66.12,40.85],[-67.42,40.71],[-68.72,40.56],[-70.01,40.39],[-71.2,40.25],[-72.39,40.09],[-73.58,39.92],[-74.75,39.74],[-75.93,39.55],[-77.09,39.34],[-78.25,39.13],[-79.41,38.92],[-80.57,38.7],[-81.72,38.46],[-82.86,38.22],[-84,37.96],[-85.13,37.7],[-86.25,37.42],[-87.36,37.13],[-88.46,36.84],[-89.44,36.32],[-90.4,35.8],[-91.35,35.27],[-92.29,34.74],[-93.22,34.19],[-94.14,33.64],[-95.04,33.08],[-95.53,32.61],[-96.01,32.13]]]}},{"type":"Feature","properties":{"ma":230,"type":"gpml:TopologicalClosedPlateBoundary","name":"Adria","pid":307,"deforming":false},"geometry":{"type":"Polygon","coordinates":[[[32.5,-11.84],[31.71,-12.37],[30.91,-12.9],[30.09,-12.31],[29.4,-12.82],[28.7,-13.33],[27.99,-13.84],[27.46,-13.29],[26.94,-12.73],[26.12,-13.13],[25.29,-13.54],[24.74,-12.82],[24.19,-12.09],[23.51,-12.41],[22.83,-12.72],[22.14,-13.03],[21.73,-12.48],[21.32,-11.93],[20.91,-11.38],[20.01,-11.8],[19.1,-12.2],[18.37,-12.55],[17.64,-12.9],[16.91,-13.25],[16.54,-12.43],[16.17,-11.61],[15.81,-10.79],[15.44,-9.97],[15.08,-9.15],[14.35,-9.3],[13.63,-9.45],[12.89,-9.6],[12.59,-8.86],[12.28,-8.12],[11.97,-7.39],[11.67,-6.65],[10.79,-6.84],[10.57,-6.06],[10.35,-5.29],[10.13,-4.51],[9.91,-3.73],[9.69,-2.96],[9.47,-2.37],[9.47,-2.37],[10.23,-1.97],[10.99,-1.57],[11.75,-1.16],[12.51,-0.76],[12.29,-0.04],[12.08,0.68],[11.86,1.41],[12.51,2.16],[13.17,2.91],[13.82,3.65],[14.48,4.4],[14.48,4.4],[15.18,3.72],[15.89,3.04],[16.59,2.36],[17.29,1.68],[17.99,1],[18.69,0.32],[19.39,-0.36],[20.09,-1.05],[20.79,-1.73],[21.49,-2.41],[22.12,-2],[22.74,-1.58],[23.44,-2.3],[24.14,-3.01],[24.84,-3.72],[25.54,-4.43],[26.24,-5.14],[26.94,-5.85],[27.65,-6.55],[28.23,-6.11],[28.8,-5.67],[29.4,-6.33],[30.01,-6.99],[30.61,-7.66],[31.22,-8.32],[31.22,-8.32],[30.84,-8.73],[30.45,-9.14],[31.07,-9.91],[31.7,-10.69],[32.32,-11.46],[32.5,-11.84]]]}},{"type":"Feature","properties":{"ma":230,"type":"gpml:TopologicalClosedPlateBoundary","name":"South China plate","pid":602,"deforming":false},"geometry":{"type":"Polygon","coordinates":[[[106.36,17.65],[105.45,17.21],[104.55,16.75],[103.66,16.3],[102.76,15.84],[101.87,15.37],[100.98,15.17],[100.09,14.96],[99.2,14.75],[98.32,14.54],[97.43,14.32],[96.56,14.16],[95.68,14],[94.81,13.83],[93.94,13.66],[93.07,13.49],[92.11,13.48],[91.15,13.47],[90.2,13.46],[89.29,13.49],[88.39,13.52],[87.49,13.55],[86.59,13.58],[86.59,13.58],[85.57,13.71],[84.56,13.83],[83.55,13.95],[82.53,14.06],[81.75,14.44],[80.96,14.81],[80.17,15.18],[79.38,15.54],[78.49,15.96],[77.6,16.38],[76.7,16.79],[75.8,17.2],[74.9,17.6],[74.23,18.19],[73.55,18.77],[72.87,19.36],[72.19,19.94],[71.5,20.52],[70.91,21.33],[70.32,22.15],[69.72,22.96],[69.11,23.76],[69.11,23.76],[69.63,24.52],[70.15,25.27],[70.69,26.01],[71.22,26.76],[71.77,27.51],[72.32,28.25],[72.88,28.99],[73.45,29.73],[73.99,30.56],[74.54,31.38],[75.1,32.21],[75.68,33.03],[76.26,33.85],[76.85,34.67],[77.45,35.49],[78.07,36.3],[78.7,37.11],[79.41,37.88],[80.14,38.65],[80.89,39.41],[81.65,40.17],[82.42,40.92],[83.22,41.67],[84.03,42.41],[84.87,43.14],[85.72,43.87],[86.6,44.6],[87.49,45.31],[88.42,46.01],[89.36,46.7],[90.34,47.39],[91.33,48.06],[92.36,48.73],[93.41,49.39],[93.41,49.39],[94.3,49.53],[95.21,49.68],[96.04,49.66],[96.87,49.64],[98.23,49.3],[99.08,49.27],[99.92,49.23],[101.17,48.79],[102.4,48.33],[103.39,47.87],[104.35,47.4],[105.31,46.93],[106.24,46.44],[107.32,46.01],[108.28,45.88],[109.23,46.5],[109.68,46.44],[110.5,46.29],[111.32,46.14],[112.71,46.1],[113.73,46.25],[114.76,46.39],[114.76,46.39],[115.64,46.18],[116.52,45.95],[117.28,45.78],[118.03,45.61],[119.18,45.49],[119.18,45.49],[118.21,45.11],[117.25,44.72],[116.3,44.32],[115.16,44.18],[114.02,44.02],[112.89,43.85],[111.77,43.67],[110.65,43.48],[109.86,42.77],[109.08,42.06],[108.32,41.35],[107.58,40.63],[106.85,39.91],[106.6,39.4],[106.6,39.4],[106.21,38.59],[105.82,37.77],[105.45,36.95],[105.08,36.14],[104.72,35.32],[104.52,34.53],[104.33,33.73],[104.14,32.94],[103.96,32.15],[104.25,31.22],[104.53,30.28],[104.8,29.35],[105.07,28.41],[105.34,27.48],[105.6,26.54],[105.86,25.61],[106.11,24.67],[106.58,23.92],[107.04,23.16],[107.5,22.41],[107.95,21.65],[107.65,20.86],[107.35,20.07],[107.05,19.28],[106.76,18.49],[106.47,17.7],[106.36,17.65]]]}},{"type":"Feature","properties":{"ma":230,"type":"gpml:TopologicalNetwork","name":"Central_Atlantic_Mesh","pid":101,"deforming":true},"geometry":{"type":"Polygon","coordinates":[[[-4.52,-0.69],[-4.73,-1.21],[-4.95,-1.73],[-5.43,-2.17],[-5.92,-2.61],[-5.73,-2.77],[-5.73,-2.77],[-6.01,-2.88],[-6.63,-3.12],[-7.17,-2.95],[-7.76,-2.86],[-8.09,-2.68],[-8.42,-2.52],[-8.92,-2.34],[-9.36,-2.08],[-9.97,-1.91],[-10.41,-1.98],[-11.07,-2.25],[-11.88,-2.37],[-12.6,-2.52],[-13.14,-2.8],[-14.03,-3.09],[-14.47,-3.42],[-15.25,-3.81],[-15.97,-4.12],[-16.53,-4.03],[-16.68,-3.93],[-17.19,-3.91],[-18.14,-3.87],[-19.03,-3.7],[-19.16,-3.79],[-19.64,-4],[-20.11,-4.21],[-20.46,-4.64],[-20.81,-5.08],[-21.08,-5.51],[-21.34,-5.95],[-21.58,-6.56],[-21.93,-7.09],[-22.33,-7.64],[-22.54,-7.83],[-22.81,-8.07],[-22.94,-8.5],[-23.03,-8.94],[-23.11,-9.72],[-23.35,-10.14],[-23.58,-10.5],[-23.89,-10.71],[-24.09,-10.98],[-24.24,-11.23],[-24.46,-11.58],[-24.92,-11.54],[-25.34,-11.53],[-25.98,-11.78],[-26.37,-12.08],[-26.66,-12.44],[-26.88,-13.22],[-27.12,-14.1],[-27.13,-14.69],[-26.89,-15.2],[-26.89,-15.2],[-27.14,-15.13],[-27.62,-14.84],[-27.62,-14.84],[-27.65,-14.83],[-27.65,-14.83],[-28.07,-15.35],[-28.48,-15.87],[-28.6,-15.89],[-28.6,-15.89],[-28.61,-15.72],[-28.67,-15.44],[-28.61,-15.19],[-28.61,-14.95],[-28.75,-14.65],[-28.76,-14.5],[-28.72,-14.39],[-28.77,-14.2],[-28.86,-14.09],[-28.99,-13.98],[-29.07,-13.83],[-29.26,-13.56],[-29.51,-13.24],[-29.66,-13.01],[-29.61,-12.76],[-29.5,-12.41],[-29.5,-12.23],[-29.71,-12.11],[-29.83,-11.84],[-29.94,-11.7],[-30.06,-11.67],[-30.21,-11.33],[-30.33,-10.98],[-30.49,-10.65],[-30.54,-10.28],[-30.69,-9.91],[-30.83,-9.55],[-30.88,-9.33],[-30.91,-9.08],[-30.96,-8.85],[-30.96,-8.85],[-30.92,-8.82],[-30.54,-8.51],[-30.16,-8.23],[-30.04,-8.03],[-29.7,-7.94],[-29.38,-7.86],[-28.86,-7.72],[-28.23,-7.6],[-27.59,-7.47],[-27.04,-7.05],[-26.57,-6.61],[-26.36,-5.85],[-26.19,-5.23],[-25.57,-4.92],[-24.8,-4.38],[-24.46,-4.08],[-23.98,-3.61],[-23.51,-3.14],[-23.25,-2.7],[-23.08,-2.26],[-22.67,-2.1],[-22.55,-1.99],[-22.3,-2.01],[-22.01,-2.09],[-21.73,-2.09],[-21.27,-1.94],[-21.03,-1.91],[-20.85,-1.91],[-20.55,-1.64],[-20.23,-1.37],[-19.77,-1.23],[-19.43,-0.91],[-19.24,-0.34],[-19,-0.25],[-18.62,-0.38],[-18.12,-0.1],[-17.66,-0.07],[-16.91,0.01],[-16.14,0.17],[-15.64,0.33],[-14.88,0.49],[-14.39,0.81],[-13.73,1.23],[-13.17,1.52],[-12.63,1.67],[-12.02,1.83],[-11.69,1.87],[-11.22,1.79],[-10.57,1.76],[-10.01,1.85],[-9.53,1.91],[-9.05,1.94],[-8.53,1.96],[-7.91,1.96],[-7.18,1.85],[-6.51,1.72],[-5.74,1.66],[-5.41,1.58],[-5.22,1.38],[-5,1.31],[-4.86,1.18],[-4.74,1.09],[-4.55,0.92],[-4.28,0.75],[-4.33,0.64],[-4.47,0.52],[-4.78,0.5],[-4.74,0.31],[-4.61,0.1],[-4.31,0.3],[-4.26,0.31],[-4.13,0.29],[-4.13,0.07],[-4.13,0.04],[-4.52,-0.69]]]}},{"type":"Feature","properties":{"ma":230,"type":"gpml:TopologicalNetwork","name":"Proto_Caribbean_Mesh","pid":101,"deforming":true},"geometry":{"type":"Polygon","coordinates":[[[-31.64,-9.48],[-31.34,-9.19],[-30.96,-8.85],[-30.96,-8.85],[-30.91,-9.08],[-30.88,-9.33],[-30.83,-9.55],[-30.69,-9.91],[-30.54,-10.28],[-30.49,-10.65],[-30.33,-10.98],[-30.21,-11.33],[-30.06,-11.67],[-29.94,-11.7],[-29.83,-11.84],[-29.71,-12.11],[-29.5,-12.23],[-29.5,-12.41],[-29.61,-12.76],[-29.66,-13.01],[-29.51,-13.24],[-29.26,-13.56],[-29.07,-13.83],[-28.99,-13.98],[-28.86,-14.09],[-28.77,-14.2],[-28.72,-14.39],[-28.76,-14.5],[-28.75,-14.65],[-28.61,-14.95],[-28.61,-15.19],[-28.67,-15.44],[-28.61,-15.72],[-28.6,-15.89],[-28.6,-15.89],[-29.39,-16.06],[-30.18,-16.23],[-30.97,-16.39],[-31.6,-16.58],[-32.23,-16.76],[-32.82,-16.73],[-33.42,-16.7],[-33.95,-16.63],[-34.48,-16.56],[-35.39,-16.23],[-36.19,-16.12],[-36.99,-16],[-37.68,-15.86],[-38.36,-15.72],[-39.05,-15.58],[-39.82,-15.69],[-40.6,-15.79],[-41.26,-16.24],[-41.92,-16.69],[-42.55,-16.75],[-43.18,-16.81],[-43.72,-16.9],[-44.26,-16.99],[-44.85,-17.04],[-45.44,-17.09],[-46.1,-17.27],[-46.76,-17.45],[-47.45,-17.77],[-48.15,-18.07],[-48.94,-18.39],[-49.73,-18.71],[-50.59,-18.82],[-51.45,-18.93],[-52.32,-18.63],[-53.2,-18.33],[-53.86,-17.93],[-54.52,-17.52],[-55.03,-17.27],[-55.54,-17.02],[-56.13,-16.86],[-56.73,-16.69],[-57.31,-16.74],[-57.89,-16.78],[-58.18,-16.74],[-58.18,-16.74],[-58.54,-16.01],[-58.91,-15.27],[-59.15,-14.62],[-59.39,-13.96],[-59.56,-13.27],[-59.74,-12.57],[-59.91,-11.88],[-60.27,-11.22],[-60.63,-10.57],[-60.6,-10.41],[-60.6,-10.41],[-59.69,-10.38],[-58.72,-10.25],[-57.75,-10.13],[-56.97,-9.99],[-56.19,-9.84],[-55.21,-9.7],[-54.24,-9.55],[-53.43,-9.44],[-52.63,-9.32],[-51.92,-8.86],[-51.21,-8.39],[-50.58,-8.04],[-49.89,-7.34],[-49.48,-6.99],[-49.08,-6.64],[-48.78,-5.96],[-48.02,-5.34],[-47.27,-4.71],[-46.52,-4.09],[-45.82,-3.72],[-45.12,-3.34],[-44.42,-2.97],[-43.9,-3.03],[-43.38,-3.09],[-42.38,-3.11],[-41.88,-3.29],[-41.38,-3.46],[-40.67,-3.67],[-39.96,-3.88],[-39.17,-4.47],[-38.71,-4.75],[-38.25,-5.03],[-37.77,-5.28],[-37.29,-5.53],[-36.8,-5.82],[-36.31,-6.12],[-35.65,-6.5],[-35.02,-7.05],[-34.29,-7.51],[-33.57,-7.96],[-33.07,-8.45],[-32.56,-8.93],[-31.84,-9.59],[-31.83,-9.6],[-31.64,-9.48]]]}}]}