{"type":"FeatureCollection","features":[{"type":"Feature","properties":{"ma":245,"type":"gpml:TopologicalClosedPlateBoundary","name":"Pangea Plate","pid":701,"deforming":false},"geometry":{"type":"Polygon","coordinates":[[[180,-69.71],[180,-70.68],[180,-71.64],[180,-72.61],[180,-73.57],[180,-74.54],[180,-75.51],[180,-76.47],[180,-77.44],[180,-78.41],[180,-79.37],[180,-80.34],[180,-81.3],[180,-82.27],[180,-83.24],[180,-84.2],[180,-85.17],[180,-86.14],[180,-87.1],[180,-88.07],[180,-89.03],[180,-90],[-180,-90],[-180,-89.03],[-180,-88.07],[-180,-87.1],[-180,-86.14],[-180,-85.17],[-180,-84.2],[-180,-83.24],[-180,-82.27],[-180,-81.3],[-180,-80.34],[-180,-79.37],[-180,-78.41],[-180,-77.44],[-180,-76.47],[-180,-75.51],[-180,-74.54],[-180,-73.57],[-180,-72.61],[-180,-71.64],[-180,-70.68],[-180,-69.71],[-180,-68.74],[-177.34,-68.91],[-174.65,-69.04],[-171.93,-69.13],[-169.64,-69.68],[-167.23,-70.21],[-164.7,-70.7],[-162.05,-71.15],[-159.28,-71.57],[-156.84,-72.04],[-154.27,-72.48],[-151.58,-72.89],[-148.77,-73.26],[-145.84,-73.59],[-143.11,-73.85],[-140.3,-74.07],[-137.42,-74.26],[-134.48,-74.41],[-131.48,-74.52],[-128.44,-74.58],[-125.39,-74.61],[-122.33,-74.6],[-119.46,-74.57],[-116.61,-74.5],[-113.79,-74.4],[-111.02,-74.26],[-107.99,-74.26],[-104.97,-74.22],[-101.97,-74.14],[-99.01,-74.02],[-95.65,-73.88],[-92.35,-73.68],[-89.13,-73.44],[-86.02,-73.15],[-83.01,-72.81],[-80.59,-72.25],[-78.31,-71.65],[-78.31,-71.65],[-78.38,-71.55],[-78.36,-71.15],[-78.33,-71.08],[-78.03,-70.71],[-77.67,-70.37],[-77.27,-70.02],[-76.96,-69.7],[-76.78,-69.55],[-76.54,-69.25],[-76.44,-68.84],[-76.3,-68.46],[-76.12,-68.13],[-75.97,-67.83],[-75.78,-67.59],[-75.56,-67.27],[-75.28,-66.93],[-74.75,-66.53],[-74.19,-66.23],[-73.82,-66.06],[-73.39,-65.84],[-72.89,-65.6],[-72.09,-65.22],[-71.38,-64.9],[-70.85,-64.61],[-70.41,-64.32],[-70.18,-63.89],[-70,-63.62],[-69.85,-63.4],[-69.78,-63.32],[-69.57,-63.09],[-69.31,-62.8],[-68.99,-62.46],[-68.71,-62.18],[-68.4,-61.88],[-68.06,-61.55],[-67.82,-61.31],[-67.24,-60.71],[-66.86,-60.32],[-66.5,-59.95],[-66.16,-59.6],[-65.69,-59.12],[-65.43,-58.86],[-65.07,-58.42],[-64.86,-58.16],[-64.58,-57.81],[-64.19,-57.56],[-63.63,-57.03],[-63.63,-57.03],[-63.46,-56.71],[-63.46,-56.71],[-63.4,-56.59],[-63.21,-56.34],[-62.44,-55.58],[-61.7,-54.82],[-61.44,-54.1],[-61.19,-53.37],[-60.91,-52.55],[-60.64,-51.72],[-59.94,-51.01],[-59.26,-50.3],[-58.6,-49.59],[-57.96,-48.87],[-57.34,-48.14],[-57.03,-47.39],[-56.73,-46.64],[-56.44,-45.88],[-56.16,-45.13],[-55.92,-44.28],[-55.68,-43.42],[-55.56,-43],[-55.44,-42.61],[-55.38,-42.29],[-55.21,-41.74],[-55.07,-41.03],[-54.84,-40.58],[-54.5,-39.76],[-54.32,-39.29],[-54.28,-38.69],[-54.28,-38.69],[-54.28,-38.41],[-54.29,-38.04],[-54.21,-37.49],[-54.31,-36.74],[-54.35,-36.21],[-54.38,-35.68],[-54.93,-34.87],[-55.06,-34.17],[-55.19,-33.47],[-55.31,-32.77],[-55.47,-31.95],[-55.62,-31.12],[-55.77,-30.3],[-55.79,-29.43],[-55.82,-28.57],[-55.84,-27.71],[-55.87,-26.85],[-55.89,-25.99],[-55.91,-25.13],[-55.9,-24.26],[-55.9,-23.39],[-55.89,-22.52],[-55.47,-21.75],[-55.05,-20.98],[-54.64,-20.21],[-54.24,-19.44],[-53.83,-18.66],[-53.71,-18.4],[-53.6,-18.17],[-53.45,-17.92],[-53.28,-17.58],[-53.17,-17.39],[-53.06,-17.17],[-52.82,-16.83],[-52.61,-16.53],[-52.59,-16.51],[-52.59,-16.51],[-52.79,-16.14],[-53.06,-15.49],[-53.33,-14.85],[-53.52,-14.16],[-53.72,-13.47],[-53.91,-12.78],[-54.3,-12.14],[-54.68,-11.5],[-54.57,-10.75],[-54.46,-10.01],[-54.29,-9.26],[-54.11,-8.51],[-53.94,-7.76],[-53.72,-6.97],[-53.5,-6.18],[-53.28,-5.39],[-52.99,-4.68],[-52.7,-3.96],[-52.41,-3.25],[-52.01,-2.9],[-51.61,-2.55],[-51.06,-2.1],[-50.51,-1.66],[-50.19,-1.32],[-50.19,-1.32],[-49.93,-0.43],[-49.68,0.46],[-49.42,1.35],[-49.16,2.23],[-48.91,3.12],[-48.79,3.22],[-48.79,3.22],[-48.99,4.04],[-49.2,4.85],[-49.41,5.66],[-49.62,6.47],[-49.82,7.34],[-50.02,8.22],[-50.22,9.1],[-50.43,9.98],[-50.39,10.89],[-50.35,11.81],[-50.31,12.72],[-50.27,13.63],[-49.89,14.43],[-49.5,15.23],[-49.1,16.03],[-48.6,16.68],[-48.09,17.33],[-47.57,17.97],[-47.05,18.62],[-47.05,18.62],[-46.3,18.62],[-45.54,18.61],[-44.79,18.6],[-43.96,18.91],[-43.14,19.21],[-42.74,19.9],[-42.34,20.58],[-42.16,21.24],[-41.97,21.9],[-41.79,22.56],[-41.79,22.56],[-41.95,23.48],[-42.11,24.4],[-42.28,25.28],[-42.45,26.16],[-42.62,27.05],[-42.79,27.93],[-42.97,28.81],[-43.1,29.72],[-43.25,30.63],[-43.39,31.54],[-43.54,32.45],[-43.71,33.28],[-43.88,34.1],[-44.06,34.92],[-44.25,35.74],[-44.43,36.56],[-44.61,37.43],[-44.79,38.29],[-44.97,39.15],[-45.16,40.01],[-45.35,40.88],[-45.73,41.65],[-46.11,42.43],[-46.51,43.2],[-46.91,43.98],[-47.33,44.75],[-47.53,45.56],[-47.74,46.37],[-47.96,47.19],[-48.18,48],[-48.41,48.81],[-48.41,48.81],[-48.69,48.79],[-48.69,48.79],[-48.9,49.02],[-49.37,49.82],[-49.86,50.62],[-50.37,51.42],[-50.37,51.42],[-51,52.16],[-51.66,52.89],[-52.34,53.62],[-53.04,54.35],[-53.77,55.08],[-54.62,55.83],[-55.49,56.58],[-56.41,57.33],[-57.36,58.07],[-58.06,58.83],[-58.79,59.59],[-59.55,60.34],[-60.27,61.02],[-61.01,61.7],[-61.79,62.37],[-62.61,63.03],[-63.05,63.9],[-63.52,64.77],[-64.03,65.64],[-64.57,66.5],[-65.14,67.37],[-65.77,68.23],[-66.44,69.09],[-66.39,69.78],[-66.34,70.46],[-66.29,71.15],[-65.41,72.09],[-64.43,73.03],[-63.34,73.97],[-62.13,74.9],[-60.75,75.82],[-58.63,76.66],[-56.24,77.48],[-53.51,78.28],[-50.4,79.05],[-46.84,79.78],[-42.75,80.47],[-37.82,80.86],[-32.5,81.17],[-26.85,81.4],[-20.94,81.55],[-14.88,81.61],[-8.82,81.57],[-2.87,81.44],[3,81.22],[8.52,80.91],[13.63,80.52],[18.32,80.07],[22.57,79.55],[26.42,78.99],[29.87,78.38],[32.98,77.73],[35.52,77.05],[37.81,76.35],[39.87,75.62],[41.74,74.88],[41.74,74.88],[43.72,74.29],[45.55,73.67],[47.26,73.05],[47.26,73.05],[50.03,73.17],[52.83,73.26],[55.66,73.32],[58.5,73.33],[61.33,73.31],[64.46,73],[67.48,72.65],[70.37,72.25],[73.13,71.82],[75.76,71.34],[78.26,70.83],[80.63,70.29],[82.88,69.72],[85.35,69.53],[87.78,69.3],[90.15,69.05],[92.46,68.76],[94.71,68.43],[96.9,68.08],[96.9,68.08],[95.45,67.3],[94.1,66.49],[92.83,65.68],[91.64,64.86],[90.53,64.03],[89.47,63.19],[88.48,62.35],[87.54,61.49],[86.65,60.63],[85.81,59.77],[84.45,59.21],[83.14,58.64],[81.88,58.05],[80.65,57.45],[79.47,56.84],[78.32,56.23],[77.21,55.59],[76.14,54.95],[75.46,54.23],[74.8,53.51],[74.16,52.78],[73.54,52.05],[72.95,51.31],[72.2,50.61],[71.48,49.9],[70.77,49.19],[70.09,48.47],[69.42,47.75],[68.78,47.02],[68.16,46.24],[67.56,45.45],[66.97,44.65],[66.4,43.85],[65.85,43.05],[65.31,42.25],[64.78,41.45],[64.27,40.64],[63.77,39.83],[63.02,39.15],[62.29,38.46],[61.57,37.76],[60.86,37.07],[60.16,36.37],[59.48,35.66],[58.81,34.95],[58.15,34.24],[57.51,33.52],[56.99,32.78],[56.49,32.03],[55.64,32.37],[54.79,32.7],[54.13,32.4],[53.46,32.1],[53.27,31.3],[53.09,30.49],[52.77,29.79],[52.45,29.08],[52.14,28.37],[51.27,27.83],[50.4,27.27],[49.55,26.71],[48.64,26.64],[47.73,26.56],[46.83,26.47],[45.83,26.26],[44.83,26.04],[43.84,25.81],[43.34,25.25],[42.85,24.68],[42.36,24.11],[42.11,23.87],[42.11,23.87],[42.95,23.24],[43.79,22.6],[44.62,21.97],[45.44,21.32],[46.18,20.7],[46.91,20.07],[46.91,20.07],[46.06,19.51],[45.22,18.94],[44.38,18.36],[43.55,17.79],[42.72,17.2],[41.86,16.86],[41,16.51],[40.14,16.16],[39.28,15.81],[38.46,15.5],[37.64,15.19],[36.82,14.88],[36.01,14.57],[35.2,14.25],[34.24,14.08],[33.29,13.91],[32.34,13.73],[31.4,13.55],[30.45,13.36],[29.5,13.17],[28.56,12.98],[27.6,12.98],[26.64,12.97],[25.67,12.96],[24.71,12.95],[24.71,12.95],[24.38,12.47],[24.06,12],[23.81,11.2],[23.56,10.39],[23.31,9.59],[23.31,9.59],[23.89,9.13],[24.46,8.67],[25.26,8.06],[26.05,7.45],[26.84,6.84],[27.63,6.23],[28.42,5.62],[29.2,5],[29.99,4.39],[30.77,3.77],[31.14,4.21],[31.51,4.65],[32.21,4.18],[32.91,3.71],[33.61,3.23],[34.07,3.77],[34.54,4.32],[35.23,3.76],[35.92,3.2],[36.62,2.64],[37.3,2.08],[37.99,1.52],[38.78,0.94],[39.56,0.36],[40.34,-0.22],[41.12,-0.8],[41.9,-1.38],[41.28,-2.05],[40.66,-2.72],[40.03,-3.39],[39.41,-4.06],[38.78,-4.73],[38.16,-5.4],[38.16,-5.4],[38.85,-6.08],[39.54,-6.75],[40.24,-7.42],[40.94,-8.1],[41.64,-8.77],[42.34,-9.44],[43.05,-10.11],[43.76,-10.78],[44.47,-11.44],[45.18,-12.11],[45.9,-12.77],[46.63,-13.43],[46.12,-14.12],[46.86,-14.68],[47.61,-15.24],[48.35,-15.79],[49.11,-16.34],[49.86,-16.89],[50.62,-17.44],[51.39,-17.98],[50.92,-18.8],[51.78,-19.35],[52.64,-19.89],[53.51,-20.44],[54.38,-20.97],[55.26,-21.51],[56.15,-22.04],[57.04,-22.56],[57.94,-23.08],[58.85,-23.59],[59.77,-24.1],[60.69,-24.61],[61.62,-25.1],[62.55,-25.6],[62.09,-26.36],[61.62,-27.13],[61.14,-27.9],[60.65,-28.66],[60.65,-28.66],[61.58,-29.19],[62.51,-29.72],[63.45,-30.24],[64.4,-30.76],[65.36,-31.26],[66.33,-31.76],[67.31,-32.26],[68.31,-32.74],[69.31,-33.22],[70.33,-33.69],[71.35,-34.15],[72.39,-34.6],[73.44,-35.04],[74.49,-35.48],[75.57,-35.9],[75.38,-36.4],[75.19,-36.89],[76.38,-37.13],[77.58,-37.37],[78.79,-37.59],[80,-37.79],[81.22,-37.99],[82.45,-38.17],[83.68,-38.34],[84.91,-38.52],[86.14,-38.68],[87.38,-38.84],[88.62,-38.98],[89.87,-39.1],[89.87,-39.1],[90.48,-38.23],[91.07,-37.35],[91.64,-36.46],[92.2,-35.58],[92.76,-34.69],[93.29,-33.8],[93.82,-32.9],[94.82,-33.28],[95.84,-33.65],[96.86,-34.01],[97.88,-34.36],[98.27,-33.61],[98.66,-32.85],[99.04,-32.09],[99.41,-31.34],[100.47,-31.47],[101.52,-31.59],[102.59,-31.71],[103.65,-31.82],[104.72,-31.92],[105.05,-31.07],[105.38,-30.22],[105.7,-29.37],[106.02,-28.53],[106.33,-27.68],[106.64,-26.82],[107.48,-26.96],[108.32,-27.09],[109.17,-27.22],[110.01,-27.34],[110.29,-26.43],[110.56,-25.52],[110.82,-24.61],[111.09,-23.7],[111.34,-22.79],[112.25,-22.88],[113.15,-22.97],[114.05,-23.04],[114.15,-22.23],[114.25,-21.41],[114.35,-20.59],[115.32,-20.61],[116.29,-20.62],[116.51,-19.78],[116.72,-18.94],[116.94,-18.09],[117.15,-17.25],[118.12,-17.27],[118.12,-17.27],[118.11,-18.26],[118.1,-19.24],[118.1,-19.24],[119.13,-19.29],[120.16,-19.33],[121.19,-19.36],[122.22,-19.39],[123.25,-19.41],[124.28,-19.42],[125.31,-19.43],[126.34,-19.44],[127.37,-19.44],[127.41,-20.29],[127.46,-21.14],[127.5,-21.98],[127.55,-22.83],[127.6,-23.68],[127.65,-24.53],[128.65,-24.52],[129.64,-24.5],[130.64,-24.47],[131.64,-24.44],[132.64,-24.4],[133.63,-24.35],[134.63,-24.3],[134.75,-25.21],[134.87,-26.12],[135.98,-26.02],[137.08,-25.92],[138.18,-25.81],[139.28,-25.69],[140.38,-25.56],[140.38,-25.56],[140.38,-26.43],[140.37,-27.29],[140.36,-28.16],[140.97,-28.92],[141.58,-29.69],[142.21,-30.44],[142.84,-31.2],[143.27,-31.85],[143.7,-32.5],[144.1,-32.97],[144.51,-33.43],[145.07,-33.71],[145.65,-33.98],[146.66,-34.41],[147.67,-34.83],[148.58,-35.42],[149.5,-36.01],[150.44,-36.59],[151.38,-37.17],[151.38,-37.17],[151.48,-37.91],[151.57,-38.65],[151.67,-39.39],[151.81,-40.19],[151.96,-41],[152.11,-41.8],[152.27,-42.6],[152.43,-43.4],[152.5,-44.28],[152.59,-45.15],[152.67,-46.03],[152.76,-46.9],[152.84,-47.78],[153.33,-48.7],[153.83,-49.61],[154.34,-50.52],[154.88,-51.43],[155.45,-52.34],[155.86,-53.13],[156.3,-53.91],[156.75,-54.7],[157.22,-55.48],[157.24,-56.07],[157.26,-56.65],[156.95,-57.21],[156.64,-57.76],[155.85,-58.66],[155.01,-59.55],[154.09,-60.44],[153.11,-61.32],[152.79,-61.82],[153.7,-62.68],[153.95,-63.51],[154.22,-64.34],[154.51,-65.17],[154.51,-65.17],[156.3,-65.51],[158.13,-65.83],[160.01,-66.13],[161.93,-66.4],[163.89,-66.65],[166,-67.04],[168.19,-67.41],[170.43,-67.74],[172.74,-68.04],[175.11,-68.31],[177.53,-68.54],[180,-68.74],[180,-69.71]]]}},{"type":"Feature","properties":{"ma":245,"type":"gpml:TopologicalClosedPlateBoundary","name":"Izanagi Plate","pid":926,"deforming":false},"geometry":{"type":"MultiPolygon","coordinates":[[[[180,62.18],[180,61.18],[180,60.19],[180,59.2],[180,58.21],[180,57.21],[180,56.22],[180,55.23],[180,54.24],[180,53.25],[180,52.25],[180,51.26],[180,50.27],[180,49.28],[180,48.29],[180,47.29],[180,46.3],[180,45.31],[180,44.32],[180,43.33],[180,42.33],[180,41.34],[180,40.35],[180,39.36],[180,38.37],[180,37.37],[180,36.38],[180,35.39],[180,34.4],[180,33.41],[180,32.41],[180,31.42],[180,30.43],[180,29.44],[180,28.45],[180,27.45],[180,26.46],[180,25.47],[180,24.48],[180,23.49],[180,22.49],[180,21.5],[180,20.51],[180,19.52],[180,18.53],[180,17.53],[180,16.54],[180,15.55],[180,14.56],[180,13.56],[180,12.57],[180,11.58],[180,10.59],[180,9.6],[180,8.6],[180,7.61],[180,6.62],[180,5.63],[180,4.64],[180,3.64],[180,2.65],[180,1.66],[180,0.67],[180,-0.32],[180,-1.32],[180,-2.31],[180,-3.3],[180,-4.29],[180,-5.28],[180,-6.28],[180,-7.27],[180,-8.26],[180,-9.25],[180,-10.24],[180,-11.24],[180,-12.23],[179.06,-12.47],[178.12,-12.71],[177.17,-12.95],[176.23,-13.18],[175.28,-13.41],[174.33,-13.63],[173.38,-13.86],[172.42,-14.07],[171.47,-14.29],[170.51,-14.5],[169.55,-14.71],[168.59,-14.91],[167.63,-15.11],[167.48,-14.15],[167.33,-13.19],[167.19,-12.22],[167.04,-11.26],[166.09,-11.61],[165.14,-11.95],[164.18,-12.29],[163.22,-12.63],[162.26,-12.96],[161.3,-13.29],[160.34,-13.62],[159.37,-13.94],[158.4,-14.26],[157.42,-14.57],[156.45,-14.88],[155.47,-15.19],[154.48,-15.49],[153.5,-15.79],[152.51,-16.08],[151.52,-16.37],[150.53,-16.65],[149.53,-16.93],[148.53,-17.21],[147.53,-17.48],[146.52,-17.74],[145.51,-18],[144.5,-18.25],[143.49,-18.5],[142.47,-18.75],[141.45,-18.98],[140.43,-19.22],[140.43,-19.22],[140.43,-19.11],[140.43,-19.11],[139.87,-18.82],[138.91,-18.56],[137.95,-18.31],[136.99,-18.04],[136.04,-17.77],[135.09,-17.5],[134.14,-17.22],[133.19,-16.94],[132.24,-16.54],[131.29,-16.13],[130.34,-15.71],[129.4,-15.3],[128.46,-14.88],[127.53,-14.45],[126.6,-14.02],[125.64,-13.92],[124.69,-13.8],[123.73,-13.69],[122.78,-13.57],[121.82,-13.45],[121.82,-13.45],[122.37,-12.87],[122.92,-12.29],[123.46,-11.71],[124,-11.13],[124.52,-10.44],[125.02,-9.75],[125.53,-9.06],[126.03,-8.37],[126.52,-7.69],[127.01,-7],[127.5,-6.32],[127.99,-5.64],[128.47,-4.95],[128.32,-3.97],[128.16,-2.98],[128.01,-2],[127.85,-1.01],[127.35,-0.3],[126.84,0.42],[126.84,0.42],[126.27,1.22],[125.78,2.03],[125.28,2.84],[124.58,3.47],[123.88,4.09],[123.37,4.66],[122.86,5.22],[122.35,5.78],[121.49,6.02],[120.62,6.26],[119.75,6.5],[119.18,7],[118.6,7.5],[118.02,8],[117.41,8.63],[116.81,9.25],[116.2,9.87],[115.59,10.48],[114.97,11.1],[114.36,11.72],[114.36,11.89],[114.36,11.89],[113.54,11.38],[112.72,10.86],[111.9,10.34],[111.09,9.82],[110.28,9.3],[109.47,8.77],[109.47,8.77],[109.61,9.6],[109.75,10.42],[109.89,11.25],[110.03,12.07],[110.17,12.9],[109.61,13.57],[109.04,14.24],[108.48,14.91],[107.9,15.58],[107.5,16.46],[107.09,17.34],[106.68,18.22],[106.27,19.1],[105.84,19.98],[105.42,20.86],[104.99,21.74],[104.55,22.61],[104.57,23.42],[104.58,24.23],[104.6,25.04],[104.61,25.84],[104.77,26.7],[104.92,27.56],[105.08,28.42],[105.24,29.28],[105.41,30.14],[105.41,30.14],[105.51,30.67],[105.98,31.49],[106.45,32.31],[106.93,33.12],[107.42,33.94],[107.93,34.75],[108.84,35.11],[109.76,35.47],[110.68,35.82],[111.62,36.17],[112.56,36.5],[113.38,37.14],[114.21,37.78],[115.06,38.41],[115.92,39.03],[115.92,39.03],[116.97,38.64],[118.17,38.45],[119.1,38.48],[120.02,38.5],[120.02,38.5],[120.75,38.19],[121.46,37.88],[122.09,37.63],[122.72,37.38],[123.58,37.18],[124.44,36.97],[125.45,36.75],[126.46,36.53],[127.43,36.83],[128.29,36.7],[129.21,36.44],[130.12,36.18],[131.03,35.92],[131.93,35.64],[131.93,35.64],[132.85,35.89],[133.79,36.14],[134.7,36.28],[135.62,36.41],[136.54,36.54],[137.46,36.66],[138.32,36.71],[139.17,36.75],[140.03,36.79],[140.94,37.46],[141.88,38.12],[142.82,38.77],[143.79,39.42],[144.77,40.05],[145.78,40.68],[146.8,41.3],[147.84,41.91],[148.9,42.51],[149.98,43.1],[150.74,43.9],[151.53,44.68],[152.33,45.47],[153.16,46.24],[154.01,47.02],[154.89,47.78],[155.79,48.54],[156.72,49.29],[157.68,50.03],[158.67,50.77],[159.69,51.49],[160.74,52.21],[161.83,52.91],[162.95,53.61],[163.89,54.36],[164.86,55.1],[165.87,55.83],[166.92,56.55],[168.01,57.27],[169.14,57.97],[170.31,58.67],[171.53,59.35],[172.81,60.02],[174.13,60.68],[175.51,61.32],[176.95,61.95],[178.44,62.57],[180,63.17],[180,62.18]]],[[[-180,-11.24],[-180,-10.24],[-180,-9.25],[-180,-8.26],[-180,-7.27],[-180,-6.28],[-180,-5.28],[-180,-4.29],[-180,-3.3],[-180,-2.31],[-180,-1.32],[-180,-0.32],[-180,0.67],[-180,1.66],[-180,2.65],[-180,3.64],[-180,4.64],[-180,5.63],[-180,6.62],[-180,7.61],[-180,8.6],[-180,9.6],[-180,10.59],[-180,11.58],[-180,12.57],[-180,13.56],[-180,14.56],[-180,15.55],[-180,16.54],[-180,17.53],[-180,18.53],[-180,19.52],[-180,20.51],[-180,21.5],[-180,22.49],[-180,23.49],[-180,24.48],[-180,25.47],[-180,26.46],[-180,27.45],[-180,28.45],[-180,29.44],[-180,30.43],[-180,31.42],[-180,32.41],[-180,33.41],[-180,34.4],[-180,35.39],[-180,36.38],[-180,37.37],[-180,38.37],[-180,39.36],[-180,40.35],[-180,41.34],[-180,42.33],[-180,43.33],[-180,44.32],[-180,45.31],[-180,46.3],[-180,47.29],[-180,48.29],[-180,49.28],[-180,50.27],[-180,51.26],[-180,52.25],[-180,53.25],[-180,54.24],[-180,55.23],[-180,56.22],[-180,57.21],[-180,58.21],[-180,59.2],[-180,60.19],[-180,61.18],[-180,62.18],[-180,63.17],[-178.25,63.79],[-177.09,64.56],[-175.86,65.31],[-174.56,66.06],[-173.18,66.8],[-171.72,67.52],[-170.17,68.23],[-168.51,68.92],[-166.76,69.59],[-164.89,70.25],[-162.89,70.89],[-160.77,71.5],[-158.51,72.09],[-158.51,72.09],[-156.25,72.72],[-153.82,73.32],[-151.23,73.89],[-149.06,74.52],[-147.94,73.61],[-146.93,72.7],[-146.02,71.78],[-145.19,70.86],[-144.44,69.94],[-143.75,69.01],[-143.12,68.08],[-142.54,67.15],[-142,66.22],[-141.49,65.28],[-141.03,64.35],[-140.59,63.41],[-140.18,62.47],[-139.8,61.53],[-139.44,60.59],[-139.1,59.65],[-140.62,59.49],[-142.13,59.32],[-143.62,59.13],[-145.1,58.93],[-144.75,57.99],[-144.42,57.06],[-144.1,56.12],[-143.8,55.18],[-143.51,54.24],[-143.24,53.3],[-142.98,52.36],[-142.72,51.42],[-142.48,50.48],[-142.25,49.53],[-142.03,48.59],[-141.81,47.65],[-141.61,46.7],[-141.41,45.76],[-141.21,44.82],[-141.03,43.87],[-140.84,42.93],[-140.67,41.98],[-140.5,41.04],[-140.33,40.09],[-140.17,39.14],[-141.31,39.02],[-142.44,38.89],[-143.57,38.74],[-144.69,38.59],[-144.51,37.6],[-144.33,36.61],[-144.16,35.62],[-143.99,34.63],[-143.83,33.64],[-143.66,32.65],[-143.51,31.66],[-143.35,30.67],[-143.2,29.68],[-143.06,28.69],[-142.91,27.7],[-142.77,26.71],[-142.63,25.72],[-142.49,24.72],[-142.36,23.73],[-142.23,22.74],[-142.09,21.75],[-141.96,20.76],[-141.84,19.77],[-141.71,18.77],[-142.75,18.72],[-143.79,18.65],[-144.83,18.58],[-144.74,17.63],[-144.66,16.67],[-144.57,15.72],[-144.49,14.76],[-144.41,13.8],[-144.32,12.85],[-144.24,11.89],[-144.16,10.94],[-143.46,10.99],[-142.77,11.04],[-142.07,11.09],[-142.17,10.1],[-142.27,9.11],[-142.37,8.13],[-142.47,7.14],[-142.57,6.15],[-142.67,5.16],[-142.77,4.17],[-142.87,3.18],[-142.96,2.19],[-143.06,1.2],[-143.16,0.21],[-143.26,-0.78],[-143.26,-0.78],[-144.07,-1.12],[-144.88,-1.47],[-145.69,-1.81],[-146.5,-2.16],[-147.4,-2.54],[-148.29,-2.92],[-149.18,-3.3],[-150.08,-3.68],[-150.97,-4.06],[-151.87,-4.44],[-152.77,-4.82],[-153.67,-5.19],[-154.57,-5.57],[-155.47,-5.94],[-156.37,-6.31],[-157.27,-6.68],[-158.18,-7.05],[-159.08,-7.42],[-159.99,-7.78],[-160.9,-8.14],[-161.81,-8.51],[-162.72,-8.86],[-163.64,-9.22],[-164.55,-9.58],[-165.47,-9.93],[-166.39,-10.28],[-167.31,-10.62],[-168.24,-10.97],[-168.37,-9.98],[-168.5,-8.99],[-169.45,-9.27],[-170.4,-9.55],[-171.35,-9.83],[-172.3,-10.11],[-173.26,-10.39],[-174.22,-10.66],[-175.18,-10.93],[-176.14,-11.19],[-177.1,-11.46],[-178.07,-11.72],[-179.03,-11.97],[-180,-12.23],[-180,-11.24]]]]}},{"type":"Feature","properties":{"ma":245,"type":"gpml:TopologicalClosedPlateBoundary","name":"Junction Plate North","pid":498,"deforming":false},"geometry":{"type":"Polygon","coordinates":[[[118.09,-12.94],[119.03,-13.07],[119.97,-13.2],[120.92,-13.33],[121.86,-13.45],[122.81,-13.58],[123.75,-13.69],[124.7,-13.81],[125.65,-13.92],[126.6,-14.02],[127.53,-14.45],[128.46,-14.88],[129.4,-15.3],[130.34,-15.71],[131.29,-16.13],[132.24,-16.54],[133.19,-16.94],[134.14,-17.22],[135.09,-17.5],[136.04,-17.77],[136.99,-18.04],[137.95,-18.31],[138.91,-18.56],[139.87,-18.82],[140.43,-19.11],[140.43,-19.11],[140.42,-20.03],[140.42,-20.96],[140.41,-21.88],[140.4,-22.8],[140.4,-23.72],[140.39,-24.64],[140.38,-25.56],[140.38,-25.56],[139.28,-25.69],[138.18,-25.81],[137.08,-25.92],[135.98,-26.02],[134.87,-26.12],[134.75,-25.21],[134.63,-24.3],[133.63,-24.35],[132.64,-24.4],[131.64,-24.44],[130.64,-24.47],[129.64,-24.5],[128.65,-24.52],[127.65,-24.53],[127.6,-23.68],[127.55,-22.83],[127.5,-21.98],[127.46,-21.14],[127.41,-20.29],[127.37,-19.44],[126.34,-19.44],[125.31,-19.43],[124.28,-19.42],[123.25,-19.41],[122.22,-19.39],[121.19,-19.36],[120.16,-19.33],[119.13,-19.29],[118.1,-19.24],[118.1,-19.24],[118.11,-18.38],[118.12,-17.51],[118.13,-16.65],[118.14,-15.79],[118.15,-14.92],[118.12,-13.93],[118.09,-12.94]]]}},{"type":"Feature","properties":{"ma":245,"type":"gpml:TopologicalClosedPlateBoundary","name":"Phoenix Plate","pid":919,"deforming":false},"geometry":{"type":"MultiPolygon","coordinates":[[[[180,-13.22],[180,-14.21],[180,-15.2],[180,-16.19],[180,-17.19],[180,-18.18],[180,-19.17],[180,-20.16],[180,-21.15],[180,-22.14],[180,-23.13],[180,-24.13],[180,-25.12],[180,-26.11],[180,-27.1],[180,-28.09],[180,-29.08],[180,-30.07],[180,-31.07],[180,-32.06],[180,-33.05],[180,-34.04],[180,-35.03],[180,-36.02],[180,-37.02],[180,-38.01],[180,-39],[180,-39.99],[180,-40.98],[180,-41.97],[180,-42.96],[180,-43.96],[180,-44.95],[180,-45.94],[180,-46.93],[180,-47.92],[180,-48.91],[180,-49.9],[180,-50.9],[180,-51.89],[180,-52.88],[180,-53.87],[180,-54.86],[180,-55.85],[180,-56.84],[180,-57.84],[180,-58.83],[180,-59.82],[180,-60.81],[180,-61.8],[180,-62.79],[180,-63.79],[180,-64.78],[180,-65.77],[180,-66.76],[180,-67.75],[180,-68.74],[177.53,-68.54],[175.11,-68.31],[172.74,-68.04],[170.43,-67.74],[168.19,-67.41],[166,-67.04],[163.89,-66.65],[161.93,-66.4],[160.01,-66.13],[158.13,-65.83],[156.3,-65.51],[154.51,-65.17],[154.51,-65.17],[154.22,-64.34],[153.95,-63.51],[153.7,-62.68],[152.79,-61.82],[153.11,-61.32],[154.09,-60.44],[155.01,-59.55],[155.85,-58.66],[156.64,-57.76],[156.95,-57.21],[157.26,-56.65],[157.24,-56.07],[157.22,-55.48],[156.75,-54.7],[156.3,-53.91],[155.86,-53.13],[155.45,-52.34],[154.88,-51.43],[154.34,-50.52],[153.83,-49.61],[153.33,-48.7],[152.84,-47.78],[152.76,-46.9],[152.67,-46.03],[152.59,-45.15],[152.5,-44.28],[152.43,-43.4],[152.27,-42.6],[152.11,-41.8],[151.96,-41],[151.81,-40.19],[151.67,-39.39],[151.57,-38.65],[151.48,-37.91],[151.38,-37.17],[151.38,-37.17],[150.44,-36.59],[149.5,-36.01],[148.58,-35.42],[147.67,-34.83],[146.66,-34.41],[145.65,-33.98],[145.07,-33.71],[144.51,-33.43],[144.1,-32.97],[143.7,-32.5],[143.27,-31.85],[142.84,-31.2],[142.21,-30.44],[141.58,-29.69],[140.97,-28.92],[140.36,-28.16],[140.37,-27.17],[140.38,-26.17],[140.38,-25.18],[140.39,-24.18],[140.4,-23.19],[140.41,-22.2],[140.41,-21.2],[140.42,-20.21],[140.43,-19.22],[140.43,-19.22],[141.45,-18.98],[142.47,-18.75],[143.49,-18.5],[144.5,-18.25],[145.51,-18],[146.52,-17.74],[147.53,-17.48],[148.53,-17.21],[149.53,-16.93],[150.53,-16.65],[151.52,-16.37],[152.51,-16.08],[153.5,-15.79],[154.48,-15.49],[155.47,-15.19],[156.45,-14.88],[157.42,-14.57],[158.4,-14.26],[159.37,-13.94],[160.34,-13.62],[161.3,-13.29],[162.26,-12.96],[163.22,-12.63],[164.18,-12.29],[165.14,-11.95],[166.09,-11.61],[167.04,-11.26],[167.19,-12.22],[167.33,-13.19],[167.48,-14.15],[167.63,-15.11],[168.59,-14.91],[169.55,-14.71],[170.51,-14.5],[171.47,-14.29],[172.42,-14.07],[173.38,-13.86],[174.33,-13.63],[175.28,-13.41],[176.23,-13.18],[177.17,-12.95],[178.12,-12.71],[179.06,-12.47],[180,-12.23],[180,-13.22]]],[[[-180,-67.75],[-180,-66.76],[-180,-65.77],[-180,-64.78],[-180,-63.79],[-180,-62.79],[-180,-61.8],[-180,-60.81],[-180,-59.82],[-180,-58.83],[-180,-57.84],[-180,-56.84],[-180,-55.85],[-180,-54.86],[-180,-53.87],[-180,-52.88],[-180,-51.89],[-180,-50.9],[-180,-49.9],[-180,-48.91],[-180,-47.92],[-180,-46.93],[-180,-45.94],[-180,-44.95],[-180,-43.96],[-180,-42.96],[-180,-41.97],[-180,-40.98],[-180,-39.99],[-180,-39],[-180,-38.01],[-180,-37.02],[-180,-36.02],[-180,-35.03],[-180,-34.04],[-180,-33.05],[-180,-32.06],[-180,-31.07],[-180,-30.07],[-180,-29.08],[-180,-28.09],[-180,-27.1],[-180,-26.11],[-180,-25.12],[-180,-24.13],[-180,-23.13],[-180,-22.14],[-180,-21.15],[-180,-20.16],[-180,-19.17],[-180,-18.18],[-180,-17.19],[-180,-16.19],[-180,-15.2],[-180,-14.21],[-180,-13.22],[-180,-12.23],[-179.03,-11.97],[-178.07,-11.72],[-177.1,-11.46],[-176.14,-11.19],[-175.18,-10.93],[-174.22,-10.66],[-173.26,-10.39],[-172.3,-10.11],[-171.35,-9.83],[-170.4,-9.55],[-169.45,-9.27],[-168.5,-8.99],[-168.37,-9.98],[-168.24,-10.97],[-167.31,-10.62],[-166.39,-10.28],[-165.47,-9.93],[-164.55,-9.58],[-163.64,-9.22],[-162.72,-8.86],[-161.81,-8.51],[-160.9,-8.14],[-159.99,-7.78],[-159.08,-7.42],[-158.18,-7.05],[-157.27,-6.68],[-156.37,-6.31],[-155.47,-5.94],[-154.57,-5.57],[-153.67,-5.19],[-152.77,-4.82],[-151.87,-4.44],[-150.97,-4.06],[-150.08,-3.68],[-149.18,-3.3],[-148.29,-2.92],[-147.4,-2.54],[-146.5,-2.16],[-145.69,-1.81],[-144.88,-1.47],[-144.07,-1.12],[-143.26,-0.78],[-143.26,-0.78],[-143.33,-1.53],[-143.41,-2.29],[-143.41,-2.29],[-142.6,-2.74],[-141.79,-3.18],[-140.98,-3.63],[-140.16,-4.07],[-139.35,-4.52],[-138.54,-4.96],[-137.72,-5.4],[-136.91,-5.84],[-136.09,-6.28],[-135.23,-6.74],[-134.36,-7.2],[-133.49,-7.66],[-132.62,-8.11],[-131.75,-8.56],[-130.88,-9.01],[-130,-9.46],[-129.13,-9.91],[-128.24,-10.35],[-127.36,-10.79],[-126.48,-11.23],[-125.59,-11.67],[-124.7,-12.1],[-123.8,-12.53],[-122.91,-12.96],[-122.01,-13.39],[-121.11,-13.81],[-120.2,-14.23],[-119.29,-14.64],[-118.38,-15.05],[-117.46,-15.46],[-116.54,-15.86],[-115.62,-16.26],[-114.69,-16.66],[-113.76,-17.05],[-112.82,-17.44],[-113.2,-18.22],[-113.58,-19],[-113.96,-19.77],[-114.34,-20.55],[-114.73,-21.33],[-115.13,-22.1],[-115.53,-22.88],[-114.61,-23.24],[-113.68,-23.59],[-112.75,-23.93],[-111.82,-24.28],[-110.88,-24.61],[-109.94,-24.94],[-108.99,-25.26],[-108.03,-25.58],[-107.07,-25.89],[-106.05,-26.22],[-105.03,-26.53],[-104,-26.84],[-102.96,-27.14],[-101.92,-27.43],[-100.87,-27.72],[-99.82,-28],[-98.76,-28.27],[-97.69,-28.53],[-96.62,-28.78],[-95.55,-29.02],[-94.47,-29.26],[-94.68,-30.22],[-94.89,-31.19],[-95.1,-32.15],[-95.32,-33.11],[-95.55,-34.07],[-95.78,-35.03],[-94.6,-35.21],[-93.41,-35.37],[-92.22,-35.52],[-91.03,-35.66],[-89.83,-35.79],[-88.63,-35.9],[-87.42,-36],[-86.21,-36.09],[-85,-36.17],[-83.79,-36.24],[-82.58,-36.29],[-81.36,-36.33],[-80.14,-36.36],[-78.92,-36.38],[-77.71,-36.39],[-77.53,-37.34],[-77.35,-38.3],[-77.17,-39.25],[-76.98,-40.2],[-76.79,-41.16],[-75.5,-41.12],[-74.21,-41.07],[-72.93,-41],[-71.65,-40.92],[-70.37,-40.82],[-69.09,-40.71],[-67.83,-40.59],[-66.56,-40.45],[-65.3,-40.3],[-64.05,-40.14],[-62.8,-39.96],[-61.56,-39.77],[-60.33,-39.56],[-59.1,-39.34],[-57.88,-39.11],[-56.67,-38.87],[-55.47,-38.62],[-54.28,-38.35],[-54.28,-38.41],[-54.28,-38.69],[-54.28,-38.69],[-54.32,-39.29],[-54.5,-39.76],[-54.84,-40.58],[-55.07,-41.03],[-55.21,-41.74],[-55.38,-42.29],[-55.44,-42.61],[-55.56,-43],[-55.68,-43.42],[-55.92,-44.28],[-56.16,-45.13],[-56.44,-45.88],[-56.73,-46.64],[-57.03,-47.39],[-57.34,-48.14],[-57.96,-48.87],[-58.6,-49.59],[-59.26,-50.3],[-59.94,-51.01],[-60.64,-51.72],[-60.91,-52.55],[-61.19,-53.37],[-61.44,-54.1],[-61.7,-54.82],[-62.44,-55.58],[-63.21,-56.34],[-63.4,-56.59],[-63.46,-56.71],[-63.46,-56.71],[-63.63,-57.03],[-63.63,-57.03],[-64.19,-57.56],[-64.58,-57.81],[-64.86,-58.16],[-65.07,-58.42],[-65.43,-58.86],[-65.69,-59.12],[-66.16,-59.6],[-66.5,-59.95],[-66.86,-60.32],[-67.24,-60.71],[-67.82,-61.31],[-68.06,-61.55],[-68.4,-61.88],[-68.71,-62.18],[-68.99,-62.46],[-69.31,-62.8],[-69.57,-63.09],[-69.78,-63.32],[-69.85,-63.4],[-70,-63.62],[-70.18,-63.89],[-70.41,-64.32],[-70.85,-64.61],[-71.38,-64.9],[-72.09,-65.22],[-72.89,-65.6],[-73.39,-65.84],[-73.82,-66.06],[-74.19,-66.23],[-74.75,-66.53],[-75.28,-66.93],[-75.56,-67.27],[-75.78,-67.59],[-75.97,-67.83],[-76.12,-68.13],[-76.3,-68.46],[-76.44,-68.84],[-76.54,-69.25],[-76.78,-69.55],[-76.96,-69.7],[-77.27,-70.02],[-77.67,-70.37],[-78.03,-70.71],[-78.33,-71.08],[-78.36,-71.15],[-78.38,-71.55],[-78.31,-71.65],[-78.31,-71.65],[-80.59,-72.25],[-83.01,-72.81],[-86.02,-73.15],[-89.13,-73.44],[-92.35,-73.68],[-95.65,-73.88],[-99.01,-74.02],[-101.97,-74.14],[-104.97,-74.22],[-107.99,-74.26],[-111.02,-74.26],[-113.79,-74.4],[-116.61,-74.5],[-119.46,-74.57],[-122.33,-74.6],[-125.39,-74.61],[-128.44,-74.58],[-131.48,-74.52],[-134.48,-74.41],[-137.42,-74.26],[-140.3,-74.07],[-143.11,-73.85],[-145.84,-73.59],[-148.77,-73.26],[-151.58,-72.89],[-154.27,-72.48],[-156.84,-72.04],[-159.28,-71.57],[-162.05,-71.15],[-164.7,-70.7],[-167.23,-70.21],[-169.64,-69.68],[-171.93,-69.13],[-174.65,-69.04],[-177.34,-68.91],[-180,-68.74],[-180,-67.75]]]]}},{"type":"Feature","properties":{"ma":245,"type":"gpml:TopologicalClosedPlateBoundary","name":"Sukhothai island arc","pid":60301,"deforming":false},"geometry":{"type":"Polygon","coordinates":[[[74.77,10.95],[75.28,10.46],[75.78,9.97],[76.56,9.42],[77.34,8.87],[78.11,8.32],[78.88,7.77],[79.65,7.22],[80.42,6.67],[81.18,6.11],[81.95,5.56],[82.78,5.18],[83.62,4.8],[84.45,4.56],[85.27,4.32],[86.1,4.08],[86.53,3.63],[86.96,3.18],[87.49,2.58],[88.02,1.97],[88.54,1.37],[89.15,1.01],[89.75,0.66],[90.36,0.3],[91.01,-0.19],[91.18,-0.36],[91.18,-0.36],[90.41,-0.85],[89.65,-1.33],[88.89,-1.82],[88.13,-2.3],[87.36,-2.78],[86.6,-3.27],[86.6,-3.27],[85.9,-2.83],[85.2,-2.39],[84.5,-1.96],[83.8,-1.52],[83.17,-1.06],[82.53,-0.61],[81.9,-0.15],[81.26,0.3],[80.67,0.89],[80.08,1.48],[79.49,2.06],[78.96,2.66],[78.43,3.26],[77.89,3.86],[77.36,4.46],[76.64,5.15],[75.92,5.84],[75.2,6.54],[74.47,7.23],[73.74,7.92],[73.01,8.61],[72.28,9.29],[72.28,9.29],[72.94,10.01],[73.6,10.72],[74.27,11.44],[74.77,10.95]]]}},{"type":"Feature","properties":{"ma":245,"type":"gpml:TopologicalClosedPlateBoundary","name":"Mongol-Okhotsk Ocean Plate","pid":380,"deforming":false},"geometry":{"type":"Polygon","coordinates":[[[-180,64.16],[-180,65.15],[-180,66.15],[-180,67.14],[-180,68.14],[-180,69.13],[-180,70.12],[-180,71.12],[-180,72.11],[-180,73.11],[-180,74.1],[-180,75.09],[-180,76.09],[-180,77.08],[-180,78.07],[-180,79.07],[-180,80.06],[-180,81.06],[-180,82.05],[-180,83.04],[-180,84.04],[-180,85.03],[-180,86.02],[-180,87.02],[-180,88.01],[-180,89.01],[-180,90],[180,90],[180,89.01],[180,88.01],[180,87.02],[180,86.02],[180,85.03],[180,84.04],[180,83.04],[180,82.05],[180,81.06],[180,80.06],[180,79.07],[180,78.07],[180,77.08],[180,76.09],[180,75.09],[180,74.1],[180,73.11],[180,72.11],[180,71.12],[180,70.12],[180,69.13],[180,68.14],[180,67.14],[180,66.15],[180,65.15],[180,64.16],[180,63.17],[178.44,62.57],[176.95,61.95],[175.51,61.32],[174.13,60.68],[172.81,60.02],[171.53,59.35],[170.31,58.67],[169.14,57.97],[168.01,57.27],[166.92,56.55],[165.87,55.83],[164.86,55.1],[163.89,54.36],[162.95,53.61],[161.83,52.91],[160.74,52.21],[159.69,51.49],[158.67,50.77],[157.68,50.03],[156.72,49.29],[155.79,48.54],[154.89,47.78],[154.01,47.02],[153.16,46.24],[152.33,45.47],[151.53,44.68],[150.74,43.9],[149.98,43.1],[148.9,42.51],[147.84,41.91],[146.8,41.3],[145.78,40.68],[144.77,40.05],[143.79,39.42],[142.82,38.77],[141.88,38.12],[140.94,37.46],[140.03,36.79],[139.17,36.75],[138.32,36.71],[137.46,36.66],[136.54,36.54],[135.62,36.41],[134.7,36.28],[133.79,36.14],[132.85,35.89],[131.93,35.64],[131.93,35.64],[131.03,35.92],[130.12,36.18],[129.21,36.44],[128.29,36.7],[127.43,36.83],[126.46,36.53],[125.45,36.75],[124.44,36.97],[123.58,37.18],[122.72,37.38],[122.09,37.63],[121.46,37.88],[120.75,38.19],[120.02,38.5],[120.02,38.5],[119.1,38.48],[118.17,38.45],[116.97,38.64],[116.29,38.9],[115.6,39.14],[115.22,39.25],[114.25,38.77],[113.43,39.01],[112.59,39.57],[111.89,40.17],[111.17,40.76],[110.44,41.35],[109.7,41.93],[108.76,42.54],[107.79,43.14],[107.06,43.3],[106.32,43.45],[105.24,43.97],[104.51,44.11],[103.79,44.25],[102.55,44.24],[101.31,44.21],[100.02,44.25],[98.74,44.28],[97.53,44.5],[96.32,44.71],[95.13,45.14],[93.92,45.56],[92.88,45.95],[91.83,46.33],[90.76,46.7],[89.65,47.1],[88.52,47.5],[87.38,47.88],[86.22,48.26],[85.06,48.45],[83.89,48.63],[82.71,48.8],[81.21,48.84],[79.72,48.86],[78.22,48.85],[76.72,48.83],[76.19,48.9],[76.19,48.9],[74.95,48.43],[73.74,47.95],[72.54,47.45],[71.37,46.95],[70.35,46.52],[69.34,46.09],[68.35,45.65],[67.37,45.2],[67.37,45.2],[67.83,45.81],[68.3,46.42],[68.78,47.02],[69.42,47.75],[70.09,48.47],[70.77,49.19],[71.48,49.9],[72.2,50.61],[72.95,51.31],[73.54,52.05],[74.16,52.78],[74.8,53.51],[75.46,54.23],[76.14,54.95],[77.21,55.59],[78.32,56.23],[79.47,56.84],[80.65,57.45],[81.88,58.05],[83.14,58.64],[84.45,59.21],[85.81,59.77],[86.65,60.63],[87.54,61.49],[88.48,62.35],[89.47,63.19],[90.53,64.03],[91.64,64.86],[92.83,65.68],[94.1,66.49],[95.45,67.3],[96.9,68.08],[96.9,68.08],[94.71,68.43],[92.46,68.76],[90.15,69.05],[87.78,69.3],[85.35,69.53],[82.88,69.72],[80.63,70.29],[78.26,70.83],[75.76,71.34],[73.13,71.82],[70.37,72.25],[67.48,72.65],[64.46,73],[61.33,73.31],[58.5,73.33],[55.66,73.32],[52.83,73.26],[50.03,73.17],[47.26,73.05],[47.26,73.05],[45.55,73.67],[43.72,74.29],[41.74,74.88],[39.87,75.62],[37.81,76.35],[35.52,77.05],[32.98,77.73],[29.87,78.38],[26.42,78.99],[22.57,79.55],[18.32,80.07],[13.63,80.52],[8.52,80.91],[3,81.22],[-2.87,81.44],[-8.82,81.57],[-14.88,81.61],[-20.94,81.55],[-26.85,81.4],[-32.5,81.17],[-37.82,80.86],[-42.75,80.47],[-46.23,79.89],[-49.33,79.28],[-52.09,78.65],[-54.56,77.99],[-56.76,77.31],[-56.76,77.31],[-60.56,77.83],[-64.68,78.3],[-69.1,78.7],[-73.82,79.03],[-78.8,79.29],[-83.98,79.46],[-89.28,79.55],[-94.63,79.55],[-99.93,79.46],[-105.1,79.28],[-110.24,79.19],[-115.25,79.01],[-120.07,78.76],[-124.65,78.43],[-128.96,78.04],[-132.97,77.58],[-136.69,77.07],[-140.12,76.51],[-143.27,75.9],[-146.16,75.26],[-148.8,74.59],[-151.23,73.89],[-153.82,73.32],[-156.25,72.72],[-158.51,72.09],[-158.51,72.09],[-160.77,71.5],[-162.89,70.89],[-164.89,70.25],[-166.76,69.59],[-168.51,68.92],[-170.17,68.23],[-171.72,67.52],[-173.18,66.8],[-174.56,66.06],[-175.86,65.31],[-177.09,64.56],[-178.25,63.79],[-180,63.17],[-180,64.16]]]}},{"type":"Feature","properties":{"ma":245,"type":"gpml:TopologicalClosedPlateBoundary","name":"Farallon Plate","pid":902,"deforming":false},"geometry":{"type":"Polygon","coordinates":[[[-139.44,60.59],[-139.8,61.53],[-140.18,62.47],[-140.59,63.41],[-141.03,64.35],[-141.49,65.28],[-142,66.22],[-142.54,67.15],[-143.12,68.08],[-143.75,69.01],[-144.44,69.94],[-145.19,70.86],[-146.02,71.78],[-146.93,72.7],[-147.94,73.61],[-149.06,74.52],[-146.41,75.2],[-143.52,75.85],[-140.36,76.46],[-136.92,77.03],[-133.19,77.55],[-129.15,78.02],[-124.82,78.42],[-120.2,78.75],[-115.34,79.01],[-110.28,79.19],[-105.1,79.28],[-99.93,79.46],[-94.63,79.55],[-89.28,79.55],[-83.98,79.46],[-78.8,79.29],[-73.82,79.03],[-69.1,78.7],[-64.68,78.3],[-60.56,77.83],[-56.76,77.31],[-56.76,77.31],[-58.87,76.57],[-60.75,75.82],[-62.13,74.9],[-63.34,73.97],[-64.43,73.03],[-65.41,72.09],[-66.29,71.15],[-66.34,70.46],[-66.39,69.78],[-66.44,69.09],[-65.76,68.22],[-65.13,67.34],[-64.54,66.47],[-64,65.59],[-63.49,64.71],[-63.49,64.71],[-65.63,64.53],[-67.74,64.31],[-69.82,64.07],[-71.86,63.79],[-73.86,63.49],[-75.81,63.16],[-77.72,62.81],[-79.58,62.43],[-81.39,62.02],[-83.16,61.6],[-84.87,61.15],[-86.54,60.68],[-88.16,60.19],[-89.72,59.68],[-89.72,59.68],[-90.17,59.61],[-91.76,59.12],[-93.31,58.62],[-94.81,58.09],[-96.27,57.55],[-97.68,56.99],[-99.05,56.42],[-100.38,55.83],[-101.67,55.22],[-102.92,54.61],[-104.13,53.98],[-105.31,53.34],[-106.05,52.62],[-106.77,51.9],[-107.47,51.17],[-108.14,50.44],[-108.79,49.71],[-109.43,48.97],[-109.86,48.07],[-110.27,47.17],[-110.68,46.26],[-111.06,45.36],[-111.44,44.45],[-111.81,43.54],[-112.16,42.63],[-112.01,41.69],[-111.86,40.75],[-111.71,39.81],[-111.15,39.08],[-110.6,38.35],[-110.06,37.62],[-109.53,36.89],[-108.84,36.29],[-108.16,35.67],[-107.49,35.06],[-106.83,34.44],[-106.18,33.82],[-105.21,33.24],[-104.25,32.65],[-103.3,32.06],[-102.37,31.46],[-101.44,30.85],[-100.51,30.3],[-99.58,29.75],[-98.67,29.19],[-97.77,28.62],[-96.87,28.05],[-95.99,27.47],[-95.11,26.88],[-94.25,26.29],[-93.83,26.06],[-93.83,26.06],[-93.41,26.92],[-92.99,27.78],[-92.55,28.63],[-92.12,29.49],[-91.67,30.34],[-91.22,31.19],[-90.55,31.94],[-89.87,32.68],[-89.18,33.42],[-88.48,34.15],[-87.76,34.88],[-87.03,35.61],[-86.29,36.33],[-85.35,36.88],[-84.4,37.41],[-83.44,37.94],[-82.46,38.46],[-81.47,38.98],[-80.46,39.48],[-79.44,39.98],[-78.4,40.46],[-77.35,40.94],[-76.3,41.42],[-75.24,41.89],[-74.16,42.35],[-73.07,42.8],[-71.96,43.24],[-70.84,43.67],[-69.7,44.09],[-68.46,44.55],[-67.21,45],[-65.94,45.44],[-64.64,45.86],[-63.33,46.27],[-62,46.66],[-60.82,46.94],[-59.63,47.21],[-58.43,47.47],[-57.22,47.72],[-57.22,47.72],[-56.53,47.05],[-55.86,46.37],[-55.21,45.69],[-54.57,45.01],[-53.95,44.33],[-53.36,43.55],[-52.79,42.77],[-52.23,41.98],[-51.68,41.19],[-51.22,40.38],[-50.77,39.56],[-50.34,38.74],[-49.91,37.92],[-49.77,37.15],[-49.62,36.39],[-49.49,35.63],[-49.35,34.87],[-49.12,34],[-48.89,33.14],[-48.66,32.27],[-48.44,31.41],[-48.23,30.54],[-48.02,29.67],[-47.8,28.82],[-47.59,27.97],[-47.39,27.12],[-47.18,26.27],[-46.98,25.42],[-46.78,24.57],[-46.24,23.86],[-45.7,23.15],[-45.16,22.43],[-44.63,21.71],[-44.6,21.19],[-44.57,20.68],[-45.13,20.05],[-45.68,19.42],[-46.64,19.21],[-46.64,19.21],[-46.87,18.84],[-47.43,18.14],[-48,17.44],[-48.55,16.74],[-49.1,16.03],[-49.5,15.23],[-49.89,14.43],[-50.27,13.63],[-50.31,12.72],[-50.35,11.81],[-50.39,10.89],[-50.43,9.98],[-50.22,9.1],[-50.02,8.22],[-49.82,7.34],[-49.62,6.47],[-49.41,5.66],[-49.2,4.85],[-48.99,4.04],[-48.79,3.22],[-48.79,3.22],[-48.91,3.12],[-49.16,2.23],[-49.42,1.35],[-49.68,0.46],[-49.93,-0.43],[-50.19,-1.32],[-50.19,-1.32],[-50.51,-1.66],[-51.06,-2.1],[-51.61,-2.55],[-52.01,-2.9],[-52.41,-3.25],[-52.7,-3.96],[-52.99,-4.68],[-53.28,-5.39],[-53.5,-6.18],[-53.72,-6.97],[-53.94,-7.76],[-54.11,-8.51],[-54.29,-9.26],[-54.46,-10.01],[-54.57,-10.75],[-54.68,-11.5],[-54.3,-12.14],[-53.91,-12.78],[-53.72,-13.47],[-53.52,-14.16],[-53.33,-14.85],[-53.06,-15.49],[-52.79,-16.14],[-52.59,-16.51],[-52.59,-16.51],[-52.61,-16.53],[-52.82,-16.83],[-53.06,-17.17],[-53.17,-17.39],[-53.28,-17.58],[-53.45,-17.92],[-53.6,-18.17],[-53.71,-18.4],[-53.83,-18.66],[-54.24,-19.44],[-54.64,-20.21],[-55.05,-20.98],[-55.47,-21.75],[-55.89,-22.52],[-55.9,-23.39],[-55.9,-24.26],[-55.91,-25.13],[-55.89,-25.99],[-55.87,-26.85],[-55.84,-27.71],[-55.82,-28.57],[-55.79,-29.43],[-55.77,-30.3],[-55.62,-31.12],[-55.47,-31.95],[-55.31,-32.77],[-55.19,-33.47],[-55.06,-34.17],[-54.93,-34.87],[-54.38,-35.68],[-54.35,-36.21],[-54.31,-36.74],[-54.21,-37.49],[-54.29,-38.04],[-54.28,-38.35],[-54.28,-38.35],[-55.47,-38.62],[-56.67,-38.87],[-57.88,-39.11],[-59.1,-39.34],[-60.33,-39.56],[-61.56,-39.77],[-62.8,-39.96],[-64.05,-40.14],[-65.3,-40.3],[-66.56,-40.45],[-67.83,-40.59],[-69.09,-40.71],[-70.37,-40.82],[-71.65,-40.92],[-72.93,-41],[-74.21,-41.07],[-75.5,-41.12],[-76.79,-41.16],[-76.98,-40.2],[-77.17,-39.25],[-77.35,-38.3],[-77.53,-37.34],[-77.71,-36.39],[-78.92,-36.38],[-80.14,-36.36],[-81.36,-36.33],[-82.58,-36.29],[-83.79,-36.24],[-85,-36.17],[-86.21,-36.09],[-87.42,-36],[-88.63,-35.9],[-89.83,-35.79],[-91.03,-35.66],[-92.22,-35.52],[-93.41,-35.37],[-94.6,-35.21],[-95.78,-35.03],[-95.55,-34.07],[-95.32,-33.11],[-95.1,-32.15],[-94.89,-31.19],[-94.68,-30.22],[-94.47,-29.26],[-95.55,-29.02],[-96.62,-28.78],[-97.69,-28.53],[-98.76,-28.27],[-99.82,-28],[-100.87,-27.72],[-101.92,-27.43],[-102.96,-27.14],[-104,-26.84],[-105.03,-26.53],[-106.05,-26.22],[-107.07,-25.89],[-108.03,-25.58],[-108.99,-25.26],[-109.94,-24.94],[-110.88,-24.61],[-111.82,-24.28],[-112.75,-23.93],[-113.68,-23.59],[-114.61,-23.24],[-115.53,-22.88],[-115.13,-22.1],[-114.73,-21.33],[-114.34,-20.55],[-113.96,-19.77],[-113.58,-19],[-113.2,-18.22],[-112.82,-17.44],[-113.76,-17.05],[-114.69,-16.66],[-115.62,-16.26],[-116.54,-15.86],[-117.46,-15.46],[-118.38,-15.05],[-119.29,-14.64],[-120.2,-14.23],[-121.11,-13.81],[-122.01,-13.39],[-122.91,-12.96],[-123.8,-12.53],[-124.7,-12.1],[-125.59,-11.67],[-126.48,-11.23],[-127.36,-10.79],[-128.24,-10.35],[-129.13,-9.91],[-130,-9.46],[-130.88,-9.01],[-131.75,-8.56],[-132.62,-8.11],[-133.49,-7.66],[-134.36,-7.2],[-135.23,-6.74],[-136.09,-6.28],[-136.91,-5.84],[-137.72,-5.4],[-138.54,-4.96],[-139.35,-4.52],[-140.16,-4.07],[-140.98,-3.63],[-141.79,-3.18],[-142.6,-2.74],[-143.41,-2.29],[-143.41,-2.29],[-143.31,-1.33],[-143.22,-0.38],[-143.12,0.58],[-143.03,1.53],[-142.94,2.49],[-142.84,3.45],[-142.75,4.4],[-142.65,5.36],[-142.56,6.31],[-142.46,7.27],[-142.36,8.22],[-142.27,9.18],[-142.17,10.14],[-142.07,11.09],[-142.77,11.04],[-143.46,10.99],[-144.16,10.94],[-144.24,11.89],[-144.32,12.85],[-144.41,13.8],[-144.49,14.76],[-144.57,15.72],[-144.66,16.67],[-144.74,17.63],[-144.83,18.58],[-143.79,18.65],[-142.75,18.72],[-141.71,18.77],[-141.84,19.77],[-141.96,20.76],[-142.09,21.75],[-142.23,22.74],[-142.36,23.73],[-142.49,24.72],[-142.63,25.72],[-142.77,26.71],[-142.91,27.7],[-143.06,28.69],[-143.2,29.68],[-143.35,30.67],[-143.51,31.66],[-143.66,32.65],[-143.83,33.64],[-143.99,34.63],[-144.16,35.62],[-144.33,36.61],[-144.51,37.6],[-144.69,38.59],[-143.57,38.74],[-142.44,38.89],[-141.31,39.02],[-140.17,39.14],[-140.33,40.09],[-140.5,41.04],[-140.67,41.98],[-140.84,42.93],[-141.03,43.87],[-141.21,44.82],[-141.41,45.76],[-141.61,46.7],[-141.81,47.65],[-142.03,48.59],[-142.25,49.53],[-142.48,50.48],[-142.72,51.42],[-142.98,52.36],[-143.24,53.3],[-143.51,54.24],[-143.8,55.18],[-144.1,56.12],[-144.42,57.06],[-144.75,57.99],[-145.1,58.93],[-143.62,59.13],[-142.13,59.32],[-140.62,59.49],[-139.1,59.65],[-139.44,60.59]]]}},{"type":"Feature","properties":{"ma":245,"type":"gpml:TopologicalClosedPlateBoundary","name":"South China plate","pid":602,"deforming":false},"geometry":{"type":"Polygon","coordinates":[[[73.88,11.33],[74.35,12.15],[74.84,12.97],[75.32,13.79],[75.81,14.61],[76.3,15.43],[76.8,16.24],[77.3,17.06],[77.73,17.92],[78.17,18.78],[78.61,19.63],[79.06,20.49],[79.52,21.34],[79.97,22.19],[80.44,23.05],[80.91,23.9],[81.39,24.74],[81.57,25.67],[81.77,26.6],[81.96,27.52],[82.16,28.45],[82.36,29.37],[82.56,30.3],[82.77,31.22],[82.99,32.15],[83.2,33.07],[83.43,33.99],[83.65,34.92],[83.89,35.84],[84.12,36.76],[84.37,37.68],[84.62,38.6],[84.87,39.52],[85.43,40.35],[86.01,41.16],[86.6,41.98],[87.2,42.79],[87.82,43.6],[88.46,44.41],[89.11,45.21],[89.79,46],[90.48,46.8],[90.48,46.8],[90.76,46.7],[91.83,46.33],[92.88,45.95],[93.92,45.56],[95.13,45.14],[96.32,44.71],[97.53,44.5],[98.74,44.28],[100.02,44.25],[101.31,44.21],[102.55,44.24],[103.79,44.25],[104.51,44.11],[105.24,43.97],[106.32,43.45],[107.06,43.3],[107.79,43.14],[108.76,42.54],[109.7,41.93],[110.44,41.35],[111.17,40.76],[111.89,40.17],[112.59,39.57],[113.43,39.01],[114.25,38.77],[115.22,39.25],[115.6,39.14],[115.92,39.03],[115.92,39.03],[115.06,38.41],[114.21,37.78],[113.38,37.14],[112.56,36.5],[111.62,36.17],[110.68,35.82],[109.76,35.47],[108.84,35.11],[107.93,34.75],[107.42,33.94],[106.93,33.12],[106.45,32.31],[105.98,31.49],[105.51,30.67],[105.41,30.14],[105.41,30.14],[105.24,29.28],[105.08,28.42],[104.92,27.56],[104.77,26.7],[104.61,25.84],[104.6,25.04],[104.58,24.23],[104.57,23.42],[104.55,22.61],[104.99,21.74],[105.42,20.86],[105.84,19.98],[106.27,19.1],[106.68,18.22],[107.09,17.34],[107.5,16.46],[107.9,15.58],[108.48,14.91],[109.04,14.24],[109.61,13.57],[110.17,12.9],[110.03,12.07],[109.89,11.25],[109.75,10.42],[109.61,9.6],[109.47,8.77],[109.47,8.77],[109.38,8.71],[108.59,8.12],[107.81,7.53],[107.03,6.94],[106.25,6.35],[105.47,5.75],[104.65,5.42],[103.83,5.09],[103.01,4.75],[102.19,4.41],[101.37,4.07],[100.55,3.79],[99.74,3.51],[98.92,3.23],[98.1,2.95],[97.28,2.67],[96.32,2.54],[95.36,2.41],[95.36,2.41],[94.82,1.96],[94.09,1.49],[93.36,1.03],[92.63,0.57],[91.9,0.1],[91.18,-0.36],[91.18,-0.36],[91.01,-0.19],[90.36,0.3],[89.75,0.66],[89.15,1.01],[88.54,1.37],[88.02,1.97],[87.49,2.58],[86.96,3.18],[86.53,3.63],[86.1,4.08],[85.27,4.32],[84.45,4.56],[83.62,4.8],[82.78,5.18],[81.95,5.56],[81.18,6.11],[80.42,6.67],[79.65,7.22],[78.88,7.77],[78.11,8.32],[77.34,8.87],[76.56,9.42],[75.78,9.97],[75.28,10.46],[74.77,10.95],[74.27,11.44],[74.27,11.44],[73.83,10.97],[73.4,10.51],[73.88,11.33]]]}},{"type":"Feature","properties":{"ma":245,"type":"gpml:TopologicalClosedPlateBoundary","name":"Cimmerian-Neotethys Plate","pid":505,"deforming":false},"geometry":{"type":"Polygon","coordinates":[[[42.11,23.87],[42.36,24.11],[42.85,24.68],[43.34,25.25],[43.84,25.81],[44.83,26.04],[45.83,26.26],[46.83,26.47],[47.73,26.56],[48.64,26.64],[49.55,26.71],[50.4,27.27],[51.27,27.83],[52.14,28.37],[52.45,29.08],[52.77,29.79],[53.09,30.49],[53.27,31.3],[53.46,32.1],[54.13,32.4],[54.79,32.7],[55.64,32.37],[56.49,32.03],[56.49,32.03],[56.99,32.78],[57.51,33.52],[58.15,34.24],[58.81,34.95],[59.48,35.66],[60.16,36.37],[60.86,37.07],[61.57,37.76],[62.29,38.46],[63.02,39.15],[63.77,39.83],[64.33,40.73],[64.9,41.63],[65.49,42.53],[66.1,43.42],[66.73,44.31],[67.37,45.2],[67.37,45.2],[68.35,45.65],[69.34,46.09],[70.35,46.52],[71.37,46.95],[72.54,47.45],[73.74,47.95],[74.95,48.43],[76.19,48.9],[76.19,48.9],[76.72,48.83],[78.22,48.85],[79.72,48.86],[81.21,48.84],[82.71,48.8],[83.89,48.63],[85.06,48.45],[86.22,48.26],[87.31,47.91],[88.38,47.55],[89.44,47.18],[90.48,46.8],[90.48,46.8],[89.79,46],[89.11,45.21],[88.46,44.41],[87.82,43.6],[87.2,42.79],[86.6,41.98],[86.01,41.16],[85.43,40.35],[84.87,39.52],[84.62,38.6],[84.37,37.68],[84.12,36.76],[83.89,35.84],[83.65,34.92],[83.43,33.99],[83.2,33.07],[82.99,32.15],[82.77,31.22],[82.56,30.3],[82.36,29.37],[82.16,28.45],[81.96,27.52],[81.77,26.6],[81.57,25.67],[81.39,24.74],[80.91,23.9],[80.44,23.05],[79.97,22.19],[79.52,21.34],[79.06,20.49],[78.61,19.63],[78.17,18.78],[77.73,17.92],[77.3,17.06],[76.8,16.24],[76.3,15.43],[75.81,14.61],[75.32,13.79],[74.84,12.97],[74.35,12.15],[73.88,11.33],[73.4,10.51],[73.4,10.51],[72.84,9.9],[72.28,9.29],[72.28,9.29],[73.01,8.61],[73.74,7.92],[74.47,7.23],[75.2,6.54],[75.92,5.84],[76.64,5.15],[77.36,4.46],[77.89,3.86],[78.43,3.26],[78.96,2.66],[79.49,2.06],[80.08,1.48],[80.67,0.89],[81.26,0.3],[81.9,-0.15],[82.53,-0.61],[83.17,-1.06],[83.8,-1.52],[84.5,-1.96],[85.2,-2.39],[85.9,-2.83],[86.6,-3.27],[86.6,-3.27],[87.42,-2.75],[88.25,-2.22],[89.07,-1.7],[89.89,-1.18],[90.71,-0.66],[91.53,-0.13],[92.36,0.39],[93.18,0.91],[94,1.43],[94.82,1.96],[95.36,2.41],[95.36,2.41],[96.32,2.54],[97.28,2.67],[98.1,2.95],[98.92,3.23],[99.74,3.51],[100.55,3.79],[101.37,4.07],[102.19,4.41],[103.01,4.75],[103.83,5.09],[104.65,5.42],[105.47,5.75],[106.25,6.35],[107.03,6.94],[107.81,7.53],[108.59,8.12],[109.38,8.71],[110.2,9.24],[111.03,9.78],[111.85,10.31],[112.69,10.84],[113.52,11.37],[114.36,11.89],[114.36,11.89],[114.36,11.72],[114.97,11.1],[115.59,10.48],[116.2,9.87],[116.81,9.25],[117.41,8.63],[118.02,8],[118.6,7.5],[119.18,7],[119.75,6.5],[120.62,6.26],[121.49,6.02],[122.35,5.78],[122.86,5.22],[123.37,4.66],[123.88,4.09],[124.58,3.47],[125.28,2.84],[125.78,2.03],[126.27,1.22],[126.84,0.42],[126.84,0.42],[127.35,-0.3],[127.85,-1.01],[128.01,-2],[128.16,-2.98],[128.32,-3.97],[128.47,-4.95],[127.99,-5.64],[127.5,-6.32],[127.01,-7],[126.52,-7.69],[126.03,-8.37],[125.53,-9.06],[125.02,-9.75],[124.52,-10.44],[124,-11.13],[123.46,-11.71],[122.92,-12.29],[122.37,-12.87],[121.82,-13.45],[121.82,-13.45],[120.89,-13.33],[119.95,-13.2],[119.02,-13.07],[118.09,-12.94],[118.09,-12.94],[118.12,-13.93],[118.15,-14.92],[118.14,-15.71],[118.13,-16.49],[118.12,-17.27],[118.12,-17.27],[117.15,-17.25],[116.94,-18.09],[116.72,-18.94],[116.51,-19.78],[116.29,-20.62],[115.32,-20.61],[114.35,-20.59],[114.25,-21.41],[114.15,-22.23],[114.05,-23.04],[113.15,-22.97],[112.25,-22.88],[111.34,-22.79],[111.09,-23.7],[110.82,-24.61],[110.56,-25.52],[110.29,-26.43],[110.01,-27.34],[109.17,-27.22],[108.32,-27.09],[107.48,-26.96],[106.64,-26.82],[106.33,-27.68],[106.02,-28.53],[105.7,-29.37],[105.38,-30.22],[105.05,-31.07],[104.72,-31.92],[103.65,-31.82],[102.59,-31.71],[101.52,-31.59],[100.47,-31.47],[99.41,-31.34],[99.04,-32.09],[98.66,-32.85],[98.27,-33.61],[97.88,-34.36],[96.86,-34.01],[95.84,-33.65],[94.82,-33.28],[93.82,-32.9],[93.29,-33.8],[92.76,-34.69],[92.2,-35.58],[91.64,-36.46],[91.07,-37.35],[90.48,-38.23],[89.87,-39.1],[89.87,-39.1],[88.62,-38.98],[87.38,-38.84],[86.14,-38.68],[84.91,-38.52],[83.68,-38.34],[82.45,-38.17],[81.22,-37.99],[80,-37.79],[78.79,-37.59],[77.58,-37.37],[76.38,-37.13],[75.19,-36.89],[75.38,-36.4],[75.57,-35.9],[74.49,-35.48],[73.44,-35.04],[72.39,-34.6],[71.35,-34.15],[70.33,-33.69],[69.31,-33.22],[68.31,-32.74],[67.31,-32.26],[66.33,-31.76],[65.36,-31.26],[64.4,-30.76],[63.45,-30.24],[62.51,-29.72],[61.58,-29.19],[60.65,-28.66],[60.65,-28.66],[61.14,-27.9],[61.62,-27.13],[62.09,-26.36],[62.55,-25.6],[61.62,-25.1],[60.69,-24.61],[59.77,-24.1],[58.85,-23.59],[57.94,-23.08],[57.04,-22.56],[56.15,-22.04],[55.26,-21.51],[54.38,-20.97],[53.51,-20.44],[52.64,-19.89],[51.78,-19.35],[50.92,-18.8],[51.39,-17.98],[50.62,-17.44],[49.86,-16.89],[49.11,-16.34],[48.35,-15.79],[47.61,-15.24],[46.86,-14.68],[46.12,-14.12],[46.63,-13.43],[45.9,-12.77],[45.18,-12.11],[44.47,-11.44],[43.76,-10.78],[43.05,-10.11],[42.34,-9.44],[41.64,-8.77],[40.94,-8.1],[40.24,-7.42],[39.54,-6.75],[38.85,-6.08],[38.16,-5.4],[38.16,-5.4],[38.78,-4.73],[39.41,-4.06],[40.03,-3.39],[40.66,-2.72],[41.28,-2.05],[41.9,-1.38],[41.12,-0.8],[40.34,-0.22],[39.56,0.36],[38.78,0.94],[37.99,1.52],[37.3,2.08],[36.62,2.64],[35.92,3.2],[35.23,3.76],[34.54,4.32],[34.07,3.77],[33.61,3.23],[32.91,3.71],[32.21,4.18],[31.51,4.65],[31.14,4.21],[30.77,3.77],[29.99,4.39],[29.2,5],[28.42,5.62],[27.63,6.23],[26.84,6.84],[26.05,7.45],[25.26,8.06],[24.46,8.67],[23.89,9.13],[23.31,9.59],[23.31,9.59],[23.56,10.39],[23.81,11.2],[24.06,12],[24.38,12.47],[24.71,12.95],[24.71,12.95],[25.67,12.96],[26.64,12.97],[27.6,12.98],[28.56,12.98],[29.5,13.17],[30.45,13.36],[31.4,13.55],[32.34,13.73],[33.29,13.91],[34.24,14.08],[35.2,14.25],[36.01,14.57],[36.82,14.88],[37.64,15.19],[38.46,15.5],[39.28,15.81],[40.14,16.16],[41,16.51],[41.86,16.86],[42.72,17.2],[43.55,17.79],[44.38,18.36],[45.22,18.94],[46.06,19.51],[46.91,20.07],[46.91,20.07],[46.18,20.7],[45.44,21.32],[44.62,21.97],[43.79,22.6],[42.95,23.24],[42.11,23.87]]]}},{"type":"Feature","properties":{"ma":245,"type":"gpml:TopologicalClosedPlateBoundary","name":"Alexander Plate","pid":16111,"deforming":false},"geometry":{"type":"Polygon","coordinates":[[[-63.03,63.87],[-62.61,63.03],[-61.79,62.37],[-61.01,61.7],[-60.27,61.02],[-59.55,60.34],[-58.79,59.59],[-58.06,58.83],[-57.36,58.07],[-56.41,57.33],[-55.49,56.58],[-54.62,55.83],[-53.77,55.08],[-53.04,54.35],[-52.34,53.62],[-51.66,52.89],[-51,52.16],[-50.37,51.42],[-50.37,51.42],[-49.86,50.62],[-49.37,49.82],[-48.9,49.02],[-48.69,48.79],[-48.69,48.79],[-50.17,48.67],[-51.65,48.53],[-53.12,48.38],[-54.58,48.2],[-55.84,47.98],[-57.1,47.74],[-58.34,47.49],[-59.58,47.23],[-60.8,46.95],[-62,46.66],[-63.33,46.27],[-64.64,45.86],[-65.94,45.44],[-67.21,45],[-68.46,44.55],[-69.7,44.09],[-70.84,43.67],[-71.96,43.24],[-73.07,42.8],[-74.16,42.35],[-75.24,41.89],[-76.3,41.42],[-77.35,40.94],[-78.4,40.46],[-79.44,39.98],[-80.46,39.48],[-81.47,38.98],[-82.46,38.46],[-83.44,37.94],[-84.4,37.41],[-85.35,36.88],[-86.29,36.33],[-87.03,35.61],[-87.76,34.88],[-88.48,34.15],[-89.18,33.42],[-89.87,32.68],[-90.55,31.94],[-91.22,31.19],[-91.67,30.34],[-92.12,29.49],[-92.55,28.63],[-92.99,27.78],[-93.41,26.92],[-93.83,26.06],[-93.83,26.06],[-94.25,26.29],[-95.11,26.88],[-95.99,27.47],[-96.87,28.05],[-97.77,28.62],[-98.67,29.19],[-99.58,29.75],[-100.51,30.3],[-101.44,30.85],[-102.37,31.46],[-103.3,32.06],[-104.25,32.65],[-105.21,33.24],[-106.18,33.82],[-106.83,34.44],[-107.49,35.06],[-108.16,35.67],[-108.84,36.29],[-109.53,36.89],[-110.06,37.62],[-110.6,38.35],[-111.15,39.08],[-111.71,39.81],[-111.86,40.75],[-112.01,41.69],[-112.16,42.63],[-111.81,43.54],[-111.44,44.45],[-111.06,45.36],[-110.68,46.26],[-110.27,47.17],[-109.86,48.07],[-109.43,48.97],[-108.79,49.71],[-108.14,50.44],[-107.47,51.17],[-106.77,51.9],[-106.05,52.62],[-105.31,53.34],[-104.13,53.98],[-102.92,54.61],[-101.67,55.22],[-100.38,55.83],[-99.05,56.42],[-97.68,56.99],[-96.27,57.55],[-94.81,58.09],[-93.31,58.62],[-91.76,59.12],[-90.17,59.61],[-89.72,59.68],[-89.72,59.68],[-88.16,60.19],[-86.54,60.68],[-84.87,61.15],[-83.16,61.6],[-81.39,62.02],[-79.58,62.43],[-77.72,62.81],[-75.81,63.16],[-73.86,63.49],[-71.86,63.79],[-69.82,64.07],[-67.74,64.31],[-65.63,64.53],[-63.49,64.71],[-63.03,63.87]]]}},{"type":"Feature","properties":{"ma":245,"type":"gpml:TopologicalClosedPlateBoundary","name":"Yukon-Tanana Plate","pid":16104,"deforming":false},"geometry":{"type":"Polygon","coordinates":[[[-48.41,48.81],[-48.18,48],[-47.96,47.19],[-47.74,46.37],[-47.53,45.56],[-47.33,44.75],[-46.91,43.98],[-46.51,43.2],[-46.11,42.43],[-45.73,41.65],[-45.35,40.88],[-45.16,40.01],[-44.97,39.15],[-44.79,38.29],[-44.61,37.43],[-44.43,36.56],[-44.25,35.74],[-44.06,34.92],[-43.88,34.1],[-43.71,33.28],[-43.54,32.45],[-43.39,31.54],[-43.25,30.63],[-43.1,29.72],[-42.97,28.81],[-42.79,27.93],[-42.62,27.05],[-42.45,26.16],[-42.28,25.28],[-42.11,24.4],[-41.95,23.48],[-41.79,22.56],[-41.79,22.56],[-41.97,21.9],[-42.16,21.24],[-42.34,20.58],[-42.74,19.9],[-43.14,19.21],[-43.96,18.91],[-44.79,18.6],[-45.54,18.61],[-46.3,18.62],[-47.05,18.62],[-47.05,18.62],[-46.87,18.84],[-46.64,19.21],[-46.64,19.21],[-45.68,19.42],[-45.13,20.05],[-44.57,20.68],[-44.6,21.19],[-44.63,21.71],[-45.16,22.43],[-45.7,23.15],[-46.24,23.86],[-46.78,24.57],[-46.98,25.42],[-47.18,26.27],[-47.39,27.12],[-47.59,27.97],[-47.8,28.82],[-48.02,29.67],[-48.23,30.54],[-48.44,31.41],[-48.66,32.27],[-48.89,33.14],[-49.12,34],[-49.35,34.87],[-49.49,35.63],[-49.62,36.39],[-49.77,37.15],[-49.91,37.92],[-50.34,38.74],[-50.77,39.56],[-51.22,40.38],[-51.68,41.19],[-52.23,41.98],[-52.79,42.77],[-53.36,43.55],[-53.95,44.33],[-54.57,45.01],[-55.21,45.69],[-55.86,46.37],[-56.53,47.05],[-57.22,47.72],[-57.22,47.72],[-55.91,47.97],[-54.58,48.2],[-53.36,48.35],[-52.13,48.48],[-50.89,48.61],[-49.65,48.71],[-48.41,48.81]]]}}]}