{"type":"FeatureCollection","features":[{"type":"Feature","properties":{"ma":215,"type":"gpml:TopologicalClosedPlateBoundary","name":"Izanagi Plate","pid":926,"deforming":false},"geometry":{"type":"MultiPolygon","coordinates":[[[[180,74.18],[180,73.18],[180,72.18],[180,71.18],[180,70.19],[180,69.19],[180,68.19],[180,67.19],[180,66.19],[180,65.19],[180,64.19],[180,63.19],[180,62.2],[180,61.2],[180,60.2],[180,59.2],[180,58.2],[180,57.2],[180,56.2],[180,55.21],[180,54.21],[180,53.21],[180,52.21],[180,51.21],[180,50.21],[180,49.21],[180,48.21],[180,47.22],[180,46.22],[180,45.22],[180,44.22],[180,43.22],[180,42.22],[180,41.22],[180,40.22],[180,39.23],[180,38.23],[180,37.23],[180,36.23],[180,35.23],[180,34.23],[180,33.23],[180,32.24],[180,31.24],[180,30.24],[180,29.24],[180,28.24],[180,27.24],[180,26.24],[180,25.24],[180,24.25],[180,23.25],[180,22.25],[180,21.25],[180,20.25],[180,19.25],[180,18.25],[180,17.25],[180,16.26],[180,15.26],[180,14.26],[180,13.26],[180,12.26],[180,11.26],[180,10.26],[180,9.27],[180,8.27],[180,7.27],[180,6.27],[180,5.27],[180,4.27],[180,3.27],[180,2.27],[180,1.28],[180,0.28],[180,-0.72],[180,-1.72],[180,-2.72],[180,-3.72],[180,-4.72],[180,-5.72],[180,-6.71],[180,-7.71],[180,-8.71],[180,-9.71],[179.09,-10.06],[178.18,-10.42],[177.27,-10.77],[176.36,-11.11],[175.44,-11.46],[174.52,-11.8],[173.6,-12.13],[172.68,-12.47],[171.75,-12.8],[171.32,-11.9],[170.9,-10.99],[170.48,-10.09],[169.51,-10.4],[168.55,-10.72],[167.58,-11.03],[166.61,-11.34],[165.64,-11.65],[164.67,-11.95],[163.69,-12.25],[162.72,-12.55],[161.74,-12.84],[160.76,-13.13],[159.77,-13.42],[158.79,-13.7],[157.8,-13.98],[156.81,-14.25],[155.81,-14.52],[155.36,-13.74],[154.91,-12.97],[154.47,-12.19],[154.03,-11.41],[153.59,-10.63],[152.77,-11.16],[151.96,-11.68],[151.13,-12.21],[150.31,-12.73],[149.48,-13.25],[148.65,-13.76],[147.82,-14.28],[146.98,-14.79],[146.13,-15.3],[145.29,-15.8],[144.44,-16.3],[143.58,-16.8],[142.72,-17.29],[141.86,-17.78],[140.99,-18.27],[140.11,-18.75],[139.24,-19.23],[138.35,-19.71],[137.46,-20.18],[136.57,-20.64],[136.08,-20.95],[135.6,-21.26],[135.6,-21.26],[135.6,-20.51],[135.59,-19.76],[135.59,-19.01],[135.29,-18.22],[134.98,-17.42],[134.68,-16.63],[134.39,-15.83],[134.09,-15.03],[133.8,-14.24],[133.8,-14.24],[132.94,-13.93],[132.09,-13.62],[131.23,-13.31],[130.38,-13],[129.53,-12.68],[128.69,-12.37],[127.84,-12.04],[126.94,-11.58],[126.04,-11.11],[125.14,-10.64],[124.25,-10.17],[123.36,-9.69],[122.47,-9.21],[121.58,-8.73],[120.66,-8.57],[119.74,-8.41],[118.83,-8.25],[117.91,-8.09],[116.99,-7.92],[116.08,-7.76],[115.16,-7.59],[114.25,-7.41],[113.33,-7.24],[113.33,-7.24],[113.68,-6.33],[114.02,-5.42],[114.36,-4.51],[114.7,-3.6],[115.04,-2.68],[115.38,-1.77],[115.72,-0.86],[116.22,-0.31],[116.72,0.23],[117.23,0.77],[117.94,1.19],[118.66,1.6],[119.38,2.02],[120.1,2.44],[120.79,2.94],[121.48,3.45],[122.17,3.95],[122.85,4.46],[123.53,4.95],[124.21,5.45],[124.88,5.95],[125.56,6.44],[126.24,6.94],[126.41,7.92],[126.59,8.9],[126.76,9.89],[126.93,10.87],[126.67,11.74],[126.4,12.62],[126.13,13.49],[125.91,14.41],[125.69,15.34],[125.21,16.16],[124.72,16.97],[124.4,17.66],[124.08,18.36],[123.76,19.05],[122.97,19.54],[122.18,20.04],[121.38,20.52],[120.96,21.18],[120.53,21.83],[120.1,22.48],[120.01,23.32],[119.92,24.16],[119.92,24.16],[118.84,24.06],[117.77,23.96],[116.69,23.86],[115.62,23.74],[114.54,23.62],[113.47,23.49],[113.47,23.49],[114,24.18],[114.53,24.86],[115.07,25.54],[115.62,26.22],[116.17,26.9],[115.96,27.74],[115.75,28.59],[115.53,29.43],[115.31,30.27],[115.37,31.24],[115.44,32.2],[115.5,33.16],[115.57,34.12],[115.64,35.09],[115.7,36.05],[115.78,37.01],[115.85,37.97],[116.35,38.68],[116.87,39.38],[117.39,40.08],[117.93,40.78],[118.65,41.46],[119.39,42.13],[120.15,42.8],[120.92,43.46],[121.71,44.11],[121.71,44.11],[122.21,44.52],[123.3,45],[124.41,45.47],[125.54,45.93],[126.69,46.38],[127.85,46.81],[128.62,46.73],[129.38,46.64],[129.38,46.64],[130.07,47.36],[130.79,48.06],[131.52,48.77],[132.27,49.47],[133.05,50.16],[133.85,50.85],[134.92,51.35],[136.01,51.85],[137.13,52.33],[138.27,52.8],[139.44,53.26],[140.83,53.58],[142.24,53.89],[143.67,54.18],[145.13,54.45],[146.6,54.71],[147.58,55.33],[148.59,55.95],[149.64,56.56],[150.72,57.16],[151.84,57.75],[152.96,58.39],[154.13,59.02],[155.34,59.63],[156.6,60.24],[157.9,60.83],[159.26,61.41],[160.66,61.98],[161.4,62.88],[162.19,63.77],[163.04,64.66],[163.93,65.54],[164.9,66.42],[165.93,67.29],[167.04,68.16],[168.23,69.01],[169.52,69.86],[170.92,70.7],[172.44,71.52],[174.1,72.33],[175.91,73.13],[177.16,73.82],[178.52,74.51],[180,75.18],[180,74.18]]],[[[-180,-8.71],[-180,-7.71],[-180,-6.71],[-180,-5.72],[-180,-4.72],[-180,-3.72],[-180,-2.72],[-180,-1.72],[-180,-0.72],[-180,0.28],[-180,1.28],[-180,2.27],[-180,3.27],[-180,4.27],[-180,5.27],[-180,6.27],[-180,7.27],[-180,8.27],[-180,9.27],[-180,10.26],[-180,11.26],[-180,12.26],[-180,13.26],[-180,14.26],[-180,15.26],[-180,16.26],[-180,17.25],[-180,18.25],[-180,19.25],[-180,20.25],[-180,21.25],[-180,22.25],[-180,23.25],[-180,24.25],[-180,25.24],[-180,26.24],[-180,27.24],[-180,28.24],[-180,29.24],[-180,30.24],[-180,31.24],[-180,32.24],[-180,33.23],[-180,34.23],[-180,35.23],[-180,36.23],[-180,37.23],[-180,38.23],[-180,39.23],[-180,40.22],[-180,41.22],[-180,42.22],[-180,43.22],[-180,44.22],[-180,45.22],[-180,46.22],[-180,47.22],[-180,48.21],[-180,49.21],[-180,50.21],[-180,51.21],[-180,52.21],[-180,53.21],[-180,54.21],[-180,55.21],[-180,56.2],[-180,57.2],[-180,58.2],[-180,59.2],[-180,60.2],[-180,61.2],[-180,62.2],[-180,63.19],[-180,64.19],[-180,65.19],[-180,66.19],[-180,67.19],[-180,68.19],[-180,69.19],[-180,70.19],[-180,71.18],[-180,72.18],[-180,73.18],[-180,74.18],[-180,75.18],[-177.9,76.03],[-175.54,76.86],[-172.87,77.66],[-169.85,78.43],[-166.41,79.17],[-162.48,79.87],[-158.01,80.51],[-152.93,81.09],[-147.21,81.59],[-140.84,81.99],[-133.89,82.29],[-132.22,81.41],[-130.87,80.51],[-129.74,79.62],[-128.8,78.72],[-127.99,77.82],[-127.29,76.91],[-126.68,76.01],[-126.14,75.1],[-125.66,74.19],[-125.24,73.28],[-124.86,72.37],[-127.48,72.3],[-130.09,72.19],[-132.66,72.05],[-135.18,71.88],[-137.66,71.67],[-136.84,70.71],[-136.09,69.75],[-135.42,68.79],[-134.79,67.82],[-134.22,66.85],[-133.69,65.88],[-133.2,64.91],[-132.74,63.94],[-132.31,62.96],[-131.92,61.99],[-131.54,61.01],[-131.19,60.03],[-130.86,59.05],[-130.55,58.07],[-130.25,57.09],[-131.85,56.95],[-133.44,56.78],[-135.02,56.59],[-134.91,55.6],[-134.8,54.61],[-134.69,53.62],[-134.59,52.62],[-134.5,51.63],[-134.41,50.64],[-134.32,49.65],[-134.24,48.66],[-134.16,47.66],[-134.08,46.67],[-134.01,45.68],[-133.93,44.69],[-133.87,43.69],[-133.8,42.7],[-133.73,41.71],[-134.86,41.64],[-135.99,41.56],[-137.11,41.48],[-138.23,41.38],[-138.1,40.44],[-137.98,39.5],[-137.85,38.56],[-137.74,37.63],[-137.62,36.69],[-137.51,35.75],[-137.4,34.81],[-137.29,33.87],[-137.18,32.93],[-137.08,31.99],[-136.98,31.05],[-136.88,30.12],[-136.78,29.18],[-136.69,28.24],[-136.59,27.3],[-136.5,26.36],[-137.45,26.26],[-138.39,26.16],[-139.32,26.05],[-140.26,25.93],[-140.13,24.95],[-140,23.97],[-139.88,22.99],[-139.75,22],[-139.63,21.02],[-139.51,20.04],[-139.39,19.06],[-139.27,18.07],[-139.15,17.09],[-139.03,16.11],[-138.92,15.13],[-138.8,14.14],[-138.69,13.16],[-138.58,12.18],[-138.47,11.2],[-139.39,11.11],[-140.31,11.01],[-141.23,10.92],[-141.11,9.98],[-141,9.04],[-140.88,8.1],[-140.77,7.16],[-140.65,6.23],[-140.54,5.29],[-140.42,4.35],[-140.31,3.41],[-140.19,2.47],[-140.08,1.53],[-139.97,0.59],[-139.85,-0.34],[-139.79,-1.06],[-139.72,-1.77],[-139.65,-2.48],[-139.65,-2.48],[-140.57,-2.75],[-141.49,-3.03],[-142.43,-3.37],[-143.37,-3.71],[-144.31,-4.05],[-145.26,-4.39],[-146.2,-4.72],[-147.14,-5.06],[-148.09,-5.39],[-149.04,-5.73],[-149.99,-6.06],[-150.93,-6.39],[-151.89,-6.72],[-152.84,-7.04],[-153.19,-6.19],[-153.55,-5.33],[-153.9,-4.47],[-154.82,-4.87],[-155.73,-5.26],[-156.65,-5.66],[-157.56,-6.05],[-158.48,-6.45],[-159.4,-6.84],[-160.32,-7.23],[-161.25,-7.61],[-162.17,-8],[-163.1,-8.38],[-163.43,-7.53],[-163.76,-6.69],[-164.09,-5.84],[-165,-6.23],[-165.91,-6.62],[-166.83,-7],[-167.75,-7.39],[-168.67,-7.77],[-169.59,-8.15],[-170.51,-8.53],[-171.44,-8.91],[-172.37,-9.28],[-173.29,-9.66],[-173.61,-8.9],[-173.92,-8.15],[-174.23,-7.39],[-175.05,-7.73],[-175.87,-8.06],[-176.7,-8.4],[-177.52,-8.73],[-178.35,-9.06],[-179.17,-9.38],[-180,-9.71],[-180,-8.71]]]]}},{"type":"Feature","properties":{"ma":215,"type":"gpml:TopologicalClosedPlateBoundary","name":"Junction Plate North","pid":498,"deforming":false},"geometry":{"type":"Polygon","coordinates":[[[112.91,-18.09],[112.95,-17.38],[113,-16.67],[113,-15.72],[113,-14.77],[113,-13.82],[113,-12.87],[113,-11.92],[112.99,-10.97],[112.99,-10.02],[112.99,-9.07],[112.99,-8.12],[112.99,-7.17],[112.99,-7.17],[113.94,-7.36],[114.89,-7.54],[115.85,-7.71],[116.8,-7.89],[117.76,-8.06],[118.71,-8.23],[119.67,-8.4],[120.62,-8.57],[121.58,-8.73],[122.47,-9.21],[123.36,-9.69],[124.25,-10.17],[125.14,-10.64],[126.04,-11.11],[126.94,-11.58],[127.84,-12.04],[128.69,-12.37],[129.53,-12.68],[130.38,-13],[131.23,-13.31],[132.09,-13.62],[132.94,-13.93],[133.8,-14.24],[133.8,-14.24],[134.09,-15.03],[134.39,-15.83],[134.68,-16.63],[134.98,-17.42],[135.29,-18.22],[135.59,-19.01],[135.6,-19.87],[135.6,-20.73],[135.6,-21.59],[135.61,-22.45],[135.61,-23.31],[135.61,-24.17],[135.61,-24.17],[134.65,-24.27],[133.68,-24.37],[132.71,-24.47],[131.73,-24.55],[130.76,-24.63],[129.79,-24.71],[128.81,-24.77],[128.74,-24.1],[128.67,-23.42],[127.7,-23.42],[126.74,-23.41],[125.77,-23.4],[124.81,-23.38],[123.84,-23.36],[122.88,-23.33],[121.91,-23.29],[121.82,-22.33],[121.74,-21.36],[121.66,-20.4],[121.57,-19.43],[121.49,-18.47],[120.53,-18.44],[119.58,-18.42],[118.63,-18.38],[117.67,-18.35],[116.72,-18.3],[115.77,-18.26],[114.81,-18.21],[113.86,-18.15],[112.91,-18.09]]]}},{"type":"Feature","properties":{"ma":215,"type":"gpml:TopologicalClosedPlateBoundary","name":"Mongol-Okhotsk Ocean","pid":380,"deforming":false},"geometry":{"type":"Polygon","coordinates":[[[-180,76.17],[-180,77.16],[-180,78.14],[-180,79.13],[-180,80.12],[-180,81.11],[-180,82.1],[-180,83.08],[-180,84.07],[-180,85.06],[-180,86.05],[-180,87.04],[-180,88.02],[-180,89.01],[-180,90],[180,90],[180,89.01],[180,88.02],[180,87.04],[180,86.05],[180,85.06],[180,84.07],[180,83.08],[180,82.1],[180,81.11],[180,80.12],[180,79.13],[180,78.14],[180,77.16],[180,76.17],[180,75.18],[178.52,74.51],[177.16,73.82],[175.91,73.13],[174.1,72.33],[172.44,71.52],[170.92,70.7],[169.52,69.86],[168.23,69.01],[167.04,68.16],[165.93,67.29],[164.9,66.42],[163.93,65.54],[163.04,64.66],[162.19,63.77],[161.4,62.88],[160.66,61.98],[159.26,61.41],[157.9,60.83],[156.6,60.24],[155.34,59.63],[154.13,59.02],[152.96,58.39],[151.84,57.75],[150.72,57.16],[149.64,56.56],[148.59,55.95],[147.58,55.33],[146.6,54.71],[145.13,54.45],[143.67,54.18],[142.24,53.89],[140.83,53.58],[139.44,53.26],[138.49,52.89],[137.55,52.5],[136.63,52.12],[135.05,52.23],[133.46,52.33],[131.86,52.4],[130.72,52.35],[129.62,51.85],[128.27,51.84],[126.91,51.82],[125.75,51.83],[124.59,51.82],[123.7,51.91],[122.81,51.99],[121.78,52.11],[120.74,52.23],[120.74,52.23],[119.64,51.97],[118.55,51.7],[117.01,51.57],[116.07,51.63],[115.13,51.68],[114.62,51.68],[113.76,50.95],[112.68,50.96],[111.39,51.24],[110.23,51.6],[109.06,51.94],[107.87,52.28],[106.66,52.6],[105.19,52.88],[103.71,53.14],[102.79,53.06],[101.88,52.97],[100.33,53.11],[99.45,53.02],[98.57,52.92],[97.26,52.52],[95.97,52.11],[94.6,51.75],[93.25,51.36],[91.86,51.18],[90.49,50.97],[88.98,50.98],[87.48,50.96],[86.17,50.97],[84.86,50.97],[83.56,50.94],[82.41,50.94],[81.27,50.93],[80.12,50.91],[80.12,50.91],[79.49,50.11],[78.87,49.3],[78.28,48.49],[77.71,47.68],[77.15,46.87],[76.61,46.05],[75.35,45.68],[74.11,45.29],[72.89,44.89],[71.68,44.48],[70.5,44.06],[69.47,43.71],[68.45,43.35],[67.44,42.99],[66.45,42.62],[66.45,42.62],[66.97,43.19],[67.51,43.76],[68.05,44.33],[68.78,45],[69.52,45.67],[70.27,46.33],[71.05,46.99],[71.85,47.64],[72.66,48.29],[73.34,48.97],[74.04,49.66],[74.76,50.34],[75.5,51.02],[76.27,51.69],[77.37,52.25],[78.51,52.81],[79.67,53.35],[80.87,53.88],[82.09,54.4],[83.35,54.91],[84.63,55.4],[85.95,55.88],[86.87,56.69],[87.84,57.5],[88.84,58.3],[89.89,59.09],[91,59.87],[92.15,60.64],[93.36,61.4],[94.63,62.15],[95.96,62.89],[97.37,63.61],[97.37,63.61],[95.63,64.05],[93.84,64.47],[92,64.86],[90.11,65.24],[88.16,65.58],[86.16,65.91],[84.51,66.6],[82.77,67.27],[80.93,67.92],[78.98,68.55],[76.93,69.15],[74.76,69.73],[72.47,70.28],[70.06,70.8],[67.67,71.04],[65.23,71.24],[62.74,71.41],[60.21,71.54],[57.65,71.64],[57.65,71.64],[56.55,72.52],[55.33,73.39],[53.99,74.25],[52.49,75.1],[50.81,75.95],[48.93,76.78],[46.81,77.59],[44.39,78.38],[41.63,79.16],[38.46,79.9],[34.81,80.61],[30.95,81.27],[26.49,81.88],[21.34,82.44],[15.43,82.94],[8.72,83.34],[1.26,83.64],[-6.8,83.83],[-15.18,83.89],[-23.56,83.82],[-29.24,83.52],[-29.24,83.52],[-32.21,83],[-34.77,82.46],[-39.46,81.83],[-43.47,81.15],[-46.44,80.45],[-49,79.73],[-50.74,79.11],[-52.28,78.47],[-53.66,77.83],[-54.67,77.3],[-55.6,76.76],[-55.6,76.76],[-57.79,77.28],[-60.17,77.79],[-62.74,78.27],[-65.81,78.97],[-69.28,79.63],[-73.2,80.26],[-77.63,80.83],[-82.61,81.34],[-88.17,81.78],[-94.29,82.14],[-100.9,82.4],[-107.87,82.55],[-115.03,82.59],[-122.15,82.52],[-129.46,82.42],[-136.47,82.2],[-143.01,81.87],[-148.98,81.45],[-154.34,80.94],[-159.1,80.37],[-163.3,79.73],[-167.01,79.05],[-170.27,78.33],[-173.15,77.58],[-175.71,76.8],[-177.97,76],[-180,75.18],[-180,76.17]]]}},{"type":"Feature","properties":{"ma":215,"type":"gpml:TopologicalClosedPlateBoundary","name":"North America","pid":101,"deforming":false},"geometry":{"type":"Polygon","coordinates":[[[-3.58,4.23],[-3.58,4.26],[-3.58,4.48],[-3.7,4.51],[-3.75,4.5],[-4.06,4.31],[-4.19,4.53],[-4.22,4.72],[-3.91,4.73],[-3.77,4.84],[-3.71,4.95],[-3.97,5.13],[-4.15,5.3],[-4.27,5.4],[-4.41,5.53],[-4.63,5.62],[-4.81,5.82],[-5.14,5.92],[-5.91,6],[-6.58,6.15],[-7.3,6.29],[-7.93,6.31],[-8.45,6.31],[-8.94,6.29],[-9.42,6.25],[-9.98,6.18],[-10.63,6.23],[-11.11,6.32],[-11.44,6.3],[-12.06,6.16],[-12.6,6.01],[-13.18,5.74],[-13.85,5.34],[-14.35,5.03],[-15.11,4.89],[-15.62,4.74],[-16.4,4.59],[-17.15,4.53],[-17.61,4.51],[-18.12,4.25],[-18.5,4.38],[-18.74,4.3],[-18.94,3.73],[-19.29,3.41],[-19.75,3.29],[-20.07,3.02],[-20.38,2.76],[-20.56,2.76],[-20.81,2.73],[-21.26,2.59],[-21.54,2.6],[-21.84,2.68],[-22.08,2.7],[-22.21,2.6],[-22.62,2.44],[-22.79,2.01],[-23.06,1.56],[-23.54,1.1],[-24.02,0.64],[-24.36,0.34],[-25.13,-0.19],[-25.75,-0.5],[-25.93,-1.11],[-26.15,-1.87],[-26.61,-2.31],[-27.17,-2.72],[-27.8,-2.85],[-28.43,-2.97],[-28.94,-3.11],[-29.26,-3.19],[-29.6,-3.27],[-29.72,-3.47],[-30.09,-3.75],[-30.47,-4.06],[-30.88,-4.43],[-31.18,-4.72],[-31.38,-4.84],[-31.38,-4.84],[-31.39,-4.83],[-32.1,-4.17],[-32.6,-3.69],[-33.1,-3.21],[-33.82,-2.75],[-34.54,-2.29],[-35.17,-1.75],[-35.83,-1.37],[-36.32,-1.08],[-36.81,-0.78],[-37.29,-0.54],[-37.77,-0.29],[-38.23,-0.02],[-38.69,0.26],[-39.48,0.84],[-40.19,1.04],[-40.9,1.24],[-41.41,1.41],[-41.91,1.58],[-42.91,1.59],[-43.42,1.63],[-43.94,1.68],[-44.64,1.3],[-45.33,0.91],[-46.02,0.53],[-46.76,-0.11],[-47.49,-0.75],[-48.23,-1.39],[-48.51,-2.08],[-48.9,-2.44],[-49.3,-2.8],[-49.97,-3.52],[-50.59,-3.88],[-51.27,-4.37],[-51.96,-4.86],[-52.76,-5],[-53.55,-5.13],[-54.51,-5.31],[-55.47,-5.49],[-56.24,-5.65],[-57.01,-5.82],[-57.96,-5.98],[-58.91,-6.14],[-59.81,-6.22],[-59.81,-6.22],[-59.72,-5.55],[-59.62,-4.88],[-59.45,-4.13],[-59.29,-3.38],[-59.12,-2.63],[-58.91,-1.84],[-58.69,-1.05],[-58.48,-0.26],[-58.19,0.46],[-57.91,1.17],[-57.62,1.89],[-57.22,2.24],[-56.82,2.59],[-56.27,3.04],[-55.72,3.48],[-55.27,3.95],[-54.82,4.42],[-54.78,4.49],[-54.78,4.49],[-54.84,5.33],[-54.9,6.18],[-54.95,7.03],[-55.01,7.87],[-55.07,8.72],[-55.17,9.67],[-55.27,10.62],[-55.36,11.57],[-55.46,12.52],[-55.56,13.47],[-55.66,14.42],[-55.76,15.38],[-55.78,16.15],[-55.8,16.92],[-55.82,17.69],[-55.84,18.47],[-55.43,19.23],[-55.01,20],[-54.59,20.77],[-54.17,21.53],[-53.74,22.3],[-53.09,23.02],[-52.44,23.73],[-51.78,24.45],[-51.11,25.16],[-50.57,25.7],[-50.03,26.24],[-49.49,26.78],[-49.49,26.78],[-49.07,27.65],[-48.64,28.52],[-48.2,29.38],[-48,30.36],[-47.79,31.34],[-47.57,32.33],[-47.36,33.3],[-47.13,34.28],[-46.9,35.26],[-46.74,36.17],[-46.57,37.07],[-46.39,37.98],[-46.22,38.88],[-46.03,39.78],[-45.85,40.68],[-45.65,41.59],[-45.84,42.52],[-46.02,43.45],[-46.22,44.38],[-46.42,45.31],[-47.06,46.02],[-47.71,46.73],[-47.46,47.67],[-47.2,48.61],[-46.93,49.54],[-46.65,50.48],[-46.36,51.41],[-46.21,52.03],[-46.06,52.64],[-46.06,52.64],[-46.91,53.09],[-47.78,53.53],[-48.66,53.97],[-49.6,54.6],[-50.57,55.22],[-51.57,55.84],[-52.6,56.44],[-53.75,57.14],[-54.95,57.82],[-56.19,58.49],[-56.98,59.04],[-57.78,59.59],[-57.78,59.59],[-56.42,60.11],[-55.02,60.61],[-53.75,60.95],[-52.46,61.29],[-51.13,61.61],[-49.25,61.95],[-47.32,62.26],[-45.97,62.49],[-44.6,62.72],[-43.22,62.93],[-41.57,63.3],[-39.88,63.66],[-38.15,64],[-36.83,64.34],[-35.48,64.68],[-34.09,65],[-32.21,65.19],[-30.31,65.36],[-28.38,65.51],[-26.19,65.92],[-23.94,66.3],[-22.24,66.76],[-20.47,67.2],[-18.64,67.62],[-18.64,67.62],[-17.79,66.81],[-16.99,66],[-16.25,65.18],[-15.54,64.36],[-15.05,63.49],[-14.59,62.62],[-14.16,61.75],[-13.74,60.88],[-13.71,60.81],[-13.57,60.48],[-13.53,60.37],[-13.47,60.21],[-13.36,59.92],[-13.13,59.34],[-12.91,58.77],[-12.81,58.43],[-12.81,58.43],[-12.41,57.66],[-12.02,56.88],[-11.65,56.1],[-11.24,55.28],[-10.85,54.46],[-10.47,53.63],[-10.1,52.81],[-9.75,51.99],[-9.36,51.29],[-8.99,50.59],[-8.62,49.89],[-9.03,49.29],[-8.62,48.35],[-8.22,47.42],[-7.83,46.48],[-7.46,45.54],[-7.1,44.59],[-7.16,43.61],[-7.23,42.62],[-7.29,41.63],[-7.35,40.64],[-6.46,40.44],[-5.57,40.22],[-4.69,40],[-3.63,39.86],[-2.58,39.7],[-1.53,39.54],[-0.5,39.84],[0.53,40.13],[1.34,39.87],[2.15,39.6],[2.73,38.82],[3.31,38.04],[3.3,37.35],[3.28,36.66],[3.5,35.9],[3.72,35.15],[3.8,34.2],[3.89,33.24],[4.07,32.48],[4.26,31.72],[4.81,31.13],[5.11,30.56],[5.41,30],[5.53,29.46],[5.65,28.93],[5.56,28.27],[5.47,27.61],[5.18,27.05],[4.89,26.49],[4.52,25.75],[4.15,25.01],[3.63,24.42],[3.12,23.82],[2.25,23.33],[1.39,22.82],[1.03,22.03],[0.67,21.24],[0.31,20.44],[-0.04,19.65],[-0.42,18.79],[-0.8,17.94],[-1.17,17.08],[-1.38,16.3],[-1.61,15.91],[-1.08,15.17],[-0.55,14.44],[-0.03,13.7],[0.55,14.09],[1.16,13.4],[1.76,12.71],[2.35,12.02],[2.95,11.32],[2.55,10.66],[2.16,9.99],[1.77,9.33],[1.07,8.66],[0.36,7.98],[-0.34,7.31],[-1.07,6.68],[-1.8,6.05],[-2.53,5.42],[-3.25,4.8],[-3.58,4.23]]]}},{"type":"Feature","properties":{"ma":215,"type":"gpml:TopologicalClosedPlateBoundary","name":"Phoenix Plate","pid":919,"deforming":false},"geometry":{"type":"MultiPolygon","coordinates":[[[[180,-10.71],[180,-11.7],[180,-12.7],[180,-13.7],[180,-14.7],[180,-15.69],[180,-16.69],[180,-17.69],[180,-18.68],[180,-19.68],[180,-20.68],[180,-21.67],[180,-22.67],[180,-23.67],[180,-24.67],[180,-25.66],[180,-26.66],[180,-27.66],[180,-28.65],[180,-29.65],[180,-30.65],[180,-31.64],[180,-32.64],[180,-33.64],[180,-34.64],[180,-35.63],[180,-36.63],[180,-37.63],[180,-38.62],[180,-39.62],[180,-40.62],[180,-41.61],[180,-42.61],[180,-43.61],[180,-44.61],[180,-45.6],[180,-46.6],[180,-47.6],[180,-48.59],[180,-49.59],[180,-50.59],[180,-51.59],[180,-52.58],[180,-53.58],[180,-54.58],[180,-55.57],[180,-56.57],[180,-57.57],[180,-58.56],[180,-59.56],[180,-60.56],[180,-61.56],[180,-62.55],[180,-63.55],[180,-64.55],[180,-65.54],[180,-66.54],[180,-67.54],[180,-68.53],[180,-69.53],[180,-70.53],[180,-71.53],[176.95,-71.41],[173.95,-71.25],[171,-71.03],[168.12,-70.78],[165.33,-70.48],[162.93,-70.32],[160.57,-70.13],[158.26,-69.92],[156,-69.67],[153.79,-69.39],[153.79,-69.39],[153.26,-68.57],[152.78,-67.75],[152.32,-66.93],[151.12,-66.11],[151.4,-65.59],[152.4,-64.69],[153.33,-63.77],[154.15,-62.85],[154.92,-61.92],[155.19,-61.36],[155.46,-60.8],[155.36,-60.21],[155.26,-59.63],[154.64,-58.86],[154.05,-58.1],[153.48,-57.33],[152.94,-56.56],[152.23,-55.67],[151.56,-54.78],[150.91,-53.88],[150.29,-52.98],[149.7,-52.08],[149.54,-51.21],[149.39,-50.34],[149.24,-49.47],[149.1,-48.59],[148.97,-47.72],[148.75,-46.92],[148.54,-46.13],[148.34,-45.33],[148.14,-44.53],[147.95,-43.73],[147.81,-42.99],[147.67,-42.26],[147.54,-41.52],[147.54,-41.52],[146.51,-40.97],[145.49,-40.41],[144.49,-39.84],[143.51,-39.26],[142.42,-38.87],[141.34,-38.46],[140.72,-38.2],[140.12,-37.93],[139.67,-37.47],[139.24,-37.01],[138.77,-36.37],[138.31,-35.72],[137.63,-34.98],[136.96,-34.22],[136.3,-33.47],[135.65,-32.71],[135.65,-31.76],[135.64,-30.8],[135.64,-29.85],[135.63,-28.89],[135.63,-27.94],[135.63,-26.98],[135.62,-26.03],[135.62,-25.08],[135.61,-24.12],[135.61,-23.17],[135.6,-22.21],[135.6,-21.26],[135.6,-21.26],[136.08,-20.95],[136.57,-20.64],[137.46,-20.18],[138.35,-19.71],[139.24,-19.23],[140.11,-18.75],[140.99,-18.27],[141.86,-17.78],[142.72,-17.29],[143.58,-16.8],[144.44,-16.3],[145.29,-15.8],[146.13,-15.3],[146.98,-14.79],[147.82,-14.28],[148.65,-13.76],[149.48,-13.25],[150.31,-12.73],[151.13,-12.21],[151.96,-11.68],[152.77,-11.16],[153.59,-10.63],[154.03,-11.41],[154.47,-12.19],[154.91,-12.97],[155.36,-13.74],[155.81,-14.52],[156.81,-14.25],[157.8,-13.98],[158.79,-13.7],[159.77,-13.42],[160.76,-13.13],[161.74,-12.84],[162.72,-12.55],[163.69,-12.25],[164.67,-11.95],[165.64,-11.65],[166.61,-11.34],[167.58,-11.03],[168.55,-10.72],[169.51,-10.4],[170.48,-10.09],[170.9,-10.99],[171.32,-11.9],[171.75,-12.8],[172.68,-12.47],[173.6,-12.13],[174.52,-11.8],[175.44,-11.46],[176.36,-11.11],[177.27,-10.77],[178.18,-10.42],[179.09,-10.06],[180,-9.71],[180,-10.71]]],[[[-180,-70.53],[-180,-69.53],[-180,-68.53],[-180,-67.54],[-180,-66.54],[-180,-65.54],[-180,-64.55],[-180,-63.55],[-180,-62.55],[-180,-61.56],[-180,-60.56],[-180,-59.56],[-180,-58.56],[-180,-57.57],[-180,-56.57],[-180,-55.57],[-180,-54.58],[-180,-53.58],[-180,-52.58],[-180,-51.59],[-180,-50.59],[-180,-49.59],[-180,-48.59],[-180,-47.6],[-180,-46.6],[-180,-45.6],[-180,-44.61],[-180,-43.61],[-180,-42.61],[-180,-41.61],[-180,-40.62],[-180,-39.62],[-180,-38.62],[-180,-37.63],[-180,-36.63],[-180,-35.63],[-180,-34.64],[-180,-33.64],[-180,-32.64],[-180,-31.64],[-180,-30.65],[-180,-29.65],[-180,-28.65],[-180,-27.66],[-180,-26.66],[-180,-25.66],[-180,-24.67],[-180,-23.67],[-180,-22.67],[-180,-21.67],[-180,-20.68],[-180,-19.68],[-180,-18.68],[-180,-17.69],[-180,-16.69],[-180,-15.69],[-180,-14.7],[-180,-13.7],[-180,-12.7],[-180,-11.7],[-180,-10.71],[-180,-9.71],[-179.17,-9.38],[-178.35,-9.06],[-177.52,-8.73],[-176.7,-8.4],[-175.87,-8.06],[-175.05,-7.73],[-174.23,-7.39],[-173.92,-8.15],[-173.61,-8.9],[-173.29,-9.66],[-172.37,-9.28],[-171.44,-8.91],[-170.51,-8.53],[-169.59,-8.15],[-168.67,-7.77],[-167.75,-7.39],[-166.83,-7],[-165.91,-6.62],[-165,-6.23],[-164.09,-5.84],[-163.76,-6.69],[-163.43,-7.53],[-163.1,-8.38],[-162.17,-8],[-161.25,-7.61],[-160.32,-7.23],[-159.4,-6.84],[-158.48,-6.45],[-157.56,-6.05],[-156.65,-5.66],[-155.73,-5.26],[-154.82,-4.87],[-153.9,-4.47],[-153.55,-5.33],[-153.19,-6.19],[-152.84,-7.04],[-151.89,-6.72],[-150.93,-6.39],[-149.99,-6.06],[-149.04,-5.73],[-148.09,-5.39],[-147.14,-5.06],[-146.2,-4.72],[-145.26,-4.39],[-144.31,-4.05],[-143.37,-3.71],[-142.43,-3.37],[-141.49,-3.03],[-140.54,-2.74],[-139.59,-2.46],[-139.59,-2.46],[-139.16,-2.72],[-138.36,-3.26],[-137.56,-3.8],[-136.75,-4.34],[-135.95,-4.88],[-135.15,-5.41],[-134.34,-5.95],[-133.53,-6.48],[-132.72,-7.02],[-131.91,-7.55],[-131.1,-8.08],[-130.28,-8.61],[-129.46,-9.13],[-128.64,-9.66],[-127.82,-10.18],[-126.99,-10.7],[-126.17,-11.22],[-125.33,-11.74],[-124.5,-12.25],[-123.66,-12.76],[-122.82,-13.27],[-121.98,-13.78],[-122.36,-14.58],[-122.74,-15.38],[-123.13,-16.18],[-122.24,-16.57],[-121.34,-16.95],[-120.44,-17.33],[-119.54,-17.71],[-118.64,-18.08],[-117.73,-18.45],[-116.81,-18.81],[-115.9,-19.17],[-114.98,-19.52],[-114.05,-19.87],[-113.12,-20.22],[-112.19,-20.56],[-111.25,-20.89],[-110.31,-21.22],[-109.36,-21.55],[-108.41,-21.87],[-108.72,-22.6],[-109.04,-23.33],[-109.36,-24.07],[-108.41,-24.43],[-107.45,-24.78],[-106.49,-25.13],[-105.52,-25.48],[-104.55,-25.81],[-103.58,-26.14],[-102.59,-26.47],[-101.61,-26.78],[-100.61,-27.09],[-99.61,-27.39],[-98.61,-27.69],[-97.6,-27.98],[-96.58,-28.26],[-95.56,-28.53],[-94.54,-28.8],[-93.51,-29.06],[-93.65,-29.74],[-93.79,-30.43],[-93.93,-31.12],[-92.81,-31.39],[-91.68,-31.65],[-90.55,-31.9],[-89.41,-32.14],[-88.26,-32.37],[-87.11,-32.59],[-85.95,-32.79],[-84.79,-32.99],[-83.62,-33.18],[-82.45,-33.35],[-81.27,-33.52],[-80.09,-33.67],[-78.9,-33.82],[-77.71,-33.95],[-76.52,-34.07],[-75.33,-34.17],[-74.13,-34.27],[-72.92,-34.36],[-71.72,-34.43],[-70.51,-34.49],[-69.31,-34.54],[-68.1,-34.58],[-66.89,-34.6],[-65.68,-34.62],[-64.47,-34.62],[-63.38,-34.73],[-62.29,-34.82],[-61.2,-34.91],[-60.1,-34.99],[-59.01,-35.06],[-59.06,-35.22],[-59.37,-36.04],[-59.58,-36.49],[-59.7,-37.2],[-59.84,-37.76],[-59.9,-38.08],[-60,-38.46],[-60.1,-38.89],[-60.3,-39.75],[-60.51,-40.6],[-60.76,-41.36],[-61.01,-42.12],[-61.26,-42.88],[-61.53,-43.63],[-62.08,-44.36],[-62.64,-45.09],[-63.22,-45.82],[-63.81,-46.54],[-64.42,-47.26],[-64.63,-48.09],[-64.85,-48.92],[-65.05,-49.65],[-65.25,-50.38],[-65.87,-51.15],[-66.52,-51.92],[-66.68,-52.18],[-66.72,-52.3],[-66.72,-52.3],[-66.86,-52.63],[-66.86,-52.63],[-67.32,-53.17],[-67.65,-53.43],[-67.87,-53.78],[-68.04,-54.05],[-68.33,-54.49],[-68.54,-54.76],[-68.92,-55.25],[-69.2,-55.6],[-69.48,-55.98],[-69.77,-56.38],[-70.23,-57],[-70.42,-57.25],[-70.68,-57.59],[-70.92,-57.89],[-71.14,-58.18],[-71.38,-58.53],[-71.57,-58.82],[-71.74,-59.06],[-71.78,-59.14],[-71.88,-59.36],[-72.01,-59.64],[-72.16,-60.07],[-72.49,-60.37],[-72.91,-60.67],[-73.48,-61.02],[-74.11,-61.42],[-74.51,-61.68],[-74.84,-61.91],[-75.13,-62.09],[-75.56,-62.41],[-75.95,-62.82],[-76.11,-63.17],[-76.24,-63.49],[-76.36,-63.74],[-76.42,-64.04],[-76.51,-64.38],[-76.54,-64.77],[-76.54,-65.18],[-76.66,-65.49],[-76.78,-65.64],[-76.97,-65.97],[-77.21,-66.33],[-77.42,-66.69],[-77.56,-67.06],[-77.58,-67.13],[-77.48,-67.53],[-77.39,-67.63],[-77.39,-67.63],[-79.07,-68.3],[-80.86,-68.95],[-83.18,-69.41],[-85.59,-69.83],[-88.1,-70.22],[-90.7,-70.57],[-93.39,-70.89],[-95.77,-71.17],[-98.2,-71.42],[-100.7,-71.64],[-103.25,-71.82],[-105.51,-72.13],[-107.83,-72.42],[-110.23,-72.67],[-112.69,-72.9],[-115.35,-73.13],[-118.08,-73.33],[-120.86,-73.48],[-123.7,-73.61],[-126.55,-73.69],[-129.43,-73.74],[-132.31,-73.74],[-135.19,-73.71],[-138.37,-73.63],[-141.51,-73.49],[-144.59,-73.32],[-147.61,-73.1],[-150.54,-72.83],[-153.78,-72.65],[-156.94,-72.41],[-160.01,-72.13],[-162.99,-71.8],[-165.85,-71.42],[-168.66,-71.53],[-171.49,-71.59],[-174.33,-71.61],[-177.17,-71.59],[-180,-71.53],[-180,-70.53]]]]}},{"type":"Feature","properties":{"ma":215,"type":"gpml:TopologicalClosedPlateBoundary","name":"Gondwana Plate","pid":701,"deforming":false},"geometry":{"type":"Polygon","coordinates":[[[180,-72.5],[180,-73.47],[180,-74.44],[180,-75.42],[180,-76.39],[180,-77.36],[180,-78.33],[180,-79.3],[180,-80.28],[180,-81.25],[180,-82.22],[180,-83.19],[180,-84.17],[180,-85.14],[180,-86.11],[180,-87.08],[180,-88.06],[180,-89.03],[180,-90],[-180,-90],[-180,-89.03],[-180,-88.06],[-180,-87.08],[-180,-86.11],[-180,-85.14],[-180,-84.17],[-180,-83.19],[-180,-82.22],[-180,-81.25],[-180,-80.28],[-180,-79.3],[-180,-78.33],[-180,-77.36],[-180,-76.39],[-180,-75.42],[-180,-74.44],[-180,-73.47],[-180,-72.5],[-180,-71.53],[-177.17,-71.59],[-174.33,-71.61],[-171.49,-71.59],[-168.66,-71.53],[-165.85,-71.42],[-162.99,-71.8],[-160.01,-72.13],[-156.94,-72.41],[-153.78,-72.65],[-150.54,-72.83],[-147.61,-73.1],[-144.59,-73.32],[-141.51,-73.49],[-138.37,-73.63],[-135.19,-73.71],[-132.31,-73.74],[-129.43,-73.74],[-126.55,-73.69],[-123.7,-73.61],[-120.86,-73.48],[-118.08,-73.33],[-115.35,-73.13],[-112.69,-72.9],[-110.23,-72.67],[-107.83,-72.42],[-105.51,-72.13],[-103.25,-71.82],[-100.7,-71.64],[-98.2,-71.42],[-95.77,-71.17],[-93.39,-70.89],[-90.7,-70.57],[-88.1,-70.22],[-85.59,-69.83],[-83.18,-69.41],[-80.86,-68.95],[-79.07,-68.3],[-77.39,-67.63],[-77.39,-67.63],[-77.48,-67.53],[-77.58,-67.13],[-77.56,-67.06],[-77.42,-66.69],[-77.21,-66.33],[-76.97,-65.97],[-76.78,-65.64],[-76.66,-65.49],[-76.54,-65.18],[-76.54,-64.77],[-76.51,-64.38],[-76.42,-64.04],[-76.36,-63.74],[-76.24,-63.49],[-76.11,-63.17],[-75.95,-62.82],[-75.56,-62.41],[-75.13,-62.09],[-74.84,-61.91],[-74.51,-61.68],[-74.11,-61.42],[-73.48,-61.02],[-72.91,-60.67],[-72.49,-60.37],[-72.16,-60.07],[-72.01,-59.64],[-71.88,-59.36],[-71.78,-59.14],[-71.74,-59.06],[-71.57,-58.82],[-71.38,-58.53],[-71.14,-58.18],[-70.92,-57.89],[-70.68,-57.59],[-70.42,-57.25],[-70.23,-57],[-69.77,-56.38],[-69.48,-55.98],[-69.2,-55.6],[-68.92,-55.25],[-68.54,-54.76],[-68.33,-54.49],[-68.04,-54.05],[-67.87,-53.78],[-67.65,-53.43],[-67.32,-53.17],[-66.86,-52.63],[-66.86,-52.63],[-66.72,-52.3],[-66.72,-52.3],[-66.68,-52.18],[-66.52,-51.92],[-65.87,-51.15],[-65.25,-50.38],[-65.05,-49.65],[-64.85,-48.92],[-64.63,-48.09],[-64.42,-47.26],[-63.81,-46.54],[-63.22,-45.82],[-62.64,-45.09],[-62.08,-44.36],[-61.53,-43.63],[-61.26,-42.88],[-61.01,-42.12],[-60.76,-41.36],[-60.51,-40.6],[-60.3,-39.75],[-60.1,-38.89],[-60,-38.46],[-59.9,-38.08],[-59.84,-37.76],[-59.7,-37.2],[-59.58,-36.49],[-59.37,-36.04],[-59.06,-35.22],[-58.9,-34.74],[-58.88,-34.14],[-58.88,-34.14],[-58.88,-33.86],[-58.89,-33.49],[-58.83,-32.94],[-58.93,-32.19],[-58.98,-31.66],[-59.02,-31.14],[-59.55,-30.33],[-59.68,-29.63],[-59.82,-28.94],[-59.95,-28.24],[-60.11,-27.41],[-60.27,-26.59],[-60.42,-25.77],[-60.46,-24.91],[-60.5,-24.04],[-60.53,-23.18],[-60.57,-22.32],[-60.6,-21.46],[-60.64,-20.6],[-60.65,-19.73],[-60.65,-18.86],[-60.66,-17.99],[-60.26,-17.22],[-59.87,-16.44],[-59.48,-15.67],[-59.09,-14.89],[-58.7,-14.11],[-58.58,-13.85],[-58.48,-13.62],[-58.34,-13.36],[-58.17,-13.02],[-58.06,-12.84],[-57.96,-12.61],[-57.73,-12.27],[-57.53,-11.97],[-57.47,-11.91],[-57.47,-11.91],[-57.23,-12.35],[-56.99,-12.79],[-56.99,-12.79],[-56.74,-12.82],[-56.17,-12.76],[-55.61,-12.69],[-55.02,-12.83],[-54.43,-12.97],[-53.92,-13.2],[-53.41,-13.44],[-52.75,-13.82],[-52.09,-14.2],[-51.22,-14.47],[-50.35,-14.74],[-49.52,-14.61],[-48.68,-14.47],[-47.92,-14.14],[-47.15,-13.8],[-46.48,-13.47],[-45.81,-13.14],[-45.17,-12.94],[-44.53,-12.74],[-43.95,-12.68],[-43.37,-12.62],[-42.85,-12.52],[-42.32,-12.42],[-41.71,-12.34],[-41.09,-12.27],[-40.45,-11.81],[-39.81,-11.35],[-39.05,-11.23],[-38.29,-11.11],[-37.62,-11.25],[-36.94,-11.38],[-36.26,-11.51],[-35.48,-11.62],[-34.69,-11.72],[-33.8,-12.05],[-33.28,-12.11],[-32.76,-12.17],[-32.17,-12.2],[-31.59,-12.23],[-30.97,-12.04],[-30.36,-11.85],[-29.55,-11.68],[-28.73,-11.5],[-27.92,-11.33],[-27.48,-10.77],[-27.05,-10.22],[-27.05,-10.22],[-26.77,-10.39],[-26.44,-10.48],[-26.44,-10.48],[-26.59,-10.15],[-26.58,-9.55],[-26.34,-8.68],[-26.12,-7.9],[-25.84,-7.54],[-25.45,-7.24],[-24.83,-6.99],[-24.4,-7.01],[-23.96,-7.04],[-23.74,-6.7],[-23.59,-6.45],[-23.39,-6.18],[-23.07,-5.97],[-22.84,-5.62],[-22.61,-5.19],[-22.52,-4.41],[-22.43,-3.97],[-22.3,-3.55],[-22.03,-3.31],[-21.82,-3.12],[-21.42,-2.58],[-21.06,-2.05],[-20.82,-1.44],[-20.55,-1.01],[-20.29,-0.57],[-19.93,-0.14],[-19.58,0.28],[-19.1,0.49],[-18.62,0.69],[-18.49,0.78],[-17.61,0.6],[-16.66,0.55],[-16.15,0.52],[-16,0.42],[-15.45,0.32],[-14.72,0.61],[-13.93,0.99],[-13.49,1.31],[-12.59,1.58],[-12.05,1.85],[-11.32,1.99],[-10.51,2.09],[-9.85,2.34],[-9.4,2.4],[-8.8,2.22],[-8.36,1.94],[-7.87,1.75],[-7.55,1.58],[-7.22,1.4],[-6.63,1.29],[-6.1,1.1],[-5.48,1.33],[-5.21,1.42],[-5.21,1.42],[-5.48,1.66],[-4.97,2.08],[-4.47,2.49],[-4.24,3],[-4,3.52],[-3.63,4.16],[-3.25,4.8],[-3.14,4.89],[-3.05,4.79],[-2.84,4.6],[-2.41,4.21],[-2.05,3.88],[-1.68,3.54],[-1.43,3.36],[-0.99,3.06],[-0.24,2.54],[0.54,2],[1.21,1.72],[1.72,1.51],[2.24,1.3],[2.7,1.11],[3.17,0.92],[3.64,0.71],[4.11,0.51],[4.84,0.09],[5.58,-0.34],[5.58,-0.34],[6.43,-0.06],[7.28,0.21],[8.14,0.49],[8.99,0.76],[9.8,1.14],[10.6,1.51],[11.41,1.88],[12.22,2.25],[13.03,2.62],[12.85,3.35],[12.68,4.08],[12.5,4.82],[13.16,5.49],[13.82,6.16],[14.49,6.83],[15.15,7.5],[15.82,8.16],[15.82,8.16],[16.55,7.57],[17.28,6.97],[18,6.37],[18.73,5.76],[19.45,5.16],[20.17,4.56],[20.89,3.95],[21.61,3.35],[22.33,2.74],[23.05,2.14],[23.77,1.53],[24.36,1.98],[24.95,2.44],[25.7,1.77],[26.44,1.11],[27.18,0.45],[27.93,-0.22],[28.67,-0.88],[29.41,-1.55],[30.16,-2.21],[30.7,-1.73],[31.25,-1.26],[31.96,-1.95],[32.67,-2.65],[33.37,-3.34],[34.08,-4.04],[34.8,-4.73],[34.8,-4.73],[35.34,-4.01],[35.88,-3.28],[36.42,-2.55],[36.96,-1.82],[37.5,-1.1],[38.04,-0.37],[38.58,0.36],[38.58,0.36],[39.38,-0.16],[40.18,-0.68],[40.98,-1.2],[41.78,-1.72],[42.58,-2.24],[43.38,-2.76],[44.18,-3.28],[44.99,-3.79],[45.79,-4.31],[46.6,-4.83],[47.4,-5.34],[47.05,-6.11],[47.86,-6.53],[48.67,-6.95],[49.48,-7.36],[50.3,-7.78],[51.12,-8.19],[51.93,-8.61],[52.76,-9.02],[52.46,-9.9],[53.36,-10.3],[54.27,-10.7],[55.18,-11.1],[56.09,-11.5],[57.01,-11.89],[57.93,-12.28],[58.85,-12.67],[59.77,-13.05],[60.7,-13.43],[61.63,-13.81],[62.56,-14.18],[63.5,-14.55],[64.43,-14.92],[64.12,-15.74],[63.8,-16.56],[63.48,-17.38],[63.15,-18.2],[63.15,-18.2],[64.08,-18.6],[65.01,-19.01],[65.94,-19.41],[66.88,-19.8],[67.82,-20.19],[68.77,-20.58],[69.72,-20.96],[70.68,-21.33],[71.64,-21.7],[72.6,-22.06],[73.57,-22.42],[74.55,-22.77],[75.53,-23.12],[76.52,-23.46],[77.51,-23.79],[77.4,-24.3],[77.29,-24.81],[78.36,-24.95],[79.44,-25.09],[80.51,-25.22],[81.59,-25.35],[82.67,-25.46],[83.75,-25.57],[84.83,-25.67],[85.91,-25.79],[86.99,-25.9],[88.07,-25.99],[89.16,-26.09],[90.24,-26.17],[90.24,-26.17],[90.73,-25.27],[91.2,-24.38],[91.67,-23.48],[92.14,-22.58],[92.59,-21.68],[93.05,-20.77],[93.49,-19.87],[94.39,-20.23],[95.3,-20.58],[96.21,-20.93],[97.13,-21.27],[97.47,-20.52],[97.81,-19.76],[98.14,-19],[98.48,-18.25],[99.43,-18.38],[100.38,-18.51],[101.33,-18.64],[102.28,-18.76],[103.24,-18.88],[103.56,-18.04],[103.88,-17.2],[104.19,-16.35],[104.5,-15.51],[104.81,-14.67],[105.12,-13.83],[105.89,-13.99],[106.66,-14.14],[107.43,-14.3],[108.2,-14.45],[108.49,-13.55],[108.78,-12.66],[109.07,-11.76],[109.35,-10.86],[109.64,-9.96],[110.47,-10.09],[111.31,-10.22],[112.15,-10.35],[112.3,-9.53],[112.44,-8.72],[112.58,-7.91],[112.99,-7.94],[112.99,-7.94],[112.99,-8.91],[112.99,-9.88],[112.99,-10.85],[113,-11.82],[113,-12.79],[113,-13.76],[113,-14.73],[113,-15.7],[113,-16.67],[112.95,-17.38],[112.91,-18.09],[112.91,-18.09],[113.86,-18.15],[114.81,-18.21],[115.77,-18.26],[116.72,-18.3],[117.67,-18.35],[118.63,-18.38],[119.58,-18.42],[120.53,-18.44],[121.49,-18.47],[121.57,-19.43],[121.66,-20.4],[121.74,-21.36],[121.82,-22.33],[121.91,-23.29],[122.88,-23.33],[123.84,-23.36],[124.81,-23.38],[125.77,-23.4],[126.74,-23.41],[127.7,-23.42],[128.67,-23.42],[128.74,-24.1],[128.81,-24.77],[129.79,-24.71],[130.76,-24.63],[131.73,-24.55],[132.71,-24.47],[133.68,-24.37],[134.65,-24.27],[135.61,-24.17],[135.61,-24.17],[135.62,-25.12],[135.62,-26.07],[135.63,-27.02],[135.63,-27.97],[135.63,-28.91],[135.64,-29.86],[135.64,-30.81],[135.65,-31.76],[135.65,-32.71],[136.3,-33.47],[136.96,-34.22],[137.63,-34.98],[138.31,-35.72],[138.77,-36.37],[139.24,-37.01],[139.67,-37.47],[140.12,-37.93],[140.72,-38.2],[141.34,-38.46],[142.42,-38.87],[143.51,-39.26],[144.49,-39.84],[145.49,-40.41],[146.51,-40.97],[147.54,-41.52],[147.54,-41.52],[147.67,-42.26],[147.81,-42.99],[147.95,-43.73],[148.14,-44.53],[148.34,-45.33],[148.54,-46.13],[148.75,-46.92],[148.97,-47.72],[149.1,-48.59],[149.24,-49.47],[149.39,-50.34],[149.54,-51.21],[149.7,-52.08],[150.29,-52.98],[150.91,-53.88],[151.56,-54.78],[152.23,-55.67],[152.94,-56.56],[153.48,-57.33],[154.05,-58.1],[154.64,-58.86],[155.26,-59.63],[155.36,-60.21],[155.46,-60.8],[155.19,-61.36],[154.92,-61.92],[154.15,-62.85],[153.33,-63.77],[152.4,-64.69],[151.4,-65.59],[151.12,-66.11],[152.32,-66.93],[152.78,-67.75],[153.26,-68.57],[153.79,-69.39],[153.79,-69.39],[156,-69.67],[158.26,-69.92],[160.57,-70.13],[162.93,-70.32],[165.33,-70.48],[168.12,-70.78],[171,-71.03],[173.95,-71.25],[176.95,-71.41],[180,-71.53],[180,-72.5]]]}},{"type":"Feature","properties":{"ma":215,"type":"gpml:TopologicalClosedPlateBoundary","name":"Eurasia","pid":301,"deforming":false},"geometry":{"type":"Polygon","coordinates":[[[-32.21,83],[-29.24,83.52],[-23.56,83.82],[-15.18,83.89],[-6.8,83.83],[1.26,83.64],[8.72,83.34],[15.43,82.94],[21.34,82.44],[26.49,81.88],[30.95,81.27],[34.81,80.61],[38.46,79.9],[41.63,79.16],[44.39,78.38],[46.81,77.59],[48.93,76.78],[50.81,75.95],[52.49,75.1],[53.99,74.25],[55.33,73.39],[56.55,72.52],[57.65,71.64],[57.65,71.64],[60.21,71.54],[62.74,71.41],[65.23,71.24],[67.67,71.04],[70.06,70.8],[72.47,70.28],[74.76,69.73],[76.93,69.15],[78.98,68.55],[80.93,67.92],[82.77,67.27],[84.51,66.6],[86.16,65.91],[88.16,65.58],[90.11,65.24],[92,64.86],[93.84,64.47],[95.63,64.05],[97.37,63.61],[97.37,63.61],[95.96,62.89],[94.63,62.15],[93.36,61.4],[92.15,60.64],[91,59.87],[89.89,59.09],[88.84,58.3],[87.84,57.5],[86.87,56.69],[85.95,55.88],[84.63,55.4],[83.35,54.91],[82.09,54.4],[80.87,53.88],[79.67,53.35],[78.51,52.81],[77.37,52.25],[76.27,51.69],[75.5,51.02],[74.76,50.34],[74.04,49.66],[73.34,48.97],[72.66,48.29],[71.85,47.64],[71.05,46.99],[70.27,46.33],[69.52,45.67],[68.78,45],[68.05,44.33],[67.35,43.59],[66.66,42.85],[65.99,42.1],[65.33,41.35],[64.69,40.6],[64.06,39.84],[63.45,39.09],[62.85,38.32],[62.26,37.56],[61.45,36.94],[60.65,36.31],[59.86,35.68],[59.09,35.04],[58.33,34.4],[57.58,33.75],[56.85,33.1],[56.12,32.45],[55.4,31.79],[54.81,31.09],[54.23,30.39],[54.23,30.39],[53.45,30.8],[52.65,31.2],[51.96,30.96],[51.28,30.71],[51,29.93],[50.73,29.15],[50.33,28.48],[49.94,27.8],[49.56,27.12],[48.64,26.65],[47.72,26.18],[46.82,25.7],[46.07,24.98],[45.33,24.26],[44.71,23.55],[44.08,22.83],[43.47,22.1],[43.13,21.33],[42.79,20.56],[42.52,19.84],[42.24,19.12],[42.12,18.61],[41.99,18.1],[41.69,17.52],[41.4,16.95],[40.74,16.62],[40.09,16.3],[39.44,15.97],[38.51,15.86],[37.58,15.75],[36.64,15.64],[35.72,15.32],[34.79,14.99],[34.13,14.76],[33.46,14.53],[32.8,14.3],[31.89,14.16],[30.99,14.01],[30.09,13.86],[29.19,13.96],[28.29,14.05],[27.4,14.14],[26.61,14.32],[25.82,14.49],[25.03,14.65],[24.24,14.82],[23.39,15.11],[22.54,15.41],[21.68,15.7],[20.83,15.98],[20.83,15.98],[20.38,15.3],[19.94,14.61],[19.5,13.92],[19.06,13.23],[18.63,12.54],[18.12,11.72],[17.62,10.91],[17.11,10.09],[16.61,9.28],[16.11,8.46],[15.51,7.85],[14.9,7.25],[14.3,6.64],[13.7,6.03],[13.1,5.43],[12.5,4.82],[12.68,4.08],[12.85,3.35],[13.03,2.62],[12.22,2.25],[11.41,1.88],[10.6,1.51],[9.8,1.14],[8.99,0.76],[8.14,0.49],[7.28,0.21],[6.43,-0.06],[5.58,-0.34],[5.58,-0.34],[4.84,0.09],[4.11,0.51],[3.64,0.71],[3.17,0.92],[2.7,1.11],[2.24,1.3],[1.72,1.51],[1.21,1.72],[0.54,2],[-0.24,2.54],[-0.99,3.06],[-1.43,3.36],[-1.68,3.54],[-2.05,3.88],[-2.41,4.21],[-2.84,4.6],[-3.05,4.79],[-3.14,4.89],[-3.14,4.89],[-2.44,5.49],[-1.74,6.1],[-1.04,6.7],[-0.34,7.31],[0.36,7.98],[1.07,8.66],[1.77,9.33],[2.16,9.99],[2.55,10.66],[2.95,11.32],[2.35,12.02],[1.76,12.71],[1.16,13.4],[0.55,14.09],[-0.03,13.7],[-0.55,14.44],[-1.08,15.17],[-1.61,15.91],[-1.38,16.3],[-1.17,17.08],[-0.8,17.94],[-0.42,18.79],[-0.04,19.65],[0.31,20.44],[0.67,21.24],[1.03,22.03],[1.39,22.82],[2.25,23.33],[3.12,23.82],[3.63,24.42],[4.15,25.01],[4.52,25.75],[4.89,26.49],[5.18,27.05],[5.47,27.61],[5.56,28.27],[5.65,28.93],[5.53,29.46],[5.41,30],[5.11,30.56],[4.81,31.13],[4.26,31.72],[4.07,32.48],[3.89,33.24],[3.8,34.2],[3.72,35.15],[3.5,35.9],[3.28,36.66],[3.3,37.35],[3.31,38.04],[2.73,38.82],[2.15,39.6],[1.34,39.87],[0.53,40.13],[-0.5,39.84],[-1.53,39.54],[-2.58,39.7],[-3.63,39.86],[-4.69,40],[-5.57,40.22],[-6.46,40.44],[-7.35,40.64],[-7.29,41.63],[-7.23,42.62],[-7.16,43.61],[-7.1,44.59],[-7.46,45.54],[-7.83,46.48],[-8.22,47.42],[-8.62,48.35],[-9.03,49.29],[-8.62,49.89],[-8.99,50.59],[-9.36,51.29],[-9.75,51.99],[-10.1,52.81],[-10.47,53.63],[-10.85,54.46],[-11.24,55.28],[-11.65,56.1],[-12.02,56.88],[-12.41,57.66],[-12.81,58.43],[-12.81,58.43],[-12.91,58.77],[-13.13,59.34],[-13.36,59.92],[-13.47,60.21],[-13.53,60.37],[-13.57,60.48],[-13.71,60.81],[-13.74,60.88],[-14.16,61.75],[-14.59,62.62],[-15.05,63.49],[-15.54,64.36],[-16.25,65.18],[-16.99,66],[-17.79,66.81],[-18.64,67.62],[-18.64,67.62],[-20.47,67.2],[-22.24,66.76],[-23.94,66.3],[-26.19,65.92],[-28.38,65.51],[-30.31,65.36],[-32.21,65.19],[-34.09,65],[-35.48,64.68],[-36.83,64.34],[-38.15,64],[-39.88,63.66],[-41.57,63.3],[-43.22,62.93],[-44.6,62.72],[-45.97,62.49],[-47.32,62.26],[-49.25,61.95],[-51.13,61.61],[-52.46,61.29],[-53.75,60.95],[-55.02,60.61],[-56.42,60.11],[-57.78,59.59],[-57.78,59.59],[-58.92,60.33],[-59.62,60.97],[-60.35,61.61],[-61.11,62.24],[-61.89,63.12],[-62.71,63.99],[-63.22,64.71],[-63.76,65.44],[-64.33,66.16],[-64.66,66.98],[-65.02,67.8],[-65.4,68.61],[-65.81,69.43],[-65.81,69.43],[-64.93,69.96],[-63.99,70.48],[-62.78,71.22],[-61.46,71.96],[-60.04,72.68],[-58.98,73.27],[-57.84,73.86],[-57.29,74.57],[-56.7,75.28],[-56.24,75.98],[-55.74,76.68],[-54.75,77.26],[-53.66,77.83],[-52.28,78.47],[-50.74,79.11],[-49,79.73],[-46.44,80.45],[-43.47,81.15],[-39.46,81.83],[-34.77,82.46],[-32.21,83]]]}},{"type":"Feature","properties":{"ma":215,"type":"gpml:TopologicalClosedPlateBoundary","name":"Cimmerian-Neotethys Plate","pid":505,"deforming":false},"geometry":{"type":"Polygon","coordinates":[[[119.92,24.16],[120.01,23.32],[120.1,22.48],[120.53,21.83],[120.96,21.18],[121.38,20.52],[122.18,20.04],[122.97,19.54],[123.76,19.05],[124.08,18.36],[124.4,17.66],[124.72,16.97],[125.21,16.16],[125.69,15.34],[125.91,14.41],[126.13,13.49],[126.4,12.62],[126.67,11.74],[126.93,10.87],[126.76,9.89],[126.59,8.9],[126.41,7.92],[126.24,6.94],[125.56,6.44],[124.88,5.95],[124.21,5.45],[123.53,4.95],[122.85,4.46],[122.17,3.95],[121.48,3.45],[120.79,2.94],[120.1,2.44],[119.38,2.02],[118.66,1.6],[117.94,1.19],[117.23,0.77],[116.72,0.23],[116.22,-0.31],[115.72,-0.86],[115.38,-1.77],[115.04,-2.68],[114.7,-3.6],[114.36,-4.51],[114.02,-5.42],[113.68,-6.33],[113.33,-7.24],[113.33,-7.24],[112.99,-7.17],[112.99,-7.17],[112.99,-7.94],[112.99,-7.94],[112.58,-7.91],[112.44,-8.72],[112.3,-9.53],[112.15,-10.35],[111.31,-10.22],[110.47,-10.09],[109.64,-9.96],[109.35,-10.86],[109.07,-11.76],[108.78,-12.66],[108.49,-13.55],[108.2,-14.45],[107.43,-14.3],[106.66,-14.14],[105.89,-13.99],[105.12,-13.83],[104.81,-14.67],[104.5,-15.51],[104.19,-16.35],[103.88,-17.2],[103.56,-18.04],[103.24,-18.88],[102.28,-18.76],[101.33,-18.64],[100.38,-18.51],[99.43,-18.38],[98.48,-18.25],[98.14,-19],[97.81,-19.76],[97.47,-20.52],[97.13,-21.27],[96.21,-20.93],[95.3,-20.58],[94.39,-20.23],[93.49,-19.87],[93.05,-20.77],[92.59,-21.68],[92.14,-22.58],[91.67,-23.48],[91.2,-24.38],[90.73,-25.27],[90.24,-26.17],[90.24,-26.17],[89.16,-26.09],[88.07,-25.99],[86.99,-25.9],[85.91,-25.79],[84.83,-25.67],[83.75,-25.57],[82.67,-25.46],[81.59,-25.35],[80.51,-25.22],[79.44,-25.09],[78.36,-24.95],[77.29,-24.81],[77.4,-24.3],[77.51,-23.79],[76.52,-23.46],[75.53,-23.12],[74.55,-22.77],[73.57,-22.42],[72.6,-22.06],[71.64,-21.7],[70.68,-21.33],[69.72,-20.96],[68.77,-20.58],[67.82,-20.19],[66.88,-19.8],[65.94,-19.41],[65.01,-19.01],[64.08,-18.6],[63.15,-18.2],[63.15,-18.2],[63.48,-17.38],[63.8,-16.56],[64.12,-15.74],[64.43,-14.92],[63.5,-14.55],[62.56,-14.18],[61.63,-13.81],[60.7,-13.43],[59.77,-13.05],[58.85,-12.67],[57.93,-12.28],[57.01,-11.89],[56.09,-11.5],[55.18,-11.1],[54.27,-10.7],[53.36,-10.3],[52.46,-9.9],[52.76,-9.02],[51.93,-8.61],[51.12,-8.19],[50.3,-7.78],[49.48,-7.36],[48.67,-6.95],[47.86,-6.53],[47.05,-6.11],[47.4,-5.34],[46.6,-4.83],[45.79,-4.31],[44.99,-3.79],[44.18,-3.28],[43.38,-2.76],[42.58,-2.24],[41.78,-1.72],[40.98,-1.2],[40.18,-0.68],[39.38,-0.16],[38.58,0.36],[38.58,0.36],[38.04,-0.37],[37.5,-1.1],[36.96,-1.82],[36.42,-2.55],[35.88,-3.28],[35.34,-4.01],[34.8,-4.73],[34.8,-4.73],[34.08,-4.04],[33.37,-3.34],[32.67,-2.65],[31.96,-1.95],[31.25,-1.26],[30.7,-1.73],[30.16,-2.21],[29.41,-1.55],[28.67,-0.88],[27.93,-0.22],[27.18,0.45],[26.44,1.11],[25.7,1.77],[24.95,2.44],[24.36,1.98],[23.77,1.53],[23.05,2.14],[22.33,2.74],[21.61,3.35],[20.89,3.95],[20.17,4.56],[19.45,5.16],[18.73,5.76],[18,6.37],[17.28,6.97],[16.55,7.57],[15.82,8.16],[15.82,8.16],[16.11,8.46],[16.61,9.28],[17.11,10.09],[17.62,10.91],[18.12,11.72],[18.63,12.54],[19.06,13.23],[19.5,13.92],[19.94,14.61],[20.38,15.3],[20.83,15.98],[20.83,15.98],[21.68,15.7],[22.54,15.41],[23.39,15.11],[24.24,14.82],[25.03,14.65],[25.82,14.49],[26.61,14.32],[27.4,14.14],[28.29,14.05],[29.19,13.96],[30.09,13.86],[30.99,14.01],[31.89,14.16],[32.8,14.3],[33.46,14.53],[34.13,14.76],[34.79,14.99],[35.72,15.32],[36.64,15.64],[37.58,15.75],[38.51,15.86],[39.44,15.97],[40.09,16.3],[40.74,16.62],[41.4,16.95],[41.69,17.52],[41.99,18.1],[42.12,18.61],[42.24,19.12],[42.52,19.84],[42.79,20.56],[43.13,21.33],[43.47,22.1],[44.08,22.83],[44.71,23.55],[45.33,24.26],[46.07,24.98],[46.82,25.7],[47.72,26.18],[48.64,26.65],[49.56,27.12],[49.94,27.8],[50.33,28.48],[50.73,29.15],[51,29.93],[51.28,30.71],[51.96,30.96],[52.65,31.2],[53.45,30.8],[54.23,30.39],[54.23,30.39],[54.81,31.09],[55.4,31.79],[56.12,32.45],[56.85,33.1],[57.58,33.75],[58.33,34.4],[59.09,35.04],[59.86,35.68],[60.65,36.31],[61.45,36.94],[62.26,37.56],[62.91,38.41],[63.59,39.26],[64.27,40.11],[64.98,40.95],[65.7,41.78],[66.45,42.62],[66.45,42.62],[67.44,42.99],[68.45,43.35],[69.47,43.71],[70.5,44.06],[71.68,44.48],[72.89,44.89],[74.11,45.29],[75.35,45.68],[76.61,46.05],[77.15,46.87],[77.71,47.68],[78.28,48.49],[78.87,49.3],[79.49,50.11],[80.12,50.91],[80.12,50.91],[81.27,50.93],[82.41,50.94],[83.56,50.94],[84.86,50.97],[86.17,50.97],[87.48,50.96],[88.98,50.98],[90.49,50.97],[91.86,51.18],[93.25,51.36],[94.6,51.75],[95.97,52.11],[97.26,52.52],[98.57,52.92],[100,53.08],[100,53.08],[98.69,52.58],[97.41,52.08],[96.17,51.55],[94.95,51.02],[93.76,50.47],[92.59,49.91],[91.45,49.34],[90.34,48.76],[89.3,48.11],[88.28,47.45],[87.29,46.78],[86.32,46.1],[85.37,45.41],[84.45,44.71],[83.55,44.01],[82.67,43.3],[81.81,42.58],[80.95,41.96],[80.11,41.33],[79.29,40.69],[78.48,40.05],[77.69,39.41],[76.91,38.75],[76.15,38.1],[75.4,37.43],[75.4,37.43],[75.92,36.55],[76.43,35.65],[76.93,34.76],[77.41,33.86],[78.06,33.18],[78.69,32.5],[79.32,31.81],[79.93,31.12],[80.54,30.43],[81.44,29.87],[82.32,29.31],[83.2,28.75],[84.06,28.18],[84.92,27.6],[85.69,27.09],[86.44,26.58],[87.19,26.06],[87.94,25.54],[88.98,25.23],[90.01,24.91],[91.04,24.58],[92.07,24.24],[92.07,24.24],[93,24.03],[93.93,23.8],[94.86,23.58],[95.78,23.34],[96.77,23.14],[97.76,22.94],[98.74,22.73],[99.67,22.69],[100.61,22.66],[101.54,22.61],[102.48,22.56],[103.41,22.51],[104.37,22.5],[105.32,22.49],[106.28,22.48],[107.23,22.45],[108.19,22.43],[109.22,22.65],[110.25,22.87],[111.28,23.08],[112.31,23.28],[113.35,23.48],[114.29,23.59],[115.22,23.7],[116.16,23.8],[117.1,23.9],[118.04,23.99],[118.98,24.08],[119.92,24.16]]]}},{"type":"Feature","properties":{"ma":215,"type":"gpml:TopologicalClosedPlateBoundary","name":"Cache Creek/Mezcalear Ocean","pid":131,"deforming":false},"geometry":{"type":"Polygon","coordinates":[[[-81.95,37.21],[-82.14,37.71],[-82.33,38.22],[-82.86,39.02],[-83.41,39.82],[-83.96,40.62],[-84.4,41.52],[-84.85,42.43],[-85.31,43.33],[-85.58,44.03],[-85.85,44.73],[-86.14,45.43],[-86.35,46.23],[-86.57,47.03],[-86.8,47.82],[-87.04,48.62],[-87.41,49.43],[-87.79,50.24],[-88.19,51.04],[-88.58,51.81],[-88.98,52.57],[-89.39,53.34],[-89.9,53.8],[-89.9,53.8],[-89.19,54.44],[-88.46,55.06],[-87.71,55.69],[-86.93,56.3],[-85.84,56.82],[-84.71,57.33],[-83.56,57.83],[-82.37,58.32],[-80.62,58.7],[-78.83,59.06],[-77.01,59.39],[-75.15,59.69],[-73.3,59.9],[-71.43,60.08],[-69.55,60.23],[-67.64,60.36],[-65.72,60.46],[-63.8,60.53],[-61.86,60.58],[-59.92,60.59],[-59.24,60.62],[-59.24,60.62],[-58.92,60.33],[-57.98,59.72],[-57.07,59.11],[-56.19,58.49],[-54.95,57.82],[-53.75,57.14],[-52.6,56.44],[-51.57,55.84],[-50.57,55.22],[-49.6,54.6],[-48.66,53.97],[-47.78,53.53],[-46.91,53.09],[-46.06,52.64],[-46.06,52.64],[-46.21,52.03],[-46.36,51.41],[-46.65,50.48],[-46.93,49.54],[-47.2,48.61],[-47.46,47.67],[-47.71,46.73],[-47.06,46.02],[-46.42,45.31],[-46.22,44.38],[-46.02,43.45],[-45.84,42.52],[-45.65,41.59],[-45.81,40.84],[-45.97,40.1],[-46.12,39.36],[-46.12,39.36],[-47.31,39.51],[-48.51,39.65],[-49.71,39.77],[-50.91,39.89],[-52.12,39.99],[-53.34,40.08],[-54.54,40.18],[-55.74,40.27],[-56.94,40.34],[-58.15,40.4],[-59.36,40.45],[-60.57,40.49],[-61.79,40.52],[-63.01,40.55],[-64.23,40.57],[-65.45,40.57],[-66.68,40.57],[-67.9,40.55],[-69.12,40.51],[-70.34,40.47],[-71.56,40.41],[-72.77,40.34],[-73.94,40.03],[-75.09,39.71],[-76.23,39.38],[-77.36,39.04],[-78.47,38.69],[-79.58,38.33],[-80.68,37.96],[-81.32,37.58],[-81.95,37.21]]]}},{"type":"Feature","properties":{"ma":215,"type":"gpml:TopologicalClosedPlateBoundary","name":"Farallon Plate","pid":902,"deforming":false},"geometry":{"type":"Polygon","coordinates":[[[-59.01,-35.06],[-60.1,-34.99],[-61.2,-34.91],[-62.29,-34.82],[-63.38,-34.73],[-64.47,-34.62],[-65.68,-34.62],[-66.89,-34.6],[-68.1,-34.58],[-69.31,-34.54],[-70.51,-34.49],[-71.72,-34.43],[-72.92,-34.36],[-74.13,-34.27],[-75.33,-34.17],[-76.52,-34.07],[-77.71,-33.95],[-78.9,-33.82],[-80.09,-33.67],[-81.27,-33.52],[-82.45,-33.35],[-83.62,-33.18],[-84.79,-32.99],[-85.95,-32.79],[-87.11,-32.59],[-88.26,-32.37],[-89.41,-32.14],[-90.55,-31.9],[-91.68,-31.65],[-92.81,-31.39],[-93.93,-31.12],[-93.79,-30.43],[-93.65,-29.74],[-93.51,-29.06],[-94.54,-28.8],[-95.56,-28.53],[-96.58,-28.26],[-97.6,-27.98],[-98.61,-27.69],[-99.61,-27.39],[-100.61,-27.09],[-101.61,-26.78],[-102.59,-26.47],[-103.58,-26.14],[-104.55,-25.81],[-105.52,-25.48],[-106.49,-25.13],[-107.45,-24.78],[-108.41,-24.43],[-109.36,-24.07],[-109.04,-23.33],[-108.72,-22.6],[-108.41,-21.87],[-109.36,-21.55],[-110.31,-21.22],[-111.25,-20.89],[-112.19,-20.56],[-113.12,-20.22],[-114.05,-19.87],[-114.98,-19.52],[-115.9,-19.17],[-116.81,-18.81],[-117.73,-18.45],[-118.64,-18.08],[-119.54,-17.71],[-120.44,-17.33],[-121.34,-16.95],[-122.24,-16.57],[-123.13,-16.18],[-122.74,-15.38],[-122.36,-14.58],[-121.98,-13.78],[-122.82,-13.27],[-123.66,-12.76],[-124.5,-12.25],[-125.33,-11.74],[-126.17,-11.22],[-126.99,-10.7],[-127.82,-10.18],[-128.64,-9.66],[-129.46,-9.13],[-130.28,-8.61],[-131.1,-8.08],[-131.91,-7.55],[-132.72,-7.02],[-133.53,-6.48],[-134.34,-5.95],[-135.15,-5.41],[-135.95,-4.88],[-136.75,-4.34],[-137.56,-3.8],[-138.36,-3.26],[-139.16,-2.72],[-139.59,-2.46],[-139.59,-2.46],[-139.65,-2.48],[-139.65,-2.48],[-139.72,-1.77],[-139.79,-1.06],[-139.85,-0.34],[-139.97,0.59],[-140.08,1.53],[-140.19,2.47],[-140.31,3.41],[-140.42,4.35],[-140.54,5.29],[-140.65,6.23],[-140.77,7.16],[-140.88,8.1],[-141,9.04],[-141.11,9.98],[-141.23,10.92],[-140.31,11.01],[-139.39,11.11],[-138.47,11.2],[-138.58,12.18],[-138.69,13.16],[-138.8,14.14],[-138.92,15.13],[-139.03,16.11],[-139.15,17.09],[-139.27,18.07],[-139.39,19.06],[-139.51,20.04],[-139.63,21.02],[-139.75,22],[-139.88,22.99],[-140,23.97],[-140.13,24.95],[-140.26,25.93],[-139.32,26.05],[-138.39,26.16],[-137.45,26.26],[-136.5,26.36],[-136.59,27.3],[-136.69,28.24],[-136.78,29.18],[-136.88,30.12],[-136.98,31.05],[-137.08,31.99],[-137.18,32.93],[-137.29,33.87],[-137.4,34.81],[-137.51,35.75],[-137.62,36.69],[-137.74,37.63],[-137.85,38.56],[-137.98,39.5],[-138.1,40.44],[-138.23,41.38],[-137.11,41.48],[-135.99,41.56],[-134.86,41.64],[-133.73,41.71],[-133.8,42.7],[-133.87,43.69],[-133.93,44.69],[-134.01,45.68],[-134.08,46.67],[-134.16,47.66],[-134.24,48.66],[-134.32,49.65],[-134.41,50.64],[-134.5,51.63],[-134.59,52.62],[-134.69,53.62],[-134.8,54.61],[-134.91,55.6],[-135.02,56.59],[-133.44,56.78],[-131.85,56.95],[-130.25,57.09],[-130.55,58.07],[-130.86,59.05],[-131.19,60.03],[-131.54,61.01],[-131.92,61.99],[-132.31,62.96],[-132.74,63.94],[-133.2,64.91],[-133.69,65.88],[-134.22,66.85],[-134.79,67.82],[-135.42,68.79],[-136.09,69.75],[-136.84,70.71],[-137.66,71.67],[-135.18,71.88],[-132.66,72.05],[-130.09,72.19],[-127.48,72.3],[-124.86,72.37],[-125.24,73.28],[-125.66,74.19],[-126.14,75.1],[-126.68,76.01],[-127.29,76.91],[-127.99,77.82],[-128.8,78.72],[-129.74,79.62],[-130.87,80.51],[-132.22,81.41],[-133.89,82.29],[-133.89,82.29],[-128.11,82.44],[-122.15,82.52],[-115.03,82.59],[-107.87,82.55],[-100.9,82.4],[-94.29,82.14],[-88.17,81.78],[-82.61,81.34],[-77.63,80.83],[-73.2,80.26],[-69.28,79.63],[-65.81,78.97],[-62.74,78.27],[-60.17,77.79],[-57.79,77.28],[-55.6,76.76],[-55.6,76.76],[-55.74,76.68],[-56.24,75.98],[-56.7,75.28],[-57.29,74.57],[-57.84,73.86],[-58.98,73.27],[-60.04,72.68],[-61.46,71.96],[-62.78,71.22],[-63.99,70.48],[-64.93,69.96],[-65.81,69.43],[-65.81,69.43],[-65.4,68.61],[-65.02,67.8],[-64.66,66.98],[-64.33,66.16],[-63.76,65.44],[-63.22,64.71],[-62.71,63.99],[-61.89,63.12],[-61.11,62.24],[-60.15,61.44],[-59.24,60.62],[-59.24,60.62],[-59.92,60.59],[-61.86,60.58],[-63.8,60.53],[-65.72,60.46],[-67.64,60.36],[-69.55,60.23],[-71.43,60.08],[-73.3,59.9],[-75.15,59.69],[-77.01,59.39],[-78.83,59.06],[-80.62,58.7],[-82.37,58.32],[-83.56,57.83],[-84.71,57.33],[-85.84,56.82],[-86.93,56.3],[-87.71,55.69],[-88.46,55.06],[-89.19,54.44],[-89.9,53.8],[-89.9,53.8],[-89.39,53.34],[-88.98,52.57],[-88.58,51.81],[-88.19,51.04],[-87.79,50.24],[-87.41,49.43],[-87.04,48.62],[-86.8,47.82],[-86.57,47.03],[-86.35,46.23],[-86.14,45.43],[-85.85,44.73],[-85.58,44.03],[-85.31,43.33],[-84.85,42.43],[-84.4,41.52],[-83.96,40.62],[-83.41,39.82],[-82.86,39.02],[-82.33,38.22],[-82.14,37.71],[-81.95,37.21],[-81.95,37.21],[-81.32,37.58],[-80.68,37.96],[-79.58,38.33],[-78.47,38.69],[-77.36,39.04],[-76.23,39.38],[-75.09,39.71],[-73.94,40.03],[-72.77,40.34],[-71.56,40.41],[-70.34,40.47],[-69.12,40.51],[-67.9,40.55],[-66.68,40.57],[-65.45,40.57],[-64.23,40.57],[-63.01,40.55],[-61.79,40.52],[-60.57,40.49],[-59.36,40.45],[-58.15,40.4],[-56.94,40.34],[-55.74,40.27],[-54.54,40.18],[-53.34,40.08],[-52.12,39.99],[-50.91,39.89],[-49.71,39.77],[-48.51,39.65],[-47.31,39.51],[-46.12,39.36],[-46.12,39.36],[-46.28,38.54],[-46.44,37.72],[-46.6,36.9],[-46.75,36.08],[-46.9,35.26],[-47.13,34.28],[-47.36,33.3],[-47.57,32.33],[-47.79,31.34],[-48,30.36],[-48.2,29.38],[-48.64,28.52],[-49.07,27.65],[-49.49,26.78],[-49.49,26.78],[-50.03,26.24],[-50.57,25.7],[-51.11,25.16],[-51.78,24.45],[-52.44,23.73],[-53.09,23.02],[-53.74,22.3],[-54.17,21.53],[-54.59,20.77],[-55.01,20],[-55.43,19.23],[-55.84,18.47],[-55.82,17.69],[-55.8,16.92],[-55.78,16.15],[-55.76,15.38],[-55.66,14.42],[-55.56,13.47],[-55.46,12.52],[-55.36,11.57],[-55.27,10.62],[-55.17,9.67],[-55.07,8.72],[-55.01,7.87],[-54.95,7.03],[-54.9,6.18],[-54.84,5.33],[-54.78,4.49],[-54.78,4.49],[-54.82,4.42],[-55.27,3.95],[-55.72,3.48],[-56.27,3.04],[-56.82,2.59],[-57.22,2.24],[-57.62,1.89],[-57.91,1.17],[-58.19,0.46],[-58.48,-0.26],[-58.69,-1.05],[-58.91,-1.84],[-59.12,-2.63],[-59.29,-3.38],[-59.45,-4.13],[-59.62,-4.88],[-59.73,-5.63],[-59.83,-6.37],[-59.45,-7.01],[-59.07,-7.65],[-58.87,-8.34],[-58.68,-9.03],[-58.48,-9.72],[-58.22,-10.36],[-57.95,-11],[-57.71,-11.46],[-57.47,-11.91],[-57.47,-11.91],[-57.53,-11.97],[-57.73,-12.27],[-57.96,-12.61],[-58.06,-12.84],[-58.17,-13.02],[-58.34,-13.36],[-58.48,-13.62],[-58.58,-13.85],[-58.7,-14.11],[-59.09,-14.89],[-59.48,-15.67],[-59.87,-16.44],[-60.26,-17.22],[-60.66,-17.99],[-60.65,-18.86],[-60.65,-19.73],[-60.64,-20.6],[-60.6,-21.46],[-60.57,-22.32],[-60.53,-23.18],[-60.5,-24.04],[-60.46,-24.91],[-60.42,-25.77],[-60.27,-26.59],[-60.11,-27.41],[-59.95,-28.24],[-59.82,-28.94],[-59.68,-29.63],[-59.55,-30.33],[-59.02,-31.14],[-58.98,-31.66],[-58.93,-32.19],[-58.83,-32.94],[-58.89,-33.49],[-58.88,-33.86],[-58.88,-34.14],[-58.88,-34.14],[-58.9,-34.74],[-59.01,-35.06]]]}},{"type":"Feature","properties":{"ma":215,"type":"gpml:TopologicalClosedPlateBoundary","name":"South China plate","pid":602,"deforming":false},"geometry":{"type":"Polygon","coordinates":[[[113.35,23.48],[112.31,23.28],[111.28,23.08],[110.25,22.87],[109.22,22.65],[108.19,22.43],[107.23,22.45],[106.28,22.48],[105.32,22.49],[104.37,22.5],[103.41,22.51],[102.48,22.56],[101.54,22.61],[100.61,22.66],[99.67,22.69],[98.74,22.73],[97.76,22.94],[96.77,23.14],[95.78,23.34],[94.86,23.58],[93.93,23.8],[93,24.03],[92.07,24.24],[92.07,24.24],[91.04,24.58],[90.01,24.91],[88.98,25.23],[87.94,25.54],[87.19,26.06],[86.44,26.58],[85.69,27.09],[84.92,27.6],[84.06,28.18],[83.2,28.75],[82.32,29.31],[81.44,29.87],[80.54,30.43],[79.93,31.12],[79.32,31.81],[78.69,32.5],[78.06,33.18],[77.41,33.86],[76.93,34.76],[76.43,35.65],[75.92,36.55],[75.4,37.43],[75.4,37.43],[76.15,38.1],[76.91,38.75],[77.69,39.41],[78.48,40.05],[79.29,40.69],[80.11,41.33],[80.95,41.96],[81.81,42.58],[82.67,43.3],[83.55,44.01],[84.45,44.71],[85.37,45.41],[86.32,46.1],[87.29,46.78],[88.28,47.45],[89.3,48.11],[90.34,48.76],[91.45,49.34],[92.59,49.91],[93.76,50.47],[94.95,51.02],[96.17,51.55],[97.41,52.08],[98.69,52.58],[100,53.08],[100,53.08],[100.33,53.11],[101.88,52.97],[102.79,53.06],[103.71,53.14],[105.19,52.88],[106.66,52.6],[107.87,52.28],[109.06,51.94],[110.23,51.6],[111.39,51.24],[112.68,50.96],[113.76,50.95],[114.62,51.68],[115.13,51.68],[116.07,51.63],[117.01,51.57],[118.55,51.7],[119.64,51.97],[120.74,52.23],[120.74,52.23],[121.78,52.11],[122.81,51.99],[123.7,51.91],[124.59,51.82],[125.75,51.83],[126.91,51.82],[128.27,51.84],[129.62,51.85],[130.72,52.35],[131.86,52.4],[133.46,52.33],[135.05,52.23],[136.63,52.12],[136.63,52.12],[135.69,51.7],[134.76,51.28],[133.85,50.85],[133.05,50.16],[132.27,49.47],[131.52,48.77],[130.79,48.06],[130.07,47.36],[129.38,46.64],[129.38,46.64],[128.62,46.73],[127.85,46.81],[126.69,46.38],[125.54,45.93],[124.41,45.47],[123.3,45],[122.21,44.52],[121.71,44.11],[121.71,44.11],[120.92,43.46],[120.15,42.8],[119.39,42.13],[118.65,41.46],[117.93,40.78],[117.39,40.08],[116.87,39.38],[116.35,38.68],[115.85,37.97],[115.78,37.01],[115.7,36.05],[115.64,35.09],[115.57,34.12],[115.5,33.16],[115.44,32.2],[115.37,31.24],[115.31,30.27],[115.53,29.43],[115.75,28.59],[115.96,27.74],[116.17,26.9],[115.62,26.22],[115.07,25.54],[114.53,24.86],[114,24.18],[113.47,23.49],[113.35,23.48]]]}},{"type":"Feature","properties":{"ma":215,"type":"gpml:TopologicalNetwork","name":"Central_Atlantic_Mesh","pid":101,"deforming":true},"geometry":{"type":"Polygon","coordinates":[[[-4,3.52],[-4.24,3],[-4.47,2.49],[-4.97,2.08],[-5.48,1.66],[-5.21,1.42],[-5.21,1.42],[-5.48,1.33],[-6.1,1.1],[-6.63,1.29],[-7.22,1.4],[-7.55,1.58],[-7.87,1.75],[-8.36,1.94],[-8.8,2.22],[-9.4,2.4],[-9.85,2.34],[-10.51,2.09],[-11.32,1.99],[-12.05,1.85],[-12.59,1.58],[-13.49,1.31],[-13.93,0.99],[-14.72,0.61],[-15.45,0.32],[-16,0.42],[-16.15,0.52],[-16.66,0.55],[-17.61,0.6],[-18.49,0.78],[-18.62,0.69],[-19.1,0.49],[-19.58,0.28],[-19.93,-0.14],[-20.29,-0.57],[-20.55,-1.01],[-20.82,-1.44],[-21.06,-2.05],[-21.42,-2.58],[-21.82,-3.12],[-22.03,-3.31],[-22.3,-3.55],[-22.43,-3.97],[-22.52,-4.41],[-22.61,-5.19],[-22.84,-5.62],[-23.07,-5.97],[-23.39,-6.18],[-23.59,-6.45],[-23.74,-6.7],[-23.96,-7.04],[-24.4,-7.01],[-24.83,-6.99],[-25.45,-7.24],[-25.84,-7.54],[-26.12,-7.9],[-26.34,-8.68],[-26.58,-9.55],[-26.59,-10.15],[-26.44,-10.48],[-26.44,-10.48],[-26.77,-10.39],[-26.77,-10.39],[-27.05,-10.22],[-27.05,-10.22],[-27.48,-10.77],[-27.92,-11.33],[-28.1,-11.36],[-28.1,-11.36],[-28.2,-11.23],[-28.22,-10.97],[-28.28,-10.69],[-28.22,-10.44],[-28.22,-10.19],[-28.35,-9.9],[-28.36,-9.74],[-28.32,-9.64],[-28.37,-9.45],[-28.46,-9.34],[-28.58,-9.23],[-28.66,-9.08],[-28.85,-8.81],[-29.1,-8.49],[-29.24,-8.26],[-29.19,-8.01],[-29.08,-7.65],[-29.08,-7.47],[-29.29,-7.35],[-29.4,-7.08],[-29.51,-6.94],[-29.63,-6.92],[-29.78,-6.57],[-29.9,-6.22],[-30.05,-5.89],[-30.1,-5.53],[-30.25,-5.15],[-30.38,-4.79],[-30.44,-4.58],[-30.47,-4.33],[-30.51,-4.1],[-30.51,-4.1],[-30.47,-4.06],[-30.09,-3.75],[-29.72,-3.47],[-29.6,-3.27],[-29.26,-3.19],[-28.94,-3.11],[-28.43,-2.97],[-27.8,-2.85],[-27.17,-2.72],[-26.61,-2.31],[-26.15,-1.87],[-25.93,-1.11],[-25.75,-0.5],[-25.13,-0.19],[-24.36,0.34],[-24.02,0.64],[-23.54,1.1],[-23.06,1.56],[-22.79,2.01],[-22.62,2.44],[-22.21,2.6],[-22.08,2.7],[-21.84,2.68],[-21.54,2.6],[-21.26,2.59],[-20.81,2.73],[-20.56,2.76],[-20.38,2.76],[-20.07,3.02],[-19.75,3.29],[-19.29,3.41],[-18.94,3.73],[-18.74,4.3],[-18.5,4.38],[-18.12,4.25],[-17.61,4.51],[-17.15,4.53],[-16.4,4.59],[-15.62,4.74],[-15.11,4.89],[-14.35,5.03],[-13.85,5.34],[-13.18,5.74],[-12.6,6.01],[-12.06,6.16],[-11.44,6.3],[-11.11,6.32],[-10.63,6.23],[-9.98,6.18],[-9.42,6.25],[-8.94,6.29],[-8.45,6.31],[-7.93,6.31],[-7.3,6.29],[-6.58,6.15],[-5.91,6],[-5.14,5.92],[-4.81,5.82],[-4.63,5.62],[-4.41,5.53],[-4.27,5.4],[-4.15,5.3],[-3.97,5.13],[-3.71,4.95],[-3.77,4.84],[-3.91,4.73],[-4.22,4.72],[-4.19,4.53],[-4.06,4.31],[-3.75,4.5],[-3.7,4.51],[-3.58,4.48],[-3.58,4.26],[-3.58,4.23],[-4,3.52]]]}},{"type":"Feature","properties":{"ma":215,"type":"gpml:TopologicalNetwork","name":"Proto_Caribbean_Mesh","pid":101,"deforming":true},"geometry":{"type":"Polygon","coordinates":[[[-31.18,-4.72],[-30.88,-4.43],[-30.51,-4.1],[-30.51,-4.1],[-30.47,-4.33],[-30.44,-4.58],[-30.38,-4.79],[-30.25,-5.15],[-30.1,-5.53],[-30.05,-5.89],[-29.9,-6.22],[-29.78,-6.57],[-29.63,-6.92],[-29.51,-6.94],[-29.4,-7.08],[-29.29,-7.35],[-29.08,-7.47],[-29.08,-7.65],[-29.19,-8.01],[-29.24,-8.26],[-29.1,-8.49],[-28.85,-8.81],[-28.66,-9.08],[-28.58,-9.23],[-28.46,-9.34],[-28.37,-9.45],[-28.32,-9.64],[-28.36,-9.74],[-28.35,-9.9],[-28.22,-10.19],[-28.22,-10.44],[-28.28,-10.69],[-28.22,-10.97],[-28.2,-11.23],[-28.1,-11.36],[-28.1,-11.36],[-28.85,-11.53],[-29.6,-11.69],[-30.36,-11.85],[-30.97,-12.04],[-31.59,-12.23],[-32.17,-12.2],[-32.76,-12.17],[-33.28,-12.11],[-33.8,-12.05],[-34.69,-11.72],[-35.48,-11.62],[-36.26,-11.51],[-36.94,-11.38],[-37.62,-11.25],[-38.29,-11.11],[-39.05,-11.23],[-39.81,-11.35],[-40.45,-11.81],[-41.09,-12.27],[-41.71,-12.34],[-42.32,-12.42],[-42.85,-12.52],[-43.37,-12.62],[-43.95,-12.68],[-44.53,-12.74],[-45.17,-12.94],[-45.81,-13.14],[-46.48,-13.47],[-47.15,-13.8],[-47.92,-14.14],[-48.68,-14.47],[-49.52,-14.61],[-50.35,-14.74],[-51.22,-14.47],[-52.09,-14.2],[-52.75,-13.82],[-53.41,-13.44],[-53.92,-13.2],[-54.43,-12.97],[-55.02,-12.83],[-55.61,-12.69],[-56.17,-12.76],[-56.74,-12.82],[-56.99,-12.79],[-56.99,-12.79],[-57.31,-12.2],[-57.63,-11.6],[-57.95,-11],[-58.22,-10.36],[-58.48,-9.72],[-58.68,-9.03],[-58.87,-8.34],[-59.07,-7.65],[-59.45,-7.01],[-59.83,-6.37],[-59.81,-6.22],[-59.81,-6.22],[-58.91,-6.14],[-57.96,-5.98],[-57.01,-5.82],[-56.24,-5.65],[-55.47,-5.49],[-54.51,-5.31],[-53.55,-5.13],[-52.76,-5],[-51.96,-4.86],[-51.27,-4.37],[-50.59,-3.88],[-49.97,-3.52],[-49.3,-2.8],[-48.9,-2.44],[-48.51,-2.08],[-48.23,-1.39],[-47.49,-0.75],[-46.76,-0.11],[-46.02,0.53],[-45.33,0.91],[-44.64,1.3],[-43.94,1.68],[-43.42,1.63],[-42.91,1.59],[-41.91,1.58],[-41.41,1.41],[-40.9,1.24],[-40.19,1.04],[-39.48,0.84],[-38.69,0.26],[-38.23,-0.02],[-37.77,-0.29],[-37.29,-0.54],[-36.81,-0.78],[-36.32,-1.08],[-35.83,-1.37],[-35.17,-1.75],[-34.54,-2.29],[-33.82,-2.75],[-33.1,-3.21],[-32.6,-3.69],[-32.1,-4.17],[-31.39,-4.83],[-31.38,-4.84],[-31.18,-4.72]]]}}]}