{"type":"FeatureCollection","features":[{"type":"Feature","properties":{"ma":240,"type":"gpml:TopologicalClosedPlateBoundary","name":"Izanagi Plate","pid":926,"deforming":false},"geometry":{"type":"MultiPolygon","coordinates":[[[[180,61.48],[180,60.49],[180,59.5],[180,58.51],[180,57.53],[180,56.54],[180,55.55],[180,54.56],[180,53.58],[180,52.59],[180,51.6],[180,50.61],[180,49.62],[180,48.64],[180,47.65],[180,46.66],[180,45.67],[180,44.68],[180,43.7],[180,42.71],[180,41.72],[180,40.73],[180,39.75],[180,38.76],[180,37.77],[180,36.78],[180,35.79],[180,34.81],[180,33.82],[180,32.83],[180,31.84],[180,30.86],[180,29.87],[180,28.88],[180,27.89],[180,26.9],[180,25.92],[180,24.93],[180,23.94],[180,22.95],[180,21.96],[180,20.98],[180,19.99],[180,19],[180,18.01],[180,17.03],[180,16.04],[180,15.05],[180,14.06],[180,13.07],[180,12.09],[180,11.1],[180,10.11],[180,9.12],[180,8.14],[180,7.15],[180,6.16],[180,5.17],[180,4.18],[180,3.2],[180,2.21],[180,1.22],[180,0.23],[180,-0.76],[180,-1.74],[180,-2.73],[180,-3.72],[180,-4.71],[180,-5.69],[180,-6.68],[180,-7.67],[180,-8.66],[180,-9.65],[180,-10.63],[180,-11.62],[180,-12.61],[179.29,-12.87],[178.58,-13.12],[177.86,-13.37],[177.52,-12.5],[177.17,-11.62],[176.83,-10.74],[176.49,-9.86],[176.15,-8.98],[175.26,-9.34],[174.36,-9.7],[173.47,-10.05],[172.57,-10.4],[171.68,-10.75],[170.78,-11.1],[169.87,-11.45],[168.97,-11.79],[168.06,-12.13],[167.15,-12.46],[166.24,-12.79],[165.33,-13.12],[164.41,-13.45],[163.49,-13.77],[162.57,-14.09],[162.12,-13.3],[161.67,-12.51],[161.23,-11.72],[160.79,-10.92],[159.87,-11.35],[158.94,-11.77],[158.02,-12.18],[157.09,-12.6],[156.16,-13.01],[155.23,-13.41],[154.29,-13.82],[153.35,-14.22],[152.41,-14.61],[151.46,-15.01],[150.51,-15.4],[149.55,-15.78],[148.6,-16.16],[147.63,-16.54],[146.67,-16.91],[145.7,-17.28],[144.73,-17.64],[143.75,-18],[142.77,-18.35],[141.79,-18.7],[140.8,-19.04],[139.8,-19.38],[138.81,-19.71],[138.8,-18.75],[138.8,-17.8],[138.8,-17.8],[138.08,-17.41],[137.13,-17.15],[136.17,-16.89],[135.22,-16.63],[134.28,-16.36],[133.33,-16.08],[132.39,-15.8],[131.45,-15.52],[130.51,-15.11],[129.56,-14.71],[128.62,-14.29],[127.69,-13.88],[126.76,-13.46],[125.83,-13.03],[124.9,-12.61],[124.02,-12.51],[123.15,-12.41],[122.27,-12.31],[121.39,-12.2],[120.52,-12.09],[119.64,-11.98],[118.77,-11.87],[118.77,-11.87],[119.14,-11.23],[119.76,-10.66],[120.37,-10.08],[120.98,-9.51],[121.59,-8.94],[122.14,-8.28],[122.69,-7.63],[123.24,-6.97],[123.79,-6.31],[124.32,-5.67],[124.85,-5.02],[125.39,-4.37],[125.92,-3.72],[126.45,-3.07],[126.36,-2.08],[126.27,-1.08],[126.19,-0.09],[126.1,0.9],[125.64,1.65],[125.19,2.4],[125.19,2.4],[124.67,3.24],[124.23,4.08],[123.79,4.92],[123.13,5.59],[122.47,6.26],[122,6.86],[121.53,7.45],[121.05,8.05],[120.2,8.34],[119.35,8.64],[118.5,8.93],[117.95,9.47],[117.4,10.01],[116.85,10.54],[116.28,11.2],[115.71,11.86],[115.14,12.51],[114.56,13.17],[113.98,13.82],[113.4,14.47],[113.41,14.65],[113.41,14.65],[112.55,14.18],[111.69,13.71],[110.83,13.24],[109.98,12.76],[109.13,12.29],[108.29,11.81],[108.29,11.81],[108.48,12.62],[108.66,13.44],[108.85,14.26],[109.04,15.08],[109.23,15.89],[108.71,16.59],[108.17,17.29],[107.64,17.99],[107.1,18.69],[106.74,19.59],[106.38,20.49],[106.01,21.4],[105.64,22.3],[105.26,23.2],[104.88,24.09],[104.49,24.99],[104.1,25.89],[104.17,26.69],[104.23,27.5],[104.3,28.31],[104.37,29.11],[104.58,29.96],[104.8,30.81],[105.02,31.66],[105.25,32.51],[105.48,33.35],[105.48,33.35],[105.62,33.89],[106.17,34.68],[106.72,35.47],[107.28,36.26],[107.86,37.04],[108.45,37.83],[109.43,38.14],[110.41,38.44],[111.4,38.74],[112.4,39.03],[113.41,39.31],[113.94,39.65],[114.47,39.99],[114.47,39.99],[114.59,39.95],[115.27,39.69],[115.95,39.43],[117.17,39.21],[118.1,39.22],[119.04,39.23],[119.04,39.23],[119.76,38.91],[120.47,38.58],[121.1,38.32],[121.73,38.06],[122.59,37.84],[123.45,37.61],[124.46,37.38],[125.47,37.14],[126.46,37.41],[127.32,37.27],[128.24,37],[129.15,36.72],[130.06,36.43],[130.96,36.14],[130.96,36.14],[131.89,36.37],[132.83,36.59],[133.75,36.71],[134.67,36.82],[135.6,36.93],[136.53,37.03],[137.39,37.06],[138.26,37.09],[139.12,37.11],[140.06,37.76],[141.02,38.4],[141.99,39.03],[142.98,39.65],[143.99,40.27],[145.02,40.87],[146.07,41.47],[147.14,42.06],[148.22,42.63],[149.33,43.2],[150.13,43.98],[150.95,44.75],[151.79,45.51],[152.65,46.27],[153.54,47.02],[154.46,47.77],[155.39,48.5],[156.36,49.23],[157.36,49.95],[158.39,50.66],[159.44,51.37],[160.53,52.06],[161.66,52.74],[162.82,53.41],[163.86,54.18],[164.93,54.94],[166.05,55.69],[167.21,56.43],[168.42,57.16],[169.67,57.87],[170.97,58.57],[172.33,59.26],[173.74,59.94],[175.22,60.6],[176.75,61.24],[178.34,61.86],[180,62.47],[180,61.48]]],[[[-180,-11.62],[-180,-10.63],[-180,-9.65],[-180,-8.66],[-180,-7.67],[-180,-6.68],[-180,-5.69],[-180,-4.71],[-180,-3.72],[-180,-2.73],[-180,-1.74],[-180,-0.76],[-180,0.23],[-180,1.22],[-180,2.21],[-180,3.2],[-180,4.18],[-180,5.17],[-180,6.16],[-180,7.15],[-180,8.14],[-180,9.12],[-180,10.11],[-180,11.1],[-180,12.09],[-180,13.07],[-180,14.06],[-180,15.05],[-180,16.04],[-180,17.03],[-180,18.01],[-180,19],[-180,19.99],[-180,20.98],[-180,21.96],[-180,22.95],[-180,23.94],[-180,24.93],[-180,25.92],[-180,26.9],[-180,27.89],[-180,28.88],[-180,29.87],[-180,30.86],[-180,31.84],[-180,32.83],[-180,33.82],[-180,34.81],[-180,35.79],[-180,36.78],[-180,37.77],[-180,38.76],[-180,39.75],[-180,40.73],[-180,41.72],[-180,42.71],[-180,43.7],[-180,44.68],[-180,45.67],[-180,46.66],[-180,47.65],[-180,48.64],[-180,49.62],[-180,50.61],[-180,51.6],[-180,52.59],[-180,53.58],[-180,54.56],[-180,55.55],[-180,56.54],[-180,57.53],[-180,58.51],[-180,59.5],[-180,60.49],[-180,61.48],[-180,62.47],[-178.93,62.83],[-177.83,63.19],[-176.62,63.93],[-175.34,64.67],[-173.99,65.39],[-172.57,66.1],[-171.07,66.79],[-169.48,67.47],[-167.79,68.13],[-166.01,68.78],[-164.12,69.41],[-162.13,70.01],[-160.01,70.59],[-157.78,71.14],[-157.78,71.14],[-156.01,71.62],[-154.15,72.07],[-152.2,72.51],[-152.2,72.51],[-151,71.62],[-149.91,70.71],[-148.91,69.81],[-148,68.89],[-147.16,67.97],[-146.38,67.05],[-145.66,66.12],[-144.99,65.2],[-144.37,64.26],[-143.78,63.33],[-143.24,62.39],[-142.72,61.46],[-142.24,60.52],[-141.78,59.57],[-141.35,58.63],[-140.95,57.69],[-140.56,56.74],[-140.19,55.79],[-141.55,55.62],[-142.9,55.44],[-144.24,55.24],[-143.93,54.27],[-143.63,53.3],[-143.35,52.33],[-143.08,51.36],[-142.82,50.39],[-142.57,49.42],[-142.33,48.45],[-142.1,47.48],[-141.88,46.51],[-141.67,45.54],[-141.46,44.56],[-141.26,43.59],[-141.07,42.62],[-140.88,41.64],[-140.7,40.67],[-141.99,40.52],[-143.29,40.36],[-144.57,40.18],[-144.35,39.2],[-144.14,38.22],[-143.93,37.24],[-143.73,36.25],[-143.53,35.27],[-143.34,34.29],[-143.15,33.31],[-142.97,32.32],[-142.79,31.34],[-142.61,30.35],[-142.44,29.37],[-142.27,28.39],[-142.1,27.4],[-141.94,26.42],[-141.78,25.43],[-141.62,24.45],[-141.46,23.46],[-141.31,22.48],[-141.16,21.49],[-141.01,20.51],[-141.94,20.4],[-142.87,20.28],[-143.8,20.16],[-143.66,19.18],[-143.52,18.2],[-143.38,17.22],[-143.24,16.23],[-143.1,15.25],[-142.97,14.27],[-142.83,13.29],[-142.7,12.3],[-142.57,11.32],[-142.43,10.34],[-142.3,9.36],[-142.17,8.37],[-142.04,7.39],[-141.91,6.41],[-141.79,5.43],[-142.77,5.28],[-143.75,5.12],[-144.73,4.97],[-144.54,4.02],[-144.35,3.07],[-144.17,2.12],[-143.98,1.17],[-143.79,0.22],[-143.61,-0.73],[-143.42,-1.68],[-143.24,-2.63],[-143.05,-3.58],[-143.05,-3.58],[-142.45,-4],[-142.45,-4],[-143.36,-4.31],[-144.26,-4.63],[-145.16,-4.94],[-146.07,-5.24],[-146.98,-5.55],[-147.88,-5.86],[-148.79,-6.16],[-149.7,-6.46],[-150.61,-6.77],[-151.52,-7.06],[-152.44,-7.36],[-153.35,-7.66],[-154.27,-7.95],[-155.18,-8.24],[-156.1,-8.53],[-157.02,-8.82],[-157.26,-7.93],[-157.5,-7.03],[-157.73,-6.14],[-158.62,-6.54],[-159.51,-6.94],[-160.4,-7.34],[-161.3,-7.74],[-162.19,-8.13],[-163.09,-8.52],[-163.98,-8.91],[-164.88,-9.3],[-165.79,-9.69],[-166.69,-10.07],[-167.2,-9.39],[-167.71,-8.71],[-168.22,-8.03],[-169.11,-8.4],[-170.01,-8.76],[-170.91,-9.13],[-171.81,-9.49],[-172.71,-9.84],[-173.61,-10.2],[-174.52,-10.55],[-175.43,-10.9],[-176.34,-11.25],[-177.25,-11.59],[-178.16,-11.93],[-179.08,-12.27],[-180,-12.61],[-180,-11.62]]]]}},{"type":"Feature","properties":{"ma":240,"type":"gpml:TopologicalClosedPlateBoundary","name":"Junction Plate North","pid":498,"deforming":false},"geometry":{"type":"Polygon","coordinates":[[[116.44,-11.55],[117.37,-11.68],[118.31,-11.81],[119.25,-11.93],[120.19,-12.05],[121.13,-12.17],[122.07,-12.28],[123.01,-12.39],[123.96,-12.5],[124.9,-12.61],[125.83,-13.03],[126.76,-13.46],[127.69,-13.88],[128.62,-14.29],[129.56,-14.71],[130.51,-15.11],[131.45,-15.52],[132.39,-15.8],[133.33,-16.08],[134.28,-16.36],[135.22,-16.63],[136.17,-16.89],[137.13,-17.15],[138.08,-17.41],[138.8,-17.8],[138.8,-17.8],[138.8,-18.68],[138.81,-19.57],[138.81,-20.45],[138.82,-21.33],[138.82,-22.21],[138.83,-23.1],[138.83,-23.98],[138.84,-24.86],[138.84,-24.86],[137.9,-24.98],[136.97,-25.09],[136.03,-25.19],[135.1,-25.29],[134.16,-25.38],[133.22,-25.46],[133.09,-24.55],[132.96,-23.64],[131.97,-23.7],[130.98,-23.75],[129.99,-23.8],[129,-23.84],[128.01,-23.87],[127.01,-23.9],[126.02,-23.91],[125.97,-23.07],[125.91,-22.22],[125.86,-21.37],[125.81,-20.52],[125.76,-19.67],[125.7,-18.82],[124.68,-18.83],[123.65,-18.83],[122.63,-18.83],[121.6,-18.82],[120.58,-18.8],[119.55,-18.78],[118.53,-18.76],[117.5,-18.73],[116.48,-18.69],[116.48,-18.69],[116.48,-17.83],[116.49,-16.97],[116.49,-16.11],[116.5,-15.26],[116.5,-14.4],[116.51,-13.54],[116.47,-12.55],[116.44,-11.55]]]}},{"type":"Feature","properties":{"ma":240,"type":"gpml:TopologicalClosedPlateBoundary","name":"Phoenix Plate","pid":919,"deforming":false},"geometry":{"type":"MultiPolygon","coordinates":[[[[180,-13.61],[180,-14.6],[180,-15.6],[180,-16.59],[180,-17.59],[180,-18.59],[180,-19.58],[180,-20.58],[180,-21.58],[180,-22.57],[180,-23.57],[180,-24.57],[180,-25.56],[180,-26.56],[180,-27.56],[180,-28.55],[180,-29.55],[180,-30.54],[180,-31.54],[180,-32.54],[180,-33.53],[180,-34.53],[180,-35.53],[180,-36.52],[180,-37.52],[180,-38.52],[180,-39.51],[180,-40.51],[180,-41.51],[180,-42.5],[180,-43.5],[180,-44.49],[180,-45.49],[180,-46.49],[180,-47.48],[180,-48.48],[180,-49.48],[180,-50.47],[180,-51.47],[180,-52.47],[180,-53.46],[180,-54.46],[180,-55.46],[180,-56.45],[180,-57.45],[180,-58.45],[180,-59.44],[180,-60.44],[180,-61.43],[180,-62.43],[180,-63.43],[180,-64.42],[180,-65.42],[180,-66.42],[180,-67.41],[180,-68.41],[177.47,-68.24],[174.99,-68.02],[172.55,-67.77],[170.17,-67.49],[167.85,-67.17],[165.6,-66.82],[163.41,-66.44],[161.45,-66.21],[159.52,-65.96],[157.64,-65.68],[155.8,-65.38],[154,-65.06],[154,-65.06],[153.67,-64.23],[153.35,-63.4],[153.05,-62.58],[152.11,-61.73],[152.4,-61.22],[153.33,-60.33],[154.22,-59.44],[155.01,-58.53],[155.77,-57.62],[156.06,-57.07],[156.34,-56.51],[156.3,-55.93],[156.26,-55.34],[155.77,-54.56],[155.3,-53.78],[154.84,-53],[154.4,-52.22],[153.82,-51.32],[153.25,-50.41],[152.71,-49.51],[152.19,-48.6],[151.69,-47.69],[151.58,-46.81],[151.47,-45.94],[151.37,-45.07],[151.27,-44.19],[151.17,-43.32],[151,-42.52],[150.83,-41.72],[150.66,-40.92],[150.5,-40.11],[150.34,-39.31],[150.23,-38.57],[150.12,-37.83],[150.02,-37.1],[150.02,-37.1],[149.06,-36.53],[148.12,-35.96],[147.19,-35.38],[146.27,-34.79],[145.24,-34.38],[144.23,-33.97],[143.65,-33.7],[143.08,-33.43],[142.66,-32.97],[142.25,-32.51],[141.81,-31.86],[141.38,-31.22],[140.73,-30.47],[140.1,-29.72],[139.47,-28.96],[138.86,-28.21],[138.85,-27.26],[138.84,-26.32],[138.84,-25.37],[138.83,-24.43],[138.83,-23.49],[138.82,-22.54],[138.82,-21.6],[138.81,-20.65],[138.81,-19.71],[138.81,-19.71],[139.8,-19.38],[140.8,-19.04],[141.79,-18.7],[142.77,-18.35],[143.75,-18],[144.73,-17.64],[145.7,-17.28],[146.67,-16.91],[147.63,-16.54],[148.6,-16.16],[149.55,-15.78],[150.51,-15.4],[151.46,-15.01],[152.41,-14.61],[153.35,-14.22],[154.29,-13.82],[155.23,-13.41],[156.16,-13.01],[157.09,-12.6],[158.02,-12.18],[158.94,-11.77],[159.87,-11.35],[160.79,-10.92],[161.23,-11.72],[161.67,-12.51],[162.12,-13.3],[162.57,-14.09],[163.49,-13.77],[164.41,-13.45],[165.33,-13.12],[166.24,-12.79],[167.15,-12.46],[168.06,-12.13],[168.97,-11.79],[169.87,-11.45],[170.78,-11.1],[171.68,-10.75],[172.57,-10.4],[173.47,-10.05],[174.36,-9.7],[175.26,-9.34],[176.15,-8.98],[176.49,-9.86],[176.83,-10.74],[177.17,-11.62],[177.52,-12.5],[177.86,-13.37],[178.58,-13.12],[179.29,-12.87],[180,-12.61],[180,-13.61]]],[[[-180,-67.41],[-180,-66.42],[-180,-65.42],[-180,-64.42],[-180,-63.43],[-180,-62.43],[-180,-61.43],[-180,-60.44],[-180,-59.44],[-180,-58.45],[-180,-57.45],[-180,-56.45],[-180,-55.46],[-180,-54.46],[-180,-53.46],[-180,-52.47],[-180,-51.47],[-180,-50.47],[-180,-49.48],[-180,-48.48],[-180,-47.48],[-180,-46.49],[-180,-45.49],[-180,-44.49],[-180,-43.5],[-180,-42.5],[-180,-41.51],[-180,-40.51],[-180,-39.51],[-180,-38.52],[-180,-37.52],[-180,-36.52],[-180,-35.53],[-180,-34.53],[-180,-33.53],[-180,-32.54],[-180,-31.54],[-180,-30.54],[-180,-29.55],[-180,-28.55],[-180,-27.56],[-180,-26.56],[-180,-25.56],[-180,-24.57],[-180,-23.57],[-180,-22.57],[-180,-21.58],[-180,-20.58],[-180,-19.58],[-180,-18.59],[-180,-17.59],[-180,-16.59],[-180,-15.6],[-180,-14.6],[-180,-13.61],[-180,-12.61],[-179.08,-12.27],[-178.16,-11.93],[-177.25,-11.59],[-176.34,-11.25],[-175.43,-10.9],[-174.52,-10.55],[-173.61,-10.2],[-172.71,-9.84],[-171.81,-9.49],[-170.91,-9.13],[-170.01,-8.76],[-169.11,-8.4],[-168.22,-8.03],[-167.71,-8.71],[-167.2,-9.39],[-166.69,-10.07],[-165.79,-9.69],[-164.88,-9.3],[-163.98,-8.91],[-163.09,-8.52],[-162.19,-8.13],[-161.3,-7.74],[-160.4,-7.34],[-159.51,-6.94],[-158.62,-6.54],[-157.73,-6.14],[-157.5,-7.03],[-157.26,-7.93],[-157.02,-8.82],[-156.1,-8.53],[-155.18,-8.24],[-154.27,-7.95],[-153.35,-7.66],[-152.44,-7.36],[-151.52,-7.06],[-150.61,-6.77],[-149.7,-6.46],[-148.79,-6.16],[-147.88,-5.86],[-146.98,-5.55],[-146.07,-5.24],[-145.16,-4.94],[-144.26,-4.63],[-143.36,-4.31],[-142.45,-4],[-141.67,-4.55],[-140.88,-5.1],[-140.09,-5.65],[-139.3,-6.2],[-138.46,-6.73],[-137.61,-7.27],[-136.77,-7.8],[-135.92,-8.33],[-135.07,-8.86],[-134.21,-9.38],[-133.36,-9.91],[-132.5,-10.43],[-131.63,-10.95],[-130.77,-11.47],[-129.9,-11.98],[-129.03,-12.49],[-128.15,-13],[-127.28,-13.51],[-126.39,-14.01],[-125.51,-14.51],[-124.62,-15.01],[-123.72,-15.51],[-122.82,-15.99],[-121.92,-16.48],[-122.25,-17.1],[-122.59,-17.72],[-122.93,-18.34],[-122.07,-18.77],[-121.22,-19.2],[-120.36,-19.62],[-119.5,-20.04],[-118.63,-20.45],[-117.75,-20.86],[-116.87,-21.27],[-115.99,-21.67],[-115.1,-22.06],[-114.21,-22.45],[-113.31,-22.84],[-113.73,-23.73],[-114.16,-24.61],[-113.24,-25],[-112.31,-25.37],[-111.37,-25.74],[-110.43,-26.1],[-109.48,-26.46],[-108.53,-26.81],[-107.57,-27.15],[-106.6,-27.49],[-105.63,-27.82],[-104.66,-28.14],[-103.67,-28.46],[-104.01,-29.23],[-104.35,-29.99],[-103.34,-30.34],[-102.32,-30.68],[-101.3,-31.01],[-100.27,-31.34],[-99.23,-31.66],[-98.19,-31.97],[-97.14,-32.27],[-96.08,-32.56],[-95.02,-32.84],[-93.95,-33.12],[-92.87,-33.38],[-91.79,-33.64],[-90.7,-33.88],[-89.6,-34.12],[-88.5,-34.35],[-87.39,-34.56],[-87.37,-35.23],[-87.35,-35.91],[-87.34,-36.58],[-86.13,-36.77],[-84.91,-36.95],[-83.68,-37.12],[-82.46,-37.27],[-81.22,-37.41],[-79.99,-37.54],[-78.74,-37.65],[-77.5,-37.76],[-76.25,-37.85],[-75,-37.92],[-73.74,-37.99],[-72.49,-38.03],[-71.23,-38.07],[-69.97,-38.09],[-68.72,-38.1],[-67.46,-38.1],[-66.2,-38.08],[-64.94,-38.05],[-63.68,-38.01],[-62.43,-37.95],[-61.27,-38.08],[-60.11,-38.21],[-58.94,-38.32],[-57.77,-38.43],[-56.6,-38.52],[-56.6,-38.52],[-56.64,-39.08],[-56.83,-39.55],[-57.18,-40.37],[-57.42,-40.81],[-57.58,-41.52],[-57.75,-42.07],[-57.82,-42.39],[-57.95,-42.78],[-58.07,-43.2],[-58.33,-44.05],[-58.59,-44.9],[-58.88,-45.65],[-59.19,-46.41],[-59.5,-47.16],[-59.83,-47.9],[-60.46,-48.62],[-61.11,-49.33],[-61.79,-50.04],[-62.48,-50.75],[-63.19,-51.45],[-63.48,-52.27],[-63.78,-53.09],[-64.05,-53.81],[-64.33,-54.54],[-65.09,-55.29],[-65.87,-56.04],[-66.07,-56.29],[-66.13,-56.41],[-66.13,-56.41],[-66.32,-56.73],[-66.32,-56.73],[-66.89,-57.25],[-67.28,-57.5],[-67.57,-57.84],[-67.78,-58.11],[-68.16,-58.54],[-68.42,-58.8],[-68.91,-59.27],[-69.26,-59.62],[-69.63,-59.98],[-70.01,-60.37],[-70.61,-60.97],[-70.86,-61.21],[-71.21,-61.54],[-71.53,-61.83],[-71.82,-62.11],[-72.15,-62.44],[-72.41,-62.73],[-72.64,-62.96],[-72.7,-63.04],[-72.86,-63.26],[-73.05,-63.53],[-73.31,-63.95],[-73.75,-64.24],[-74.28,-64.52],[-75,-64.84],[-75.8,-65.21],[-76.31,-65.45],[-76.74,-65.66],[-77.12,-65.83],[-77.69,-66.13],[-78.23,-66.52],[-78.52,-66.86],[-78.75,-67.17],[-78.96,-67.41],[-79.12,-67.71],[-79.32,-68.04],[-79.47,-68.42],[-79.6,-68.83],[-79.85,-69.13],[-80.04,-69.28],[-80.37,-69.59],[-80.78,-69.94],[-81.16,-70.28],[-81.47,-70.64],[-81.51,-70.71],[-81.56,-71.12],[-81.5,-71.22],[-81.5,-71.22],[-83.77,-71.79],[-86.18,-72.34],[-89.13,-72.66],[-92.18,-72.93],[-95.31,-73.15],[-98.52,-73.33],[-101.79,-73.45],[-104.65,-73.56],[-107.55,-73.63],[-110.46,-73.66],[-113.38,-73.65],[-116.06,-73.78],[-118.78,-73.88],[-121.52,-73.94],[-124.28,-73.97],[-127.22,-73.98],[-130.16,-73.96],[-133.08,-73.89],[-135.97,-73.79],[-138.81,-73.65],[-141.59,-73.47],[-144.31,-73.25],[-146.95,-73],[-149.8,-72.68],[-152.54,-72.33],[-155.17,-71.93],[-157.69,-71.5],[-160.09,-71.04],[-162.82,-70.65],[-165.43,-70.21],[-167.93,-69.74],[-170.32,-69.23],[-172.6,-68.69],[-175.09,-68.63],[-177.56,-68.54],[-180,-68.41],[-180,-67.41]]]]}},{"type":"Feature","properties":{"ma":240,"type":"gpml:TopologicalClosedPlateBoundary","name":"Sukhothai island arc","pid":60301,"deforming":false},"geometry":{"type":"Polygon","coordinates":[[[73.45,15.5],[73.98,15.06],[74.5,14.62],[75.33,14.13],[76.15,13.63],[76.97,13.13],[77.79,12.62],[78.6,12.12],[79.41,11.61],[80.22,11.1],[81.02,10.58],[81.89,10.25],[82.75,9.92],[83.6,9.72],[84.44,9.52],[85.29,9.32],[85.75,8.89],[86.2,8.47],[86.76,7.89],[87.32,7.3],[87.88,6.72],[88.5,6.39],[89.12,6.06],[89.75,5.73],[90.42,5.27],[90.81,4.89],[91.19,4.51],[91.19,4.51],[90.42,4.06],[89.64,3.61],[88.86,3.15],[88.09,2.69],[87.32,2.24],[86.54,1.78],[86.54,1.78],[85.72,2.24],[84.9,2.7],[84.08,3.16],[83.26,3.61],[82.6,4.04],[81.94,4.46],[81.28,4.88],[80.62,5.3],[79.99,5.86],[79.37,6.41],[78.74,6.96],[78.17,7.53],[77.6,8.09],[77.03,8.66],[76.45,9.22],[75.76,9.8],[75.07,10.38],[74.38,10.96],[73.68,11.54],[72.98,12.11],[72.28,12.68],[71.58,13.25],[70.87,13.82],[70.87,13.82],[71.55,14.53],[72.23,15.24],[72.92,15.94],[73.45,15.5]]]}},{"type":"Feature","properties":{"ma":240,"type":"gpml:TopologicalClosedPlateBoundary","name":"Mongol-Okhotsk Ocean Plate","pid":380,"deforming":false},"geometry":{"type":"Polygon","coordinates":[[[-180,63.45],[-180,64.43],[-180,65.42],[-180,66.4],[-180,67.38],[-180,68.37],[-180,69.35],[-180,70.33],[-180,71.32],[-180,72.3],[-180,73.28],[-180,74.27],[-180,75.25],[-180,76.23],[-180,77.22],[-180,78.2],[-180,79.18],[-180,80.17],[-180,81.15],[-180,82.13],[-180,83.12],[-180,84.1],[-180,85.08],[-180,86.07],[-180,87.05],[-180,88.03],[-180,89.02],[-180,90],[180,90],[180,89.02],[180,88.03],[180,87.05],[180,86.07],[180,85.08],[180,84.1],[180,83.12],[180,82.13],[180,81.15],[180,80.17],[180,79.18],[180,78.2],[180,77.22],[180,76.23],[180,75.25],[180,74.27],[180,73.28],[180,72.3],[180,71.32],[180,70.33],[180,69.35],[180,68.37],[180,67.38],[180,66.4],[180,65.42],[180,64.43],[180,63.45],[180,62.47],[178.34,61.86],[176.75,61.24],[175.22,60.6],[173.74,59.94],[172.33,59.26],[170.97,58.57],[169.67,57.87],[168.42,57.16],[167.21,56.43],[166.05,55.69],[164.93,54.94],[163.86,54.18],[162.82,53.41],[161.66,52.74],[160.53,52.06],[159.44,51.37],[158.39,50.66],[157.36,49.95],[156.36,49.23],[155.39,48.5],[154.46,47.77],[153.54,47.02],[152.65,46.27],[151.79,45.51],[150.95,44.75],[150.13,43.98],[149.33,43.2],[148.22,42.63],[147.14,42.06],[146.07,41.47],[145.02,40.87],[143.99,40.27],[142.98,39.65],[141.99,39.03],[141.02,38.4],[140.06,37.76],[139.12,37.11],[138.26,37.09],[137.39,37.06],[136.53,37.03],[135.6,36.93],[134.67,36.82],[133.75,36.71],[132.83,36.59],[131.89,36.37],[130.96,36.14],[130.96,36.14],[130.06,36.43],[129.15,36.72],[128.24,37],[127.32,37.27],[126.46,37.41],[125.47,37.14],[124.46,37.38],[123.45,37.61],[122.59,37.84],[121.73,38.06],[121.1,38.32],[120.47,38.58],[119.76,38.91],[119.04,39.23],[119.04,39.23],[118.1,39.22],[117.17,39.21],[115.95,39.43],[115.27,39.69],[114.59,39.95],[114.21,40.07],[113.21,39.6],[112.39,39.85],[111.55,40.43],[110.86,41.04],[110.15,41.64],[109.43,42.24],[108.7,42.83],[107.75,43.46],[106.79,44.08],[106.05,44.24],[105.31,44.4],[104.22,44.94],[103.49,45.09],[102.75,45.24],[101.49,45.25],[100.23,45.24],[98.92,45.3],[97.61,45.34],[96.39,45.57],[95.16,45.8],[93.96,46.24],[92.74,46.68],[91.68,47.08],[90.61,47.46],[89.53,47.84],[88.4,48.26],[87.26,48.67],[86.1,49.06],[84.92,49.45],[83.73,49.65],[82.54,49.84],[81.33,50.01],[80.01,50.06],[78.69,50.08],[77.37,50.09],[76.04,50.09],[76.04,50.09],[75.71,49.44],[75.38,48.8],[74.13,48.33],[72.9,47.85],[71.69,47.36],[70.5,46.86],[69.34,46.34],[68.33,45.92],[67.34,45.48],[66.36,45.04],[65.4,44.59],[65.4,44.59],[65.85,45.2],[66.31,45.81],[66.78,46.41],[67.41,47.14],[68.06,47.86],[68.73,48.58],[69.42,49.3],[70.14,50.01],[70.87,50.72],[71.45,51.45],[72.05,52.19],[72.67,52.92],[73.31,53.65],[73.98,54.37],[75.03,55.01],[76.11,55.65],[77.24,56.27],[78.39,56.89],[79.59,57.49],[80.82,58.08],[82.1,58.66],[83.42,59.23],[84.23,60.1],[85.08,60.96],[85.99,61.82],[86.94,62.67],[87.95,63.52],[89.02,64.36],[90.16,65.18],[91.37,66.01],[92.66,66.82],[94.03,67.61],[94.03,67.61],[91.88,67.95],[89.66,68.26],[87.39,68.53],[85.06,68.78],[82.68,68.99],[80.26,69.17],[78.05,69.72],[75.72,70.26],[73.28,70.75],[70.71,71.22],[68.02,71.65],[65.21,72.04],[62.29,72.38],[59.26,72.68],[56.53,72.71],[53.79,72.69],[51.06,72.64],[48.35,72.55],[45.68,72.42],[45.68,72.42],[43.66,73.2],[41.45,73.95],[39.03,74.67],[37.08,75.44],[34.91,76.2],[32.51,76.93],[29.69,77.6],[26.57,78.23],[23.11,78.83],[19.27,79.38],[15.04,79.89],[10.4,80.33],[5.36,80.7],[-0.06,81],[-5.64,81.21],[-11.44,81.34],[-17.34,81.37],[-23.23,81.31],[-28.99,81.17],[-34.51,80.94],[-39.72,80.63],[-44.24,80.01],[-48.21,79.33],[-51.7,78.61],[-54.77,77.86],[-57.48,77.07],[-59.88,76.26],[-60.08,76.15],[-60.08,76.15],[-63.58,76.65],[-67.32,77.09],[-71.31,77.48],[-75.53,77.8],[-79.95,78.06],[-84.53,78.24],[-89.23,78.35],[-93.99,78.39],[-98.74,78.34],[-103.43,78.22],[-107.99,78.02],[-112.58,77.92],[-117.07,77.74],[-121.41,77.49],[-125.56,77.17],[-129.49,76.79],[-133.19,76.36],[-136.66,75.87],[-139.89,75.34],[-142.89,74.77],[-145.67,74.15],[-148.24,73.51],[-150.62,72.84],[-153.15,72.3],[-155.54,71.74],[-157.78,71.14],[-157.78,71.14],[-160.01,70.59],[-162.13,70.01],[-164.12,69.41],[-166.01,68.78],[-167.79,68.13],[-169.48,67.47],[-171.07,66.79],[-172.57,66.1],[-173.99,65.39],[-175.34,64.67],[-176.62,63.93],[-177.83,63.19],[-178.93,62.83],[-180,62.47],[-180,63.45]]]}},{"type":"Feature","properties":{"ma":240,"type":"gpml:TopologicalClosedPlateBoundary","name":"South China plate","pid":602,"deforming":false},"geometry":{"type":"Polygon","coordinates":[[[72.31,15.62],[72.81,16.44],[73.31,17.25],[73.82,18.06],[74.33,18.87],[74.85,19.68],[75.38,20.49],[75.9,21.3],[76.37,22.15],[76.84,23],[77.31,23.85],[77.8,24.69],[78.28,25.54],[78.78,26.38],[79.28,27.22],[79.79,28.06],[80.31,28.9],[80.54,29.82],[80.76,30.74],[81,31.66],[81.23,32.58],[81.47,33.5],[81.72,34.42],[81.97,35.34],[82.23,36.25],[82.5,37.17],[82.77,38.09],[83.05,39.01],[83.33,39.92],[83.62,40.84],[83.92,41.75],[84.23,42.66],[84.55,43.58],[85.18,44.36],[85.82,45.13],[86.47,45.91],[87.15,46.68],[87.84,47.44],[88.56,48.21],[88.56,48.21],[89.53,47.84],[90.61,47.46],[91.68,47.08],[92.74,46.68],[93.96,46.24],[95.16,45.8],[96.39,45.57],[97.61,45.34],[98.92,45.3],[100.23,45.24],[101.49,45.25],[102.75,45.24],[103.49,45.09],[104.22,44.94],[105.31,44.4],[106.05,44.24],[106.79,44.08],[107.75,43.46],[108.7,42.83],[109.43,42.24],[110.15,41.64],[110.86,41.04],[111.55,40.43],[112.39,39.85],[113.21,39.6],[114.21,40.07],[114.47,39.99],[114.47,39.99],[113.94,39.65],[113.41,39.31],[112.4,39.03],[111.4,38.74],[110.41,38.44],[109.43,38.14],[108.45,37.83],[107.86,37.04],[107.28,36.26],[106.72,35.47],[106.17,34.68],[105.62,33.89],[105.48,33.35],[105.48,33.35],[105.25,32.51],[105.02,31.66],[104.8,30.81],[104.58,29.96],[104.37,29.11],[104.3,28.31],[104.23,27.5],[104.17,26.69],[104.1,25.89],[104.49,24.99],[104.88,24.09],[105.26,23.2],[105.64,22.3],[106.01,21.4],[106.38,20.49],[106.74,19.59],[107.1,18.69],[107.64,17.99],[108.17,17.29],[108.71,16.59],[109.23,15.89],[109.04,15.08],[108.85,14.26],[108.66,13.44],[108.48,12.62],[108.29,11.81],[108.29,11.81],[108.19,11.75],[107.37,11.21],[106.55,10.66],[105.73,10.11],[104.91,9.56],[104.1,9.01],[103.26,8.71],[102.41,8.42],[101.57,8.12],[100.73,7.83],[99.89,7.53],[99.06,7.29],[98.22,7.04],[97.39,6.8],[96.55,6.55],[95.72,6.31],[94.75,6.22],[93.78,6.12],[93.78,6.12],[93.22,5.7],[92.54,5.3],[91.87,4.91],[91.19,4.51],[91.19,4.51],[90.81,4.89],[90.42,5.27],[89.75,5.73],[89.12,6.06],[88.5,6.39],[87.88,6.72],[87.32,7.3],[86.76,7.89],[86.2,8.47],[85.75,8.89],[85.29,9.32],[84.44,9.52],[83.6,9.72],[82.75,9.92],[81.89,10.25],[81.02,10.58],[80.22,11.1],[79.41,11.61],[78.6,12.12],[77.79,12.62],[76.97,13.13],[76.15,13.63],[75.33,14.13],[74.5,14.62],[73.98,15.06],[73.45,15.5],[72.92,15.94],[72.92,15.94],[72.37,15.37],[71.81,14.81],[72.31,15.62]]]}},{"type":"Feature","properties":{"ma":240,"type":"gpml:TopologicalClosedPlateBoundary","name":"Laurasia Plate","pid":101,"deforming":false},"geometry":{"type":"Polygon","coordinates":[[[40.8,19.34],[39.98,18.89],[39.17,18.44],[38.36,17.98],[37.55,17.52],[36.77,17.12],[35.99,16.7],[35.22,16.29],[34.45,15.87],[33.69,15.46],[32.75,15.22],[31.82,14.98],[30.89,14.73],[29.96,14.49],[29.03,14.23],[28.1,13.98],[27.18,13.72],[26.28,13.63],[25.38,13.53],[24.48,13.42],[23.58,13.32],[23.58,13.32],[23.15,12.7],[22.72,12.08],[22.29,11.46],[22.02,10.64],[21.76,9.81],[21.5,8.99],[21.24,8.16],[20.99,7.34],[20.73,6.51],[20.48,5.69],[19.65,5.12],[18.82,4.56],[18,3.99],[17.17,3.42],[16.35,2.85],[15.53,2.28],[15.74,1.51],[15.96,0.74],[16.18,-0.02],[15.45,-0.37],[14.72,-0.72],[13.99,-1.07],[13.26,-1.42],[12.53,-1.76],[11.72,-2.08],[10.91,-2.41],[10.11,-2.73],[9.3,-3.05],[8.49,-3.37],[7.63,-2.96],[6.77,-2.55],[5.91,-2.13],[5.02,-1.73],[4.12,-1.33],[3.22,-0.93],[2.36,-0.66],[1.5,-0.38],[0.64,-0.11],[-0.22,0.17],[-1.06,0.49],[-1.9,0.81],[-2.75,1.13],[-3.32,1.6],[-3.89,2.06],[-4.46,2.53],[-4.46,2.53],[-4.85,2.52],[-5.36,2.49],[-5.85,2.45],[-6.32,2.38],[-6.88,2.28],[-7.53,2.29],[-8.01,2.36],[-8.33,2.31],[-8.94,2.14],[-9.47,1.97],[-10.03,1.67],[-10.68,1.23],[-11.16,0.9],[-11.91,0.73],[-12.41,0.55],[-13.18,0.37],[-13.92,0.27],[-14.38,0.23],[-14.88,-0.06],[-15.26,0.06],[-15.5,-0.04],[-15.67,-0.61],[-16,-0.94],[-16.46,-1.09],[-16.77,-1.37],[-17.07,-1.64],[-17.25,-1.65],[-17.49,-1.69],[-17.94,-1.85],[-18.22,-1.85],[-18.52,-1.78],[-18.76,-1.77],[-18.88,-1.88],[-19.29,-2.05],[-19.44,-2.49],[-19.69,-2.94],[-20.15,-3.43],[-20.62,-3.91],[-20.95,-4.22],[-21.7,-4.77],[-22.32,-5.1],[-22.48,-5.72],[-22.67,-6.49],[-23.12,-6.94],[-23.66,-7.37],[-24.3,-7.52],[-24.93,-7.66],[-25.44,-7.81],[-25.76,-7.9],[-26.09,-8],[-26.21,-8.2],[-26.58,-8.49],[-26.96,-8.81],[-27.36,-9.2],[-27.65,-9.49],[-27.85,-9.62],[-27.85,-9.62],[-27.85,-9.6],[-28.59,-8.96],[-29.11,-8.49],[-29.63,-8.02],[-30.36,-7.58],[-31.09,-7.14],[-31.74,-6.61],[-32.42,-6.25],[-32.91,-5.96],[-33.41,-5.68],[-33.9,-5.44],[-34.38,-5.21],[-34.85,-4.94],[-35.32,-4.67],[-36.12,-4.1],[-36.83,-3.91],[-37.55,-3.72],[-38.05,-3.56],[-38.56,-3.39],[-39.56,-3.4],[-40.08,-3.35],[-40.6,-3.31],[-41.29,-3.7],[-41.98,-4.09],[-42.67,-4.48],[-43.41,-5.12],[-44.15,-5.76],[-44.89,-6.4],[-45.17,-7.09],[-45.57,-7.45],[-45.97,-7.81],[-46.64,-8.53],[-47.27,-8.89],[-47.96,-9.37],[-48.66,-9.86],[-49.46,-9.99],[-50.26,-10.12],[-51.24,-10.29],[-52.21,-10.46],[-52.99,-10.62],[-53.77,-10.78],[-54.74,-10.93],[-55.71,-11.07],[-56.62,-11.13],[-56.62,-11.13],[-56.51,-10.47],[-56.4,-9.8],[-56.22,-9.05],[-56.04,-8.31],[-55.86,-7.56],[-55.63,-6.77],[-55.41,-5.98],[-55.18,-5.2],[-54.88,-4.48],[-54.59,-3.77],[-54.29,-3.06],[-53.88,-2.72],[-53.48,-2.37],[-52.92,-1.93],[-52.37,-1.49],[-52.04,-1.16],[-52.04,-1.16],[-51.78,-0.27],[-51.51,0.62],[-51.25,1.5],[-50.98,2.39],[-50.71,3.27],[-50.59,3.37],[-50.59,3.37],[-50.79,4.18],[-50.99,5],[-51.19,5.81],[-51.39,6.62],[-51.58,7.5],[-51.77,8.38],[-51.97,9.26],[-52.16,10.14],[-52.11,11.06],[-52.06,11.97],[-52.01,12.88],[-51.97,13.8],[-51.57,14.59],[-51.17,15.39],[-50.77,16.18],[-50.21,16.88],[-49.64,17.58],[-49.07,18.28],[-48.5,18.97],[-48.38,19.15],[-48.38,19.15],[-47.61,19.04],[-46.83,18.93],[-46.06,18.81],[-45.2,19],[-44.33,19.19],[-43.83,19.81],[-43.33,20.43],[-43.03,21.1],[-42.72,21.78],[-42.41,22.45],[-42.33,23.21],[-42.25,23.96],[-42.25,23.96],[-42.32,24.63],[-42.35,25.39],[-42.37,26.14],[-42.43,27.06],[-42.43,27.13],[-42.43,27.13],[-42.5,27.89],[-42.57,28.65],[-42.54,29.57],[-42.51,30.49],[-42.49,31.41],[-42.46,32.33],[-42.63,33.29],[-42.8,34.26],[-42.99,35.23],[-43.17,36.2],[-43.25,37.04],[-43.32,37.89],[-43.4,38.74],[-43.48,39.59],[-43.56,40.44],[-43.56,40.44],[-43.9,40.74],[-44.36,41.47],[-44.83,42.2],[-45.32,42.92],[-45.82,43.65],[-46.33,44.37],[-46.9,45.18],[-47.49,45.98],[-48.1,46.78],[-48.72,47.58],[-49.37,48.38],[-50.03,49.17],[-50.49,49.97],[-50.96,50.78],[-51.45,51.58],[-51.45,51.58],[-52.08,52.36],[-52.73,53.13],[-53.41,53.9],[-54.11,54.67],[-54.84,55.44],[-55.66,56.2],[-56.51,56.97],[-57.4,57.72],[-58.32,58.48],[-58.99,59.25],[-59.69,60.02],[-60.42,60.78],[-61.11,61.47],[-61.82,62.15],[-62.57,62.83],[-63.36,63.51],[-63.75,64.38],[-64.17,65.26],[-64.62,66.13],[-65.1,67.01],[-65.61,67.88],[-66.17,68.75],[-66.77,69.61],[-66.65,70.3],[-66.52,70.99],[-66.38,71.67],[-65.35,72.6],[-64.2,73.53],[-62.93,74.45],[-61.5,75.36],[-59.88,76.26],[-57.48,77.07],[-54.77,77.86],[-51.7,78.61],[-48.21,79.33],[-44.24,80.01],[-39.72,80.63],[-34.51,80.94],[-28.99,81.17],[-23.23,81.31],[-17.34,81.37],[-11.44,81.34],[-5.64,81.21],[-0.06,81],[5.36,80.7],[10.4,80.33],[15.04,79.89],[19.27,79.38],[23.11,78.83],[26.57,78.23],[29.69,77.6],[32.51,76.93],[34.91,76.2],[37.08,75.44],[39.03,74.67],[39.03,74.67],[41.45,73.95],[43.66,73.2],[45.68,72.42],[45.68,72.42],[48.35,72.55],[51.06,72.64],[53.79,72.69],[56.53,72.71],[59.26,72.68],[62.29,72.38],[65.21,72.04],[68.02,71.65],[70.71,71.22],[73.28,70.75],[75.72,70.26],[78.05,69.72],[80.26,69.17],[82.68,68.99],[85.06,68.78],[87.39,68.53],[89.66,68.26],[91.88,67.95],[94.03,67.61],[94.03,67.61],[92.66,66.82],[91.37,66.01],[90.16,65.18],[89.02,64.36],[87.95,63.52],[86.94,62.67],[85.99,61.82],[85.08,60.96],[84.23,60.1],[83.42,59.23],[82.1,58.66],[80.82,58.08],[79.59,57.49],[78.39,56.89],[77.24,56.27],[76.11,55.65],[75.03,55.01],[73.98,54.37],[73.31,53.65],[72.67,52.92],[72.05,52.19],[71.45,51.45],[70.87,50.72],[70.14,50.01],[69.42,49.3],[68.73,48.58],[68.06,47.86],[67.41,47.14],[66.78,46.41],[66.17,45.63],[65.58,44.83],[65,44.04],[64.44,43.24],[63.9,42.44],[63.37,41.63],[62.85,40.83],[62.34,40.02],[61.85,39.21],[61.11,38.53],[60.38,37.84],[59.67,37.14],[58.97,36.44],[58.28,35.74],[57.61,35.03],[56.94,34.32],[56.29,33.61],[55.65,32.89],[55.14,32.15],[54.63,31.4],[54.63,31.4],[53.8,31.74],[52.95,32.07],[52.29,31.77],[51.63,31.47],[51.44,30.67],[51.26,29.87],[50.94,29.16],[50.62,28.45],[50.31,27.75],[49.45,27.2],[48.59,26.65],[47.73,26.09],[46.83,26.01],[45.93,25.93],[45.03,25.85],[44.03,25.64],[43.04,25.42],[42.06,25.2],[41.52,24.59],[41.52,24.59],[42.24,24.18],[42.96,23.77],[43.79,23.24],[44.61,22.71],[43.84,22.04],[43.07,21.37],[42.3,20.7],[41.55,20.02],[40.8,19.34]]]}},{"type":"Feature","properties":{"ma":240,"type":"gpml:TopologicalClosedPlateBoundary","name":"Gondwana Plate","pid":701,"deforming":false},"geometry":{"type":"Polygon","coordinates":[[[180,-69.39],[180,-70.37],[180,-71.35],[180,-72.34],[180,-73.32],[180,-74.3],[180,-75.28],[180,-76.26],[180,-77.24],[180,-78.22],[180,-79.2],[180,-80.19],[180,-81.17],[180,-82.15],[180,-83.13],[180,-84.11],[180,-85.09],[180,-86.07],[180,-87.06],[180,-88.04],[180,-89.02],[180,-90],[-180,-90],[-180,-89.02],[-180,-88.04],[-180,-87.06],[-180,-86.07],[-180,-85.09],[-180,-84.11],[-180,-83.13],[-180,-82.15],[-180,-81.17],[-180,-80.19],[-180,-79.2],[-180,-78.22],[-180,-77.24],[-180,-76.26],[-180,-75.28],[-180,-74.3],[-180,-73.32],[-180,-72.34],[-180,-71.35],[-180,-70.37],[-180,-69.39],[-180,-68.41],[-177.56,-68.54],[-175.09,-68.63],[-172.6,-68.69],[-170.32,-69.23],[-167.93,-69.74],[-165.43,-70.21],[-162.82,-70.65],[-160.09,-71.04],[-157.69,-71.5],[-155.17,-71.93],[-152.54,-72.33],[-149.8,-72.68],[-146.95,-73],[-144.31,-73.25],[-141.59,-73.47],[-138.81,-73.65],[-135.97,-73.79],[-133.08,-73.89],[-130.16,-73.96],[-127.22,-73.98],[-124.28,-73.97],[-121.52,-73.94],[-118.78,-73.88],[-116.06,-73.78],[-113.38,-73.65],[-110.46,-73.66],[-107.55,-73.63],[-104.65,-73.56],[-101.79,-73.45],[-98.52,-73.33],[-95.31,-73.15],[-92.18,-72.93],[-89.13,-72.66],[-86.18,-72.34],[-83.77,-71.79],[-81.5,-71.22],[-81.56,-71.12],[-81.51,-70.71],[-81.47,-70.64],[-81.16,-70.28],[-80.78,-69.94],[-80.37,-69.59],[-80.04,-69.28],[-79.85,-69.13],[-79.6,-68.83],[-79.47,-68.42],[-79.32,-68.04],[-79.12,-67.71],[-78.96,-67.41],[-78.75,-67.17],[-78.52,-66.86],[-78.23,-66.52],[-77.69,-66.13],[-77.12,-65.83],[-76.74,-65.66],[-76.31,-65.45],[-75.8,-65.21],[-75,-64.84],[-74.28,-64.52],[-73.75,-64.24],[-73.31,-63.95],[-73.05,-63.53],[-72.86,-63.26],[-72.7,-63.04],[-72.64,-62.96],[-72.41,-62.73],[-72.15,-62.44],[-71.82,-62.11],[-71.53,-61.83],[-71.21,-61.54],[-70.86,-61.21],[-70.61,-60.97],[-70.01,-60.37],[-69.63,-59.98],[-69.26,-59.62],[-68.91,-59.27],[-68.42,-58.8],[-68.16,-58.54],[-67.78,-58.11],[-67.57,-57.84],[-67.28,-57.5],[-66.89,-57.25],[-66.32,-56.73],[-66.32,-56.73],[-66.13,-56.41],[-66.13,-56.41],[-66.07,-56.29],[-65.87,-56.04],[-65.09,-55.29],[-64.33,-54.54],[-64.05,-53.81],[-63.78,-53.09],[-63.48,-52.27],[-63.19,-51.45],[-62.48,-50.75],[-61.79,-50.04],[-61.11,-49.33],[-60.46,-48.62],[-59.83,-47.9],[-59.5,-47.16],[-59.19,-46.41],[-58.88,-45.65],[-58.59,-44.9],[-58.33,-44.05],[-58.07,-43.2],[-57.95,-42.78],[-57.82,-42.39],[-57.75,-42.07],[-57.58,-41.52],[-57.42,-40.81],[-57.18,-40.37],[-56.83,-39.55],[-56.64,-39.08],[-56.6,-38.48],[-56.6,-38.48],[-56.58,-38.2],[-56.59,-37.83],[-56.51,-37.28],[-56.59,-36.53],[-56.62,-36],[-56.65,-35.47],[-57.18,-34.65],[-57.3,-33.95],[-57.41,-33.26],[-57.53,-32.56],[-57.67,-31.73],[-57.81,-30.9],[-57.95,-30.07],[-57.96,-29.21],[-57.98,-28.35],[-57.99,-27.49],[-58,-26.63],[-58.01,-25.77],[-58.03,-24.9],[-58.01,-24.03],[-57.99,-23.17],[-57.97,-22.3],[-57.54,-21.53],[-57.12,-20.77],[-56.7,-20],[-56.28,-19.23],[-55.87,-18.46],[-55.74,-18.2],[-55.63,-17.97],[-55.48,-17.72],[-55.31,-17.38],[-55.19,-17.2],[-55.09,-16.97],[-54.84,-16.64],[-54.63,-16.34],[-54.61,-16.32],[-54.61,-16.32],[-54.16,-17.17],[-54.16,-17.17],[-53.84,-17.21],[-53.26,-17.15],[-52.68,-17.09],[-52.08,-17.25],[-51.49,-17.39],[-50.97,-17.63],[-50.45,-17.87],[-49.78,-18.27],[-49.11,-18.66],[-48.23,-18.94],[-47.34,-19.21],[-46.48,-19.09],[-45.62,-18.96],[-44.84,-18.63],[-44.06,-18.29],[-43.37,-17.97],[-42.68,-17.64],[-42.03,-17.45],[-41.37,-17.25],[-40.78,-17.18],[-40.19,-17.12],[-39.66,-17.02],[-39.12,-16.92],[-38.49,-16.85],[-37.86,-16.77],[-37.21,-16.31],[-36.56,-15.85],[-35.79,-15.72],[-35.02,-15.6],[-34.33,-15.73],[-33.64,-15.85],[-32.95,-15.98],[-32.14,-16.08],[-31.34,-16.17],[-30.42,-16.48],[-29.89,-16.54],[-29.36,-16.59],[-28.77,-16.61],[-28.17,-16.63],[-27.55,-16.43],[-26.92,-16.23],[-26.1,-16.04],[-25.27,-15.85],[-24.45,-15.66],[-24.08,-15.17],[-23.71,-14.69],[-23.71,-14.69],[-23.5,-14.74],[-23,-15.02],[-22.81,-15.07],[-22.81,-15.07],[-23.13,-14.45],[-23.13,-13.86],[-22.91,-12.97],[-22.71,-12.19],[-22.43,-11.83],[-22.04,-11.52],[-21.42,-11.25],[-20.99,-11.26],[-20.54,-11.28],[-20.32,-10.93],[-20.18,-10.67],[-19.98,-10.4],[-19.67,-10.19],[-19.45,-9.82],[-19.22,-9.39],[-19.16,-8.61],[-19.08,-8.17],[-18.96,-7.74],[-18.7,-7.5],[-18.49,-7.3],[-18.1,-6.75],[-17.77,-6.21],[-17.54,-5.59],[-17.28,-5.15],[-17.03,-4.71],[-16.69,-4.27],[-16.35,-3.83],[-15.87,-3.61],[-15.4,-3.39],[-15.27,-3.29],[-14.38,-3.44],[-13.44,-3.46],[-12.92,-3.48],[-12.77,-3.57],[-12.21,-3.65],[-11.49,-3.33],[-10.72,-2.92],[-10.29,-2.58],[-9.4,-2.28],[-8.87,-1.98],[-8.15,-1.82],[-7.34,-1.68],[-6.7,-1.4],[-6.25,-1.32],[-5.64,-1.48],[-5.2,-1.74],[-4.7,-1.9],[-4.37,-2.06],[-4.03,-2.22],[-3.44,-2.3],[-2.89,-2.46],[-2.28,-2.21],[-1.74,-1.99],[-1.28,-1.8],[-0.78,-1.6],[-0.18,-1.35],[0.51,-1.06],[1.09,-0.82],[1.7,-0.57],[1.86,-0.5],[1.86,-0.5],[2.54,-0.72],[3.22,-0.93],[4.12,-1.33],[5.02,-1.73],[5.91,-2.13],[6.77,-2.55],[7.63,-2.96],[8.49,-3.37],[9.3,-3.05],[10.11,-2.73],[10.91,-2.41],[11.72,-2.08],[12.53,-1.76],[13.26,-1.42],[13.99,-1.07],[14.72,-0.72],[15.45,-0.37],[16.18,-0.02],[15.96,0.74],[15.74,1.51],[15.53,2.28],[16.35,2.85],[17.17,3.42],[18,3.99],[18.82,4.56],[19.65,5.12],[20.48,5.69],[20.77,6.62],[21.06,7.56],[21.35,8.49],[21.64,9.42],[21.64,9.42],[22.44,8.87],[23.23,8.31],[24.06,7.75],[24.89,7.2],[25.72,6.64],[26.55,6.08],[27.37,5.51],[28.19,4.95],[29.02,4.39],[29.84,3.82],[30.18,4.28],[30.52,4.74],[31.25,4.31],[31.97,3.89],[32.7,3.46],[33.13,4.03],[33.56,4.6],[34.29,4.08],[35.02,3.57],[35.74,3.05],[36.46,2.54],[37.19,2.02],[38,1.49],[38.82,0.96],[39.64,0.43],[40.45,-0.1],[41.27,-0.63],[40.65,-1.38],[40.03,-2.13],[39.42,-2.88],[38.8,-3.63],[38.18,-4.39],[37.56,-5.14],[37.56,-5.14],[38.26,-5.76],[38.97,-6.38],[39.68,-6.99],[40.39,-7.61],[41.1,-8.23],[41.81,-8.84],[42.52,-9.45],[43.24,-10.07],[43.96,-10.68],[44.69,-11.28],[45.41,-11.89],[46.14,-12.5],[45.68,-13.21],[46.45,-13.73],[47.21,-14.25],[47.99,-14.77],[48.76,-15.28],[49.54,-15.8],[50.32,-16.31],[51.11,-16.81],[50.69,-17.65],[51.57,-18.16],[52.45,-18.67],[53.34,-19.17],[54.24,-19.66],[55.13,-20.16],[56.04,-20.64],[56.95,-21.13],[57.87,-21.61],[58.79,-22.08],[59.72,-22.55],[60.66,-23.01],[61.6,-23.47],[62.55,-23.92],[62.13,-24.71],[61.71,-25.49],[61.28,-26.28],[60.84,-27.06],[60.84,-27.06],[61.78,-27.55],[62.72,-28.04],[63.67,-28.52],[64.64,-29],[65.61,-29.46],[66.59,-29.93],[67.58,-30.38],[68.57,-30.82],[69.58,-31.26],[70.6,-31.69],[71.62,-32.11],[72.66,-32.53],[73.7,-32.93],[74.76,-33.33],[75.82,-33.72],[75.67,-34.22],[75.51,-34.72],[76.68,-34.92],[77.85,-35.11],[79.04,-35.29],[80.22,-35.46],[81.41,-35.62],[82.61,-35.76],[83.81,-35.89],[85,-36.04],[86.2,-36.17],[87.41,-36.29],[88.61,-36.4],[89.82,-36.5],[89.82,-36.5],[90.37,-35.61],[90.91,-34.71],[91.44,-33.82],[91.96,-32.92],[92.46,-32.02],[92.96,-31.12],[93.44,-30.21],[94.43,-30.57],[95.42,-30.92],[96.42,-31.26],[97.42,-31.59],[97.78,-30.83],[98.14,-30.07],[98.49,-29.3],[98.83,-28.54],[99.86,-28.66],[100.89,-28.77],[101.93,-28.87],[102.96,-28.96],[104,-29.05],[104.31,-28.2],[104.62,-27.34],[104.92,-26.49],[105.22,-25.64],[105.51,-24.79],[105.8,-23.93],[106.62,-24.06],[107.44,-24.18],[108.27,-24.3],[109.1,-24.42],[109.36,-23.51],[109.61,-22.6],[109.86,-21.69],[110.11,-20.77],[110.36,-19.86],[111.24,-19.95],[112.13,-20.03],[113.02,-20.1],[113.11,-19.28],[113.2,-18.46],[113.3,-17.64],[114.25,-17.66],[115.21,-17.67],[115.42,-16.83],[115.63,-15.98],[115.83,-15.14],[116.04,-14.3],[116.5,-14.31],[116.5,-14.31],[116.5,-15.19],[116.49,-16.06],[116.49,-16.94],[116.48,-17.82],[116.48,-18.69],[116.48,-18.69],[117.5,-18.73],[118.53,-18.76],[119.55,-18.78],[120.58,-18.8],[121.6,-18.82],[122.63,-18.83],[123.65,-18.83],[124.68,-18.83],[125.7,-18.82],[125.76,-19.67],[125.81,-20.52],[125.86,-21.37],[125.91,-22.22],[125.97,-23.07],[126.02,-23.91],[127.01,-23.9],[128.01,-23.87],[129,-23.84],[129.99,-23.8],[130.98,-23.75],[131.97,-23.7],[132.96,-23.64],[133.09,-24.55],[133.22,-25.46],[134.16,-25.38],[135.1,-25.29],[136.03,-25.19],[136.97,-25.09],[137.9,-24.98],[138.84,-24.86],[138.84,-24.86],[138.84,-25.7],[138.85,-26.53],[138.85,-27.37],[138.86,-28.21],[139.47,-28.96],[140.1,-29.72],[140.73,-30.47],[141.38,-31.22],[141.81,-31.86],[142.25,-32.51],[142.66,-32.97],[143.08,-33.43],[143.65,-33.7],[144.23,-33.97],[145.24,-34.38],[146.27,-34.79],[147.19,-35.38],[148.12,-35.96],[149.06,-36.53],[150.02,-37.1],[150.02,-37.1],[150.12,-37.83],[150.23,-38.57],[150.34,-39.31],[150.5,-40.11],[150.66,-40.92],[150.83,-41.72],[151,-42.52],[151.17,-43.32],[151.27,-44.19],[151.37,-45.07],[151.47,-45.94],[151.58,-46.81],[151.69,-47.69],[152.19,-48.6],[152.71,-49.51],[153.25,-50.41],[153.82,-51.32],[154.4,-52.22],[154.84,-53],[155.3,-53.78],[155.77,-54.56],[156.26,-55.34],[156.3,-55.93],[156.34,-56.51],[156.06,-57.07],[155.77,-57.62],[155.01,-58.53],[154.22,-59.44],[153.33,-60.33],[152.4,-61.22],[152.11,-61.73],[153.05,-62.58],[153.35,-63.4],[153.67,-64.23],[154,-65.06],[154,-65.06],[155.8,-65.38],[157.64,-65.68],[159.52,-65.96],[161.45,-66.21],[163.41,-66.44],[165.6,-66.82],[167.85,-67.17],[170.17,-67.49],[172.55,-67.77],[174.99,-68.02],[177.47,-68.24],[180,-68.41],[180,-69.39]]]}},{"type":"Feature","properties":{"ma":240,"type":"gpml:TopologicalClosedPlateBoundary","name":"Alexander Plate","pid":16111,"deforming":false},"geometry":{"type":"Polygon","coordinates":[[[-61.94,62.26],[-61.16,61.52],[-60.42,60.78],[-59.69,60.02],[-58.99,59.25],[-58.32,58.48],[-57.4,57.72],[-56.51,56.97],[-55.66,56.2],[-54.84,55.44],[-54.11,54.67],[-53.41,53.9],[-52.73,53.13],[-52.08,52.36],[-51.45,51.58],[-51.45,51.58],[-50.96,50.78],[-50.49,49.97],[-50.03,49.17],[-49.38,48.4],[-48.75,47.62],[-48.14,46.84],[-47.55,46.06],[-47.55,46.06],[-48.91,46.05],[-50.27,46.03],[-51.64,45.99],[-52.99,45.93],[-54.35,45.86],[-55.59,45.72],[-56.82,45.57],[-58.05,45.41],[-59.27,45.24],[-60.48,45.05],[-61.69,44.85],[-63.03,44.55],[-64.36,44.25],[-65.67,43.93],[-66.97,43.59],[-68.25,43.24],[-69.52,42.87],[-70.69,42.55],[-71.86,42.21],[-73,41.86],[-74.14,41.49],[-75.26,41.12],[-76.37,40.74],[-77.47,40.34],[-78.57,39.95],[-79.66,39.55],[-80.74,39.14],[-81.8,38.72],[-82.86,38.29],[-83.9,37.85],[-84.92,37.4],[-85.94,36.94],[-86.94,36.48],[-87.77,35.82],[-88.59,35.15],[-89.39,34.48],[-90.18,33.81],[-90.95,33.13],[-91.72,32.45],[-92.47,31.76],[-93.02,30.95],[-93.55,30.13],[-94.08,29.32],[-94.6,28.5],[-95.12,27.68],[-95.62,26.86],[-95.62,26.86],[-96.02,27.12],[-96.83,27.78],[-97.65,28.43],[-98.48,29.08],[-99.32,29.72],[-100.17,30.35],[-101.03,30.98],[-101.91,31.61],[-102.79,32.23],[-103.66,32.91],[-104.54,33.58],[-105.44,34.24],[-106.34,34.9],[-107.27,35.55],[-107.86,36.22],[-108.46,36.88],[-109.07,37.54],[-109.69,38.2],[-110.33,38.86],[-110.78,39.63],[-111.25,40.39],[-111.72,41.16],[-112.21,41.92],[-112.24,42.87],[-112.27,43.82],[-112.29,44.77],[-111.8,45.65],[-111.29,46.52],[-110.76,47.4],[-110.22,48.27],[-109.65,49.14],[-109.07,50],[-108.47,50.87],[-107.67,51.55],[-106.86,52.23],[-106.02,52.9],[-105.15,53.57],[-104.26,54.23],[-103.34,54.89],[-102.01,55.42],[-100.65,55.93],[-99.26,56.43],[-97.83,56.92],[-96.36,57.38],[-94.85,57.83],[-93.31,58.27],[-91.73,58.68],[-91.73,58.68],[-90.24,59.15],[-88.72,59.59],[-87.15,60.02],[-85.54,60.44],[-83.68,60.81],[-81.78,61.16],[-79.83,61.48],[-77.85,61.78],[-75.83,62.04],[-73.77,62.28],[-71.69,62.48],[-69.58,62.65],[-67.44,62.79],[-65.29,62.9],[-63.13,62.98],[-62.75,62.99],[-61.94,62.26]]]}},{"type":"Feature","properties":{"ma":240,"type":"gpml:TopologicalClosedPlateBoundary","name":"Yukon-Tanana Plate","pid":16104,"deforming":false},"geometry":{"type":"Polygon","coordinates":[[[-48.97,46.05],[-47.55,46.06],[-47.55,46.06],[-46.93,45.21],[-46.33,44.37],[-45.82,43.65],[-45.32,42.92],[-44.83,42.2],[-44.36,41.47],[-43.9,40.74],[-43.56,40.44],[-43.56,40.44],[-43.48,39.59],[-43.4,38.74],[-43.32,37.89],[-43.25,37.04],[-43.17,36.2],[-42.99,35.23],[-42.8,34.26],[-42.63,33.29],[-42.46,32.33],[-42.49,31.41],[-42.51,30.49],[-42.54,29.57],[-42.57,28.65],[-42.5,27.89],[-42.43,27.13],[-42.43,27.13],[-42.43,27.06],[-42.37,26.14],[-42.35,25.39],[-42.32,24.63],[-42.25,23.96],[-42.25,23.96],[-42.33,23.21],[-42.41,22.45],[-42.72,21.78],[-43.03,21.1],[-43.33,20.43],[-43.83,19.81],[-44.33,19.19],[-45.2,19],[-46.06,18.81],[-46.83,18.93],[-47.61,19.04],[-48.38,19.15],[-48.38,19.15],[-48.06,19.65],[-48.06,19.65],[-47.44,19.7],[-46.82,19.74],[-46.17,20.29],[-45.52,20.83],[-45.47,21.35],[-45.42,21.86],[-45.83,22.65],[-46.24,23.43],[-46.66,24.21],[-47.08,24.99],[-47.13,25.86],[-47.19,26.73],[-47.24,27.59],[-47.3,28.46],[-47.35,29.33],[-47.41,30.2],[-47.46,31.08],[-47.51,31.97],[-47.56,32.85],[-47.62,33.74],[-47.67,34.62],[-47.73,35.51],[-47.7,36.28],[-47.67,37.05],[-47.65,37.82],[-47.62,38.59],[-47.86,39.46],[-48.11,40.32],[-48.36,41.19],[-48.62,42.06],[-48.96,42.91],[-49.32,43.76],[-49.68,44.6],[-50.06,45.45],[-50.39,46.02],[-48.97,46.05]]]}},{"type":"Feature","properties":{"ma":240,"type":"gpml:TopologicalClosedPlateBoundary","name":"Cimmerian-Neotethys Plate","pid":505,"deforming":false},"geometry":{"type":"Polygon","coordinates":[[[41.52,24.59],[42.06,25.2],[43.04,25.42],[44.03,25.64],[45.03,25.85],[45.93,25.93],[46.83,26.01],[47.73,26.09],[48.59,26.65],[49.45,27.2],[50.31,27.75],[50.62,28.45],[50.94,29.16],[51.26,29.87],[51.44,30.67],[51.63,31.47],[52.29,31.77],[52.95,32.07],[53.8,31.74],[54.63,31.4],[54.63,31.4],[55.14,32.15],[55.65,32.89],[56.29,33.61],[56.94,34.32],[57.61,35.03],[58.28,35.74],[58.97,36.44],[59.67,37.14],[60.38,37.84],[61.11,38.53],[61.85,39.21],[62.4,40.11],[62.97,41.01],[63.55,41.91],[64.15,42.81],[64.76,43.7],[65.4,44.59],[65.4,44.59],[66.36,45.04],[67.34,45.48],[68.33,45.92],[69.34,46.34],[70.5,46.86],[71.69,47.36],[72.9,47.85],[74.13,48.33],[75.38,48.8],[75.71,49.44],[76.04,50.09],[76.04,50.09],[77.37,50.09],[78.69,50.08],[80.01,50.06],[81.33,50.01],[82.54,49.84],[83.73,49.65],[84.92,49.45],[86.15,49.04],[87.36,48.63],[88.56,48.21],[88.56,48.21],[87.84,47.44],[87.15,46.68],[86.47,45.91],[85.82,45.13],[85.18,44.36],[84.55,43.58],[84.23,42.66],[83.92,41.75],[83.62,40.84],[83.33,39.92],[83.05,39.01],[82.77,38.09],[82.5,37.17],[82.23,36.25],[81.97,35.34],[81.72,34.42],[81.47,33.5],[81.23,32.58],[81,31.66],[80.76,30.74],[80.54,29.82],[80.31,28.9],[79.79,28.06],[79.28,27.22],[78.78,26.38],[78.28,25.54],[77.8,24.69],[77.31,23.85],[76.84,23],[76.37,22.15],[75.9,21.3],[75.38,20.49],[74.85,19.68],[74.33,18.87],[73.82,18.06],[73.31,17.25],[72.81,16.44],[72.31,15.62],[71.81,14.81],[71.81,14.81],[71.34,14.31],[70.87,13.82],[70.87,13.82],[71.58,13.25],[72.28,12.68],[72.98,12.11],[73.68,11.54],[74.38,10.96],[75.07,10.38],[75.76,9.8],[76.45,9.22],[77.03,8.66],[77.6,8.09],[78.17,7.53],[78.74,6.96],[79.37,6.41],[79.99,5.86],[80.62,5.3],[81.28,4.88],[81.94,4.46],[82.6,4.04],[83.26,3.61],[84.08,3.16],[84.9,2.7],[85.72,2.24],[86.54,1.78],[86.54,1.78],[87.37,2.27],[88.21,2.76],[89.04,3.25],[89.87,3.74],[90.71,4.23],[91.55,4.72],[92.38,5.21],[93.22,5.7],[93.78,6.12],[93.78,6.12],[94.75,6.22],[95.72,6.31],[96.55,6.55],[97.39,6.8],[98.22,7.04],[99.06,7.29],[99.89,7.53],[100.73,7.83],[101.57,8.12],[102.41,8.42],[103.26,8.71],[104.1,9.01],[104.91,9.56],[105.73,10.11],[106.55,10.66],[107.37,11.21],[108.19,11.75],[109.05,12.24],[109.92,12.73],[110.78,13.21],[111.65,13.69],[112.53,14.17],[113.41,14.65],[113.41,14.65],[113.4,14.47],[113.98,13.82],[114.56,13.17],[115.14,12.51],[115.71,11.86],[116.28,11.2],[116.85,10.54],[117.4,10.01],[117.95,9.47],[118.5,8.93],[119.35,8.64],[120.2,8.34],[121.05,8.05],[121.53,7.45],[122,6.86],[122.47,6.26],[123.13,5.59],[123.79,4.92],[124.23,4.08],[124.67,3.24],[125.19,2.4],[125.19,2.4],[125.64,1.65],[126.1,0.9],[126.19,-0.09],[126.27,-1.08],[126.36,-2.08],[126.45,-3.07],[125.92,-3.72],[125.39,-4.37],[124.85,-5.02],[124.32,-5.67],[123.79,-6.31],[123.24,-6.97],[122.69,-7.63],[122.14,-8.28],[121.59,-8.94],[120.98,-9.51],[120.37,-10.08],[119.76,-10.66],[119.14,-11.23],[118.77,-11.87],[118.77,-11.87],[117.99,-11.77],[117.21,-11.66],[116.44,-11.55],[116.44,-11.55],[116.47,-12.55],[116.51,-13.54],[116.5,-14.31],[116.5,-14.31],[116.04,-14.3],[115.83,-15.14],[115.63,-15.98],[115.42,-16.83],[115.21,-17.67],[114.25,-17.66],[113.3,-17.64],[113.2,-18.46],[113.11,-19.28],[113.02,-20.1],[112.13,-20.03],[111.24,-19.95],[110.36,-19.86],[110.11,-20.77],[109.86,-21.69],[109.61,-22.6],[109.36,-23.51],[109.1,-24.42],[108.27,-24.3],[107.44,-24.18],[106.62,-24.06],[105.8,-23.93],[105.51,-24.79],[105.22,-25.64],[104.92,-26.49],[104.62,-27.34],[104.31,-28.2],[104,-29.05],[102.96,-28.96],[101.93,-28.87],[100.89,-28.77],[99.86,-28.66],[98.83,-28.54],[98.49,-29.3],[98.14,-30.07],[97.78,-30.83],[97.42,-31.59],[96.42,-31.26],[95.42,-30.92],[94.43,-30.57],[93.44,-30.21],[92.96,-31.12],[92.46,-32.02],[91.96,-32.92],[91.44,-33.82],[90.91,-34.71],[90.37,-35.61],[89.82,-36.5],[89.82,-36.5],[88.61,-36.4],[87.41,-36.29],[86.2,-36.17],[85,-36.04],[83.81,-35.89],[82.61,-35.76],[81.41,-35.62],[80.22,-35.46],[79.04,-35.29],[77.85,-35.11],[76.68,-34.92],[75.51,-34.72],[75.67,-34.22],[75.82,-33.72],[74.76,-33.33],[73.7,-32.93],[72.66,-32.53],[71.62,-32.11],[70.6,-31.69],[69.58,-31.26],[68.57,-30.82],[67.58,-30.38],[66.59,-29.93],[65.61,-29.46],[64.64,-29],[63.67,-28.52],[62.72,-28.04],[61.78,-27.55],[60.84,-27.06],[60.84,-27.06],[61.28,-26.28],[61.71,-25.49],[62.13,-24.71],[62.55,-23.92],[61.6,-23.47],[60.66,-23.01],[59.72,-22.55],[58.79,-22.08],[57.87,-21.61],[56.95,-21.13],[56.04,-20.64],[55.13,-20.16],[54.24,-19.66],[53.34,-19.17],[52.45,-18.67],[51.57,-18.16],[50.69,-17.65],[51.11,-16.81],[50.32,-16.31],[49.54,-15.8],[48.76,-15.28],[47.99,-14.77],[47.21,-14.25],[46.45,-13.73],[45.68,-13.21],[46.14,-12.5],[45.41,-11.89],[44.69,-11.28],[43.96,-10.68],[43.24,-10.07],[42.52,-9.45],[41.81,-8.84],[41.1,-8.23],[40.39,-7.61],[39.68,-6.99],[38.97,-6.38],[38.26,-5.76],[37.56,-5.14],[37.56,-5.14],[38.18,-4.39],[38.8,-3.63],[39.42,-2.88],[40.03,-2.13],[40.65,-1.38],[41.27,-0.63],[40.45,-0.1],[39.64,0.43],[38.82,0.96],[38,1.49],[37.19,2.02],[36.46,2.54],[35.74,3.05],[35.02,3.57],[34.29,4.08],[33.56,4.6],[33.13,4.03],[32.7,3.46],[31.97,3.89],[31.25,4.31],[30.52,4.74],[30.18,4.28],[29.84,3.82],[29.02,4.39],[28.19,4.95],[27.37,5.51],[26.55,6.08],[25.72,6.64],[24.89,7.2],[24.06,7.75],[23.23,8.31],[22.44,8.87],[21.64,9.42],[21.64,9.42],[21.85,10.1],[22.07,10.78],[22.29,11.46],[22.72,12.08],[23.15,12.7],[23.58,13.32],[23.58,13.32],[24.48,13.42],[25.38,13.53],[26.28,13.63],[27.18,13.72],[28.1,13.98],[29.03,14.23],[29.96,14.49],[30.89,14.73],[31.82,14.98],[32.75,15.22],[33.69,15.46],[34.45,15.87],[35.22,16.29],[35.99,16.7],[36.77,17.12],[37.55,17.52],[38.36,17.98],[39.17,18.44],[39.98,18.89],[40.8,19.34],[41.55,20.02],[42.3,20.7],[43.07,21.37],[43.84,22.04],[44.61,22.71],[44.61,22.71],[43.79,23.24],[42.96,23.77],[42.24,24.18],[41.52,24.59]]]}},{"type":"Feature","properties":{"ma":240,"type":"gpml:TopologicalClosedPlateBoundary","name":"Farallon Plate","pid":902,"deforming":false},"geometry":{"type":"Polygon","coordinates":[[[-62.43,-37.95],[-63.68,-38.01],[-64.94,-38.05],[-66.2,-38.08],[-67.46,-38.1],[-68.72,-38.1],[-69.97,-38.09],[-71.23,-38.07],[-72.49,-38.03],[-73.74,-37.99],[-75,-37.92],[-76.25,-37.85],[-77.5,-37.76],[-78.74,-37.65],[-79.99,-37.54],[-81.22,-37.41],[-82.46,-37.27],[-83.68,-37.12],[-84.91,-36.95],[-86.13,-36.77],[-87.34,-36.58],[-87.35,-35.91],[-87.37,-35.23],[-87.39,-34.56],[-88.5,-34.35],[-89.6,-34.12],[-90.7,-33.88],[-91.79,-33.64],[-92.87,-33.38],[-93.95,-33.12],[-95.02,-32.84],[-96.08,-32.56],[-97.14,-32.27],[-98.19,-31.97],[-99.23,-31.66],[-100.27,-31.34],[-101.3,-31.01],[-102.32,-30.68],[-103.34,-30.34],[-104.35,-29.99],[-104.01,-29.23],[-103.67,-28.46],[-104.66,-28.14],[-105.63,-27.82],[-106.6,-27.49],[-107.57,-27.15],[-108.53,-26.81],[-109.48,-26.46],[-110.43,-26.1],[-111.37,-25.74],[-112.31,-25.37],[-113.24,-25],[-114.16,-24.61],[-113.73,-23.73],[-113.31,-22.84],[-114.21,-22.45],[-115.1,-22.06],[-115.99,-21.67],[-116.87,-21.27],[-117.75,-20.86],[-118.63,-20.45],[-119.5,-20.04],[-120.36,-19.62],[-121.22,-19.2],[-122.07,-18.77],[-122.93,-18.34],[-122.59,-17.72],[-122.25,-17.1],[-121.92,-16.48],[-122.82,-15.99],[-123.72,-15.51],[-124.62,-15.01],[-125.51,-14.51],[-126.39,-14.01],[-127.28,-13.51],[-128.15,-13],[-129.03,-12.49],[-129.9,-11.98],[-130.77,-11.47],[-131.63,-10.95],[-132.5,-10.43],[-133.36,-9.91],[-134.21,-9.38],[-135.07,-8.86],[-135.92,-8.33],[-136.77,-7.8],[-137.61,-7.27],[-138.46,-6.73],[-139.3,-6.2],[-140.05,-5.68],[-140.8,-5.15],[-141.55,-4.63],[-142.3,-4.11],[-143.05,-3.58],[-143.05,-3.58],[-143.24,-2.63],[-143.42,-1.68],[-143.61,-0.73],[-143.79,0.22],[-143.98,1.17],[-144.17,2.12],[-144.35,3.07],[-144.54,4.02],[-144.73,4.97],[-143.75,5.12],[-142.77,5.28],[-141.79,5.43],[-141.91,6.41],[-142.04,7.39],[-142.17,8.37],[-142.3,9.36],[-142.43,10.34],[-142.57,11.32],[-142.7,12.3],[-142.83,13.29],[-142.97,14.27],[-143.1,15.25],[-143.24,16.23],[-143.38,17.22],[-143.52,18.2],[-143.66,19.18],[-143.8,20.16],[-142.87,20.28],[-141.94,20.4],[-141.01,20.51],[-141.16,21.49],[-141.31,22.48],[-141.46,23.46],[-141.62,24.45],[-141.78,25.43],[-141.94,26.42],[-142.1,27.4],[-142.27,28.39],[-142.44,29.37],[-142.61,30.35],[-142.79,31.34],[-142.97,32.32],[-143.15,33.31],[-143.34,34.29],[-143.53,35.27],[-143.73,36.25],[-143.93,37.24],[-144.14,38.22],[-144.35,39.2],[-144.57,40.18],[-143.29,40.36],[-141.99,40.52],[-140.7,40.67],[-140.88,41.64],[-141.07,42.62],[-141.26,43.59],[-141.46,44.56],[-141.67,45.54],[-141.88,46.51],[-142.1,47.48],[-142.33,48.45],[-142.57,49.42],[-142.82,50.39],[-143.08,51.36],[-143.35,52.33],[-143.63,53.3],[-143.93,54.27],[-144.24,55.24],[-142.9,55.44],[-141.55,55.62],[-140.19,55.79],[-140.56,56.74],[-140.95,57.69],[-141.35,58.63],[-141.78,59.57],[-142.24,60.52],[-142.72,61.46],[-143.24,62.39],[-143.78,63.33],[-144.37,64.26],[-144.99,65.2],[-145.66,66.12],[-146.38,67.05],[-147.16,67.97],[-148,68.89],[-148.91,69.81],[-149.91,70.71],[-151,71.62],[-152.2,72.51],[-152.2,72.51],[-150.62,72.84],[-148.24,73.51],[-145.67,74.15],[-142.89,74.77],[-139.89,75.34],[-136.66,75.87],[-133.19,76.36],[-129.49,76.79],[-125.56,77.17],[-121.41,77.49],[-117.07,77.74],[-112.58,77.92],[-107.99,78.02],[-103.43,78.22],[-98.74,78.34],[-93.99,78.39],[-89.23,78.35],[-84.53,78.24],[-79.95,78.06],[-75.53,77.8],[-71.31,77.48],[-67.32,77.09],[-63.58,76.65],[-60.08,76.15],[-60.08,76.15],[-61.64,75.27],[-63.02,74.38],[-64.26,73.49],[-65.37,72.58],[-66.38,71.67],[-66.52,70.99],[-66.65,70.3],[-66.77,69.61],[-66.17,68.75],[-65.61,67.88],[-65.1,67.01],[-64.62,66.13],[-64.17,65.26],[-63.75,64.38],[-63.36,63.51],[-62.75,62.99],[-62.75,62.99],[-63.13,62.98],[-65.29,62.9],[-67.44,62.79],[-69.58,62.65],[-71.69,62.48],[-73.77,62.28],[-75.83,62.04],[-77.85,61.78],[-79.83,61.48],[-81.78,61.16],[-83.68,60.81],[-85.54,60.44],[-87.15,60.02],[-88.72,59.59],[-90.24,59.15],[-91.73,58.68],[-91.73,58.68],[-93.31,58.27],[-94.85,57.83],[-96.36,57.38],[-97.83,56.92],[-99.26,56.43],[-100.65,55.93],[-102.01,55.42],[-103.34,54.89],[-104.26,54.23],[-105.15,53.57],[-106.02,52.9],[-106.86,52.23],[-107.67,51.55],[-108.47,50.87],[-109.07,50],[-109.65,49.14],[-110.22,48.27],[-110.76,47.4],[-111.29,46.52],[-111.8,45.65],[-112.29,44.77],[-112.27,43.82],[-112.24,42.87],[-112.21,41.92],[-111.72,41.16],[-111.25,40.39],[-110.78,39.63],[-110.33,38.86],[-109.69,38.2],[-109.07,37.54],[-108.46,36.88],[-107.86,36.22],[-107.27,35.55],[-106.34,34.9],[-105.44,34.24],[-104.54,33.58],[-103.66,32.91],[-102.79,32.23],[-101.91,31.61],[-101.03,30.98],[-100.17,30.35],[-99.32,29.72],[-98.48,29.08],[-97.65,28.43],[-96.83,27.78],[-96.02,27.12],[-95.62,26.86],[-95.62,26.86],[-95.12,27.68],[-94.6,28.5],[-94.08,29.32],[-93.55,30.13],[-93.02,30.95],[-92.47,31.76],[-91.72,32.45],[-90.95,33.13],[-90.18,33.81],[-89.39,34.48],[-88.59,35.15],[-87.77,35.82],[-86.94,36.48],[-85.94,36.94],[-84.92,37.4],[-83.9,37.85],[-82.86,38.29],[-81.8,38.72],[-80.74,39.14],[-79.66,39.55],[-78.57,39.95],[-77.47,40.34],[-76.37,40.74],[-75.26,41.12],[-74.14,41.49],[-73,41.86],[-71.86,42.21],[-70.69,42.55],[-69.52,42.87],[-68.25,43.24],[-66.97,43.59],[-65.67,43.93],[-64.36,44.25],[-63.03,44.55],[-61.69,44.85],[-60.48,45.05],[-59.27,45.24],[-58.05,45.41],[-56.82,45.57],[-55.59,45.72],[-54.35,45.86],[-53.03,45.93],[-51.71,45.98],[-50.39,46.02],[-50.39,46.02],[-50.06,45.45],[-49.68,44.6],[-49.32,43.76],[-48.96,42.91],[-48.62,42.06],[-48.36,41.19],[-48.11,40.32],[-47.86,39.46],[-47.62,38.59],[-47.65,37.82],[-47.67,37.05],[-47.7,36.28],[-47.73,35.51],[-47.67,34.62],[-47.62,33.74],[-47.56,32.85],[-47.51,31.97],[-47.46,31.08],[-47.41,30.2],[-47.35,29.33],[-47.3,28.46],[-47.24,27.59],[-47.19,26.73],[-47.13,25.86],[-47.08,24.99],[-46.66,24.21],[-46.24,23.43],[-45.83,22.65],[-45.42,21.86],[-45.47,21.35],[-45.52,20.83],[-46.17,20.29],[-46.82,19.74],[-47.44,19.7],[-48.06,19.65],[-48.06,19.65],[-48.5,18.97],[-49.07,18.28],[-49.64,17.58],[-50.21,16.88],[-50.77,16.18],[-51.17,15.39],[-51.57,14.59],[-51.97,13.8],[-52.01,12.88],[-52.06,11.97],[-52.11,11.06],[-52.16,10.14],[-51.97,9.26],[-51.77,8.38],[-51.58,7.5],[-51.39,6.62],[-51.19,5.81],[-50.99,5],[-50.79,4.18],[-50.59,3.37],[-50.59,3.37],[-50.71,3.27],[-50.98,2.39],[-51.25,1.5],[-51.51,0.62],[-51.78,-0.27],[-52.04,-1.16],[-52.04,-1.16],[-52.37,-1.49],[-52.92,-1.93],[-53.48,-2.37],[-53.88,-2.72],[-54.29,-3.06],[-54.59,-3.77],[-54.88,-4.48],[-55.18,-5.2],[-55.41,-5.98],[-55.63,-6.77],[-55.86,-7.56],[-56.04,-8.31],[-56.22,-9.05],[-56.4,-9.8],[-56.52,-10.55],[-56.64,-11.29],[-56.27,-11.93],[-55.89,-12.58],[-55.7,-13.27],[-55.51,-13.96],[-55.32,-14.65],[-55.07,-15.3],[-54.81,-15.95],[-54.61,-16.32],[-54.61,-16.32],[-54.63,-16.34],[-54.84,-16.64],[-55.09,-16.97],[-55.19,-17.2],[-55.31,-17.38],[-55.48,-17.72],[-55.63,-17.97],[-55.74,-18.2],[-55.87,-18.46],[-56.28,-19.23],[-56.7,-20],[-57.12,-20.77],[-57.54,-21.53],[-57.97,-22.3],[-57.99,-23.17],[-58.01,-24.03],[-58.03,-24.9],[-58.01,-25.77],[-58,-26.63],[-57.99,-27.49],[-57.98,-28.35],[-57.96,-29.21],[-57.95,-30.07],[-57.81,-30.9],[-57.67,-31.73],[-57.53,-32.56],[-57.41,-33.26],[-57.3,-33.95],[-57.18,-34.65],[-56.65,-35.47],[-56.62,-36],[-56.59,-36.53],[-56.51,-37.28],[-56.59,-37.83],[-56.58,-38.2],[-56.6,-38.48],[-56.6,-38.48],[-56.6,-38.52],[-57.77,-38.43],[-58.94,-38.32],[-60.11,-38.21],[-61.27,-38.08],[-62.43,-37.95]]]}},{"type":"Feature","properties":{"ma":240,"type":"gpml:TopologicalNetwork","name":"Central_Atlantic_Mesh","pid":101,"deforming":true},"geometry":{"type":"Polygon","coordinates":[[[1.7,-0.57],[1.09,-0.82],[0.51,-1.06],[-0.18,-1.35],[-0.78,-1.6],[-1.28,-1.8],[-1.74,-1.99],[-2.28,-2.21],[-2.89,-2.46],[-3.44,-2.3],[-4.03,-2.22],[-4.37,-2.06],[-4.7,-1.9],[-5.2,-1.74],[-5.64,-1.48],[-6.25,-1.32],[-6.7,-1.4],[-7.34,-1.68],[-8.15,-1.82],[-8.87,-1.98],[-9.4,-2.28],[-10.29,-2.58],[-10.72,-2.92],[-11.49,-3.33],[-12.21,-3.65],[-12.77,-3.57],[-12.92,-3.48],[-13.44,-3.46],[-14.38,-3.44],[-15.27,-3.29],[-15.4,-3.39],[-15.87,-3.61],[-16.35,-3.83],[-16.69,-4.27],[-17.03,-4.71],[-17.28,-5.15],[-17.54,-5.59],[-17.77,-6.21],[-18.1,-6.75],[-18.49,-7.3],[-18.7,-7.5],[-18.96,-7.74],[-19.08,-8.17],[-19.16,-8.61],[-19.22,-9.39],[-19.45,-9.82],[-19.67,-10.19],[-19.98,-10.4],[-20.18,-10.67],[-20.32,-10.93],[-20.54,-11.28],[-20.99,-11.26],[-21.42,-11.25],[-22.04,-11.52],[-22.43,-11.83],[-22.71,-12.19],[-22.91,-12.97],[-23.13,-13.86],[-23.13,-14.45],[-22.81,-15.07],[-22.81,-15.07],[-23,-15.02],[-23.5,-14.74],[-23.71,-14.69],[-23.71,-14.69],[-24.08,-15.17],[-24.45,-15.66],[-24.46,-15.66],[-24.46,-15.66],[-24.46,-15.65],[-24.53,-15.37],[-24.48,-15.12],[-24.48,-14.87],[-24.63,-14.59],[-24.64,-14.43],[-24.6,-14.32],[-24.66,-14.13],[-24.76,-14.03],[-24.88,-13.92],[-24.97,-13.77],[-25.17,-13.51],[-25.43,-13.19],[-25.58,-12.97],[-25.54,-12.72],[-25.44,-12.36],[-25.45,-12.18],[-25.66,-12.07],[-25.78,-11.8],[-25.89,-11.66],[-26.02,-11.64],[-26.18,-11.3],[-26.31,-10.95],[-26.47,-10.63],[-26.54,-10.26],[-26.7,-9.89],[-26.84,-9.54],[-26.9,-9.32],[-26.94,-9.08],[-27,-8.85],[-27,-8.85],[-26.96,-8.81],[-26.58,-8.49],[-26.21,-8.2],[-26.09,-8],[-25.76,-7.9],[-25.44,-7.81],[-24.93,-7.66],[-24.3,-7.52],[-23.66,-7.37],[-23.12,-6.94],[-22.67,-6.49],[-22.48,-5.72],[-22.32,-5.1],[-21.7,-4.77],[-20.95,-4.22],[-20.62,-3.91],[-20.15,-3.43],[-19.69,-2.94],[-19.44,-2.49],[-19.29,-2.05],[-18.88,-1.88],[-18.76,-1.77],[-18.52,-1.78],[-18.22,-1.85],[-17.94,-1.85],[-17.49,-1.69],[-17.25,-1.65],[-17.07,-1.64],[-16.77,-1.37],[-16.46,-1.09],[-16,-0.94],[-15.67,-0.61],[-15.5,-0.04],[-15.26,0.06],[-14.88,-0.06],[-14.38,0.23],[-13.92,0.27],[-13.18,0.37],[-12.41,0.55],[-11.91,0.73],[-11.16,0.9],[-10.68,1.23],[-10.03,1.67],[-9.47,1.97],[-8.94,2.14],[-8.33,2.31],[-8.01,2.36],[-7.53,2.29],[-6.88,2.28],[-6.32,2.38],[-5.85,2.45],[-5.36,2.49],[-4.85,2.52],[-4.46,2.53],[-4.46,2.53],[-3.89,2.06],[-3.32,1.6],[-2.75,1.13],[-1.9,0.81],[-1.06,0.49],[-0.22,0.17],[0.48,-0.05],[1.17,-0.28],[1.86,-0.5],[1.7,-0.57]]]}},{"type":"Feature","properties":{"ma":240,"type":"gpml:TopologicalNetwork","name":"Proto_Caribbean_Mesh","pid":101,"deforming":true},"geometry":{"type":"Polygon","coordinates":[[[-27.65,-9.49],[-27.36,-9.2],[-27,-8.85],[-27,-8.85],[-26.94,-9.08],[-26.9,-9.32],[-26.84,-9.54],[-26.7,-9.89],[-26.54,-10.26],[-26.47,-10.63],[-26.31,-10.95],[-26.18,-11.3],[-26.02,-11.64],[-25.89,-11.66],[-25.78,-11.8],[-25.66,-12.07],[-25.45,-12.18],[-25.44,-12.36],[-25.54,-12.72],[-25.58,-12.97],[-25.43,-13.19],[-25.17,-13.51],[-24.97,-13.77],[-24.88,-13.92],[-24.76,-14.03],[-24.66,-14.13],[-24.6,-14.32],[-24.64,-14.43],[-24.63,-14.59],[-24.48,-14.87],[-24.48,-15.12],[-24.53,-15.37],[-24.46,-15.65],[-24.46,-15.66],[-24.46,-15.66],[-25.28,-15.85],[-26.1,-16.04],[-26.92,-16.23],[-27.55,-16.43],[-28.17,-16.63],[-28.77,-16.61],[-29.36,-16.59],[-29.89,-16.54],[-30.42,-16.48],[-31.34,-16.17],[-32.14,-16.08],[-32.95,-15.98],[-33.64,-15.85],[-34.33,-15.73],[-35.02,-15.6],[-35.79,-15.72],[-36.56,-15.85],[-37.21,-16.31],[-37.86,-16.77],[-38.49,-16.85],[-39.12,-16.92],[-39.66,-17.02],[-40.19,-17.12],[-40.78,-17.18],[-41.37,-17.25],[-42.03,-17.45],[-42.68,-17.64],[-43.37,-17.97],[-44.06,-18.29],[-44.84,-18.63],[-45.62,-18.96],[-46.48,-19.09],[-47.34,-19.21],[-48.23,-18.94],[-49.11,-18.66],[-49.78,-18.27],[-50.45,-17.87],[-50.97,-17.63],[-51.49,-17.39],[-52.08,-17.25],[-52.68,-17.09],[-53.26,-17.15],[-53.84,-17.21],[-54.16,-17.17],[-54.16,-17.17],[-54.48,-16.56],[-54.81,-15.95],[-55.07,-15.3],[-55.32,-14.65],[-55.51,-13.96],[-55.7,-13.27],[-55.89,-12.58],[-56.27,-11.93],[-56.64,-11.29],[-56.62,-11.13],[-56.62,-11.13],[-55.71,-11.07],[-54.74,-10.93],[-53.77,-10.78],[-52.99,-10.62],[-52.21,-10.46],[-51.24,-10.29],[-50.26,-10.12],[-49.46,-9.99],[-48.66,-9.86],[-47.96,-9.37],[-47.27,-8.89],[-46.64,-8.53],[-45.97,-7.81],[-45.57,-7.45],[-45.17,-7.09],[-44.89,-6.4],[-44.15,-5.76],[-43.41,-5.12],[-42.67,-4.48],[-41.98,-4.09],[-41.29,-3.7],[-40.6,-3.31],[-40.08,-3.35],[-39.56,-3.4],[-38.56,-3.39],[-38.05,-3.56],[-37.55,-3.72],[-36.83,-3.91],[-36.12,-4.1],[-35.32,-4.67],[-34.85,-4.94],[-34.38,-5.21],[-33.9,-5.44],[-33.41,-5.68],[-32.91,-5.96],[-32.42,-6.25],[-31.74,-6.61],[-31.09,-7.14],[-30.36,-7.58],[-29.63,-8.02],[-29.11,-8.49],[-28.59,-8.96],[-27.85,-9.6],[-27.85,-9.62],[-27.65,-9.49]]]}}]}