{"type":"FeatureCollection","features":[{"type":"Feature","properties":{"ma":205,"type":"gpml:TopologicalClosedPlateBoundary","name":"Junction Plate North","pid":498,"deforming":false},"geometry":{"type":"Polygon","coordinates":[[[113.07,-17.07],[113.11,-16.14],[113.14,-15.21],[113.17,-14.28],[113.2,-13.36],[113.23,-12.43],[113.26,-11.5],[113.29,-10.57],[113.31,-9.65],[113.34,-8.72],[113.45,-8.04],[113.55,-7.36],[113.66,-6.68],[113.66,-6.68],[114.6,-6.9],[115.54,-7.12],[116.49,-7.33],[117.43,-7.55],[118.38,-7.76],[119.33,-7.97],[120.28,-8.17],[121.23,-8.38],[122.18,-8.58],[123.04,-9.09],[123.91,-9.61],[124.78,-10.12],[125.66,-10.63],[126.53,-11.13],[127.41,-11.63],[128.3,-12.14],[129.23,-12.53],[130.16,-12.93],[131.1,-13.32],[132.04,-13.71],[132.98,-14.09],[132.98,-14.09],[133.3,-15.01],[133.62,-15.92],[133.94,-16.84],[134.27,-17.75],[134.6,-18.67],[134.93,-19.58],[135.27,-20.49],[135.61,-21.41],[135.96,-22.32],[135.95,-22.97],[135.95,-22.97],[134.96,-23.08],[133.97,-23.19],[132.98,-23.29],[131.99,-23.38],[130.99,-23.47],[129.99,-23.55],[129,-23.62],[128,-23.69],[127.93,-23.01],[127.86,-22.33],[126.9,-22.33],[125.94,-22.32],[124.99,-22.31],[124.03,-22.29],[123.07,-22.27],[122.11,-22.24],[121.16,-22.2],[121.07,-21.24],[120.99,-20.27],[120.9,-19.31],[120.82,-18.34],[120.74,-17.37],[119.78,-17.35],[118.82,-17.32],[117.86,-17.29],[116.9,-17.26],[115.94,-17.22],[114.99,-17.17],[114.03,-17.12],[113.07,-17.07]]]}},{"type":"Feature","properties":{"ma":205,"type":"gpml:TopologicalClosedPlateBoundary","name":"Mongol-Okhotsk Ocean","pid":380,"deforming":false},"geometry":{"type":"Polygon","coordinates":[[[-180,76.71],[-180,77.66],[-180,78.61],[-180,79.56],[-180,80.51],[-180,81.46],[-180,82.41],[-180,83.36],[-180,84.31],[-180,85.25],[-180,86.2],[-180,87.15],[-180,88.1],[-180,89.05],[-180,90],[180,90],[180,89.05],[180,88.1],[180,87.15],[180,86.2],[180,85.25],[180,84.31],[180,83.36],[180,82.41],[180,81.46],[180,80.51],[180,79.56],[180,78.61],[180,77.66],[180,76.71],[180,75.76],[178.19,74.89],[176.58,74],[175.14,73.1],[173.84,72.19],[172.66,71.27],[171.59,70.35],[170.61,69.42],[169.71,68.48],[168.88,67.55],[168.12,66.6],[167.41,65.66],[165.92,65.04],[164.5,64.41],[163.14,63.77],[161.84,63.12],[160.6,62.45],[159.42,61.78],[158.28,61.09],[157.16,60.46],[156.08,59.81],[155.04,59.15],[154.04,58.49],[153.07,57.82],[151.52,57.49],[150,57.15],[148.51,56.78],[147.05,56.4],[145.62,56.01],[144.68,55.59],[143.77,55.16],[142.87,54.73],[141.17,54.76],[139.46,54.76],[137.76,54.73],[136.57,54.61],[135.51,54.05],[134.09,53.96],[132.69,53.85],[131.48,53.78],[130.28,53.69],[129.34,53.72],[128.4,53.75],[127.31,53.8],[126.21,53.84],[126.21,53.84],[125.13,53.51],[124.06,53.17],[122.5,52.94],[121.53,52.93],[120.55,52.91],[120.03,52.88],[119.29,52.1],[118.19,52.02],[116.82,52.22],[115.59,52.49],[114.33,52.75],[113.06,53],[111.78,53.23],[110.25,53.4],[108.71,53.55],[107.81,53.41],[106.92,53.26],[105.34,53.29],[104.48,53.13],[103.62,52.97],[102.4,52.48],[101.2,51.98],[99.92,51.52],[98.65,51.04],[97.32,50.75],[96,50.46],[94.52,50.35],[93.05,50.24],[91.77,50.15],[90.5,50.05],[89.23,49.94],[87.7,49.83],[86.17,49.7],[84.65,49.55],[84.65,49.55],[83.87,48.72],[83.11,47.88],[82.38,47.04],[81.67,46.2],[80.98,45.35],[80.31,44.5],[79.05,44.2],[77.8,43.88],[76.57,43.55],[75.35,43.21],[74.14,42.86],[73.1,42.57],[72.06,42.27],[71.04,41.97],[70.02,41.65],[70.02,41.65],[70.6,42.19],[71.19,42.73],[71.78,43.26],[72.57,43.89],[73.37,44.52],[74.18,45.13],[75.02,45.74],[75.87,46.35],[76.75,46.95],[77.49,47.6],[78.26,48.24],[79.04,48.88],[79.85,49.51],[80.67,50.14],[81.82,50.64],[82.98,51.13],[84.18,51.61],[85.39,52.08],[86.64,52.53],[87.91,52.97],[89.2,53.4],[90.52,53.81],[91.51,54.58],[92.54,55.34],[93.61,56.08],[94.72,56.82],[95.88,57.55],[97.08,58.27],[98.34,58.97],[99.64,59.67],[101,60.35],[102.41,61.01],[102.41,61.01],[100.91,61.52],[99.37,62.01],[97.77,62.48],[96.12,62.93],[94.42,63.37],[92.67,63.78],[91.34,64.54],[89.94,65.29],[88.45,66.03],[86.88,66.75],[85.22,67.46],[83.45,68.14],[81.58,68.81],[79.59,69.45],[77.5,69.82],[75.33,70.15],[73.09,70.46],[70.79,70.74],[68.42,70.99],[68.42,70.99],[67.91,71.92],[67.34,72.84],[66.7,73.76],[65.99,74.68],[65.2,75.6],[64.3,76.51],[63.27,77.43],[62.08,78.33],[60.69,79.23],[59.06,80.13],[57.11,81.01],[55.09,81.86],[52.6,82.69],[49.49,83.51],[45.5,84.3],[40.27,85.05],[33.24,85.75],[23.65,86.37],[10.72,86.84],[-5.6,87.11],[-18.77,86.96],[-18.77,86.96],[-26.07,86.49],[-31.58,85.98],[-40.18,85.35],[-46.65,84.65],[-50.87,83.92],[-54.17,83.16],[-55.74,82.66],[-57.1,82.16],[-57.1,82.16],[-61.41,82.72],[-66.39,83.22],[-72.12,83.67],[-78.65,84.05],[-87.54,84.49],[-97.68,84.78],[-108.63,84.89],[-119.65,84.81],[-129.98,84.56],[-139.11,84.14],[-146.87,83.59],[-153.32,82.95],[-158.65,82.24],[-163.05,81.47],[-166.71,80.66],[-169.78,79.82],[-172.38,78.95],[-174.61,78.06],[-176.53,77.16],[-178.35,76.47],[-180,75.76],[-180,76.71]]]}},{"type":"Feature","properties":{"ma":205,"type":"gpml:TopologicalClosedPlateBoundary","name":"North America","pid":101,"deforming":false},"geometry":{"type":"Polygon","coordinates":[[[-46.29,56.13],[-47.23,56.57],[-48.19,57],[-49.17,57.42],[-50.22,58.04],[-51.32,58.65],[-52.45,59.25],[-53.61,59.84],[-54.93,60.51],[-56.3,61.17],[-57.73,61.82],[-58.64,62.35],[-59.59,62.88],[-59.59,62.88],[-58.13,63.43],[-56.62,63.96],[-55.23,64.33],[-53.8,64.69],[-52.34,65.03],[-50.24,65.4],[-48.08,65.73],[-46.57,65.98],[-45.03,66.22],[-43.46,66.44],[-41.59,66.82],[-39.67,67.18],[-37.69,67.52],[-36.17,67.87],[-34.61,68.2],[-33.01,68.52],[-30.83,68.7],[-28.62,68.85],[-26.38,68.98],[-23.82,69.36],[-21.17,69.7],[-19.14,70.13],[-17.02,70.54],[-14.82,70.92],[-14.82,70.92],[-13.98,70.09],[-13.21,69.26],[-12.5,68.43],[-11.83,67.59],[-11.43,66.75],[-11.06,65.91],[-10.71,65.07],[-10.38,64.23],[-10.38,64.23],[-10.93,64.25],[-10.93,64.25],[-10.49,63.42],[-10.06,62.58],[-9.66,61.75],[-9.28,60.91],[-8.92,60.07],[-8.58,59.23],[-8.22,58.4],[-7.87,57.56],[-7.54,56.73],[-7.22,55.9],[-6.92,55.06],[-6.56,54.36],[-6.21,53.65],[-5.88,52.94],[-6.37,52.35],[-6,51.4],[-5.65,50.45],[-5.31,49.5],[-4.98,48.55],[-4.67,47.59],[-4.8,46.61],[-4.93,45.63],[-5.06,44.64],[-5.18,43.66],[-4.26,43.42],[-3.35,43.17],[-2.44,42.92],[-1.34,42.74],[-0.26,42.55],[0.83,42.35],[1.92,42.61],[3.02,42.85],[3.84,42.56],[4.66,42.26],[5.21,41.46],[5.75,40.66],[5.69,39.97],[5.63,39.28],[5.81,38.52],[5.98,37.75],[6.01,36.8],[6.03,35.84],[6.18,35.07],[6.32,34.31],[6.85,33.69],[7.13,33.11],[7.4,32.53],[7.49,32],[7.59,31.46],[7.45,30.81],[7.32,30.15],[7,29.6],[6.67,29.06],[6.25,28.33],[5.83,27.61],[5.27,27.04],[4.72,26.46],[3.81,26],[2.91,25.54],[2.5,24.76],[2.1,23.98],[1.7,23.2],[1.3,22.42],[0.88,21.58],[0.46,20.74],[0.05,19.9],[-0.2,19.12],[-0.44,18.74],[0.06,17.99],[0.57,17.23],[1.07,16.47],[1.67,16.85],[2.25,16.13],[2.83,15.42],[3.4,14.7],[3.98,13.98],[3.55,13.33],[3.12,12.69],[2.7,12.04],[1.96,11.39],[1.23,10.74],[0.5,10.1],[-0.26,9.5],[-1.02,8.9],[-1.77,8.3],[-2.53,7.69],[-2.88,7.14],[-2.88,7.14],[-2.88,7.17],[-2.86,7.39],[-2.99,7.42],[-3.04,7.41],[-3.35,7.24],[-3.48,7.46],[-3.5,7.66],[-3.19,7.65],[-3.04,7.76],[-2.98,7.87],[-3.24,8.05],[-3.41,8.23],[-3.53,8.33],[-3.66,8.47],[-3.88,8.56],[-4.05,8.77],[-4.39,8.88],[-5.16,8.99],[-5.83,9.16],[-6.55,9.33],[-7.18,9.37],[-7.7,9.38],[-8.2,9.38],[-8.68,9.35],[-9.25,9.3],[-9.91,9.37],[-10.39,9.47],[-10.72,9.45],[-11.35,9.33],[-11.89,9.2],[-12.48,8.95],[-13.17,8.56],[-13.68,8.27],[-14.45,8.14],[-14.96,8.01],[-15.75,7.88],[-16.51,7.83],[-16.98,7.82],[-17.49,7.56],[-17.87,7.71],[-18.12,7.63],[-18.33,7.07],[-18.68,6.76],[-19.15,6.64],[-19.48,6.38],[-19.8,6.12],[-19.97,6.13],[-20.22,6.1],[-20.68,5.97],[-20.96,5.98],[-21.26,6.07],[-21.5,6.09],[-21.63,5.99],[-22.04,5.84],[-22.22,5.41],[-22.5,4.97],[-22.99,4.51],[-23.48,4.06],[-23.83,3.77],[-24.6,3.25],[-25.23,2.95],[-25.42,2.34],[-25.64,1.58],[-26.11,1.15],[-26.67,0.74],[-27.3,0.62],[-27.94,0.51],[-28.45,0.37],[-28.77,0.3],[-29.1,0.22],[-29.23,0.02],[-29.6,-0.26],[-29.99,-0.56],[-30.4,-0.93],[-30.7,-1.22],[-30.89,-1.34],[-30.89,-1.34],[-30.9,-1.33],[-31.61,-0.66],[-32.1,-0.18],[-32.6,0.31],[-33.32,0.77],[-34.03,1.23],[-34.66,1.78],[-35.33,2.16],[-35.81,2.45],[-36.3,2.74],[-36.78,2.99],[-37.26,3.23],[-37.72,3.51],[-38.18,3.78],[-38.98,4.36],[-39.69,4.56],[-40.41,4.76],[-40.91,4.93],[-41.42,5.09],[-42.42,5.1],[-42.94,5.14],[-43.46,5.19],[-44.15,4.8],[-44.84,4.41],[-45.53,4.02],[-46.27,3.37],[-47,2.72],[-47.73,2.08],[-48,1.38],[-48.39,1.02],[-48.78,0.65],[-49.44,-0.07],[-50.05,-0.44],[-50.73,-0.94],[-51.41,-1.44],[-52.2,-1.59],[-52.99,-1.74],[-53.94,-1.93],[-54.89,-2.13],[-55.65,-2.31],[-56.42,-2.49],[-57.36,-2.67],[-58.31,-2.85],[-59.2,-2.94],[-59.2,-2.94],[-59.12,-2.28],[-59.04,-1.61],[-58.89,-0.85],[-58.74,-0.1],[-58.59,0.66],[-58.4,1.45],[-58.2,2.25],[-58,3.04],[-57.73,3.76],[-57.46,4.48],[-57.19,5.2],[-56.79,5.56],[-56.4,5.92],[-55.85,6.38],[-55.31,6.84],[-54.87,7.32],[-54.42,7.79],[-54.39,7.86],[-54.39,7.86],[-54.46,8.7],[-54.53,9.55],[-54.61,10.39],[-54.68,11.24],[-54.76,12.08],[-54.87,13.03],[-54.99,13.98],[-55.11,14.93],[-55.23,15.88],[-55.35,16.83],[-55.47,17.78],[-55.59,18.73],[-55.63,19.5],[-55.67,20.27],[-55.7,21.04],[-55.74,21.81],[-55.34,22.59],[-54.93,23.37],[-54.51,24.14],[-54.09,24.91],[-53.67,25.68],[-53.02,26.41],[-52.36,27.14],[-51.69,27.86],[-51.02,28.59],[-50.48,29.14],[-49.93,29.68],[-49.38,30.23],[-49.38,30.23],[-48.95,31.1],[-48.52,31.98],[-48.09,32.85],[-47.89,33.83],[-47.69,34.82],[-47.48,35.8],[-47.27,36.78],[-47.05,37.76],[-46.83,38.74],[-46.67,39.65],[-46.5,40.55],[-46.34,41.46],[-46.16,42.36],[-45.99,43.27],[-45.8,44.17],[-45.61,45.08],[-45.82,46.01],[-46.04,46.94],[-46.26,47.86],[-46.5,48.79],[-47.2,49.5],[-47.91,50.2],[-47.67,51.14],[-47.41,52.08],[-47.15,53.02],[-46.87,53.96],[-46.58,54.9],[-46.43,55.51],[-46.29,56.13]]]}},{"type":"Feature","properties":{"ma":205,"type":"gpml:TopologicalClosedPlateBoundary","name":"Phoenix Plate","pid":919,"deforming":false},"geometry":{"type":"MultiPolygon","coordinates":[[[[180,-6.54],[180,-7.53],[180,-8.53],[180,-9.52],[180,-10.51],[180,-11.51],[180,-12.5],[180,-13.49],[180,-14.49],[180,-15.48],[180,-16.48],[180,-17.47],[180,-18.46],[180,-19.46],[180,-20.45],[180,-21.44],[180,-22.44],[180,-23.43],[180,-24.43],[180,-25.42],[180,-26.41],[180,-27.41],[180,-28.4],[180,-29.39],[180,-30.39],[180,-31.38],[180,-32.38],[180,-33.37],[180,-34.36],[180,-35.36],[180,-36.35],[180,-37.34],[180,-38.34],[180,-39.33],[180,-40.33],[180,-41.32],[180,-42.31],[180,-43.31],[180,-44.3],[180,-45.29],[180,-46.29],[180,-47.28],[180,-48.27],[180,-49.27],[180,-50.26],[180,-51.26],[180,-52.25],[180,-53.24],[180,-54.24],[180,-55.23],[180,-56.22],[180,-57.22],[180,-58.21],[180,-59.21],[180,-60.2],[180,-61.19],[180,-62.19],[180,-63.18],[180,-64.17],[180,-65.17],[180,-66.16],[180,-67.16],[180,-68.15],[180,-69.14],[180,-70.14],[180,-71.13],[180,-72.12],[180,-73.12],[180,-74.11],[176.52,-73.99],[173.1,-73.82],[169.77,-73.59],[166.9,-73.49],[164.07,-73.35],[161.29,-73.17],[158.58,-72.96],[155.94,-72.71],[155.94,-72.71],[155.24,-71.89],[154.61,-71.08],[154.02,-70.26],[152.59,-69.45],[152.89,-68.93],[153.99,-68.01],[155,-67.09],[155.87,-66.16],[156.69,-65.23],[156.97,-64.66],[157.24,-64.1],[157.09,-63.51],[156.95,-62.93],[156.23,-62.17],[155.55,-61.41],[154.89,-60.65],[154.27,-59.88],[153.47,-59],[152.71,-58.11],[151.99,-57.22],[151.3,-56.33],[150.64,-55.43],[150.46,-54.56],[150.29,-53.69],[150.12,-52.82],[149.96,-51.94],[149.81,-51.07],[149.57,-50.28],[149.34,-49.48],[149.11,-48.68],[148.9,-47.88],[148.69,-47.08],[148.54,-46.35],[148.39,-45.61],[148.25,-44.87],[148.25,-44.87],[147.15,-44.33],[146.08,-43.77],[145.03,-43.2],[144,-42.62],[142.85,-42.22],[141.72,-41.81],[141.07,-41.54],[140.44,-41.27],[139.98,-40.81],[139.53,-40.34],[139.04,-39.7],[138.57,-39.05],[137.87,-38.3],[137.18,-37.54],[136.5,-36.78],[135.84,-36.02],[135.85,-35.04],[135.86,-34.06],[135.87,-33.08],[135.88,-32.1],[135.89,-31.12],[135.9,-30.15],[135.9,-29.17],[135.91,-28.19],[135.92,-27.21],[135.93,-26.23],[135.94,-25.25],[135.94,-24.27],[135.95,-23.3],[135.96,-22.32],[135.61,-21.39],[135.26,-20.46],[134.91,-19.52],[134.57,-18.59],[134.24,-17.66],[134.24,-17.66],[135.11,-17.16],[135.97,-16.65],[136.83,-16.15],[137.68,-15.64],[138.53,-15.12],[139.38,-14.61],[140.22,-14.09],[141.06,-13.56],[141.9,-13.04],[142.73,-12.51],[143.56,-11.98],[144.38,-11.44],[145.2,-10.91],[146.02,-10.37],[146.84,-9.83],[147.65,-9.29],[148.46,-8.75],[149.27,-8.2],[149.7,-8.99],[150.14,-9.78],[150.57,-10.57],[151.01,-11.36],[151.45,-12.15],[152.38,-11.9],[153.3,-11.64],[154.22,-11.38],[155.13,-11.12],[156.05,-10.85],[156.97,-10.58],[157.88,-10.31],[158.79,-10.03],[159.7,-9.76],[160.61,-9.48],[161.52,-9.2],[162.42,-8.91],[163.33,-8.63],[164.23,-8.34],[165.13,-8.05],[166.03,-7.76],[166.43,-8.64],[166.83,-9.53],[167.23,-10.42],[168.16,-10.09],[169.08,-9.75],[170,-9.41],[170.91,-9.07],[171.83,-8.73],[172.74,-8.38],[173.66,-8.03],[174.57,-7.68],[175.47,-7.33],[176.38,-6.98],[177.29,-6.62],[178.19,-6.26],[179.1,-5.91],[180,-5.55],[180,-6.54]]],[[[-180,-73.12],[-180,-72.12],[-180,-71.13],[-180,-70.14],[-180,-69.14],[-180,-68.15],[-180,-67.16],[-180,-66.16],[-180,-65.17],[-180,-64.17],[-180,-63.18],[-180,-62.19],[-180,-61.19],[-180,-60.2],[-180,-59.21],[-180,-58.21],[-180,-57.22],[-180,-56.22],[-180,-55.23],[-180,-54.24],[-180,-53.24],[-180,-52.25],[-180,-51.26],[-180,-50.26],[-180,-49.27],[-180,-48.27],[-180,-47.28],[-180,-46.29],[-180,-45.29],[-180,-44.3],[-180,-43.31],[-180,-42.31],[-180,-41.32],[-180,-40.33],[-180,-39.33],[-180,-38.34],[-180,-37.34],[-180,-36.35],[-180,-35.36],[-180,-34.36],[-180,-33.37],[-180,-32.38],[-180,-31.38],[-180,-30.39],[-180,-29.39],[-180,-28.4],[-180,-27.41],[-180,-26.41],[-180,-25.42],[-180,-24.43],[-180,-23.43],[-180,-22.44],[-180,-21.44],[-180,-20.45],[-180,-19.46],[-180,-18.46],[-180,-17.47],[-180,-16.48],[-180,-15.48],[-180,-14.49],[-180,-13.49],[-180,-12.5],[-180,-11.51],[-180,-10.51],[-180,-9.52],[-180,-8.53],[-180,-7.53],[-180,-6.54],[-180,-5.55],[-179.4,-5.31],[-178.81,-5.07],[-178.48,-5.83],[-178.16,-6.59],[-177.83,-7.35],[-176.9,-6.99],[-175.97,-6.62],[-175.04,-6.25],[-174.12,-5.89],[-173.19,-5.52],[-172.27,-5.14],[-171.35,-4.77],[-170.43,-4.4],[-169.51,-4.02],[-168.59,-3.65],[-168.3,-4.55],[-168.01,-5.45],[-167.72,-6.36],[-166.79,-5.99],[-165.86,-5.61],[-164.94,-5.24],[-164.01,-4.86],[-163.09,-4.49],[-162.17,-4.11],[-161.25,-3.73],[-160.32,-3.35],[-159.4,-2.97],[-158.48,-2.59],[-158.13,-3.47],[-157.78,-4.35],[-157.43,-5.23],[-156.52,-4.93],[-155.61,-4.64],[-154.71,-4.34],[-153.8,-4.04],[-152.89,-3.73],[-151.99,-3.43],[-151.08,-3.13],[-150.18,-2.83],[-149.28,-2.52],[-148.37,-2.22],[-147.47,-1.91],[-146.57,-1.61],[-145.67,-1.3],[-144.77,-0.99],[-143.86,-0.69],[-142.96,-0.38],[-142.09,-0.01],[-141.21,0.37],[-141.21,0.37],[-141.14,-0.46],[-141.14,-0.46],[-140.79,-0.59],[-139.98,-1.16],[-139.17,-1.73],[-138.36,-2.3],[-137.55,-2.87],[-136.74,-3.44],[-135.92,-4],[-135.11,-4.57],[-134.3,-5.13],[-133.48,-5.7],[-132.66,-6.26],[-131.85,-6.82],[-131.02,-7.38],[-130.2,-7.94],[-129.38,-8.5],[-128.55,-9.06],[-127.72,-9.61],[-126.88,-10.16],[-126.05,-10.71],[-125.21,-11.26],[-124.37,-11.8],[-123.52,-12.35],[-122.67,-12.89],[-123,-13.64],[-123.33,-14.4],[-123.66,-15.16],[-123.99,-15.91],[-124.32,-16.67],[-123.39,-17.09],[-122.45,-17.51],[-121.51,-17.92],[-120.57,-18.33],[-119.62,-18.73],[-118.66,-19.13],[-117.7,-19.53],[-116.74,-19.92],[-115.77,-20.3],[-114.8,-20.68],[-113.82,-21.06],[-112.83,-21.42],[-111.85,-21.79],[-110.85,-22.14],[-109.85,-22.49],[-108.85,-22.84],[-109.14,-23.7],[-109.42,-24.57],[-109.71,-25.43],[-108.73,-25.78],[-107.74,-26.12],[-106.74,-26.45],[-105.73,-26.78],[-104.72,-27.1],[-103.71,-27.42],[-102.69,-27.72],[-101.66,-28.02],[-100.63,-28.31],[-99.59,-28.6],[-98.55,-28.87],[-97.5,-29.14],[-96.45,-29.4],[-95.39,-29.65],[-94.32,-29.89],[-94.42,-30.64],[-94.51,-31.39],[-94.6,-32.14],[-93.48,-32.46],[-92.36,-32.77],[-91.22,-33.07],[-90.08,-33.36],[-88.93,-33.63],[-87.77,-33.9],[-86.61,-34.16],[-85.43,-34.41],[-84.26,-34.64],[-83.07,-34.87],[-81.88,-35.08],[-80.68,-35.28],[-79.48,-35.47],[-78.27,-35.64],[-77.06,-35.81],[-75.84,-35.96],[-74.61,-36.1],[-73.39,-36.23],[-72.16,-36.34],[-70.92,-36.45],[-69.68,-36.54],[-68.44,-36.61],[-67.2,-36.68],[-65.98,-36.74],[-64.76,-36.8],[-63.53,-36.84],[-62.31,-36.87],[-61.08,-36.89],[-59.86,-36.89],[-58.63,-36.88],[-58.76,-37.57],[-58.96,-38.33],[-59.17,-39.1],[-59.38,-39.86],[-59.6,-40.62],[-60.09,-41.37],[-60.59,-42.11],[-61.1,-42.85],[-61.63,-43.59],[-62.17,-44.32],[-62.32,-45.16],[-62.48,-45.99],[-62.61,-46.73],[-62.75,-47.46],[-63.29,-48.25],[-63.85,-49.04],[-63.98,-49.3],[-64.01,-49.43],[-64.01,-49.43],[-64.11,-49.75],[-64.11,-49.75],[-64.51,-50.31],[-64.8,-50.58],[-64.97,-50.93],[-65.11,-51.21],[-65.35,-51.66],[-65.52,-51.94],[-65.83,-52.44],[-66.05,-52.8],[-66.29,-53.18],[-66.52,-53.59],[-66.89,-54.22],[-67.04,-54.48],[-67.25,-54.82],[-67.43,-55.14],[-67.61,-55.43],[-67.79,-55.78],[-67.94,-56.08],[-68.06,-56.33],[-68.09,-56.41],[-68.16,-56.64],[-68.25,-56.91],[-68.33,-57.35],[-68.6,-57.66],[-68.95,-57.98],[-69.43,-58.34],[-69.95,-58.77],[-70.28,-59.04],[-70.56,-59.27],[-70.79,-59.47],[-71.15,-59.8],[-71.43,-60.23],[-71.53,-60.58],[-71.59,-60.91],[-71.66,-61.16],[-71.67,-61.46],[-71.69,-61.8],[-71.65,-62.18],[-71.57,-62.59],[-71.63,-62.91],[-71.7,-63.07],[-71.81,-63.39],[-71.96,-63.77],[-72.08,-64.13],[-72.13,-64.5],[-72.12,-64.57],[-71.95,-64.97],[-71.84,-65.06],[-71.84,-65.06],[-73.2,-65.79],[-74.63,-66.51],[-76.58,-67.06],[-78.62,-67.57],[-80.75,-68.06],[-82.97,-68.53],[-85.28,-68.96],[-87.31,-69.34],[-89.42,-69.71],[-91.59,-70.05],[-93.83,-70.36],[-95.75,-70.78],[-97.74,-71.18],[-99.81,-71.56],[-101.96,-71.91],[-104.31,-72.29],[-106.75,-72.63],[-109.28,-72.94],[-111.89,-73.22],[-114.58,-73.47],[-117.34,-73.68],[-120.16,-73.85],[-123.03,-73.99],[-126.28,-74.1],[-129.55,-74.15],[-132.84,-74.16],[-136.13,-74.11],[-139.38,-74.02],[-142.93,-74.02],[-146.48,-73.96],[-149.98,-73.85],[-153.43,-73.67],[-156.79,-73.45],[-159.94,-73.69],[-163.18,-73.89],[-166.49,-74.04],[-169.84,-74.14],[-173.23,-74.18],[-176.62,-74.17],[-180,-74.11],[-180,-73.12]]]]}},{"type":"Feature","properties":{"ma":205,"type":"gpml:TopologicalClosedPlateBoundary","name":"Gondwana Plate","pid":701,"deforming":false},"geometry":{"type":"Polygon","coordinates":[[[180,-75.1],[180,-76.1],[180,-77.09],[180,-78.08],[180,-79.08],[180,-80.07],[180,-81.06],[180,-82.06],[180,-83.05],[180,-84.04],[180,-85.03],[180,-86.03],[180,-87.02],[180,-88.01],[180,-89.01],[180,-90],[-180,-90],[-180,-89.01],[-180,-88.01],[-180,-87.02],[-180,-86.03],[-180,-85.03],[-180,-84.04],[-180,-83.05],[-180,-82.06],[-180,-81.06],[-180,-80.07],[-180,-79.08],[-180,-78.08],[-180,-77.09],[-180,-76.1],[-180,-75.1],[-180,-74.11],[-176.62,-74.17],[-173.23,-74.18],[-169.84,-74.14],[-166.49,-74.04],[-163.18,-73.89],[-159.94,-73.69],[-156.79,-73.45],[-153.43,-73.67],[-149.98,-73.85],[-146.48,-73.96],[-142.93,-74.02],[-139.38,-74.02],[-136.13,-74.11],[-132.84,-74.16],[-129.55,-74.15],[-126.28,-74.1],[-123.03,-73.99],[-120.16,-73.85],[-117.34,-73.68],[-114.58,-73.47],[-111.89,-73.22],[-109.28,-72.94],[-106.75,-72.63],[-104.31,-72.29],[-101.96,-71.91],[-99.81,-71.56],[-97.74,-71.18],[-95.75,-70.78],[-93.83,-70.36],[-91.59,-70.05],[-89.42,-69.71],[-87.31,-69.34],[-85.28,-68.96],[-82.97,-68.53],[-80.75,-68.06],[-78.62,-67.57],[-76.58,-67.06],[-74.63,-66.51],[-73.2,-65.79],[-71.84,-65.06],[-71.84,-65.06],[-71.95,-64.97],[-72.12,-64.57],[-72.13,-64.5],[-72.08,-64.13],[-71.96,-63.77],[-71.81,-63.39],[-71.7,-63.07],[-71.63,-62.91],[-71.57,-62.59],[-71.65,-62.18],[-71.69,-61.8],[-71.67,-61.46],[-71.66,-61.16],[-71.59,-60.91],[-71.53,-60.58],[-71.43,-60.23],[-71.15,-59.8],[-70.79,-59.47],[-70.56,-59.27],[-70.28,-59.04],[-69.95,-58.77],[-69.43,-58.34],[-68.95,-57.98],[-68.6,-57.66],[-68.33,-57.35],[-68.25,-56.91],[-68.16,-56.64],[-68.09,-56.41],[-68.06,-56.33],[-67.94,-56.08],[-67.79,-55.78],[-67.61,-55.43],[-67.43,-55.14],[-67.25,-54.82],[-67.04,-54.48],[-66.89,-54.22],[-66.52,-53.59],[-66.29,-53.18],[-66.05,-52.8],[-65.83,-52.44],[-65.52,-51.94],[-65.35,-51.66],[-65.11,-51.21],[-64.97,-50.93],[-64.8,-50.58],[-64.51,-50.31],[-64.11,-49.75],[-64.11,-49.75],[-64.01,-49.43],[-64.01,-49.43],[-63.98,-49.3],[-63.85,-49.04],[-63.29,-48.25],[-62.75,-47.46],[-62.61,-46.73],[-62.48,-45.99],[-62.32,-45.16],[-62.17,-44.32],[-61.63,-43.59],[-61.1,-42.85],[-60.59,-42.11],[-60.09,-41.37],[-59.6,-40.62],[-59.38,-39.86],[-59.17,-39.1],[-58.96,-38.33],[-58.76,-37.57],[-58.6,-36.71],[-58.43,-35.85],[-58.36,-35.42],[-58.27,-35.03],[-58.23,-34.71],[-58.11,-34.15],[-58.02,-33.43],[-57.83,-32.98],[-57.57,-32.15],[-57.43,-31.67],[-57.43,-31.07],[-57.43,-31.07],[-57.43,-30.79],[-57.46,-30.42],[-57.42,-29.87],[-57.54,-29.12],[-57.6,-28.6],[-57.66,-28.07],[-58.2,-27.27],[-58.35,-26.58],[-58.5,-25.89],[-58.65,-25.2],[-58.83,-24.38],[-59.01,-23.56],[-59.19,-22.74],[-59.25,-21.88],[-59.31,-21.02],[-59.37,-20.16],[-59.43,-19.3],[-59.49,-18.44],[-59.55,-17.58],[-59.58,-16.71],[-59.61,-15.84],[-59.64,-14.97],[-59.27,-14.19],[-58.9,-13.4],[-58.54,-12.62],[-58.17,-11.83],[-57.81,-11.04],[-57.7,-10.78],[-57.6,-10.54],[-57.47,-10.29],[-57.31,-9.94],[-57.21,-9.75],[-57.12,-9.52],[-56.9,-9.18],[-56.7,-8.88],[-56.63,-8.79],[-56.63,-8.79],[-56.18,-9.61],[-56.14,-9.69],[-56.14,-9.69],[-55.91,-9.71],[-55.35,-9.63],[-54.79,-9.55],[-54.2,-9.68],[-53.62,-9.81],[-53.11,-10.03],[-52.6,-10.26],[-51.94,-10.63],[-51.28,-11],[-50.42,-11.25],[-49.56,-11.51],[-48.73,-11.36],[-47.91,-11.22],[-47.16,-10.87],[-46.41,-10.52],[-45.75,-10.18],[-45.1,-9.85],[-44.46,-9.64],[-43.83,-9.43],[-43.26,-9.37],[-42.69,-9.3],[-42.17,-9.19],[-41.65,-9.09],[-41.04,-9.01],[-40.43,-8.94],[-39.8,-8.47],[-39.17,-8.01],[-38.42,-7.89],[-37.67,-7.76],[-37,-7.9],[-36.33,-8.03],[-35.66,-8.16],[-34.89,-8.26],[-34.11,-8.37],[-33.22,-8.69],[-32.71,-8.75],[-32.19,-8.82],[-31.62,-8.85],[-31.04,-8.88],[-30.43,-8.69],[-29.82,-8.5],[-29.01,-8.33],[-28.21,-8.16],[-27.41,-7.99],[-26.95,-7.42],[-26.49,-6.85],[-26.49,-6.85],[-26.37,-6.93],[-26.01,-7.03],[-25.97,-7.05],[-25.97,-7.05],[-26.08,-6.82],[-26.06,-6.23],[-25.82,-5.35],[-25.59,-4.58],[-25.31,-4.22],[-24.92,-3.93],[-24.29,-3.68],[-23.87,-3.7],[-23.43,-3.75],[-23.21,-3.4],[-23.05,-3.15],[-22.85,-2.88],[-22.54,-2.68],[-22.31,-2.33],[-22.07,-1.91],[-21.97,-1.13],[-21.88,-0.69],[-21.73,-0.27],[-21.47,-0.04],[-21.25,0.15],[-20.84,0.69],[-20.49,1.21],[-20.23,1.82],[-19.96,2.25],[-19.69,2.68],[-19.32,3.1],[-18.96,3.53],[-18.48,3.72],[-18,3.92],[-17.86,4.01],[-16.98,3.81],[-16.04,3.74],[-15.53,3.7],[-15.37,3.6],[-14.83,3.49],[-14.09,3.77],[-13.29,4.13],[-12.85,4.44],[-11.94,4.69],[-11.39,4.95],[-10.66,5.07],[-9.84,5.15],[-9.17,5.39],[-8.72,5.43],[-8.12,5.24],[-7.69,4.95],[-7.2,4.75],[-6.88,4.57],[-6.56,4.38],[-5.97,4.25],[-5.44,4.05],[-4.81,4.26],[-4.55,4.34],[-4.55,4.34],[-4.87,4.64],[-4.35,5.04],[-3.83,5.44],[-3.58,5.94],[-3.33,6.44],[-2.93,7.07],[-2.53,7.69],[-2.41,7.79],[-2.41,7.79],[-2.27,7.65],[-2.07,7.46],[-1.65,7.05],[-1.3,6.71],[-0.94,6.36],[-0.69,6.17],[-0.26,5.86],[0.47,5.31],[1.24,4.74],[1.9,4.44],[2.41,4.21],[2.91,3.98],[3.38,3.78],[3.84,3.57],[4.3,3.35],[4.76,3.12],[5.47,2.68],[6.18,2.24],[6.18,2.24],[7.03,2.48],[7.88,2.71],[8.73,2.94],[9.58,3.17],[10.41,3.51],[11.23,3.84],[12.06,4.17],[12.88,4.51],[13.71,4.84],[13.57,5.58],[13.43,6.32],[13.29,7.06],[13.92,7.64],[14.55,8.22],[15.19,8.8],[15.82,9.37],[16.46,9.95],[17.1,10.52],[17.12,10.55],[17.9,9.96],[18.68,9.37],[19.46,8.78],[20.23,8.19],[21.01,7.6],[21.78,7.01],[22.55,6.41],[23.32,5.82],[24.08,5.22],[24.85,4.63],[25.61,4.03],[26.19,4.5],[26.77,4.97],[27.53,4.34],[28.3,3.7],[29.07,3.06],[29.83,2.42],[30.6,1.78],[31.36,1.14],[32.12,0.5],[32.66,0.99],[33.19,1.48],[33.88,0.84],[34.57,0.2],[35.26,-0.44],[35.95,-1.08],[36.64,-1.72],[36.64,-1.72],[37.18,-1.07],[37.72,-0.43],[38.25,0.22],[38.79,0.86],[39.33,1.51],[39.67,2.13],[40,2.75],[40.33,3.38],[40.33,3.38],[41.16,2.87],[41.98,2.36],[42.81,1.85],[43.63,1.33],[44.46,0.82],[45.28,0.31],[46.1,-0.2],[46.93,-0.71],[47.75,-1.22],[48.57,-1.74],[49.4,-2.25],[49.06,-3.02],[49.87,-3.43],[50.68,-3.83],[51.5,-4.24],[52.31,-4.65],[53.13,-5.05],[53.95,-5.45],[54.77,-5.85],[54.48,-6.74],[55.38,-7.13],[56.29,-7.53],[57.19,-7.92],[58.1,-8.31],[59.01,-8.7],[59.92,-9.08],[60.83,-9.46],[61.75,-9.85],[62.66,-10.22],[63.58,-10.6],[64.5,-10.97],[65.43,-11.34],[66.35,-11.71],[66.04,-12.53],[65.72,-13.35],[65.41,-14.17],[65.09,-14.99],[65.09,-14.99],[66,-15.4],[66.91,-15.8],[67.82,-16.2],[68.74,-16.6],[69.66,-17],[70.59,-17.39],[71.52,-17.77],[72.46,-18.15],[73.4,-18.53],[74.34,-18.9],[75.29,-19.27],[76.24,-19.63],[77.19,-19.99],[78.15,-20.34],[79.12,-20.69],[79,-21.19],[78.89,-21.7],[79.93,-21.86],[80.98,-22.02],[82.03,-22.17],[83.07,-22.31],[84.13,-22.44],[85.18,-22.57],[86.24,-22.69],[87.29,-22.83],[88.34,-22.96],[89.39,-23.09],[90.45,-23.21],[91.51,-23.32],[91.51,-23.32],[92.01,-22.43],[92.5,-21.55],[92.99,-20.66],[93.47,-19.77],[93.95,-18.88],[94.42,-17.99],[94.89,-17.1],[95.76,-17.49],[96.64,-17.87],[97.53,-18.24],[98.41,-18.62],[98.78,-17.87],[99.14,-17.13],[99.5,-16.38],[99.85,-15.63],[100.78,-15.8],[101.71,-15.96],[102.65,-16.12],[103.58,-16.28],[104.52,-16.43],[104.87,-15.6],[105.21,-14.77],[105.56,-13.94],[105.9,-13.11],[106.24,-12.28],[106.58,-11.45],[107.33,-11.64],[108.09,-11.82],[108.84,-12.01],[109.6,-12.19],[109.92,-11.31],[110.25,-10.42],[110.57,-9.54],[110.89,-8.65],[111.21,-7.77],[111.95,-7.91],[112.69,-8.06],[113.42,-8.2],[113.42,-8.2],[113.34,-8.72],[113.31,-9.65],[113.29,-10.57],[113.26,-11.5],[113.23,-12.43],[113.2,-13.36],[113.17,-14.28],[113.14,-15.21],[113.11,-16.14],[113.07,-17.07],[113.07,-17.07],[114.03,-17.12],[114.99,-17.17],[115.94,-17.22],[116.9,-17.26],[117.86,-17.29],[118.82,-17.32],[119.78,-17.35],[120.74,-17.37],[120.82,-18.34],[120.9,-19.31],[120.99,-20.27],[121.07,-21.24],[121.16,-22.2],[122.11,-22.24],[123.07,-22.27],[124.03,-22.29],[124.99,-22.31],[125.94,-22.32],[126.9,-22.33],[127.86,-22.33],[127.93,-23.01],[128,-23.69],[129,-23.62],[129.99,-23.55],[130.99,-23.47],[131.99,-23.38],[132.98,-23.29],[133.97,-23.19],[134.96,-23.08],[135.95,-22.97],[135.95,-22.97],[135.95,-23.9],[135.94,-24.83],[135.93,-25.77],[135.92,-26.7],[135.92,-27.63],[135.91,-28.56],[135.9,-29.49],[135.89,-30.43],[135.88,-31.36],[135.88,-32.29],[135.87,-33.22],[135.86,-34.15],[135.85,-35.09],[135.84,-36.02],[136.5,-36.78],[137.18,-37.54],[137.87,-38.3],[138.57,-39.05],[139.04,-39.7],[139.53,-40.34],[139.98,-40.81],[140.44,-41.27],[141.07,-41.54],[141.72,-41.81],[142.85,-42.22],[144,-42.62],[145.03,-43.2],[146.08,-43.77],[147.15,-44.33],[148.25,-44.87],[148.25,-44.87],[148.39,-45.61],[148.54,-46.35],[148.69,-47.08],[148.9,-47.88],[149.11,-48.68],[149.34,-49.48],[149.57,-50.28],[149.81,-51.07],[149.96,-51.94],[150.12,-52.82],[150.29,-53.69],[150.46,-54.56],[150.64,-55.43],[151.3,-56.33],[151.99,-57.22],[152.71,-58.11],[153.47,-59],[154.27,-59.88],[154.89,-60.65],[155.55,-61.41],[156.23,-62.17],[156.95,-62.93],[157.09,-63.51],[157.24,-64.1],[156.97,-64.66],[156.69,-65.23],[155.87,-66.16],[155,-67.09],[153.99,-68.01],[152.89,-68.93],[152.59,-69.45],[154.02,-70.26],[154.61,-71.08],[155.24,-71.89],[155.94,-72.71],[155.94,-72.71],[158.58,-72.96],[161.29,-73.17],[164.07,-73.35],[166.9,-73.49],[169.77,-73.59],[173.1,-73.82],[176.52,-73.99],[180,-74.11],[180,-75.1]]]}},{"type":"Feature","properties":{"ma":205,"type":"gpml:TopologicalClosedPlateBoundary","name":"Eurasia","pid":301,"deforming":false},"geometry":{"type":"Polygon","coordinates":[[[-26.07,86.49],[-18.77,86.96],[-5.6,87.11],[10.72,86.84],[23.65,86.37],[33.24,85.75],[40.27,85.05],[45.5,84.3],[49.49,83.51],[52.6,82.69],[55.09,81.86],[57.11,81.01],[59.06,80.13],[60.69,79.23],[62.08,78.33],[63.27,77.43],[64.3,76.51],[65.2,75.6],[65.99,74.68],[66.7,73.76],[67.34,72.84],[67.91,71.92],[68.42,70.99],[68.42,70.99],[70.79,70.74],[73.09,70.46],[75.33,70.15],[77.5,69.82],[79.59,69.45],[81.58,68.81],[83.45,68.14],[85.22,67.46],[86.88,66.75],[88.45,66.03],[89.94,65.29],[91.34,64.54],[92.67,63.78],[94.42,63.37],[96.12,62.93],[97.77,62.48],[99.37,62.01],[100.91,61.52],[102.41,61.01],[102.41,61.01],[101,60.35],[99.64,59.67],[98.34,58.97],[97.08,58.27],[95.88,57.55],[94.72,56.82],[93.61,56.08],[92.54,55.34],[91.51,54.58],[90.52,53.81],[89.2,53.4],[87.91,52.97],[86.64,52.53],[85.39,52.08],[84.18,51.61],[82.98,51.13],[81.82,50.64],[80.67,50.14],[79.85,49.51],[79.04,48.88],[78.26,48.24],[77.49,47.6],[76.75,46.95],[75.87,46.35],[75.02,45.74],[74.18,45.13],[73.37,44.52],[72.57,43.89],[71.78,43.26],[71.01,42.57],[70.25,41.87],[69.52,41.17],[68.79,40.46],[68.08,39.75],[67.39,39.03],[66.71,38.31],[66.04,37.59],[65.39,36.86],[64.53,36.29],[63.68,35.71],[62.85,35.13],[62.02,34.54],[61.21,33.95],[60.41,33.35],[59.62,32.75],[58.85,32.14],[58.08,31.52],[57.43,30.86],[56.8,30.2],[56.8,30.2],[56.05,30.65],[55.29,31.1],[54.58,30.9],[53.88,30.7],[53.54,29.94],[53.2,29.18],[52.75,28.53],[52.31,27.88],[51.87,27.23],[50.92,26.82],[49.97,26.4],[49.03,25.97],[48.23,25.3],[47.43,24.63],[46.75,23.96],[46.08,23.28],[45.41,22.59],[45.02,21.84],[44.63,21.09],[44.3,20.39],[43.98,19.69],[43.81,19.19],[43.65,18.68],[43.31,18.13],[42.98,17.57],[42.31,17.29],[41.63,17],[40.96,16.72],[40.02,16.67],[39.07,16.61],[38.13,16.55],[37.18,16.29],[36.23,16.02],[35.55,15.83],[34.87,15.64],[34.19,15.44],[33.27,15.35],[32.36,15.26],[31.44,15.16],[30.55,15.31],[29.65,15.45],[28.76,15.6],[27.97,15.81],[27.19,16.03],[26.41,16.24],[25.62,16.44],[24.78,16.79],[23.94,17.13],[23.1,17.46],[22.25,17.79],[22.25,17.79],[21.76,17.13],[21.28,16.47],[20.8,15.8],[20.32,15.13],[19.84,14.47],[19.29,13.68],[18.74,12.89],[18.19,12.1],[17.64,11.31],[17.1,10.52],[16.46,9.95],[15.82,9.37],[15.19,8.8],[14.55,8.22],[13.92,7.64],[13.29,7.06],[13.43,6.32],[13.57,5.58],[13.71,4.84],[12.88,4.51],[12.06,4.17],[11.23,3.84],[10.41,3.51],[9.58,3.17],[8.73,2.94],[7.88,2.71],[7.03,2.48],[6.18,2.24],[6.18,2.24],[5.47,2.68],[4.76,3.12],[4.3,3.35],[3.84,3.57],[3.38,3.78],[2.91,3.98],[2.41,4.21],[1.9,4.44],[1.24,4.74],[0.47,5.31],[-0.26,5.86],[-0.69,6.17],[-0.94,6.36],[-1.3,6.71],[-1.65,7.05],[-2.07,7.46],[-2.27,7.65],[-2.41,7.79],[-2.41,7.79],[-1.68,8.37],[-0.96,8.95],[-0.23,9.52],[0.5,10.1],[1.23,10.74],[1.96,11.39],[2.7,12.04],[3.12,12.69],[3.55,13.33],[3.98,13.98],[3.4,14.7],[2.83,15.42],[2.25,16.13],[1.67,16.85],[1.07,16.47],[0.57,17.23],[0.06,17.99],[-0.44,18.74],[-0.2,19.12],[0.05,19.9],[0.46,20.74],[0.88,21.58],[1.3,22.42],[1.7,23.2],[2.1,23.98],[2.5,24.76],[2.91,25.54],[3.81,26],[4.72,26.46],[5.27,27.04],[5.83,27.61],[6.25,28.33],[6.67,29.06],[7,29.6],[7.32,30.15],[7.45,30.81],[7.59,31.46],[7.49,32],[7.4,32.53],[7.13,33.11],[6.85,33.69],[6.32,34.31],[6.18,35.07],[6.03,35.84],[6.01,36.8],[5.98,37.75],[5.81,38.52],[5.63,39.28],[5.69,39.97],[5.75,40.66],[5.21,41.46],[4.66,42.26],[3.84,42.56],[3.02,42.85],[1.92,42.61],[0.83,42.35],[-0.26,42.55],[-1.34,42.74],[-2.44,42.92],[-3.35,43.17],[-4.26,43.42],[-5.18,43.66],[-5.06,44.64],[-4.93,45.63],[-4.8,46.61],[-4.67,47.59],[-4.98,48.55],[-5.31,49.5],[-5.65,50.45],[-6,51.4],[-6.37,52.35],[-5.88,52.94],[-6.21,53.65],[-6.56,54.36],[-6.92,55.06],[-7.22,55.9],[-7.54,56.73],[-7.87,57.56],[-8.22,58.4],[-8.58,59.23],[-8.92,60.07],[-9.28,60.91],[-9.66,61.75],[-10.06,62.58],[-10.49,63.42],[-10.93,64.25],[-10.93,64.25],[-10.38,64.23],[-10.38,64.23],[-10.71,65.07],[-11.06,65.91],[-11.43,66.75],[-11.83,67.59],[-12.5,68.43],[-13.21,69.26],[-13.98,70.09],[-14.82,70.92],[-14.82,70.92],[-17.02,70.54],[-19.14,70.13],[-21.17,69.7],[-23.82,69.36],[-26.38,68.98],[-28.62,68.85],[-30.83,68.7],[-33.01,68.52],[-34.61,68.2],[-36.17,67.87],[-37.69,67.52],[-39.67,67.18],[-41.59,66.82],[-43.46,66.44],[-45.03,66.22],[-46.57,65.98],[-48.08,65.73],[-50.24,65.4],[-52.34,65.03],[-53.8,64.69],[-55.23,64.33],[-56.62,63.96],[-58.13,63.43],[-59.59,62.88],[-59.59,62.88],[-60.93,63.59],[-61.78,64.21],[-62.68,64.83],[-63.61,65.44],[-64.61,66.29],[-65.68,67.14],[-66.39,67.85],[-67.14,68.56],[-67.93,69.26],[-68.5,70.06],[-69.12,70.87],[-69.78,71.67],[-70.5,72.47],[-70.5,72.47],[-69.64,73.02],[-68.72,73.58],[-67.54,74.35],[-66.24,75.12],[-64.8,75.88],[-63.74,76.5],[-62.57,77.12],[-62.21,77.84],[-61.79,78.56],[-61.58,79.27],[-61.34,79.97],[-60.4,80.57],[-59.33,81.17],[-57.89,81.84],[-56.19,82.5],[-54.17,83.16],[-50.87,83.92],[-46.65,84.65],[-40.18,85.35],[-31.58,85.98],[-26.07,86.49]]]}},{"type":"Feature","properties":{"ma":205,"type":"gpml:TopologicalClosedPlateBoundary","name":"Cimmerian-Neotethys Plate","pid":505,"deforming":false},"geometry":{"type":"Polygon","coordinates":[[[112.69,-8.06],[111.95,-7.91],[111.21,-7.77],[110.89,-8.65],[110.57,-9.54],[110.25,-10.42],[109.92,-11.31],[109.6,-12.19],[108.84,-12.01],[108.09,-11.82],[107.33,-11.64],[106.58,-11.45],[106.24,-12.28],[105.9,-13.11],[105.56,-13.94],[105.21,-14.77],[104.87,-15.6],[104.52,-16.43],[103.58,-16.28],[102.65,-16.12],[101.71,-15.96],[100.78,-15.8],[99.85,-15.63],[99.5,-16.38],[99.14,-17.13],[98.78,-17.87],[98.41,-18.62],[97.53,-18.24],[96.64,-17.87],[95.76,-17.49],[94.89,-17.1],[94.42,-17.99],[93.95,-18.88],[93.47,-19.77],[92.99,-20.66],[92.5,-21.55],[92.01,-22.43],[91.51,-23.32],[91.51,-23.32],[90.45,-23.21],[89.39,-23.09],[88.34,-22.96],[87.29,-22.83],[86.24,-22.69],[85.18,-22.57],[84.13,-22.44],[83.07,-22.31],[82.03,-22.17],[80.98,-22.02],[79.93,-21.86],[78.89,-21.7],[79,-21.19],[79.12,-20.69],[78.15,-20.34],[77.19,-19.99],[76.24,-19.63],[75.29,-19.27],[74.34,-18.9],[73.4,-18.53],[72.46,-18.15],[71.52,-17.77],[70.59,-17.39],[69.66,-17],[68.74,-16.6],[67.82,-16.2],[66.91,-15.8],[66,-15.4],[65.09,-14.99],[65.09,-14.99],[65.41,-14.17],[65.72,-13.35],[66.04,-12.53],[66.35,-11.71],[65.43,-11.34],[64.5,-10.97],[63.58,-10.6],[62.66,-10.22],[61.75,-9.85],[60.83,-9.46],[59.92,-9.08],[59.01,-8.7],[58.1,-8.31],[57.19,-7.92],[56.29,-7.53],[55.38,-7.13],[54.48,-6.74],[54.77,-5.85],[53.95,-5.45],[53.13,-5.05],[52.31,-4.65],[51.5,-4.24],[50.68,-3.83],[49.87,-3.43],[49.06,-3.02],[49.4,-2.25],[48.57,-1.74],[47.75,-1.22],[46.93,-0.71],[46.1,-0.2],[45.28,0.31],[44.46,0.82],[43.63,1.33],[42.81,1.85],[41.98,2.36],[41.16,2.87],[40.33,3.38],[40.33,3.38],[40,2.75],[39.67,2.13],[39.33,1.51],[38.79,0.86],[38.25,0.22],[37.72,-0.43],[37.18,-1.07],[36.64,-1.72],[36.64,-1.72],[35.95,-1.08],[35.26,-0.44],[34.57,0.2],[33.88,0.84],[33.19,1.48],[32.66,0.99],[32.12,0.5],[31.36,1.14],[30.6,1.78],[29.83,2.42],[29.07,3.06],[28.3,3.7],[27.53,4.34],[26.77,4.97],[26.19,4.5],[25.61,4.03],[24.85,4.63],[24.08,5.22],[23.32,5.82],[22.55,6.41],[21.78,7.01],[21.01,7.6],[20.23,8.19],[19.46,8.78],[18.68,9.37],[17.9,9.96],[17.12,10.55],[17.12,10.55],[17.66,11.33],[18.2,12.12],[18.74,12.9],[19.29,13.68],[19.84,14.47],[20.32,15.13],[20.8,15.8],[21.28,16.47],[21.76,17.13],[22.25,17.79],[22.25,17.79],[23.1,17.46],[23.94,17.13],[24.78,16.79],[25.62,16.44],[26.41,16.24],[27.19,16.03],[27.97,15.81],[28.76,15.6],[29.65,15.45],[30.55,15.31],[31.44,15.16],[32.36,15.26],[33.27,15.35],[34.19,15.44],[34.87,15.64],[35.55,15.83],[36.23,16.02],[37.18,16.29],[38.13,16.55],[39.07,16.61],[40.02,16.67],[40.96,16.72],[41.63,17],[42.31,17.29],[42.98,17.57],[43.31,18.13],[43.65,18.68],[43.81,19.19],[43.98,19.69],[44.3,20.39],[44.63,21.09],[45.02,21.84],[45.41,22.59],[46.08,23.28],[46.75,23.96],[47.43,24.63],[48.23,25.3],[49.03,25.97],[49.97,26.4],[50.92,26.82],[51.87,27.23],[52.31,27.88],[52.75,28.53],[53.2,29.18],[53.54,29.94],[53.88,30.7],[54.58,30.9],[55.29,31.1],[56.05,30.65],[56.8,30.2],[56.8,30.2],[57.43,30.86],[58.08,31.52],[58.85,32.14],[59.62,32.75],[60.41,33.35],[61.21,33.95],[62.02,34.54],[62.85,35.13],[63.68,35.71],[64.53,36.29],[65.39,36.86],[66.12,37.67],[66.86,38.48],[67.63,39.28],[68.41,40.08],[69.2,40.87],[70.02,41.65],[70.02,41.65],[71.04,41.97],[72.06,42.27],[73.1,42.57],[74.14,42.86],[75.35,43.21],[76.57,43.55],[77.8,43.88],[79.05,44.2],[80.31,44.5],[80.98,45.35],[81.67,46.2],[82.38,47.04],[83.11,47.88],[83.87,48.72],[84.65,49.55],[84.65,49.55],[86.17,49.7],[87.7,49.83],[89.23,49.94],[90.44,50.05],[91.64,50.14],[92.86,50.22],[92.86,50.22],[92.2,49.9],[91.54,49.57],[90.41,49.08],[89.3,48.57],[88.21,48.06],[87.14,47.53],[86.09,47],[85.07,46.46],[84.06,45.9],[83.08,45.34],[83.08,45.34],[83.47,44.4],[83.84,43.45],[84.21,42.51],[84.56,41.56],[85.13,40.81],[85.69,40.05],[86.23,39.29],[86.76,38.53],[87.28,37.76],[88.14,37.1],[88.98,36.43],[89.81,35.75],[90.62,35.07],[91.43,34.38],[92.14,33.77],[92.84,33.16],[93.53,32.54],[94.22,31.92],[95.25,31.46],[96.27,30.99],[97.28,30.51],[98.28,30.02],[98.28,30.02],[99.2,29.67],[100.12,29.3],[101.03,28.93],[101.94,28.56],[102.92,28.21],[103.89,27.85],[104.86,27.48],[105.81,27.3],[106.75,27.1],[107.7,26.91],[108.64,26.7],[109.57,26.49],[110.54,26.33],[111.51,26.16],[112.47,25.98],[113.43,25.79],[114.39,25.6],[115.47,25.64],[116.55,25.68],[117.63,25.7],[118.71,25.72],[119.79,25.73],[120.77,25.68],[121.75,25.62],[122.72,25.55],[123.7,25.48],[124.67,25.4],[124.67,25.4],[125.4,25.01],[126.12,24.61],[126.83,24.21],[127.2,23.53],[127.56,22.85],[127.91,22.17],[128.45,21.37],[128.98,20.57],[129.24,19.66],[129.5,18.74],[129.8,17.88],[130.11,17.01],[130.41,16.15],[130.26,15.16],[130.12,14.17],[129.98,13.18],[129.84,12.2],[129.16,11.68],[128.49,11.16],[127.82,10.64],[127.15,10.12],[126.49,9.6],[125.81,9.07],[125.14,8.54],[124.46,8.01],[123.79,7.47],[123.09,7.03],[122.38,6.58],[121.68,6.13],[120.97,5.68],[120.5,5.12],[120.02,4.55],[119.54,3.99],[119.25,3.06],[118.95,2.13],[118.66,1.2],[118.36,0.26],[118.06,-0.67],[117.77,-1.61],[117.47,-2.54],[117.17,-3.48],[116.87,-4.41],[116.57,-5.35],[116.27,-6.28],[115.97,-7.22],[115.97,-7.22],[115.2,-7.04],[114.43,-6.86],[113.66,-6.68],[113.66,-6.68],[113.54,-7.44],[113.42,-8.2],[112.69,-8.06]]]}},{"type":"Feature","properties":{"ma":205,"type":"gpml:TopologicalClosedPlateBoundary","name":"Cache Creek/Mezcalear Ocean","pid":131,"deforming":false},"geometry":{"type":"Polygon","coordinates":[[[-71.99,37.73],[-72.07,38.25],[-72.15,38.78],[-72.5,39.64],[-72.86,40.5],[-73.23,41.36],[-73.45,42.31],[-73.67,43.26],[-73.9,44.21],[-73.99,44.93],[-74.07,45.66],[-74.16,46.38],[-74.15,47.2],[-74.14,48.01],[-74.13,48.82],[-74.12,49.63],[-74.23,50.47],[-74.35,51.31],[-74.47,52.16],[-74.59,52.96],[-74.7,53.76],[-74.83,54.56],[-75.38,55.42],[-75.38,55.42],[-73.9,55.92],[-72.38,56.41],[-70.83,56.87],[-69.23,57.32],[-67.9,57.77],[-66.53,58.21],[-65.13,58.63],[-63.69,59.04],[-62.22,59.43],[-60.72,59.8],[-58.99,60.14],[-57.23,60.46],[-55.44,60.76],[-55.44,60.76],[-54.51,60.3],[-53.61,59.84],[-52.45,59.25],[-51.32,58.65],[-50.22,58.04],[-49.17,57.42],[-48.19,57],[-47.23,56.57],[-46.29,56.13],[-46.29,56.13],[-46.43,55.51],[-46.58,54.9],[-46.87,53.96],[-47.15,53.02],[-47.41,52.08],[-47.67,51.14],[-47.91,50.2],[-47.2,49.5],[-46.5,48.79],[-46.26,47.86],[-46.04,46.94],[-45.82,46.01],[-45.61,45.08],[-45.8,44.17],[-45.99,43.27],[-46.16,42.36],[-46.34,41.46],[-46.5,40.55],[-46.67,39.65],[-46.83,38.74],[-46.96,38.15],[-47.1,37.55],[-47.1,37.55],[-48.23,37.76],[-49.36,37.96],[-50.5,38.14],[-51.65,38.32],[-52.81,38.51],[-53.98,38.68],[-55.15,38.85],[-56.33,39],[-57.51,39.14],[-58.7,39.27],[-59.89,39.38],[-61.08,39.49],[-62.28,39.58],[-63.48,39.43],[-64.68,39.27],[-65.87,39.1],[-67.06,38.92],[-68.24,38.72],[-69.41,38.52],[-70.57,38.3],[-71.29,38.02],[-71.99,37.73]]]}},{"type":"Feature","properties":{"ma":205,"type":"gpml:TopologicalClosedPlateBoundary","name":"Farallon Plate","pid":902,"deforming":false},"geometry":{"type":"Polygon","coordinates":[[[-59.86,-36.89],[-61.08,-36.89],[-62.31,-36.87],[-63.53,-36.84],[-64.76,-36.8],[-65.98,-36.74],[-67.2,-36.68],[-68.44,-36.61],[-69.68,-36.54],[-70.92,-36.45],[-72.16,-36.34],[-73.39,-36.23],[-74.61,-36.1],[-75.84,-35.96],[-77.06,-35.81],[-78.27,-35.64],[-79.48,-35.47],[-80.68,-35.28],[-81.88,-35.08],[-83.07,-34.87],[-84.26,-34.64],[-85.43,-34.41],[-86.61,-34.16],[-87.77,-33.9],[-88.93,-33.63],[-90.08,-33.36],[-91.22,-33.07],[-92.36,-32.77],[-93.48,-32.46],[-94.6,-32.14],[-94.51,-31.39],[-94.42,-30.64],[-94.32,-29.89],[-95.39,-29.65],[-96.45,-29.4],[-97.5,-29.14],[-98.55,-28.87],[-99.59,-28.6],[-100.63,-28.31],[-101.66,-28.02],[-102.69,-27.72],[-103.71,-27.42],[-104.72,-27.1],[-105.73,-26.78],[-106.74,-26.45],[-107.74,-26.12],[-108.73,-25.78],[-109.71,-25.43],[-109.42,-24.57],[-109.14,-23.7],[-108.85,-22.84],[-109.85,-22.49],[-110.85,-22.14],[-111.85,-21.79],[-112.83,-21.42],[-113.82,-21.06],[-114.8,-20.68],[-115.77,-20.3],[-116.74,-19.92],[-117.7,-19.53],[-118.66,-19.13],[-119.62,-18.73],[-120.57,-18.33],[-121.51,-17.92],[-122.45,-17.51],[-123.39,-17.09],[-124.32,-16.67],[-123.99,-15.91],[-123.66,-15.16],[-123.33,-14.4],[-123,-13.64],[-122.67,-12.89],[-123.52,-12.35],[-124.37,-11.8],[-125.21,-11.26],[-126.05,-10.71],[-126.88,-10.16],[-127.72,-9.61],[-128.55,-9.06],[-129.38,-8.5],[-130.2,-7.94],[-131.02,-7.38],[-131.85,-6.82],[-132.66,-6.26],[-133.48,-5.7],[-134.3,-5.13],[-135.11,-4.57],[-135.92,-4],[-136.74,-3.44],[-137.55,-2.87],[-138.36,-2.3],[-139.17,-1.73],[-139.98,-1.16],[-140.79,-0.59],[-141.14,-0.46],[-141.14,-0.46],[-141.21,0.33],[-141.27,1.13],[-141.33,1.92],[-141.38,2.92],[-141.43,3.91],[-141.48,4.91],[-141.53,5.91],[-141.59,6.91],[-141.64,7.9],[-141.69,8.9],[-141.74,9.9],[-141.79,10.9],[-141.84,11.89],[-141.89,12.89],[-141.94,13.83],[-141.98,14.76],[-142.02,15.7],[-142.06,16.64],[-142.1,17.58],[-141.27,17.66],[-140.43,17.73],[-139.59,17.81],[-138.75,17.88],[-138.76,18.85],[-138.78,19.82],[-138.8,20.79],[-138.81,21.76],[-138.83,22.73],[-138.85,23.7],[-138.87,24.67],[-138.89,25.64],[-138.91,26.61],[-138.93,27.58],[-138.95,28.55],[-138.97,29.52],[-138.99,30.49],[-139.01,31.46],[-139.03,32.43],[-137.96,32.54],[-136.89,32.65],[-135.81,32.75],[-135.78,33.7],[-135.74,34.64],[-135.7,35.59],[-135.66,36.54],[-135.63,37.48],[-135.58,38.43],[-135.54,39.37],[-135.5,40.32],[-135.46,41.27],[-135.41,42.21],[-135.36,43.16],[-135.32,44.11],[-135.27,45.05],[-135.22,46],[-135.16,46.95],[-135.11,47.89],[-133.69,47.93],[-132.26,47.95],[-130.84,47.95],[-129.42,47.93],[-129.35,48.93],[-129.28,49.93],[-129.21,50.93],[-129.13,51.92],[-129.06,52.92],[-128.97,53.92],[-128.89,54.92],[-128.8,55.91],[-128.7,56.91],[-128.6,57.91],[-128.5,58.91],[-128.38,59.9],[-128.26,60.9],[-128.14,61.9],[-128,62.89],[-126.22,62.98],[-124.43,63.04],[-122.64,63.08],[-122.53,64.08],[-122.42,65.07],[-122.3,66.06],[-122.17,67.05],[-122.03,68.04],[-121.88,69.03],[-121.71,70.02],[-121.53,71.01],[-121.32,72],[-121.1,72.99],[-120.84,73.98],[-120.56,74.97],[-120.23,75.96],[-119.86,76.95],[-119.42,77.94],[-114.79,77.99],[-110.16,77.96],[-105.57,77.85],[-104.36,78.71],[-102.96,79.56],[-101.32,80.41],[-99.36,81.25],[-97,82.07],[-94.09,82.88],[-90.46,83.67],[-85.82,84.42],[-85.82,84.42],[-78.65,84.05],[-72.12,83.67],[-66.39,83.22],[-61.41,82.72],[-57.1,82.16],[-57.1,82.16],[-58.28,81.67],[-59.33,81.17],[-60.4,80.57],[-61.34,79.97],[-61.58,79.27],[-61.79,78.56],[-62.21,77.84],[-62.57,77.12],[-63.74,76.5],[-64.8,75.88],[-66.24,75.12],[-67.54,74.35],[-68.72,73.58],[-69.64,73.02],[-70.5,72.47],[-70.5,72.47],[-69.78,71.67],[-69.12,70.87],[-68.5,70.06],[-67.93,69.26],[-67.14,68.56],[-66.39,67.85],[-65.68,67.14],[-64.61,66.29],[-63.61,65.44],[-62.68,64.83],[-61.78,64.21],[-60.93,63.59],[-59.82,63.01],[-58.75,62.42],[-57.73,61.82],[-56.56,61.29],[-55.44,60.76],[-55.44,60.76],[-57.23,60.46],[-58.99,60.14],[-60.72,59.8],[-62.22,59.43],[-63.69,59.04],[-65.13,58.63],[-66.53,58.21],[-67.9,57.77],[-69.23,57.32],[-70.83,56.87],[-72.38,56.41],[-73.9,55.92],[-75.38,55.42],[-75.38,55.42],[-74.83,54.56],[-74.7,53.76],[-74.59,52.96],[-74.47,52.16],[-74.35,51.31],[-74.23,50.47],[-74.12,49.63],[-74.13,48.82],[-74.14,48.01],[-74.15,47.2],[-74.16,46.38],[-74.07,45.66],[-73.99,44.93],[-73.9,44.21],[-73.67,43.26],[-73.45,42.31],[-73.23,41.36],[-72.86,40.5],[-72.5,39.64],[-72.15,38.78],[-72.07,38.25],[-71.99,37.73],[-71.99,37.73],[-71.29,38.02],[-70.57,38.3],[-69.41,38.52],[-68.24,38.72],[-67.06,38.92],[-65.87,39.1],[-64.68,39.27],[-63.48,39.43],[-62.28,39.58],[-61.08,39.49],[-59.89,39.38],[-58.7,39.27],[-57.51,39.14],[-56.33,39],[-55.15,38.85],[-53.98,38.68],[-52.81,38.51],[-51.65,38.32],[-50.5,38.14],[-49.36,37.96],[-48.23,37.76],[-47.1,37.55],[-47.1,37.55],[-47.3,36.61],[-47.51,35.67],[-47.7,34.73],[-47.9,33.79],[-48.09,32.85],[-48.52,31.98],[-48.95,31.1],[-49.38,30.23],[-49.38,30.23],[-49.93,29.68],[-50.48,29.14],[-51.02,28.59],[-51.69,27.86],[-52.36,27.14],[-53.02,26.41],[-53.67,25.68],[-54.09,24.91],[-54.51,24.14],[-54.93,23.37],[-55.34,22.59],[-55.74,21.81],[-55.7,21.04],[-55.67,20.27],[-55.63,19.5],[-55.59,18.73],[-55.47,17.78],[-55.35,16.83],[-55.23,15.88],[-55.11,14.93],[-54.99,13.98],[-54.87,13.03],[-54.76,12.08],[-54.68,11.24],[-54.61,10.39],[-54.53,9.55],[-54.46,8.7],[-54.39,7.86],[-54.39,7.86],[-54.42,7.79],[-54.87,7.32],[-55.31,6.84],[-55.85,6.38],[-56.4,5.92],[-56.79,5.56],[-57.19,5.2],[-57.46,4.48],[-57.73,3.76],[-58,3.04],[-58.2,2.25],[-58.4,1.45],[-58.59,0.66],[-58.74,-0.1],[-58.89,-0.85],[-59.04,-1.61],[-59.13,-2.36],[-59.22,-3.1],[-58.82,-3.73],[-58.43,-4.36],[-58.22,-5.05],[-58.01,-5.73],[-57.8,-6.42],[-57.52,-7.05],[-57.25,-7.69],[-56.94,-8.24],[-56.63,-8.79],[-56.63,-8.79],[-56.7,-8.88],[-56.9,-9.18],[-57.12,-9.52],[-57.21,-9.75],[-57.31,-9.94],[-57.47,-10.29],[-57.6,-10.54],[-57.7,-10.78],[-57.81,-11.04],[-58.17,-11.83],[-58.54,-12.62],[-58.9,-13.4],[-59.27,-14.19],[-59.64,-14.97],[-59.61,-15.84],[-59.58,-16.71],[-59.55,-17.58],[-59.49,-18.44],[-59.43,-19.3],[-59.37,-20.16],[-59.31,-21.02],[-59.25,-21.88],[-59.19,-22.74],[-59.01,-23.56],[-58.83,-24.38],[-58.65,-25.2],[-58.5,-25.89],[-58.35,-26.58],[-58.2,-27.27],[-57.66,-28.07],[-57.6,-28.6],[-57.54,-29.12],[-57.42,-29.87],[-57.46,-30.42],[-57.43,-30.79],[-57.43,-31.07],[-57.43,-31.07],[-57.43,-31.67],[-57.57,-32.15],[-57.83,-32.98],[-58.02,-33.43],[-58.11,-34.15],[-58.23,-34.71],[-58.27,-35.03],[-58.36,-35.42],[-58.43,-35.85],[-58.53,-36.37],[-58.63,-36.88],[-59.86,-36.89]]]}},{"type":"Feature","properties":{"ma":205,"type":"gpml:TopologicalClosedPlateBoundary","name":"Izanagi Plate","pid":926,"deforming":false},"geometry":{"type":"MultiPolygon","coordinates":[[[[180,74.77],[180,73.78],[180,72.79],[180,71.8],[180,70.81],[180,69.81],[180,68.82],[180,67.83],[180,66.84],[180,65.85],[180,64.86],[180,63.86],[180,62.87],[180,61.88],[180,60.89],[180,59.9],[180,58.91],[180,57.91],[180,56.92],[180,55.93],[180,54.94],[180,53.95],[180,52.96],[180,51.97],[180,50.97],[180,49.98],[180,48.99],[180,48],[180,47.01],[180,46.02],[180,45.02],[180,44.03],[180,43.04],[180,42.05],[180,41.06],[180,40.07],[180,39.08],[180,38.08],[180,37.09],[180,36.1],[180,35.11],[180,34.12],[180,33.13],[180,32.13],[180,31.14],[180,30.15],[180,29.16],[180,28.17],[180,27.18],[180,26.18],[180,25.19],[180,24.2],[180,23.21],[180,22.22],[180,21.23],[180,20.24],[180,19.24],[180,18.25],[180,17.26],[180,16.27],[180,15.28],[180,14.29],[180,13.29],[180,12.3],[180,11.31],[180,10.32],[180,9.33],[180,8.34],[180,7.35],[180,6.35],[180,5.36],[180,4.37],[180,3.38],[180,2.39],[180,1.4],[180,0.4],[180,-0.59],[180,-1.58],[180,-2.57],[180,-3.56],[180,-4.55],[180,-5.55],[179.1,-5.91],[178.19,-6.26],[177.29,-6.62],[176.38,-6.98],[175.47,-7.33],[174.57,-7.68],[173.66,-8.03],[172.74,-8.38],[171.83,-8.73],[170.91,-9.07],[170,-9.41],[169.08,-9.75],[168.16,-10.09],[167.23,-10.42],[166.83,-9.53],[166.43,-8.64],[166.03,-7.76],[165.13,-8.05],[164.23,-8.34],[163.33,-8.63],[162.42,-8.91],[161.52,-9.2],[160.61,-9.48],[159.7,-9.76],[158.79,-10.03],[157.88,-10.31],[156.97,-10.58],[156.05,-10.85],[155.13,-11.12],[154.22,-11.38],[153.3,-11.64],[152.38,-11.9],[151.45,-12.15],[151.01,-11.36],[150.57,-10.57],[150.14,-9.78],[149.7,-8.99],[149.27,-8.2],[148.46,-8.75],[147.65,-9.29],[146.84,-9.83],[146.02,-10.37],[145.2,-10.91],[144.38,-11.44],[143.56,-11.98],[142.73,-12.51],[141.9,-13.04],[141.06,-13.56],[140.22,-14.09],[139.38,-14.61],[138.53,-15.12],[137.68,-15.64],[136.83,-16.15],[135.97,-16.65],[135.11,-17.16],[134.24,-17.66],[134.24,-17.66],[133.92,-16.77],[133.6,-15.87],[133.29,-14.98],[132.98,-14.09],[132.98,-14.09],[132.04,-13.71],[131.1,-13.32],[130.16,-12.93],[129.23,-12.53],[128.3,-12.14],[127.41,-11.63],[126.53,-11.13],[125.66,-10.63],[124.78,-10.12],[123.91,-9.61],[123.04,-9.09],[122.18,-8.58],[121.29,-8.39],[120.4,-8.2],[119.51,-8.01],[118.62,-7.81],[117.74,-7.61],[116.85,-7.42],[115.97,-7.22],[115.97,-7.22],[116.27,-6.28],[116.57,-5.35],[116.87,-4.41],[117.17,-3.48],[117.47,-2.54],[117.77,-1.61],[118.06,-0.67],[118.36,0.26],[118.66,1.2],[118.95,2.13],[119.25,3.06],[119.54,3.99],[120.02,4.55],[120.5,5.12],[120.97,5.68],[121.68,6.13],[122.38,6.58],[123.09,7.03],[123.79,7.47],[124.46,8.01],[125.14,8.54],[125.81,9.07],[126.49,9.6],[127.15,10.12],[127.82,10.64],[128.49,11.16],[129.16,11.68],[129.84,12.2],[129.98,13.18],[130.12,14.17],[130.26,15.16],[130.41,16.15],[130.11,17.01],[129.8,17.88],[129.5,18.74],[129.24,19.66],[128.98,20.57],[128.45,21.37],[127.91,22.17],[127.56,22.85],[127.2,23.53],[126.83,24.21],[126.12,24.61],[125.4,25.01],[124.67,25.4],[123.72,25.48],[122.77,25.55],[121.82,25.61],[120.87,25.67],[119.92,25.73],[119.92,25.73],[120.59,26.31],[121.27,26.88],[121.96,27.45],[122.65,28.02],[123.35,28.59],[123.34,29.45],[123.32,30.32],[123.31,31.18],[123.29,32.05],[123.59,32.98],[123.89,33.91],[124.2,34.84],[124.52,35.77],[124.85,36.7],[125.18,37.62],[125.52,38.55],[125.87,39.47],[126.58,40.07],[127.3,40.66],[128.04,41.25],[128.79,41.83],[129.72,42.36],[130.67,42.88],[131.63,43.39],[132.61,43.9],[133.6,44.39],[133.66,44.42],[133.66,44.42],[134.02,45.25],[134.39,46.08],[134.78,46.91],[135.17,47.73],[135.81,48.54],[136.46,49.34],[137.14,50.14],[137.84,50.93],[138.56,51.72],[139.31,52.51],[140.09,53.29],[141.14,53.85],[142.22,54.41],[143.32,54.95],[144.45,55.48],[145.62,56.01],[147.05,56.4],[148.51,56.78],[150,57.15],[151.52,57.49],[153.07,57.82],[154.04,58.49],[155.04,59.15],[156.08,59.81],[157.16,60.46],[158.28,61.09],[159.42,61.78],[160.6,62.45],[161.84,63.12],[163.14,63.77],[164.5,64.41],[165.92,65.04],[167.41,65.66],[168.12,66.6],[168.88,67.55],[169.71,68.48],[170.61,69.42],[171.59,70.35],[172.66,71.27],[173.84,72.19],[175.14,73.1],[176.58,74],[178.19,74.89],[180,75.76],[180,74.77]]],[[[-180,-4.55],[-180,-3.56],[-180,-2.57],[-180,-1.58],[-180,-0.59],[-180,0.4],[-180,1.4],[-180,2.39],[-180,3.38],[-180,4.37],[-180,5.36],[-180,6.35],[-180,7.35],[-180,8.34],[-180,9.33],[-180,10.32],[-180,11.31],[-180,12.3],[-180,13.29],[-180,14.29],[-180,15.28],[-180,16.27],[-180,17.26],[-180,18.25],[-180,19.24],[-180,20.24],[-180,21.23],[-180,22.22],[-180,23.21],[-180,24.2],[-180,25.19],[-180,26.18],[-180,27.18],[-180,28.17],[-180,29.16],[-180,30.15],[-180,31.14],[-180,32.13],[-180,33.13],[-180,34.12],[-180,35.11],[-180,36.1],[-180,37.09],[-180,38.08],[-180,39.08],[-180,40.07],[-180,41.06],[-180,42.05],[-180,43.04],[-180,44.03],[-180,45.02],[-180,46.02],[-180,47.01],[-180,48],[-180,48.99],[-180,49.98],[-180,50.97],[-180,51.97],[-180,52.96],[-180,53.95],[-180,54.94],[-180,55.93],[-180,56.92],[-180,57.91],[-180,58.91],[-180,59.9],[-180,60.89],[-180,61.88],[-180,62.87],[-180,63.86],[-180,64.86],[-180,65.85],[-180,66.84],[-180,67.83],[-180,68.82],[-180,69.81],[-180,70.81],[-180,71.8],[-180,72.79],[-180,73.78],[-180,74.77],[-180,75.76],[-178.35,76.47],[-176.53,77.16],[-174.72,78.02],[-172.64,78.85],[-170.24,79.68],[-167.43,80.48],[-164.11,81.25],[-160.18,81.99],[-155.47,82.69],[-149.83,83.33],[-143.09,83.89],[-135.13,84.35],[-125.97,84.68],[-115.89,84.86],[-105.4,84.88],[-95.19,84.73],[-85.82,84.42],[-85.82,84.42],[-90.46,83.67],[-94.09,82.88],[-97,82.07],[-99.36,81.25],[-101.32,80.41],[-102.96,79.56],[-104.36,78.71],[-105.57,77.85],[-110.16,77.96],[-114.79,77.99],[-119.42,77.94],[-119.86,76.95],[-120.23,75.96],[-120.56,74.97],[-120.84,73.98],[-121.1,72.99],[-121.32,72],[-121.53,71.01],[-121.71,70.02],[-121.88,69.03],[-122.03,68.04],[-122.17,67.05],[-122.3,66.06],[-122.42,65.07],[-122.53,64.08],[-122.64,63.08],[-124.43,63.04],[-126.22,62.98],[-128,62.89],[-128.14,61.9],[-128.26,60.9],[-128.38,59.9],[-128.5,58.91],[-128.6,57.91],[-128.7,56.91],[-128.8,55.91],[-128.89,54.92],[-128.97,53.92],[-129.06,52.92],[-129.13,51.92],[-129.21,50.93],[-129.28,49.93],[-129.35,48.93],[-129.42,47.93],[-130.84,47.95],[-132.26,47.95],[-133.69,47.93],[-135.11,47.89],[-135.16,46.95],[-135.22,46],[-135.27,45.05],[-135.32,44.11],[-135.36,43.16],[-135.41,42.21],[-135.46,41.27],[-135.5,40.32],[-135.54,39.37],[-135.58,38.43],[-135.63,37.48],[-135.66,36.54],[-135.7,35.59],[-135.74,34.64],[-135.78,33.7],[-135.81,32.75],[-136.89,32.65],[-137.96,32.54],[-139.03,32.43],[-139.01,31.46],[-138.99,30.49],[-138.97,29.52],[-138.95,28.55],[-138.93,27.58],[-138.91,26.61],[-138.89,25.64],[-138.87,24.67],[-138.85,23.7],[-138.83,22.73],[-138.81,21.76],[-138.8,20.79],[-138.78,19.82],[-138.76,18.85],[-138.75,17.88],[-139.59,17.81],[-140.43,17.73],[-141.27,17.66],[-142.1,17.58],[-142.06,16.64],[-142.02,15.7],[-141.98,14.76],[-141.94,13.83],[-141.89,12.89],[-141.84,11.89],[-141.79,10.9],[-141.74,9.9],[-141.69,8.9],[-141.64,7.9],[-141.59,6.91],[-141.53,5.91],[-141.48,4.91],[-141.43,3.91],[-141.38,2.92],[-141.33,1.92],[-141.27,1.14],[-141.21,0.37],[-141.21,0.37],[-142.09,-0.01],[-142.96,-0.38],[-143.86,-0.69],[-144.77,-0.99],[-145.67,-1.3],[-146.57,-1.61],[-147.47,-1.91],[-148.37,-2.22],[-149.28,-2.52],[-150.18,-2.83],[-151.08,-3.13],[-151.99,-3.43],[-152.89,-3.73],[-153.8,-4.04],[-154.71,-4.34],[-155.61,-4.64],[-156.52,-4.93],[-157.43,-5.23],[-157.78,-4.35],[-158.13,-3.47],[-158.48,-2.59],[-159.4,-2.97],[-160.32,-3.35],[-161.25,-3.73],[-162.17,-4.11],[-163.09,-4.49],[-164.01,-4.86],[-164.94,-5.24],[-165.86,-5.61],[-166.79,-5.99],[-167.72,-6.36],[-168.01,-5.45],[-168.3,-4.55],[-168.59,-3.65],[-169.51,-4.02],[-170.43,-4.4],[-171.35,-4.77],[-172.27,-5.14],[-173.19,-5.52],[-174.12,-5.89],[-175.04,-6.25],[-175.97,-6.62],[-176.9,-6.99],[-177.83,-7.35],[-178.16,-6.59],[-178.48,-5.83],[-178.81,-5.07],[-179.4,-5.31],[-180,-5.55],[-180,-4.55]]]]}},{"type":"Feature","properties":{"ma":205,"type":"gpml:TopologicalClosedPlateBoundary","name":"South China plate","pid":602,"deforming":false},"geometry":{"type":"Polygon","coordinates":[[[119.79,25.73],[118.71,25.72],[117.63,25.7],[116.55,25.68],[115.47,25.64],[114.39,25.6],[113.43,25.79],[112.47,25.98],[111.51,26.16],[110.54,26.33],[109.57,26.49],[108.64,26.7],[107.7,26.91],[106.75,27.1],[105.81,27.3],[104.86,27.48],[103.89,27.85],[102.92,28.21],[101.94,28.56],[101.03,28.93],[100.12,29.3],[99.2,29.67],[98.28,30.02],[98.28,30.02],[97.28,30.51],[96.27,30.99],[95.25,31.46],[94.22,31.92],[93.53,32.54],[92.84,33.16],[92.14,33.77],[91.43,34.38],[90.62,35.07],[89.81,35.75],[88.98,36.43],[88.14,37.1],[87.28,37.76],[86.76,38.53],[86.23,39.29],[85.69,40.05],[85.13,40.81],[84.56,41.56],[84.21,42.51],[83.84,43.45],[83.47,44.4],[83.08,45.34],[83.08,45.34],[84.06,45.9],[85.07,46.46],[86.09,47],[87.14,47.53],[88.21,48.06],[89.3,48.57],[90.41,49.08],[91.54,49.57],[92.2,49.9],[92.86,50.22],[92.86,50.22],[93.05,50.24],[94.52,50.35],[96,50.46],[97.32,50.75],[98.65,51.04],[99.92,51.52],[101.2,51.98],[102.4,52.48],[103.62,52.97],[104.48,53.13],[105.34,53.29],[106.92,53.26],[107.81,53.41],[108.71,53.55],[110.25,53.4],[111.78,53.23],[113.06,53],[114.33,52.75],[115.59,52.49],[116.82,52.22],[118.19,52.02],[119.29,52.1],[120.03,52.88],[120.55,52.91],[121.53,52.93],[122.5,52.94],[124.06,53.17],[125.13,53.51],[126.21,53.84],[126.21,53.84],[127.31,53.8],[128.4,53.75],[129.34,53.72],[130.28,53.69],[131.48,53.78],[132.69,53.85],[134.09,53.96],[135.51,54.05],[136.57,54.61],[137.76,54.73],[139.46,54.76],[141.17,54.76],[142.87,54.73],[142.87,54.73],[141.92,54.26],[141,53.78],[140.09,53.29],[139.31,52.51],[138.56,51.72],[137.84,50.93],[137.14,50.14],[136.46,49.34],[135.81,48.54],[135.17,47.73],[134.78,46.91],[134.39,46.08],[134.02,45.25],[133.66,44.42],[133.66,44.42],[133.6,44.39],[132.61,43.9],[131.63,43.39],[130.67,42.88],[129.72,42.36],[128.79,41.83],[128.04,41.25],[127.3,40.66],[126.58,40.07],[125.87,39.47],[125.52,38.55],[125.18,37.62],[124.85,36.7],[124.52,35.77],[124.2,34.84],[123.89,33.91],[123.59,32.98],[123.29,32.05],[123.31,31.18],[123.32,30.32],[123.34,29.45],[123.35,28.59],[122.65,28.02],[121.96,27.45],[121.27,26.88],[120.59,26.31],[119.92,25.73],[119.79,25.73]]]}},{"type":"Feature","properties":{"ma":205,"type":"gpml:TopologicalNetwork","name":"Central_Atlantic_Mesh","pid":101,"deforming":true},"geometry":{"type":"Polygon","coordinates":[[[-3.33,6.44],[-3.58,5.94],[-3.83,5.44],[-4.35,5.04],[-4.87,4.64],[-4.55,4.34],[-4.55,4.34],[-4.81,4.26],[-5.44,4.05],[-5.97,4.25],[-6.56,4.38],[-6.88,4.57],[-7.2,4.75],[-7.69,4.95],[-8.12,5.24],[-8.72,5.43],[-9.17,5.39],[-9.84,5.15],[-10.66,5.07],[-11.39,4.95],[-11.94,4.69],[-12.85,4.44],[-13.29,4.13],[-14.09,3.77],[-14.83,3.49],[-15.37,3.6],[-15.53,3.7],[-16.04,3.74],[-16.98,3.81],[-17.86,4.01],[-18,3.92],[-18.48,3.72],[-18.96,3.53],[-19.32,3.1],[-19.69,2.68],[-19.96,2.25],[-20.23,1.82],[-20.49,1.21],[-20.84,0.69],[-21.25,0.15],[-21.47,-0.04],[-21.73,-0.27],[-21.88,-0.69],[-21.97,-1.13],[-22.07,-1.91],[-22.31,-2.33],[-22.54,-2.68],[-22.85,-2.88],[-23.05,-3.15],[-23.21,-3.4],[-23.43,-3.75],[-23.87,-3.7],[-24.29,-3.68],[-24.92,-3.93],[-25.31,-4.22],[-25.59,-4.58],[-25.82,-5.35],[-26.06,-6.23],[-26.08,-6.82],[-25.97,-7.05],[-25.97,-7.05],[-26.01,-7.03],[-26.37,-6.93],[-26.37,-6.93],[-26.49,-6.85],[-26.49,-6.85],[-26.95,-7.42],[-27.41,-7.99],[-27.54,-8.02],[-27.54,-8.02],[-27.64,-7.95],[-27.79,-7.75],[-27.81,-7.5],[-27.86,-7.21],[-27.8,-6.96],[-27.8,-6.72],[-27.93,-6.42],[-27.93,-6.27],[-27.89,-6.16],[-27.94,-5.97],[-28.03,-5.86],[-28.15,-5.75],[-28.23,-5.6],[-28.42,-5.32],[-28.65,-5],[-28.79,-4.77],[-28.74,-4.52],[-28.63,-4.17],[-28.63,-3.99],[-28.83,-3.87],[-28.94,-3.59],[-29.05,-3.45],[-29.17,-3.43],[-29.31,-3.08],[-29.43,-2.73],[-29.58,-2.4],[-29.63,-2.03],[-29.77,-1.65],[-29.9,-1.29],[-29.95,-1.08],[-29.98,-0.83],[-30.03,-0.6],[-30.03,-0.6],[-29.99,-0.56],[-29.6,-0.26],[-29.23,0.02],[-29.1,0.22],[-28.77,0.3],[-28.45,0.37],[-27.94,0.51],[-27.3,0.62],[-26.67,0.74],[-26.11,1.15],[-25.64,1.58],[-25.42,2.34],[-25.23,2.95],[-24.6,3.25],[-23.83,3.77],[-23.48,4.06],[-22.99,4.51],[-22.5,4.97],[-22.22,5.41],[-22.04,5.84],[-21.63,5.99],[-21.5,6.09],[-21.26,6.07],[-20.96,5.98],[-20.68,5.97],[-20.22,6.1],[-19.97,6.13],[-19.8,6.12],[-19.48,6.38],[-19.15,6.64],[-18.68,6.76],[-18.33,7.07],[-18.12,7.63],[-17.87,7.71],[-17.49,7.56],[-16.98,7.82],[-16.51,7.83],[-15.75,7.88],[-14.96,8.01],[-14.45,8.14],[-13.68,8.27],[-13.17,8.56],[-12.48,8.95],[-11.89,9.2],[-11.35,9.33],[-10.72,9.45],[-10.39,9.47],[-9.91,9.37],[-9.25,9.3],[-8.68,9.35],[-8.2,9.38],[-7.7,9.38],[-7.18,9.37],[-6.55,9.33],[-5.83,9.16],[-5.16,8.99],[-4.39,8.88],[-4.05,8.77],[-3.88,8.56],[-3.66,8.47],[-3.53,8.33],[-3.41,8.23],[-3.24,8.05],[-2.98,7.87],[-3.04,7.76],[-3.19,7.65],[-3.5,7.66],[-3.48,7.46],[-3.35,7.24],[-3.04,7.41],[-2.99,7.42],[-2.86,7.39],[-2.88,7.17],[-2.88,7.14],[-3.33,6.44]]]}},{"type":"Feature","properties":{"ma":205,"type":"gpml:TopologicalNetwork","name":"Proto_Caribbean_Mesh","pid":101,"deforming":true},"geometry":{"type":"Polygon","coordinates":[[[-30.7,-1.22],[-30.4,-0.93],[-30.03,-0.6],[-30.03,-0.6],[-29.98,-0.83],[-29.95,-1.08],[-29.9,-1.29],[-29.77,-1.65],[-29.63,-2.03],[-29.58,-2.4],[-29.43,-2.73],[-29.31,-3.08],[-29.17,-3.43],[-29.05,-3.45],[-28.94,-3.59],[-28.83,-3.87],[-28.63,-3.99],[-28.63,-4.17],[-28.74,-4.52],[-28.79,-4.77],[-28.65,-5],[-28.42,-5.32],[-28.23,-5.6],[-28.15,-5.75],[-28.03,-5.86],[-27.94,-5.97],[-27.89,-6.16],[-27.93,-6.27],[-27.93,-6.42],[-27.8,-6.72],[-27.8,-6.96],[-27.86,-7.21],[-27.81,-7.5],[-27.79,-7.75],[-27.64,-7.95],[-27.54,-8.02],[-27.54,-8.02],[-28.3,-8.18],[-29.06,-8.34],[-29.82,-8.5],[-30.43,-8.69],[-31.04,-8.88],[-31.62,-8.85],[-32.19,-8.82],[-32.71,-8.75],[-33.22,-8.69],[-34.11,-8.37],[-34.89,-8.26],[-35.66,-8.16],[-36.33,-8.03],[-37,-7.9],[-37.67,-7.76],[-38.42,-7.89],[-39.17,-8.01],[-39.8,-8.47],[-40.43,-8.94],[-41.04,-9.01],[-41.65,-9.09],[-42.17,-9.19],[-42.69,-9.3],[-43.26,-9.37],[-43.83,-9.43],[-44.46,-9.64],[-45.1,-9.85],[-45.75,-10.18],[-46.41,-10.52],[-47.16,-10.87],[-47.91,-11.22],[-48.73,-11.36],[-49.56,-11.51],[-50.42,-11.25],[-51.28,-11],[-51.94,-10.63],[-52.6,-10.26],[-53.11,-10.03],[-53.62,-9.81],[-54.2,-9.68],[-54.79,-9.55],[-55.35,-9.63],[-55.91,-9.71],[-56.14,-9.69],[-56.14,-9.69],[-56.18,-9.61],[-56.54,-8.97],[-56.89,-8.33],[-57.25,-7.69],[-57.52,-7.05],[-57.8,-6.42],[-58.01,-5.73],[-58.22,-5.05],[-58.43,-4.36],[-58.82,-3.73],[-59.22,-3.1],[-59.2,-2.94],[-59.2,-2.94],[-58.31,-2.85],[-57.36,-2.67],[-56.42,-2.49],[-55.65,-2.31],[-54.89,-2.13],[-53.94,-1.93],[-52.99,-1.74],[-52.2,-1.59],[-51.41,-1.44],[-50.73,-0.94],[-50.05,-0.44],[-49.44,-0.07],[-48.78,0.65],[-48.39,1.02],[-48,1.38],[-47.73,2.08],[-47,2.72],[-46.27,3.37],[-45.53,4.02],[-44.84,4.41],[-44.15,4.8],[-43.46,5.19],[-42.94,5.14],[-42.42,5.1],[-41.42,5.09],[-40.91,4.93],[-40.41,4.76],[-39.69,4.56],[-38.98,4.36],[-38.18,3.78],[-37.72,3.51],[-37.26,3.23],[-36.78,2.99],[-36.3,2.74],[-35.81,2.45],[-35.33,2.16],[-34.66,1.78],[-34.03,1.23],[-33.32,0.77],[-32.6,0.31],[-32.1,-0.18],[-31.61,-0.66],[-30.9,-1.33],[-30.89,-1.34],[-30.7,-1.22]]]}}]}