{"type":"FeatureCollection","features":[{"type":"Feature","properties":{"ma":170,"type":"gpml:TopologicalNetwork","name":"Amer_anyui_mesh","pid":101,"deforming":true},"geometry":{"type":"Polygon","coordinates":[[[-3.97,50.59],[-5.28,50.66],[-6.59,50.72],[-7.9,50.77],[-9.35,50.67],[-10.79,50.54],[-12.06,50.64],[-13.33,50.72],[-14.4,50.9],[-15.49,51.07],[-16.58,51.23],[-17.76,51.48],[-18.96,51.71],[-20.16,51.93],[-21.35,51.89],[-22.54,51.83],[-24,51.57],[-25.45,51.28],[-26.35,51.08],[-27.25,50.87],[-28.04,50.71],[-28.84,50.54],[-29.6,50.37],[-30.36,50.19],[-31.26,50.09],[-31.72,50.07],[-31.85,50.12],[-31.85,50.12],[-31.73,50.19],[-31.56,50.31],[-31.11,50.81],[-30.11,51.39],[-29.86,51.6],[-29.07,52.26],[-28.76,52.45],[-28.12,52.69],[-27.36,53.14],[-26.58,53.57],[-25.5,54.3],[-24.78,54.52],[-24.19,54.67],[-23.07,54.83],[-22.47,54.86],[-21.78,55],[-21.04,55.14],[-20.21,55.17],[-19.26,55.2],[-18.46,55.21],[-17.42,55.23],[-16.53,55.23],[-15.47,55.22],[-14.47,55.2],[-13.1,55.17],[-11.74,55.12],[-10.17,54.9],[-8.61,54.67],[-7.08,54.42],[-5.73,54.1],[-4.4,53.78],[-4.4,53.78],[-4.2,52.87],[-4.01,51.95],[-3.83,51.04],[-3.97,50.59]]]}},{"type":"Feature","properties":{"ma":170,"type":"gpml:TopologicalNetwork","name":"East_West_Gondwana_Mesh","pid":802,"deforming":true},"geometry":{"type":"Polygon","coordinates":[[[46.76,-27.43],[47.15,-28.16],[47.54,-28.89],[47.95,-29.61],[48.35,-30.33],[48.77,-31.05],[48.96,-31.2],[48.96,-31.2],[48.31,-31.88],[48.03,-31.99],[47.46,-32.21],[46.41,-32.61],[45.68,-33.06],[44.94,-33.5],[44.06,-33.88],[43.17,-34.26],[42.52,-34.87],[41.87,-35.48],[41.08,-36.17],[40.28,-36.86],[39.46,-37.54],[38.88,-38.11],[38.29,-38.68],[37.69,-39.25],[37.09,-39.76],[36.48,-40.27],[35.86,-40.78],[35.46,-41.57],[35.05,-42.36],[34.27,-42.97],[33.48,-43.57],[32.82,-44.05],[32.15,-44.52],[31.35,-44.75],[30.55,-44.97],[29.57,-45.31],[28.57,-45.65],[27.61,-45.86],[26.64,-46.06],[25.66,-46.25],[24.6,-46.44],[23.54,-46.63],[22.46,-46.81],[21.08,-47.1],[19.67,-47.38],[18.97,-48.06],[18.25,-48.74],[17.54,-49.49],[16.81,-50.23],[16.33,-51.07],[15.83,-51.91],[15.44,-52.61],[15.03,-53.3],[14.98,-54.19],[14.93,-55.07],[14.53,-55.92],[14.11,-56.77],[13.38,-57.44],[12.62,-58.11],[11.83,-58.77],[10.29,-59.17],[8.71,-59.55],[7.37,-59.97],[5.99,-60.38],[4.76,-60.42],[3.52,-60.45],[1.96,-60.29],[0.41,-60.11],[-0.9,-60.13],[-2.2,-60.14],[-3.46,-60.32],[-4.73,-60.5],[-6,-60.59],[-7.27,-60.67],[-8.66,-60.93],[-10.07,-61.17],[-12.04,-61.3],[-14.03,-61.39],[-15.77,-61.77],[-17.55,-62.12],[-19.37,-62.45],[-20.44,-63.03],[-21.56,-63.61],[-23.14,-64.07],[-24.76,-64.52],[-26.44,-64.94],[-28.5,-65.32],[-30.62,-65.68],[-32.79,-65.84],[-35,-65.98],[-37.22,-66.08],[-39.46,-66.16],[-41.47,-66.28],[-43.5,-66.38],[-45.54,-66.45],[-47.59,-66.49],[-49.65,-66.51],[-51.99,-66.41],[-54.32,-66.27],[-56.61,-66.1],[-58.88,-65.9],[-61.1,-65.66],[-63.28,-65.4],[-65.45,-65.1],[-67.57,-64.76],[-69.63,-64.4],[-71.64,-64.01],[-71.64,-64.01],[-70.69,-63.42],[-70.69,-63.42],[-70.63,-63.12],[-70.57,-62.95],[-70.55,-62.64],[-70.67,-62.23],[-70.75,-61.85],[-70.75,-61.84],[-70.75,-61.84],[-69,-62.06],[-67.23,-62.26],[-65.43,-62.44],[-63.68,-62.67],[-61.9,-62.88],[-60.09,-63.07],[-58.26,-63.23],[-56.41,-63.37],[-54.87,-63.39],[-53.32,-63.4],[-51.78,-63.39],[-49.65,-63.52],[-47.51,-63.62],[-45.36,-63.69],[-43.25,-63.55],[-41.15,-63.38],[-39.09,-63.18],[-37.59,-63.06],[-36.11,-62.93],[-34.43,-62.83],[-32.76,-62.71],[-30.58,-62.73],[-28.4,-62.71],[-26.23,-62.65],[-24.68,-62.51],[-23.14,-62.35],[-21.62,-62.17],[-20.55,-61.73],[-19.52,-61.28],[-18.52,-60.82],[-17.08,-60.47],[-15.67,-60.1],[-13.96,-59.76],[-12.29,-59.39],[-10.47,-59.27],[-8.67,-59.12],[-7.67,-58.71],[-6.7,-58.29],[-5.62,-57.88],[-4.56,-57.46],[-2.91,-57.38],[-1.94,-56.93],[-0.25,-56.68],[0.86,-56.67],[1.98,-56.65],[3.62,-56.56],[5.25,-56.45],[6.44,-56.08],[7.61,-55.7],[8.49,-54.85],[8.92,-54.03],[9.34,-53.22],[9.44,-52.45],[9.53,-51.67],[9.81,-50.95],[10.07,-50.22],[10.31,-49.44],[10.53,-48.65],[11.12,-48.02],[11.69,-47.38],[12.17,-46.96],[12.65,-46.54],[13.44,-46.12],[14.21,-45.68],[15.13,-45.25],[16.04,-44.82],[16.59,-44.18],[17.13,-43.54],[17.66,-42.9],[18.4,-42.33],[19.12,-41.76],[19.83,-41.19],[20.19,-40.41],[20.54,-39.62],[20.95,-38.8],[21.35,-37.98],[22.04,-37.57],[22.72,-37.16],[23.68,-36.76],[24.63,-36.35],[25.62,-36.23],[26.61,-36.1],[27.48,-36],[28.35,-35.9],[29.3,-35.72],[30.25,-35.53],[30.97,-35.14],[31.68,-34.74],[32.03,-34.31],[32.38,-33.88],[32.76,-33.48],[33.13,-33.08],[33.74,-32.88],[34.34,-32.67],[35.24,-32.35],[36.14,-32.03],[36.98,-31.63],[37.82,-31.22],[38.65,-30.81],[39.29,-30.31],[39.93,-29.81],[40.57,-29.31],[41.28,-28.81],[41.99,-28.31],[42.79,-27.69],[43.58,-27.07],[44.36,-26.44],[44.97,-25.78],[45.56,-26.33],[46.16,-26.88],[46.76,-27.43]]]}},{"type":"Feature","properties":{"ma":170,"type":"gpml:TopologicalClosedPlateBoundary","name":"East Gondwana Plate","pid":801,"deforming":false},"geometry":{"type":"Polygon","coordinates":[[[180,-74.91],[180,-75.86],[180,-76.8],[180,-77.74],[180,-78.68],[180,-79.63],[180,-80.57],[180,-81.51],[180,-82.46],[180,-83.4],[180,-84.34],[180,-85.29],[180,-86.23],[180,-87.17],[180,-88.11],[180,-89.06],[180,-90],[-180,-90],[-180,-89.06],[-180,-88.11],[-180,-87.17],[-180,-86.23],[-180,-85.29],[-180,-84.34],[-180,-83.4],[-180,-82.46],[-180,-81.51],[-180,-80.57],[-180,-79.63],[-180,-78.68],[-180,-77.74],[-180,-76.8],[-180,-75.86],[-180,-74.91],[-180,-73.97],[-176.87,-74.01],[-173.73,-74],[-170.6,-73.95],[-167.5,-73.85],[-164.45,-73.71],[-161.45,-73.52],[-158.53,-73.3],[-155.2,-73.53],[-151.78,-73.71],[-148.31,-73.83],[-144.8,-73.9],[-141.27,-73.9],[-138.04,-74],[-134.78,-74.06],[-131.51,-74.06],[-128.25,-74.01],[-125.01,-73.92],[-122.15,-73.79],[-119.33,-73.62],[-116.57,-73.42],[-113.88,-73.18],[-111.26,-72.91],[-108.73,-72.61],[-106.28,-72.27],[-103.92,-71.9],[-101.76,-71.56],[-99.67,-71.18],[-97.67,-70.79],[-95.75,-70.37],[-93.49,-70.07],[-91.31,-69.74],[-89.19,-69.38],[-87.14,-69],[-84.82,-68.58],[-82.59,-68.12],[-80.44,-67.64],[-78.39,-67.12],[-76.42,-66.59],[-74.86,-65.82],[-73.39,-65.03],[-72,-64.23],[-70.69,-63.42],[-70.69,-63.42],[-70.69,-63.42],[-70.69,-63.42],[-71.64,-64.01],[-69.63,-64.4],[-67.57,-64.76],[-65.45,-65.1],[-63.28,-65.4],[-61.1,-65.66],[-58.88,-65.9],[-56.61,-66.1],[-54.32,-66.27],[-51.99,-66.41],[-49.65,-66.51],[-47.59,-66.49],[-45.54,-66.45],[-43.5,-66.38],[-41.47,-66.28],[-39.46,-66.16],[-37.22,-66.08],[-35,-65.98],[-32.79,-65.84],[-30.62,-65.68],[-28.5,-65.32],[-26.44,-64.94],[-24.76,-64.52],[-23.14,-64.07],[-21.56,-63.61],[-20.44,-63.03],[-19.37,-62.45],[-17.55,-62.12],[-15.77,-61.77],[-14.03,-61.39],[-12.04,-61.3],[-10.07,-61.17],[-8.66,-60.93],[-7.27,-60.67],[-6,-60.59],[-4.73,-60.5],[-3.46,-60.32],[-2.2,-60.14],[-0.9,-60.13],[0.41,-60.11],[1.96,-60.29],[3.52,-60.45],[4.76,-60.42],[5.99,-60.38],[7.37,-59.97],[8.71,-59.55],[10.29,-59.17],[11.83,-58.77],[12.62,-58.11],[13.38,-57.44],[14.11,-56.77],[14.53,-55.92],[14.93,-55.07],[14.98,-54.19],[15.03,-53.3],[15.44,-52.61],[15.83,-51.91],[16.33,-51.07],[16.81,-50.23],[17.54,-49.49],[18.25,-48.74],[18.97,-48.06],[19.67,-47.38],[21.08,-47.1],[22.46,-46.81],[23.54,-46.63],[24.6,-46.44],[25.66,-46.25],[26.64,-46.06],[27.61,-45.86],[28.57,-45.65],[29.57,-45.31],[30.55,-44.97],[31.35,-44.75],[32.15,-44.52],[32.82,-44.05],[33.48,-43.57],[34.27,-42.97],[35.05,-42.36],[35.46,-41.57],[35.86,-40.78],[36.48,-40.27],[37.09,-39.76],[37.69,-39.25],[38.29,-38.68],[38.88,-38.11],[39.46,-37.54],[40.28,-36.86],[41.08,-36.17],[41.87,-35.48],[42.52,-34.87],[43.17,-34.26],[44.06,-33.88],[44.94,-33.5],[45.68,-33.06],[46.41,-32.61],[47.46,-32.21],[48.03,-31.99],[48.31,-31.88],[48.96,-31.2],[48.96,-31.2],[48.77,-31.05],[48.27,-30.19],[47.79,-29.33],[47.31,-28.47],[46.84,-27.6],[46.84,-27.6],[47.51,-26.86],[48.17,-26.13],[48.85,-25.54],[49.53,-24.96],[50.2,-24.37],[50.87,-23.78],[51.53,-23.18],[52.18,-22.59],[52.8,-21.87],[53.42,-21.16],[54.03,-20.44],[54.63,-19.72],[55.23,-19],[55.82,-18.28],[56.41,-17.56],[56.99,-16.83],[57.57,-16.1],[58.15,-15.37],[58.65,-14.51],[59.15,-13.65],[59.65,-12.78],[60.15,-11.92],[60.64,-11.05],[61.13,-10.18],[61.61,-9.32],[62.1,-8.45],[62.44,-7.69],[62.78,-6.92],[63.12,-6.16],[63.46,-5.4],[63.46,-5.4],[64.23,-5.72],[64.99,-6.03],[65.75,-6.35],[66.51,-6.66],[67.28,-6.98],[68.19,-7.26],[69.1,-7.55],[70.01,-7.83],[70.92,-8.11],[71.83,-8.39],[72.75,-8.67],[73.66,-8.94],[74.58,-9.21],[75.5,-9.48],[76.41,-9.75],[77.34,-10.02],[78.26,-10.28],[79.18,-10.54],[80.11,-10.8],[80.89,-11.02],[81.68,-11.24],[82.46,-11.45],[83.25,-11.67],[83.19,-12.18],[83.13,-12.69],[84.09,-12.76],[85.05,-12.83],[86.01,-12.89],[86.97,-12.95],[87.93,-13],[88.89,-13.05],[89.85,-13.1],[90.75,-13.16],[91.65,-13.21],[92.55,-13.27],[93.44,-13.32],[94.34,-13.37],[94.65,-12.59],[94.96,-11.81],[95.26,-11.04],[95.56,-10.26],[96.29,-10.3],[96.59,-9.59],[96.89,-8.89],[97.39,-9.01],[97.65,-8.35],[97.91,-7.68],[98.85,-8.03],[99.78,-8.38],[100.72,-8.72],[101.06,-7.97],[101.4,-7.22],[101.73,-6.47],[102.07,-5.72],[102.97,-5.86],[103.86,-6],[104.76,-6.14],[105.66,-6.28],[106.57,-6.42],[106.9,-5.59],[107.23,-4.76],[107.57,-3.93],[107.9,-3.1],[108.23,-2.27],[108.56,-1.44],[109.52,-1.67],[110.47,-1.9],[111.43,-2.13],[111.77,-1.25],[112.1,-0.37],[112.44,0.5],[112.78,1.38],[113.12,2.26],[114.05,2.07],[114.05,2.07],[114.13,2.33],[114.13,2.33],[114.96,1.86],[115.79,1.38],[116.62,0.9],[117.44,0.44],[118.26,-0.03],[119.07,-0.5],[119.89,-0.97],[120.71,-1.44],[120.4,-1.91],[120.08,-2.37],[120.86,-2.82],[121.63,-3.26],[122.41,-3.71],[123.19,-4.15],[123.97,-4.59],[124.75,-5.03],[125.53,-5.47],[125.21,-5.99],[124.89,-6.52],[125.65,-6.96],[126.42,-7.4],[127.19,-7.84],[127.96,-8.28],[128.73,-8.71],[129.5,-9.15],[130.28,-9.58],[131.06,-10.02],[130.69,-10.56],[130.33,-11.09],[131.09,-11.46],[131.85,-11.82],[132.62,-12.17],[133.38,-12.53],[134.15,-12.88],[134.15,-12.88],[134.2,-13.72],[134.24,-14.56],[134.28,-15.39],[134.32,-16.23],[134.37,-17.06],[134.41,-17.9],[134.4,-18.78],[134.4,-19.65],[134.39,-20.52],[134.38,-21.4],[134.37,-22.27],[134.37,-23.15],[134.36,-24.02],[134.36,-24.97],[134.37,-25.91],[134.37,-26.85],[134.38,-27.79],[134.38,-28.73],[134.39,-29.67],[134.4,-30.61],[134.4,-31.55],[134.42,-32.42],[134.44,-33.28],[134.46,-34.14],[134.48,-35.01],[134.5,-35.87],[135.16,-36.63],[135.84,-37.39],[136.53,-38.15],[137.23,-38.9],[137.71,-39.55],[138.19,-40.19],[138.64,-40.65],[139.1,-41.12],[139.74,-41.38],[140.38,-41.65],[141.51,-42.06],[142.66,-42.46],[143.69,-43.04],[144.74,-43.6],[145.81,-44.16],[146.9,-44.71],[146.9,-44.71],[147.04,-45.45],[147.19,-46.18],[147.35,-46.92],[147.56,-47.72],[147.77,-48.51],[148,-49.31],[148.23,-50.11],[148.47,-50.91],[148.63,-51.78],[148.79,-52.65],[148.96,-53.52],[149.13,-54.39],[149.32,-55.26],[149.97,-56.16],[150.66,-57.05],[151.39,-57.94],[152.14,-58.83],[152.94,-59.71],[153.57,-60.48],[154.22,-61.24],[154.9,-62],[155.62,-62.76],[155.76,-63.34],[155.91,-63.93],[155.64,-64.49],[155.37,-65.05],[154.56,-65.99],[153.69,-66.92],[152.7,-67.84],[151.62,-68.76],[151.32,-69.28],[152.75,-70.09],[153.33,-70.91],[153.97,-71.72],[154.67,-72.53],[154.67,-72.53],[157.29,-72.78],[159.97,-73],[162.72,-73.17],[165.52,-73.31],[168.36,-73.41],[171.19,-73.61],[174.08,-73.77],[177.02,-73.89],[180,-73.97],[180,-74.91]]]}},{"type":"Feature","properties":{"ma":170,"type":"gpml:TopologicalClosedPlateBoundary","name":"Eurasia","pid":301,"deforming":false},"geometry":{"type":"Polygon","coordinates":[[[7.15,39.52],[7.11,39.78],[7.1,40.21],[6.98,40.53],[6.98,40.53],[6.73,40.62],[6.51,41.33],[6.29,42.05],[6.23,42.74],[6.17,43.43],[5.71,44.27],[5.25,45.11],[4.43,45.46],[3.61,45.81],[2.42,45.64],[1.25,45.46],[0.14,45.73],[-0.99,46],[-2.12,46.25],[-3.04,46.56],[-3.98,46.86],[-4.92,47.15],[-4.66,48.13],[-4.4,49.1],[-4.12,50.07],[-3.83,51.04],[-4.02,52.01],[-4.22,52.98],[-4.43,53.95],[-4.65,54.91],[-4.88,55.88],[-4.24,56.44],[-4.47,57.16],[-4.7,57.89],[-4.94,58.61],[-5.1,59.46],[-5.26,60.31],[-5.43,61.16],[-5.61,62.01],[-5.8,62.85],[-5.96,63.69],[-6.12,64.52],[-6.29,65.36],[-6.47,66.19],[-6.66,67.02],[-6.66,67.02],[-6.66,67.05],[-6.67,67.22],[-6.66,67.33],[-6.68,67.67],[-6.7,67.74],[-6.79,68.63],[-6.89,69.53],[-7,70.42],[-7.12,71.32],[-7.53,72.18],[-7.98,73.04],[-8.47,73.91],[-9.02,74.77],[-9.02,74.77],[-11.94,74.5],[-14.77,74.2],[-17.48,73.86],[-20.91,73.62],[-24.22,73.33],[-27.05,73.28],[-29.86,73.19],[-32.63,73.06],[-34.7,72.77],[-36.7,72.47],[-38.64,72.14],[-41.13,71.83],[-43.55,71.48],[-45.87,71.11],[-47.81,70.89],[-49.71,70.65],[-51.56,70.39],[-54.17,70.05],[-56.7,69.66],[-58.45,69.3],[-60.13,68.92],[-61.75,68.52],[-63.31,68.02],[-63.31,68.02],[-64.79,68.86],[-66.37,69.68],[-67.45,70.36],[-68.6,71.03],[-69.84,71.69],[-71.16,72.34],[-72.19,73.1],[-73.32,73.86],[-74.55,74.61],[-75.9,75.35],[-76.54,75.94],[-76.54,75.94],[-75.52,76.55],[-74.4,77.17],[-73.06,77.96],[-71.55,78.74],[-69.81,79.52],[-68.5,80.15],[-67.01,80.77],[-66.63,81.49],[-66.18,82.21],[-66.01,82.92],[-65.81,83.63],[-64.45,84.24],[-62.77,84.84],[-60.25,85.51],[-56.86,86.16],[-52.1,86.8],[-42.55,87.5],[-26.46,88.08],[1.5,88.36],[31.07,88.18],[49.87,87.98],[64.1,87.61],[75.27,87.09],[82.84,86.49],[82.84,86.49],[83.61,85.72],[84.15,84.95],[84.55,84.18],[84.85,83.41],[82.14,82.55],[80,81.67],[78.26,80.79],[76.83,79.89],[75.62,79],[74.6,78.1],[73.72,77.19],[72.95,76.29],[72.28,75.38],[73.08,74.6],[73.81,73.81],[74.47,73.03],[75.07,72.24],[73.43,71.62],[71.89,70.99],[70.45,70.35],[70.25,69.65],[70.06,68.96],[69.88,68.27],[70.2,67.4],[70.51,66.54],[70.79,65.68],[71.05,64.81],[70.34,64.09],[69.67,63.36],[69.03,62.63],[68.42,61.89],[68.42,61.89],[67.84,61.14],[67.28,60.38],[66.75,59.63],[66.25,58.87],[67.37,58.36],[68.45,57.85],[69.51,57.33],[70.53,56.8],[71.75,56.42],[72.94,56.02],[74.11,55.61],[75.26,55.19],[75.4,54.61],[75.54,54.03],[74.84,53.35],[74.15,52.67],[73.26,52.08],[72.39,51.48],[71.55,50.87],[70.72,50.26],[69.75,49.53],[68.8,48.79],[67.88,48.04],[67.37,47.45],[66.87,46.85],[66.38,46.25],[65.89,45.36],[65.42,44.48],[64.96,43.59],[64.51,42.7],[64.07,41.81],[64.52,41],[64.96,40.19],[65.48,39.53],[65.99,38.86],[66.17,38.14],[66.35,37.42],[66.53,36.71],[66.39,35.89],[66.25,35.08],[66.12,34.27],[65.98,33.46],[65.85,32.65],[65.18,31.95],[64.51,31.25],[63.86,30.54],[63.86,30.54],[64.24,29.63],[64.61,28.71],[64.98,27.79],[65.34,26.87],[65.69,25.95],[66.04,25.03],[66.12,24.09],[66.19,23.15],[66.26,22.21],[66.33,21.27],[66.39,20.33],[66.46,19.39],[66.53,18.44],[66.53,18.44],[65.6,18.53],[64.8,18.7],[63.99,18.86],[63.2,18.99],[62.4,19.11],[61.77,19.27],[61.13,19.42],[60.49,19.8],[59.86,20.17],[59.22,20.53],[58.54,20.95],[57.87,21.37],[56.87,21.52],[55.86,21.66],[54.81,21.73],[53.76,21.8],[52.71,21.86],[51.93,21.81],[51.15,21.76],[50.37,21.7],[49.49,21.71],[48.62,21.73],[47.75,21.89],[46.88,22.05],[46.24,22.16],[45.6,22.26],[45.05,22.44],[44.49,22.62],[44.2,22.7],[44.2,22.7],[44.2,22.64],[44.12,22.08],[44.12,22.08],[43.25,21.82],[42.38,21.56],[41.45,21.14],[40.51,20.71],[39.59,20.27],[38.67,19.83],[37.75,19.39],[36.86,18.86],[35.97,18.32],[35.09,17.79],[34.21,17.25],[33.34,16.7],[32.52,16.51],[31.7,16.31],[30.88,16.12],[30.07,15.91],[29.04,15.76],[28.02,15.59],[27,15.43],[26.16,15.42],[26.16,15.42],[26.65,15.8],[27.15,16.17],[27.75,16.74],[28.35,17.31],[28.95,17.88],[29.56,18.44],[30.14,19.01],[30.72,19.58],[31.31,20.14],[31.9,20.71],[32.39,21.32],[32.88,21.93],[33.38,22.54],[33.88,23.15],[34.07,23.54],[34.07,23.54],[33.08,23.56],[32.08,23.58],[31.09,23.58],[30.1,23.59],[29.11,23.58],[28.11,23.57],[27.12,23.55],[26.13,23.53],[25.14,23.5],[25.14,23.5],[24.34,23.16],[23.54,22.82],[22.75,22.48],[21.97,22.13],[21.19,21.78],[20.86,21.25],[20.54,20.73],[20.61,20.49],[20.07,19.71],[19.54,18.92],[19.59,18.73],[19.1,18.05],[18.6,17.36],[18.6,17.36],[19.13,16.88],[19.65,16.39],[19.65,16.39],[19.08,16.69],[18.52,16.98],[18.04,16.24],[17.57,15.5],[17.11,14.75],[16.65,14.01],[16.19,13.26],[15.52,12.62],[14.86,11.97],[14.86,11.97],[14.66,12.11],[14.66,12.11],[14.08,11.64],[13.49,11.16],[12.91,10.69],[12.91,10.69],[13.13,10.36],[13.13,10.36],[12.57,9.97],[12.02,9.58],[11.46,9.18],[11.46,9.18],[11.53,8.87],[11.53,8.87],[10.72,8.59],[9.91,8.31],[9.11,8.02],[8.31,7.74],[8.43,7.04],[7.56,6.82],[6.68,6.59],[5.81,6.36],[4.93,6.13],[4.06,5.9],[3.19,5.67],[2.32,5.43],[1.44,5.19],[1.44,5.19],[1.35,5.24],[0.84,5.46],[0.33,5.69],[-0.34,5.98],[-1.11,6.54],[-1.85,7.08],[-2.28,7.39],[-2.53,7.58],[-2.9,7.92],[-3.25,8.26],[-3.29,8.3],[-3.29,8.3],[-3.17,8.4],[-2.95,8.61],[-2.78,8.76],[-2.55,8.98],[-2.32,9.19],[-2.1,9.52],[-2.01,9.92],[-1.93,10.24],[-1.81,10.48],[-1.44,10.9],[-1.04,11.19],[-0.85,11.41],[-0.6,11.78],[-0.45,11.98],[-0.31,12.3],[-0.16,12.61],[0.02,12.89],[0.14,13.16],[0.23,13.41],[0.32,13.62],[0.37,13.75],[0.48,13.87],[0.58,14.04],[0.67,14.25],[0.79,14.4],[0.83,14.45],[0.83,14.45],[1.1,14.53],[1.62,14.6],[2.28,14.69],[2.85,14.8],[3.4,15.17],[3.66,15.33],[3.66,15.33],[3.84,15.63],[4.26,15.87],[4.85,16.14],[5.17,16.45],[5.51,16.63],[6.04,17.02],[6.5,17.4],[6.76,17.69],[6.99,17.9],[7.15,18.12],[7.31,18.35],[7.56,18.54],[7.9,18.63],[8.28,18.78],[8.71,18.82],[9.17,18.79],[9.63,18.69],[10,18.58],[10.3,18.4],[10.88,18.26],[11.41,18.16],[11.93,18.15],[12.22,18.15],[12.52,18.21],[12.87,18.35],[13.12,18.77],[13.35,19.09],[13.57,19.39],[13.82,19.77],[14.1,20.19],[14.25,20.52],[14.25,20.52],[13.96,20.62],[13.86,20.66],[13.56,20.83],[13.08,21.03],[12.52,21.3],[11.99,21.52],[11.46,21.77],[11.01,21.97],[10.82,22.14],[10.69,22.25],[10.51,22.47],[10.35,22.86],[10.19,23.17],[10.16,23.55],[10.11,24.1],[9.99,24.51],[9.76,25.02],[9.19,25.46],[8.96,25.72],[8.57,25.85],[8.2,25.8],[7.73,25.96],[7.52,26.09],[7.29,26.36],[7.28,26.56],[7.25,26.78],[7.18,27.03],[7.06,27.33],[7.04,27.57],[6.93,28.03],[6.77,28.61],[6.63,29.05],[6.46,29.53],[6.41,29.99],[6.37,30.11],[6.37,30.11],[6.4,30.18],[6.4,30.29],[6.38,30.45],[6.4,30.6],[6.43,30.83],[6.45,31.06],[6.6,31.35],[6.73,31.5],[6.86,31.74],[6.88,31.78],[6.96,31.88],[7.01,31.94],[7.05,32.09],[7.06,32.15],[6.91,32.3],[6.82,32.42],[6.74,32.68],[6.68,32.8],[6.61,32.96],[6.8,33.22],[6.88,33.42],[6.85,33.68],[6.72,33.91],[6.6,34.11],[6.44,34.39],[6.22,34.59],[6.08,34.75],[5.98,34.9],[6,35.06],[6.14,35.24],[6.2,35.41],[6.35,35.64],[6.41,35.86],[6.61,36.06],[6.77,36.25],[6.98,36.43],[7.07,36.76],[6.99,37.14],[6.94,37.33],[6.92,37.72],[6.91,38.01],[7.04,38.52],[7.08,38.79],[7.09,39.05],[7.26,39.37],[7.14,39.5],[7.15,39.52]]]}},{"type":"Feature","properties":{"ma":170,"type":"gpml:TopologicalClosedPlateBoundary","name":"Farallon Plate 170-165","pid":902,"deforming":false},"geometry":{"type":"Polygon","coordinates":[[[-73.16,73.76],[-72.12,73.05],[-71.16,72.34],[-69.84,71.69],[-68.6,71.03],[-67.45,70.36],[-66.37,69.68],[-65.11,69.03],[-63.92,68.37],[-62.8,67.71],[-61.74,67.03],[-59.97,66.39],[-58.29,65.73],[-56.69,65.06],[-55.12,64.39],[-53.62,63.71],[-52.19,63.01],[-50.76,62.43],[-49.39,61.84],[-48.06,61.23],[-48.06,61.23],[-48.7,60.51],[-49.3,59.78],[-49.88,59.06],[-50.43,58.32],[-50.83,57.66],[-51.22,57],[-51.6,56.33],[-51.44,55.58],[-51.28,54.82],[-51.14,54.07],[-50.99,53.31],[-50.59,52.6],[-50.2,51.88],[-49.82,51.17],[-49.9,50.42],[-49.99,49.68],[-50.07,48.93],[-50.56,48.2],[-51.04,47.46],[-51.51,46.72],[-52.13,45.86],[-52.74,45],[-53.05,44.23],[-53.36,43.47],[-53.65,42.7],[-53.94,41.94],[-54.17,41.07],[-54.4,40.21],[-54.62,39.34],[-54.44,38.54],[-54.27,37.73],[-54.11,36.93],[-53.89,36.29],[-53.68,35.64],[-53.47,35],[-53.47,35],[-54.1,34.4],[-54.72,33.81],[-55.43,33.09],[-56.13,32.36],[-56.82,31.63],[-57.5,30.9],[-57.94,30.13],[-58.37,29.35],[-58.8,28.57],[-59.22,27.8],[-59.63,27.02],[-59.59,26.24],[-59.54,25.47],[-59.49,24.7],[-59.45,23.93],[-59.31,22.98],[-59.18,22.03],[-59.05,21.09],[-58.92,20.14],[-58.79,19.19],[-58.66,18.24],[-58.53,17.29],[-58.44,16.36],[-58.35,15.43],[-58.26,14.5],[-58.17,13.57],[-58.08,12.64],[-58.08,12.64],[-58.46,12.24],[-58.83,11.83],[-59.37,11.37],[-59.92,10.91],[-60.31,10.54],[-60.71,10.18],[-60.98,9.45],[-61.24,8.73],[-61.51,8.01],[-61.69,7.21],[-61.88,6.41],[-62.06,5.61],[-62.2,4.86],[-62.34,4.1],[-62.48,3.34],[-62.56,2.59],[-62.64,1.85],[-62.23,1.22],[-61.83,0.6],[-61.61,-0.09],[-61.39,-0.77],[-61.17,-1.45],[-60.89,-2.08],[-60.61,-2.71],[-60.25,-3.35],[-59.89,-3.99],[-59.53,-4.62],[-59.13,-5.38],[-58.73,-6.14],[-58.43,-6.85],[-58.13,-7.55],[-58.19,-8.26],[-58.26,-8.97],[-58.48,-9.84],[-58.72,-10.4],[-58.96,-10.96],[-59.49,-11.63],[-59.48,-11.7],[-59.48,-11.7],[-59.81,-12.46],[-60.15,-13.23],[-60.48,-14],[-60.82,-14.77],[-60.77,-15.64],[-60.72,-16.5],[-60.67,-17.37],[-60.59,-18.23],[-60.51,-19.09],[-60.43,-19.95],[-60.34,-20.8],[-60.26,-21.66],[-60.17,-22.52],[-59.98,-23.34],[-59.77,-24.15],[-59.57,-24.97],[-59.4,-25.66],[-59.23,-26.35],[-59.06,-27.04],[-58.5,-27.82],[-58.43,-28.34],[-58.35,-28.87],[-58.21,-29.61],[-58.23,-30.17],[-58.19,-30.53],[-58.18,-30.81],[-58.18,-30.81],[-58.16,-31.41],[-58.29,-31.9],[-58.38,-32.24],[-58.38,-32.24],[-59.49,-32.41],[-60.6,-32.56],[-61.72,-32.71],[-62.83,-32.84],[-63.95,-32.97],[-65.08,-33.08],[-66.23,-33.2],[-67.38,-33.3],[-68.53,-33.39],[-69.69,-33.47],[-70.84,-33.54],[-72,-33.6],[-73.17,-33.65],[-74.33,-33.69],[-75.49,-33.72],[-76.66,-33.73],[-77.82,-33.74],[-77.77,-34.53],[-78.92,-34.48],[-80.07,-34.42],[-81.21,-34.35],[-82.36,-34.27],[-83.5,-34.18],[-84.64,-34.07],[-85.78,-33.96],[-86.91,-33.84],[-88.04,-33.7],[-89.17,-33.56],[-90.29,-33.41],[-91.41,-33.24],[-92.52,-33.07],[-93.63,-32.88],[-94.74,-32.69],[-94.55,-31.94],[-94.37,-31.19],[-95.43,-30.97],[-96.48,-30.74],[-97.53,-30.5],[-98.58,-30.26],[-99.62,-30],[-100.65,-29.74],[-101.68,-29.47],[-102.7,-29.2],[-103.72,-28.91],[-104.73,-28.62],[-105.73,-28.32],[-106.73,-28.01],[-107.73,-27.7],[-107.45,-26.97],[-107.17,-26.23],[-106.9,-25.5],[-107.87,-25.16],[-108.84,-24.81],[-109.81,-24.46],[-110.77,-24.1],[-111.72,-23.73],[-112.67,-23.36],[-113.61,-22.99],[-114.55,-22.61],[-115.48,-22.22],[-116.41,-21.83],[-117.33,-21.43],[-118.24,-21.03],[-119.16,-20.62],[-118.73,-19.83],[-118.32,-19.05],[-119.26,-18.61],[-120.2,-18.16],[-121.13,-17.71],[-122.06,-17.25],[-122.98,-16.79],[-123.9,-16.32],[-124.81,-15.85],[-125.72,-15.38],[-126.63,-14.9],[-127.53,-14.42],[-128.43,-13.94],[-129.32,-13.45],[-128.96,-12.81],[-128.6,-12.17],[-128.24,-11.52],[-128.93,-11.16],[-129.61,-10.8],[-130.29,-10.44],[-130.97,-10.07],[-130.97,-10.07],[-131.37,-10.06],[-131.37,-10.06],[-132.07,-9.45],[-132.78,-8.84],[-133.48,-8.23],[-134.17,-7.61],[-134.87,-7],[-135.56,-6.38],[-136.25,-5.76],[-136.95,-5.14],[-137.55,-4.36],[-138.15,-3.58],[-138.75,-2.8],[-139.36,-2.01],[-139.96,-1.23],[-140.56,-0.44],[-141.16,0.34],[-141.76,1.13],[-142.36,1.91],[-142.96,2.69],[-143.52,3.33],[-144.09,3.97],[-144.65,4.61],[-145.22,5.24],[-145.22,5.24],[-145.14,5.76],[-145.03,6.64],[-144.72,7.55],[-144.42,8.46],[-144.11,9.38],[-143.8,10.29],[-143.49,11.21],[-143.17,12.12],[-142.86,13.03],[-142.54,13.95],[-142.22,14.86],[-141.89,15.77],[-141.57,16.68],[-141.24,17.59],[-140.9,18.5],[-140.57,19.41],[-139.76,19.14],[-138.96,18.86],[-138.64,19.76],[-138.31,20.67],[-137.98,21.57],[-137.64,22.48],[-137.3,23.38],[-136.96,24.28],[-136.61,25.18],[-136.25,26.08],[-135.89,26.98],[-135.53,27.88],[-135.16,28.78],[-134.78,29.68],[-134.39,30.57],[-134,31.47],[-133.6,32.36],[-133.19,33.25],[-132.77,34.14],[-132.35,35.03],[-131.91,35.92],[-131.47,36.81],[-131.01,37.69],[-130.55,38.57],[-131.31,38.83],[-132.09,39.09],[-131.63,39.94],[-131.17,40.8],[-130.69,41.65],[-130.2,42.5],[-129.7,43.35],[-129.18,44.19],[-128.65,45.03],[-128.1,45.87],[-127.54,46.71],[-126.96,47.55],[-126.36,48.38],[-125.74,49.21],[-125.09,50.03],[-124,49.64],[-122.93,49.24],[-122.3,49.99],[-121.66,50.75],[-120.99,51.5],[-120.3,52.24],[-119.59,52.98],[-118.85,53.72],[-118.09,54.45],[-119.34,54.98],[-120.63,55.5],[-121.95,56.01],[-123.31,56.5],[-122.35,57.28],[-121.35,58.04],[-120.31,58.8],[-119.22,59.54],[-118.08,60.28],[-116.89,61.01],[-115.65,61.72],[-114.34,62.43],[-112.98,63.12],[-111.55,63.8],[-112.75,64.4],[-114.01,64.99],[-115.32,65.56],[-116.69,66.13],[-115.12,66.83],[-113.46,67.52],[-111.7,68.19],[-109.84,68.84],[-107.87,69.47],[-105.77,70.08],[-103.56,70.66],[-101.22,71.21],[-98.74,71.73],[-96.13,72.22],[-93.39,72.67],[-90.5,73.09],[-87.49,73.45],[-84.35,73.78],[-81.09,74.06],[-77.73,74.28],[-74.29,74.46],[-73.16,73.76]]]}},{"type":"Feature","properties":{"ma":170,"type":"gpml:TopologicalClosedPlateBoundary","name":"NAM","pid":101,"deforming":false},"geometry":{"type":"Polygon","coordinates":[[[-5.14,10],[-5.24,10.08],[-5.81,10.71],[-6.24,11.1],[-6.67,11.5],[-7.1,11.9],[-7.62,12.27],[-8.13,12.64],[-8.13,12.64],[-8.78,12.85],[-9.5,13.06],[-10.14,13.14],[-10.66,13.19],[-11.16,13.21],[-11.65,13.22],[-12.24,13.2],[-12.89,13.31],[-13.37,13.44],[-13.71,13.44],[-14.35,13.35],[-14.91,13.26],[-15.52,13.04],[-16.24,12.69],[-16.77,12.43],[-17.56,12.35],[-18.09,12.24],[-18.89,12.15],[-19.66,12.14],[-20.14,12.16],[-20.67,11.93],[-21.05,12.09],[-21.3,12.02],[-21.54,11.47],[-21.92,11.18],[-22.4,11.09],[-22.74,10.84],[-23.07,10.6],[-23.25,10.61],[-23.5,10.6],[-23.97,10.49],[-24.26,10.51],[-24.55,10.61],[-24.8,10.65],[-24.94,10.55],[-25.36,10.43],[-25.56,10],[-25.86,9.57],[-26.37,9.14],[-26.89,8.7],[-27.25,8.43],[-28.05,7.94],[-28.7,7.67],[-28.91,7.06],[-29.17,6.32],[-29.65,5.9],[-30.23,5.51],[-30.87,5.42],[-31.51,5.33],[-32.03,5.21],[-32.35,5.15],[-32.69,5.08],[-32.82,4.89],[-33.2,4.62],[-33.6,4.33],[-34.02,3.97],[-34.33,3.69],[-34.53,3.58],[-34.53,3.58],[-34.54,3.59],[-35.23,4.28],[-35.71,4.78],[-36.2,5.28],[-36.9,5.76],[-37.61,6.23],[-38.23,6.8],[-38.89,7.19],[-39.37,7.5],[-39.86,7.8],[-40.33,8.06],[-40.81,8.31],[-41.27,8.6],[-41.73,8.88],[-42.53,9.48],[-43.24,9.69],[-43.96,9.9],[-44.47,10.07],[-44.98,10.25],[-45.99,10.27],[-46.52,10.32],[-47.04,10.37],[-47.75,9.99],[-48.45,9.6],[-49.15,9.22],[-49.9,8.58],[-50.64,7.94],[-50.64,7.94],[-50.73,8.07],[-51.24,8.81],[-51.75,9.54],[-52.27,10.28],[-52.82,11.06],[-53.37,11.83],[-53.92,12.61],[-54.51,13.42],[-55.1,14.24],[-55.7,15.05],[-56.3,15.86],[-56.9,16.67],[-57.51,17.47],[-58.13,18.28],[-58.75,18.91],[-58.75,18.91],[-58.86,19.75],[-58.98,20.58],[-59.09,21.42],[-59.21,22.26],[-59.33,23.09],[-59.45,23.93],[-59.49,24.7],[-59.54,25.47],[-59.59,26.24],[-59.63,27.02],[-59.22,27.8],[-58.8,28.57],[-58.37,29.35],[-57.94,30.13],[-57.5,30.9],[-56.82,31.63],[-56.13,32.36],[-55.43,33.09],[-54.72,33.81],[-54.1,34.4],[-53.47,35],[-53.47,35],[-53.31,34.49],[-53.15,33.99],[-53.14,33.97],[-53.14,33.97],[-52.76,34.2],[-52.2,34.63],[-51.63,35.06],[-51.15,35.54],[-50.67,36.02],[-50.47,36.78],[-50.27,37.54],[-50.07,38.29],[-49.86,39.05],[-49.73,40],[-49.6,40.95],[-49.46,41.91],[-49.16,42.77],[-48.86,43.63],[-48.55,44.49],[-48.22,45.35],[-47.89,46.1],[-47.54,46.85],[-47.19,47.6],[-46.82,48.35],[-46.49,49.1],[-46.14,49.84],[-46.11,50.73],[-46.07,51.61],[-46.79,52.38],[-47.54,53.14],[-48.75,53.72],[-50.01,54.3],[-51.29,54.86],[-51.29,54.86],[-51.42,55.51],[-51.56,56.15],[-51.56,56.15],[-50.19,56.13],[-48.82,56.1],[-47.45,56.05],[-46.08,55.99],[-44.39,55.74],[-42.72,55.47],[-41.08,55.18],[-39.84,54.63],[-38.65,54.06],[-37.48,53.48],[-36.35,52.89],[-35.24,52.29],[-34.25,51.85],[-33.29,51.4],[-32.34,50.94],[-31.41,50.48],[-31.41,50.48],[-31.56,50.31],[-31.73,50.19],[-31.85,50.12],[-31.85,50.12],[-31.72,50.07],[-31.26,50.09],[-30.36,50.19],[-29.6,50.37],[-28.84,50.54],[-28.04,50.71],[-27.25,50.87],[-26.35,51.08],[-25.45,51.28],[-24,51.57],[-22.54,51.83],[-21.35,51.89],[-20.16,51.93],[-18.96,51.71],[-17.76,51.48],[-16.58,51.23],[-15.49,51.07],[-14.4,50.9],[-13.33,50.72],[-12.06,50.64],[-10.79,50.54],[-9.35,50.67],[-7.9,50.77],[-6.59,50.72],[-5.28,50.66],[-3.97,50.59],[-3.97,50.59],[-4.22,49.73],[-4.46,48.87],[-4.69,48.01],[-4.92,47.15],[-3.98,46.86],[-3.04,46.56],[-2.12,46.25],[-0.99,46],[0.14,45.73],[1.25,45.46],[2.42,45.64],[3.61,45.81],[4.43,45.46],[5.25,45.11],[5.71,44.27],[6.17,43.43],[6.23,42.74],[6.29,42.05],[6.51,41.33],[6.73,40.62],[6.98,40.53],[6.98,40.53],[7.1,40.21],[7.11,39.78],[7.14,39.58],[7.14,39.58],[6.93,39.39],[6.68,39.2],[6.41,38.69],[6.21,38.26],[6.08,38.13],[5.99,37.93],[5.99,37.73],[6,37.55],[5.95,37.2],[5.87,36.95],[5.69,36.68],[5.54,36.52],[5.08,36.19],[4.84,35.77],[4.66,35.56],[4.52,35.4],[4.44,35.24],[4.48,35.07],[4.5,34.85],[4.48,34.66],[4.43,34.5],[4.39,34.33],[4.41,34.09],[4.49,33.92],[4.81,33.72],[5.01,33.64],[5.21,33.43],[5.15,33.29],[5.09,33.04],[5.03,32.37],[5.04,32.32],[5.33,31.97],[5.35,31.79],[5.04,31.3],[4.76,30.98],[4.29,30.37],[3.89,29.81],[3.63,29.1],[3.49,28.75],[3.12,28.19],[2.44,27.72],[2,27.34],[1.4,27.05],[0.91,26.67],[0.21,26.29],[-0.54,26.03],[-0.91,25.91],[-1.09,25.11],[-0.76,24.6],[-0.44,24.09],[-0.32,23.41],[-0.56,22.73],[-0.79,22.05],[-1.16,21.57],[-1.53,21.09],[-1.99,20.69],[-2.57,20.06],[-2.86,19.53],[-3.22,19.16],[-3.63,18.45],[-3.86,17.75],[-3.97,17.23],[-3.97,17.23],[-3.95,17.1],[-3.89,16.8],[-3.9,16.43],[-3.94,16.06],[-3.99,15.8],[-4.04,15.51],[-4.02,15.3],[-3.98,15.17],[-3.96,14.97],[-3.92,14.84],[-3.92,14.84],[-3.77,14.71],[-3.67,14.62],[-3.6,14.55],[-3.49,14.43],[-3.4,14.34],[-3.32,14.19],[-3.24,14.04],[-3.18,13.9],[-3.12,13.71],[-3.19,13.48],[-3.33,13.27],[-3.42,13.11],[-3.53,12.96],[-3.65,12.78],[-3.78,12.62],[-3.87,12.49],[-3.99,12.38],[-4.13,12.25],[-4.26,12.16],[-4.34,12.08],[-4.49,12.02],[-4.64,11.95],[-4.94,11.78],[-4.94,11.78],[-4.79,11.71],[-4.51,11.65],[-4.27,11.73],[-4.18,11.76],[-4.09,11.79],[-3.97,11.89],[-3.88,11.98],[-3.79,12.06],[-3.67,12.12],[-3.53,12.21],[-3.45,12.29],[-3.36,12.43],[-3.29,12.55],[-3.21,12.65],[-3.08,12.76],[-2.96,12.86],[-2.82,12.97],[-2.75,13.04],[-2.68,13.1],[-2.62,13.18],[-2.56,13.25],[-2.49,13.34],[-2.48,13.35],[-2.48,13.35],[-2.46,13.28],[-2.4,13.13],[-2.4,13.13],[-2.41,13.13],[-2.49,13.12],[-2.56,13.12],[-2.6,13.09],[-2.66,13.04],[-2.71,12.99],[-2.82,12.87],[-2.9,12.8],[-2.96,12.73],[-3.09,12.64],[-3.17,12.58],[-3.21,12.51],[-3.34,12.31],[-3.48,12.17],[-3.61,12.04],[-3.73,11.94],[-3.9,11.8],[-4.15,11.58],[-4.21,11.48],[-4.29,11.32],[-4.29,11.17],[-4.29,11],[-4.33,10.86],[-4.36,10.72],[-4.58,10.52],[-4.7,10.41],[-4.87,10.26],[-5.01,10.13],[-5.14,10]]]}},{"type":"Feature","properties":{"ma":170,"type":"gpml:TopologicalClosedPlateBoundary","name":"Phoenix Plate","pid":919,"deforming":false},"geometry":{"type":"MultiPolygon","coordinates":[[[[180,-6.83],[180,-7.81],[180,-8.8],[180,-9.79],[180,-10.78],[180,-11.76],[180,-12.75],[180,-13.74],[180,-14.73],[180,-15.71],[180,-16.7],[180,-17.69],[180,-18.67],[180,-19.66],[180,-20.65],[180,-21.64],[180,-22.62],[180,-23.61],[180,-24.6],[180,-25.59],[180,-26.57],[180,-27.56],[180,-28.55],[180,-29.54],[180,-30.52],[180,-31.51],[180,-32.5],[180,-33.49],[180,-34.47],[180,-35.46],[180,-36.45],[180,-37.44],[180,-38.42],[180,-39.41],[180,-40.4],[180,-41.39],[180,-42.37],[180,-43.36],[180,-44.35],[180,-45.34],[180,-46.32],[180,-47.31],[180,-48.3],[180,-49.28],[180,-50.27],[180,-51.26],[180,-52.25],[180,-53.23],[180,-54.22],[180,-55.21],[180,-56.2],[180,-57.18],[180,-58.17],[180,-59.16],[180,-60.15],[180,-61.13],[180,-62.12],[180,-63.11],[180,-64.1],[180,-65.08],[180,-66.07],[180,-67.06],[180,-68.05],[180,-69.03],[180,-70.02],[180,-71.01],[180,-72],[180,-72.98],[180,-73.97],[177.02,-73.89],[174.08,-73.77],[171.19,-73.61],[168.36,-73.41],[165.52,-73.31],[162.72,-73.17],[159.97,-73],[157.29,-72.78],[154.67,-72.53],[154.67,-72.53],[153.97,-71.72],[153.33,-70.91],[152.75,-70.09],[151.32,-69.28],[151.62,-68.76],[152.7,-67.84],[153.69,-66.92],[154.56,-65.99],[155.37,-65.05],[155.64,-64.49],[155.91,-63.93],[155.76,-63.34],[155.62,-62.76],[154.9,-62],[154.22,-61.24],[153.57,-60.48],[152.94,-59.71],[152.14,-58.83],[151.39,-57.94],[150.66,-57.05],[149.97,-56.16],[149.32,-55.26],[149.13,-54.39],[148.96,-53.52],[148.79,-52.65],[148.63,-51.78],[148.47,-50.91],[148.23,-50.11],[148,-49.31],[147.77,-48.51],[147.56,-47.72],[147.35,-46.92],[147.19,-46.18],[147.04,-45.45],[146.9,-44.71],[146.9,-44.71],[145.81,-44.16],[144.74,-43.6],[143.69,-43.04],[142.66,-42.46],[141.51,-42.06],[140.38,-41.65],[139.74,-41.38],[139.1,-41.12],[138.64,-40.65],[138.19,-40.19],[137.71,-39.55],[137.23,-38.9],[136.53,-38.15],[135.84,-37.39],[135.16,-36.63],[134.5,-35.87],[134.48,-35.01],[134.46,-34.14],[134.44,-33.28],[134.42,-32.42],[134.4,-31.55],[134.4,-30.61],[134.39,-29.67],[134.38,-28.73],[134.38,-27.79],[134.37,-26.85],[134.37,-25.91],[134.36,-24.97],[134.36,-24.02],[134.37,-23.15],[134.37,-22.27],[134.38,-21.4],[134.39,-20.52],[134.4,-19.65],[134.4,-18.78],[134.41,-17.9],[134.36,-16.95],[134.31,-16],[134.26,-15.05],[134.22,-14.11],[135.19,-13.96],[136.16,-13.81],[137.13,-13.66],[138.1,-13.51],[139.06,-13.35],[140.03,-13.19],[140.99,-13.02],[141.25,-13.77],[141.5,-14.53],[142.48,-14.31],[143.44,-14.09],[144.41,-13.86],[145.38,-13.63],[146.34,-13.39],[147.3,-13.16],[148.26,-12.92],[149.22,-12.67],[150.18,-12.42],[151.13,-12.17],[152.08,-11.92],[153.04,-11.66],[153.98,-11.4],[154.93,-11.13],[155.88,-10.87],[156.82,-10.6],[157,-11.25],[157.17,-11.9],[158.14,-11.61],[159.11,-11.31],[160.07,-11.01],[161.03,-10.71],[161.99,-10.4],[162.95,-10.09],[163.91,-9.78],[164.86,-9.46],[165.82,-9.15],[166.77,-8.82],[167.72,-8.5],[168.67,-8.18],[169.61,-7.85],[170.56,-7.52],[170.8,-8.16],[171.03,-8.8],[171.94,-8.51],[172.84,-8.22],[173.74,-7.93],[174.63,-7.63],[175.53,-7.34],[176.43,-7.04],[177.32,-6.74],[178.22,-6.44],[179.11,-6.14],[180,-5.84],[180,-6.83]]],[[[-180,-72.98],[-180,-72],[-180,-71.01],[-180,-70.02],[-180,-69.03],[-180,-68.05],[-180,-67.06],[-180,-66.07],[-180,-65.08],[-180,-64.1],[-180,-63.11],[-180,-62.12],[-180,-61.13],[-180,-60.15],[-180,-59.16],[-180,-58.17],[-180,-57.18],[-180,-56.2],[-180,-55.21],[-180,-54.22],[-180,-53.23],[-180,-52.25],[-180,-51.26],[-180,-50.27],[-180,-49.28],[-180,-48.3],[-180,-47.31],[-180,-46.32],[-180,-45.34],[-180,-44.35],[-180,-43.36],[-180,-42.37],[-180,-41.39],[-180,-40.4],[-180,-39.41],[-180,-38.42],[-180,-37.44],[-180,-36.45],[-180,-35.46],[-180,-34.47],[-180,-33.49],[-180,-32.5],[-180,-31.51],[-180,-30.52],[-180,-29.54],[-180,-28.55],[-180,-27.56],[-180,-26.57],[-180,-25.59],[-180,-24.6],[-180,-23.61],[-180,-22.62],[-180,-21.64],[-180,-20.65],[-180,-19.66],[-180,-18.67],[-180,-17.69],[-180,-16.7],[-180,-15.71],[-180,-14.73],[-180,-13.74],[-180,-12.75],[-180,-11.76],[-180,-10.78],[-180,-9.79],[-180,-8.8],[-180,-7.81],[-180,-6.83],[-180,-5.84],[-179.24,-5.58],[-179.05,-6.28],[-178.86,-6.98],[-178.67,-7.68],[-177.71,-7.4],[-176.76,-7.12],[-175.8,-6.84],[-174.85,-6.56],[-173.9,-6.27],[-172.95,-5.99],[-172,-5.7],[-171.05,-5.41],[-170.1,-5.12],[-169.16,-4.83],[-168.91,-5.62],[-168.67,-6.4],[-168.67,-6.4],[-169.52,-6.76],[-170.37,-7.11],[-171.22,-7.47],[-171.22,-7.47],[-170.26,-7.6],[-169.3,-7.73],[-168.34,-7.86],[-167.38,-7.99],[-166.41,-8.11],[-165.45,-8.23],[-164.49,-8.35],[-163.52,-8.47],[-162.56,-8.59],[-161.59,-8.7],[-160.62,-8.81],[-159.66,-8.92],[-158.69,-9.02],[-157.72,-9.13],[-156.75,-9.23],[-155.76,-9.28],[-154.77,-9.34],[-153.78,-9.38],[-152.79,-9.43],[-151.8,-9.47],[-150.81,-9.52],[-149.82,-9.55],[-148.83,-9.59],[-147.84,-9.62],[-146.85,-9.65],[-145.86,-9.68],[-144.87,-9.7],[-143.87,-9.72],[-142.88,-9.74],[-141.89,-9.76],[-140.9,-9.77],[-139.9,-9.78],[-138.91,-9.79],[-137.92,-9.83],[-136.93,-9.88],[-135.94,-9.92],[-134.94,-9.95],[-133.95,-9.99],[-132.96,-10.02],[-131.96,-10.05],[-130.97,-10.07],[-130.97,-10.07],[-130.29,-10.44],[-129.61,-10.8],[-128.93,-11.16],[-128.24,-11.52],[-128.6,-12.17],[-128.96,-12.81],[-129.32,-13.45],[-128.43,-13.94],[-127.53,-14.42],[-126.63,-14.9],[-125.72,-15.38],[-124.81,-15.85],[-123.9,-16.32],[-122.98,-16.79],[-122.06,-17.25],[-121.13,-17.71],[-120.2,-18.16],[-119.26,-18.61],[-118.32,-19.05],[-118.73,-19.83],[-119.16,-20.62],[-118.24,-21.03],[-117.33,-21.43],[-116.41,-21.83],[-115.48,-22.22],[-114.55,-22.61],[-113.61,-22.99],[-112.67,-23.36],[-111.72,-23.73],[-110.77,-24.1],[-109.81,-24.46],[-108.84,-24.81],[-107.87,-25.16],[-106.9,-25.5],[-107.17,-26.23],[-107.45,-26.97],[-107.73,-27.7],[-106.73,-28.01],[-105.73,-28.32],[-104.73,-28.62],[-103.72,-28.91],[-102.7,-29.2],[-101.68,-29.47],[-100.65,-29.74],[-99.62,-30],[-98.58,-30.26],[-97.53,-30.5],[-96.48,-30.74],[-95.43,-30.97],[-94.37,-31.19],[-94.55,-31.94],[-94.74,-32.69],[-93.63,-32.88],[-92.52,-33.07],[-91.41,-33.24],[-90.29,-33.41],[-89.17,-33.56],[-88.04,-33.7],[-86.91,-33.84],[-85.78,-33.96],[-84.64,-34.07],[-83.5,-34.18],[-82.36,-34.27],[-81.21,-34.35],[-80.07,-34.42],[-78.92,-34.48],[-77.77,-34.53],[-77.82,-33.74],[-76.66,-33.73],[-75.49,-33.72],[-74.33,-33.69],[-73.17,-33.65],[-72,-33.6],[-70.84,-33.54],[-69.69,-33.47],[-68.53,-33.39],[-67.38,-33.3],[-66.23,-33.2],[-65.08,-33.08],[-63.95,-32.97],[-62.83,-32.84],[-61.72,-32.71],[-60.6,-32.56],[-59.49,-32.41],[-58.38,-32.24],[-58.38,-32.24],[-58.53,-32.73],[-58.7,-33.19],[-58.76,-33.9],[-58.86,-34.47],[-58.89,-34.79],[-58.97,-35.18],[-59.03,-35.61],[-59.16,-36.48],[-59.29,-37.34],[-59.47,-38.11],[-59.65,-38.87],[-59.83,-39.64],[-60.01,-40.41],[-60.47,-41.16],[-60.94,-41.92],[-61.42,-42.67],[-61.91,-43.42],[-62.42,-44.17],[-62.53,-45.01],[-62.65,-45.84],[-62.75,-46.58],[-62.85,-47.32],[-63.35,-48.12],[-63.86,-48.92],[-63.98,-49.19],[-64,-49.31],[-64,-49.31],[-64.09,-49.64],[-64.09,-49.64],[-64.45,-50.2],[-64.73,-50.48],[-64.88,-50.84],[-65,-51.12],[-65.21,-51.57],[-65.36,-51.85],[-65.64,-52.36],[-65.85,-52.73],[-66.05,-53.12],[-66.26,-53.53],[-66.58,-54.17],[-66.72,-54.43],[-66.9,-54.78],[-67.07,-55.1],[-67.22,-55.39],[-67.38,-55.75],[-67.5,-56.05],[-67.61,-56.3],[-67.63,-56.38],[-67.69,-56.61],[-67.75,-56.89],[-67.8,-57.33],[-68.05,-57.65],[-68.37,-57.97],[-68.82,-58.35],[-69.3,-58.78],[-69.61,-59.06],[-69.86,-59.3],[-70.08,-59.5],[-70.4,-59.84],[-70.65,-60.27],[-70.71,-60.63],[-70.75,-60.95],[-70.79,-61.21],[-70.76,-61.51],[-70.75,-61.85],[-70.67,-62.23],[-70.55,-62.64],[-70.57,-62.95],[-70.63,-63.12],[-70.69,-63.42],[-70.69,-63.42],[-72,-64.23],[-73.39,-65.03],[-74.86,-65.82],[-76.42,-66.59],[-78.39,-67.12],[-80.44,-67.64],[-82.59,-68.12],[-84.82,-68.58],[-87.14,-69],[-89.19,-69.38],[-91.31,-69.74],[-93.49,-70.07],[-95.75,-70.37],[-97.67,-70.79],[-99.67,-71.18],[-101.76,-71.56],[-103.92,-71.9],[-106.28,-72.27],[-108.73,-72.61],[-111.26,-72.91],[-113.88,-73.18],[-116.57,-73.42],[-119.33,-73.62],[-122.15,-73.79],[-125.01,-73.92],[-128.25,-74.01],[-131.51,-74.06],[-134.78,-74.06],[-138.04,-74],[-141.27,-73.9],[-144.8,-73.9],[-148.31,-73.83],[-151.78,-73.71],[-155.2,-73.53],[-158.53,-73.3],[-161.45,-73.52],[-164.45,-73.71],[-167.5,-73.85],[-170.6,-73.95],[-173.73,-74],[-176.87,-74.01],[-180,-73.97],[-180,-72.98]]]]}},{"type":"Feature","properties":{"ma":170,"type":"gpml:TopologicalClosedPlateBoundary","name":"West Gondwana","pid":701,"deforming":false},"geometry":{"type":"Polygon","coordinates":[[[-10.41,6.53],[-10.15,6.41],[-9.83,6.24],[-9.42,6.02],[-8.85,5.68],[-8.16,5.3],[-7.86,5.18],[-7.35,4.99],[-6.96,4.85],[-6.51,4.68],[-5.75,4.33],[-5.42,4.18],[-4.56,3.77],[-3.83,3.42],[-3.83,3.42],[-3.13,3.4],[-2.48,3.42],[-1.84,3.44],[-1.08,3.32],[-0.2,3.23],[0.18,3.1],[0.18,3.1],[0.63,2.99],[1.06,2.91],[1.34,2.87],[1.74,3.01],[2.13,3.03],[3.01,2.94],[3.77,2.81],[4.5,2.77],[5.33,2.68],[6.05,2.62],[6.05,2.62],[5.43,3.02],[4.69,3.48],[3.95,3.94],[3.95,3.94],[4.81,4.14],[5.67,4.35],[6.54,4.56],[7.4,4.76],[8.26,4.96],[9.01,5.29],[9.76,5.62],[10.51,5.95],[11.26,6.27],[12.01,6.6],[12.01,6.6],[11.83,7.46],[11.64,8.32],[11.46,9.18],[11.46,9.18],[12.02,9.58],[12.57,9.97],[13.13,10.36],[13.13,10.36],[12.91,10.69],[12.91,10.69],[13.49,11.16],[14.08,11.64],[14.66,12.11],[14.66,12.11],[15.32,11.63],[16.11,11.19],[16.91,10.76],[17.7,10.32],[18.48,9.87],[18.48,9.87],[19.17,10.34],[19.86,10.81],[20.55,11.28],[21.19,11.75],[21.83,12.22],[21.83,12.22],[21.84,11.91],[22.52,11.45],[23.19,10.98],[24.04,10.49],[24.88,10],[25.72,9.5],[26.63,9.09],[27.53,8.67],[28.43,8.25],[29.32,7.83],[30.22,7.4],[31.11,6.98],[32.07,6.72],[33.03,6.47],[33.99,6.21],[34.95,5.95],[35.9,5.69],[36.86,5.43],[37.81,5.32],[38.76,5.21],[39.72,5.09],[39.72,5.09],[40.06,5.5],[40.4,6.18],[40.73,6.85],[40.73,6.85],[41.59,6.36],[42.44,5.87],[43.29,5.38],[44.14,4.89],[44.98,4.39],[45.83,3.9],[46.2,4.47],[46.56,5.05],[46.93,5.62],[47.78,5.15],[48.63,4.68],[49.48,4.21],[50.32,3.74],[51.17,3.27],[52.01,2.8],[52.86,2.32],[53.7,1.85],[54.54,1.37],[55.38,0.9],[56.23,0.43],[57.07,-0.05],[57.91,-0.52],[58.75,-1],[59.6,-1.47],[60.44,-1.95],[61.18,-2.33],[61.92,-2.71],[62.66,-3.1],[63.41,-3.48],[64.15,-3.86],[64.15,-3.86],[63.81,-4.63],[63.47,-5.39],[63.13,-6.16],[62.79,-6.92],[62.44,-7.68],[62.1,-8.45],[61.61,-9.32],[61.13,-10.18],[60.64,-11.05],[60.15,-11.92],[59.65,-12.78],[59.15,-13.65],[58.65,-14.51],[58.15,-15.37],[57.57,-16.1],[56.99,-16.83],[56.41,-17.56],[55.82,-18.28],[55.23,-19],[54.63,-19.72],[54.03,-20.44],[53.42,-21.16],[52.8,-21.87],[52.18,-22.59],[51.53,-23.18],[50.87,-23.78],[50.2,-24.37],[49.53,-24.96],[48.85,-25.54],[48.17,-26.13],[47.51,-26.86],[46.84,-27.6],[46.84,-27.6],[46.76,-27.43],[46.16,-26.88],[45.56,-26.33],[44.97,-25.78],[44.97,-25.78],[44.36,-26.44],[43.58,-27.07],[42.79,-27.69],[41.99,-28.31],[41.28,-28.81],[40.57,-29.31],[39.93,-29.81],[39.29,-30.31],[38.65,-30.81],[37.82,-31.22],[36.98,-31.63],[36.14,-32.03],[35.24,-32.35],[34.34,-32.67],[33.74,-32.88],[33.13,-33.08],[32.76,-33.48],[32.38,-33.88],[32.03,-34.31],[31.68,-34.74],[30.97,-35.14],[30.25,-35.53],[29.3,-35.72],[28.35,-35.9],[27.48,-36],[26.61,-36.1],[25.62,-36.23],[24.63,-36.35],[23.68,-36.76],[22.72,-37.16],[22.04,-37.57],[21.35,-37.98],[20.95,-38.8],[20.54,-39.62],[20.19,-40.41],[19.83,-41.19],[19.12,-41.76],[18.4,-42.33],[17.66,-42.9],[17.13,-43.54],[16.59,-44.18],[16.04,-44.82],[15.13,-45.25],[14.21,-45.68],[13.44,-46.12],[12.65,-46.54],[12.17,-46.96],[11.69,-47.38],[11.12,-48.02],[10.53,-48.65],[10.31,-49.44],[10.07,-50.22],[9.81,-50.95],[9.53,-51.67],[9.44,-52.45],[9.34,-53.22],[8.92,-54.03],[8.49,-54.85],[7.61,-55.7],[6.44,-56.08],[5.25,-56.45],[3.62,-56.56],[1.98,-56.65],[0.86,-56.67],[-0.25,-56.68],[-1.94,-56.93],[-2.91,-57.38],[-4.56,-57.46],[-5.62,-57.88],[-6.7,-58.29],[-7.67,-58.71],[-8.67,-59.12],[-10.47,-59.27],[-12.29,-59.39],[-13.96,-59.76],[-15.67,-60.1],[-17.08,-60.47],[-18.52,-60.82],[-19.52,-61.28],[-20.55,-61.73],[-21.62,-62.17],[-23.14,-62.35],[-24.68,-62.51],[-26.23,-62.65],[-28.4,-62.71],[-30.58,-62.73],[-32.76,-62.71],[-34.43,-62.83],[-36.11,-62.93],[-37.59,-63.06],[-39.09,-63.18],[-41.15,-63.38],[-43.25,-63.55],[-45.36,-63.69],[-47.51,-63.62],[-49.65,-63.52],[-51.78,-63.39],[-53.32,-63.4],[-54.87,-63.39],[-56.41,-63.37],[-58.26,-63.23],[-60.09,-63.07],[-61.9,-62.88],[-63.68,-62.67],[-65.43,-62.44],[-67.23,-62.26],[-69,-62.06],[-70.75,-61.84],[-70.75,-61.84],[-70.76,-61.51],[-70.79,-61.21],[-70.75,-60.95],[-70.71,-60.63],[-70.65,-60.27],[-70.4,-59.84],[-70.08,-59.5],[-69.86,-59.3],[-69.61,-59.06],[-69.3,-58.78],[-68.82,-58.35],[-68.37,-57.97],[-68.05,-57.65],[-67.8,-57.33],[-67.75,-56.89],[-67.69,-56.61],[-67.63,-56.38],[-67.61,-56.3],[-67.5,-56.05],[-67.38,-55.75],[-67.22,-55.39],[-67.07,-55.1],[-66.9,-54.78],[-66.72,-54.43],[-66.58,-54.17],[-66.26,-53.53],[-66.05,-53.12],[-65.85,-52.73],[-65.64,-52.36],[-65.36,-51.85],[-65.21,-51.57],[-65,-51.12],[-64.88,-50.84],[-64.73,-50.48],[-64.45,-50.2],[-64.09,-49.64],[-64.09,-49.64],[-64,-49.31],[-64,-49.31],[-63.98,-49.19],[-63.86,-48.92],[-63.35,-48.12],[-62.85,-47.32],[-62.75,-46.58],[-62.65,-45.84],[-62.53,-45.01],[-62.42,-44.17],[-61.91,-43.42],[-61.42,-42.67],[-60.94,-41.92],[-60.47,-41.16],[-60.01,-40.41],[-59.83,-39.64],[-59.65,-38.87],[-59.47,-38.11],[-59.29,-37.34],[-59.16,-36.48],[-59.03,-35.61],[-58.97,-35.18],[-58.89,-34.79],[-58.86,-34.47],[-58.76,-33.9],[-58.7,-33.19],[-58.53,-32.73],[-58.29,-31.9],[-58.16,-31.41],[-58.18,-30.81],[-58.18,-30.81],[-58.19,-30.53],[-58.23,-30.17],[-58.21,-29.61],[-58.35,-28.87],[-58.43,-28.34],[-58.5,-27.82],[-59.06,-27.04],[-59.23,-26.35],[-59.4,-25.66],[-59.57,-24.97],[-59.77,-24.15],[-59.98,-23.34],[-60.17,-22.52],[-60.26,-21.66],[-60.34,-20.8],[-60.43,-19.95],[-60.51,-19.09],[-60.59,-18.23],[-60.67,-17.37],[-60.72,-16.5],[-60.77,-15.64],[-60.82,-14.77],[-60.48,-14],[-60.15,-13.23],[-59.81,-12.46],[-59.48,-11.7],[-59.48,-11.7],[-59.49,-11.63],[-58.96,-10.96],[-58.72,-10.4],[-58.48,-9.84],[-58.36,-9.35],[-58.36,-9.35],[-57.79,-9.39],[-57.22,-9.42],[-56.66,-9.33],[-56.1,-9.24],[-55.52,-9.36],[-54.93,-9.47],[-54.42,-9.68],[-53.9,-9.89],[-53.24,-10.25],[-52.57,-10.61],[-51.71,-10.85],[-50.84,-11.08],[-50.02,-10.92],[-49.2,-10.75],[-48.46,-10.39],[-47.72,-10.02],[-47.07,-9.67],[-46.42,-9.32],[-45.79,-9.1],[-45.17,-8.88],[-44.6,-8.8],[-44.03,-8.72],[-43.52,-8.61],[-43,-8.49],[-42.39,-8.41],[-41.79,-8.32],[-41.17,-7.84],[-40.55,-7.36],[-39.8,-7.23],[-39.05,-7.09],[-38.38,-7.21],[-37.71,-7.32],[-37.04,-7.44],[-36.26,-7.53],[-35.48,-7.62],[-34.59,-7.93],[-34.08,-7.98],[-33.56,-8.04],[-32.99,-8.06],[-32.41,-8.08],[-31.92,-7.91],[-31.42,-7.75],[-31.42,-7.75],[-31.41,-7.75],[-30.89,-7.84],[-30.38,-7.93],[-29.79,-8.21],[-29.19,-8.49],[-28.75,-8.8],[-28.3,-9.12],[-27.83,-9.67],[-27.35,-10.22],[-27.32,-10.22],[-27.32,-10.22],[-26.94,-9.72],[-26.94,-8.84],[-26.82,-8.11],[-26.9,-7.19],[-27.2,-6.56],[-27.5,-5.93],[-27.49,-5.34],[-27.26,-4.46],[-27.05,-3.68],[-26.78,-3.32],[-26.39,-3.02],[-25.77,-2.76],[-25.35,-2.78],[-24.91,-2.81],[-24.69,-2.46],[-24.54,-2.21],[-24.34,-1.94],[-24.03,-1.74],[-23.81,-1.38],[-23.57,-0.96],[-23.49,-0.17],[-23.4,0.27],[-23.27,0.69],[-23.01,0.93],[-22.79,1.12],[-22.39,1.66],[-22.04,2.19],[-21.8,2.8],[-21.53,3.24],[-21.27,3.67],[-20.91,4.1],[-20.55,4.53],[-20.07,4.73],[-19.59,4.93],[-19.46,5.02],[-18.58,4.85],[-17.63,4.79],[-17.12,4.75],[-16.96,4.65],[-16.41,4.55],[-15.68,4.84],[-14.89,5.21],[-14.44,5.53],[-13.53,5.79],[-12.99,6.06],[-12.26,6.19],[-11.44,6.28],[-10.77,6.52],[-10.46,6.56],[-10.41,6.53]]]}},{"type":"Feature","properties":{"ma":170,"type":"gpml:TopologicalClosedPlateBoundary","name":"Mongol-Okhotsk Ocean","pid":380,"deforming":false},"geometry":{"type":"Polygon","coordinates":[[[-180,88.39],[-180,89.19],[-180,90],[180,90],[180,89.19],[180,88.39],[180,87.58],[173,86.79],[168.8,85.97],[166.03,85.14],[164.06,84.3],[162.61,83.46],[161.16,82.8],[159.96,82.15],[158.94,81.49],[157.71,80.75],[156.67,80.01],[155.76,79.27],[154.98,78.52],[154.32,77.67],[153.75,76.81],[153.25,75.95],[152.41,75],[151.67,74.05],[150.83,73.27],[150.07,72.48],[149.36,71.81],[148.7,71.14],[148.09,70.46],[147.33,69.57],[146.64,68.67],[146.09,67.93],[145.58,67.19],[144.9,66.45],[144.26,65.71],[143.52,64.79],[142.83,63.87],[142.23,63.09],[141.67,62.3],[141.13,61.52],[140.59,60.74],[140.07,59.97],[139.53,59.07],[139.02,58.17],[138.44,57.24],[137.9,56.3],[137.39,55.63],[136.9,54.95],[136.49,54.34],[136.08,53.72],[135.6,53.03],[135.14,52.33],[134.68,51.74],[134.24,51.16],[133.93,50.52],[133.63,49.87],[133.22,49.2],[132.81,48.52],[132.31,47.66],[131.82,46.8],[131.48,46.16],[131.15,45.51],[130.83,44.87],[130.38,43.99],[129.95,43.1],[129.53,42.21],[129.12,41.32],[128.8,40.55],[128.48,39.77],[128.18,39],[127.88,38.22],[127.58,37.46],[127.28,36.69],[126.99,35.93],[126.7,35.17],[126.2,34.3],[125.7,33.43],[125.22,32.55],[124.74,31.68],[124.28,30.8],[123.82,29.92],[123.35,29.28],[122.89,28.64],[122.43,27.99],[121.97,27.35],[121.97,27.35],[122.58,26.84],[123.19,26.33],[123.68,25.82],[124.17,25.31],[124.65,24.79],[125.31,24.11],[125.97,23.43],[126.65,22.71],[127.32,21.98],[127.44,21.27],[127.7,20.65],[127.96,20.02],[128.41,19.41],[128.86,18.79],[129.61,18.52],[130.36,18.23],[131.11,17.95],[131.11,17.95],[130.76,17.21],[130.42,16.46],[130.09,15.72],[129.75,14.97],[129.19,14.16],[128.63,13.36],[128.08,12.54],[128.05,12.49],[128.05,12.49],[127.08,12.78],[126.11,13.05],[125.13,13.33],[124.43,13.84],[123.72,14.35],[123.01,14.86],[122.29,15.36],[121.58,15.86],[120.85,16.36],[119.91,16.65],[118.96,16.94],[118.01,17.22],[117.05,17.49],[116.1,17.77],[115.19,18.05],[114.28,18.34],[113.37,18.62],[112.45,18.89],[111.53,19.16],[110.61,19.43],[109.68,19.69],[108.77,20.18],[107.85,20.66],[106.93,21.14],[106,21.61],[105.07,22.08],[104.28,22.6],[103.49,23.11],[102.69,23.61],[101.89,24.12],[101.08,24.62],[100.08,25.03],[100.08,25.03],[99.74,24.17],[99.4,23.31],[99.07,22.45],[99.07,22.45],[98.43,22.21],[97.59,21.99],[96.74,21.77],[95.9,21.55],[94.94,21.43],[93.98,21.31],[93.03,21.18],[92.07,21.05],[91.12,20.91],[90.11,20.87],[89.1,20.82],[88.09,20.76],[87.08,20.7],[86.08,20.63],[85.07,20.55],[84.01,20.67],[82.95,20.78],[81.89,20.88],[80.83,20.98],[79.8,21.13],[78.77,21.27],[77.74,21.41],[76.7,21.54],[75.77,21.73],[74.84,21.9],[73.9,22.08],[73.44,22.21],[73.44,22.21],[73.33,21.46],[73.22,20.71],[73.12,19.96],[73.01,19.21],[72.13,19.08],[71.25,18.93],[70.37,18.79],[69.5,18.64],[68.62,18.48],[67.75,18.32],[67.14,18.39],[66.53,18.44],[66.46,19.39],[66.39,20.33],[66.33,21.27],[66.26,22.21],[66.19,23.15],[66.12,24.09],[66.04,25.03],[65.69,25.95],[65.34,26.87],[64.98,27.79],[64.61,28.71],[64.24,29.63],[63.86,30.54],[63.86,30.54],[64.51,31.25],[65.18,31.95],[65.85,32.65],[65.98,33.46],[66.12,34.27],[66.25,35.08],[66.39,35.89],[66.53,36.71],[66.35,37.42],[66.17,38.14],[65.99,38.86],[65.48,39.53],[64.96,40.19],[64.52,41],[64.07,41.81],[64.51,42.7],[64.96,43.59],[65.42,44.48],[65.89,45.36],[66.38,46.25],[66.87,46.85],[67.37,47.45],[67.88,48.04],[68.8,48.79],[69.75,49.53],[70.72,50.26],[71.55,50.87],[72.39,51.48],[73.26,52.08],[74.15,52.67],[74.84,53.35],[75.54,54.03],[75.4,54.61],[75.26,55.19],[74.11,55.61],[72.94,56.02],[71.75,56.42],[70.53,56.8],[69.51,57.33],[68.45,57.85],[67.37,58.36],[66.25,58.87],[66.75,59.63],[67.28,60.38],[67.84,61.14],[68.42,61.89],[68.42,61.89],[69.03,62.63],[69.67,63.36],[70.34,64.09],[71.05,64.81],[70.79,65.68],[70.51,66.54],[70.2,67.4],[69.88,68.27],[70.06,68.96],[70.25,69.65],[70.45,70.35],[71.89,70.99],[73.43,71.62],[75.07,72.24],[74.47,73.03],[73.81,73.81],[73.08,74.6],[72.28,75.38],[72.95,76.29],[73.72,77.19],[74.6,78.1],[75.62,79],[76.83,79.89],[78.26,80.79],[80,81.67],[82.14,82.55],[84.85,83.41],[84.55,84.18],[84.15,84.95],[83.61,85.72],[82.84,86.49],[82.84,86.49],[75.27,87.09],[64.1,87.61],[49.87,87.98],[31.07,88.18],[1.5,88.36],[-26.46,88.08],[-40.17,87.62],[-49.09,87.07],[-49.09,87.07],[-59.34,87.94],[-82.19,88.66],[-127.72,88.88],[-164.07,88.38],[-180,87.58],[-180,88.39]]]}},{"type":"Feature","properties":{"ma":170,"type":"gpml:TopologicalClosedPlateBoundary","name":"AACM","pid":18100,"deforming":false},"geometry":{"type":"Polygon","coordinates":[[[-9.02,74.77],[-8.47,73.91],[-7.98,73.04],[-7.53,72.18],[-7.12,71.32],[-7,70.42],[-6.89,69.53],[-6.79,68.63],[-6.7,67.74],[-6.68,67.67],[-6.66,67.33],[-6.67,67.22],[-6.66,67.05],[-6.66,67.02],[-6.66,67.02],[-6.47,66.19],[-6.29,65.36],[-6.12,64.52],[-5.96,63.69],[-5.8,62.85],[-5.61,62.01],[-5.43,61.16],[-5.26,60.31],[-5.1,59.46],[-4.94,58.61],[-4.7,57.89],[-4.47,57.16],[-4.24,56.44],[-4.88,55.88],[-4.71,55.18],[-4.55,54.48],[-4.4,53.78],[-4.4,53.78],[-5.73,54.1],[-7.08,54.42],[-8.61,54.67],[-10.17,54.9],[-11.74,55.12],[-13.1,55.17],[-14.47,55.2],[-15.47,55.22],[-16.53,55.23],[-17.42,55.23],[-18.46,55.21],[-19.26,55.2],[-20.21,55.17],[-21.04,55.14],[-21.78,55],[-22.47,54.86],[-23.07,54.83],[-24.19,54.67],[-24.78,54.52],[-25.5,54.3],[-26.58,53.57],[-27.36,53.14],[-28.12,52.69],[-28.76,52.45],[-29.07,52.26],[-29.86,51.6],[-30.11,51.39],[-31.11,50.81],[-31.41,50.48],[-31.41,50.48],[-32.34,50.94],[-33.29,51.4],[-34.25,51.85],[-35.24,52.29],[-36.35,52.89],[-37.48,53.48],[-38.65,54.06],[-39.84,54.63],[-41.08,55.18],[-42.72,55.47],[-44.39,55.74],[-46.08,55.99],[-47.45,56.05],[-48.82,56.1],[-50.19,56.13],[-51.56,56.15],[-51.56,56.15],[-51.6,56.33],[-51.22,57],[-50.83,57.66],[-50.43,58.32],[-49.88,59.06],[-49.3,59.78],[-48.7,60.51],[-48.06,61.23],[-48.06,61.23],[-49.39,61.84],[-50.76,62.43],[-52.19,63.01],[-53.62,63.71],[-55.12,64.39],[-56.69,65.06],[-58.29,65.73],[-59.97,66.39],[-61.74,67.03],[-62.51,67.53],[-63.31,68.02],[-63.31,68.02],[-61.75,68.52],[-60.13,68.92],[-58.45,69.3],[-56.7,69.66],[-54.17,70.05],[-51.56,70.39],[-49.71,70.65],[-47.81,70.89],[-45.87,71.11],[-43.55,71.48],[-41.13,71.83],[-38.64,72.14],[-36.7,72.47],[-34.7,72.77],[-32.63,73.06],[-29.86,73.19],[-27.05,73.28],[-24.22,73.33],[-20.91,73.62],[-17.48,73.86],[-14.77,74.2],[-11.94,74.5],[-9.02,74.77]]]}},{"type":"Feature","properties":{"ma":170,"type":"gpml:TopologicalClosedPlateBoundary","name":"Pacific Plate","pid":901,"deforming":false},"geometry":{"type":"Polygon","coordinates":[[[-170.34,-7.1],[-169.46,-6.74],[-168.59,-6.37],[-167.71,-6],[-166.86,-5.62],[-166,-5.23],[-165.15,-4.84],[-164.29,-4.46],[-163.44,-4.07],[-162.59,-3.64],[-161.75,-3.2],[-160.9,-2.77],[-160.05,-2.33],[-159.21,-1.9],[-158.37,-1.46],[-157.54,-1],[-156.72,-0.53],[-155.9,-0.06],[-155.08,0.41],[-154.25,0.87],[-153.43,1.34],[-152.61,1.81],[-151.79,2.28],[-150.94,2.75],[-150.09,3.22],[-149.23,3.69],[-148.38,4.16],[-147.56,4.63],[-146.75,5.11],[-145.92,5.58],[-145.1,6.05],[-145.1,6.05],[-145.14,5.76],[-145.22,5.24],[-145.22,5.24],[-144.65,4.61],[-144.09,3.97],[-143.52,3.33],[-142.96,2.69],[-142.36,1.91],[-141.76,1.13],[-141.16,0.34],[-140.56,-0.44],[-139.96,-1.23],[-139.36,-2.01],[-138.75,-2.8],[-138.15,-3.58],[-137.55,-4.36],[-136.95,-5.14],[-136.25,-5.76],[-135.56,-6.38],[-134.87,-7],[-134.17,-7.61],[-133.48,-8.23],[-132.78,-8.84],[-132.07,-9.45],[-131.37,-10.06],[-131.37,-10.06],[-132.31,-10.04],[-133.26,-10.01],[-134.2,-9.98],[-135.14,-9.95],[-136.08,-9.91],[-137.03,-9.87],[-137.97,-9.83],[-138.91,-9.79],[-139.9,-9.78],[-140.9,-9.77],[-141.89,-9.76],[-142.88,-9.74],[-143.87,-9.72],[-144.87,-9.7],[-145.86,-9.68],[-146.85,-9.65],[-147.84,-9.62],[-148.83,-9.59],[-149.82,-9.55],[-150.81,-9.52],[-151.8,-9.47],[-152.79,-9.43],[-153.78,-9.38],[-154.77,-9.34],[-155.76,-9.28],[-156.75,-9.23],[-157.72,-9.13],[-158.69,-9.02],[-159.66,-8.92],[-160.62,-8.81],[-161.59,-8.7],[-162.56,-8.59],[-163.52,-8.47],[-164.49,-8.35],[-165.45,-8.23],[-166.41,-8.11],[-167.38,-7.99],[-168.34,-7.86],[-169.3,-7.73],[-170.26,-7.6],[-171.22,-7.47],[-170.34,-7.1]]]}},{"type":"Feature","properties":{"ma":170,"type":"gpml:TopologicalClosedPlateBoundary","name":"Junction Plate North","pid":786,"deforming":false},"geometry":{"type":"Polygon","coordinates":[[[114.13,2.33],[114.41,3.29],[114.8,4.2],[115.2,5.1],[115.59,6.01],[115.98,6.92],[116.38,7.82],[116.77,8.73],[117.17,9.63],[117.58,10.53],[117.88,11.31],[118.19,12.09],[118.5,12.87],[118.82,13.65],[118.82,13.65],[119.34,12.97],[119.87,12.29],[120.39,11.6],[120.91,10.92],[121.45,10.25],[122,9.58],[122.55,8.91],[123.09,8.23],[123.63,7.56],[123.99,6.7],[124.36,5.84],[124.72,4.98],[125.08,4.12],[125.76,3.43],[126.43,2.74],[127.11,2.05],[127.78,1.36],[128.45,0.67],[129.13,-0.02],[129.8,-0.71],[130.48,-1.41],[131.15,-2.1],[131.83,-2.79],[132.45,-3.43],[133.08,-4.06],[133.7,-4.7],[134.33,-5.34],[134.33,-5.34],[134.28,-6.24],[134.24,-7.15],[134.19,-8.05],[134.14,-8.96],[134.1,-9.86],[134.05,-10.77],[134.08,-11.47],[134.12,-12.18],[134.15,-12.88],[134.15,-12.88],[133.38,-12.53],[132.62,-12.17],[131.85,-11.82],[131.09,-11.46],[130.33,-11.09],[130.69,-10.56],[131.06,-10.02],[130.28,-9.58],[129.5,-9.15],[128.73,-8.71],[127.96,-8.28],[127.19,-7.84],[126.42,-7.4],[125.65,-6.96],[124.89,-6.52],[125.21,-5.99],[125.53,-5.47],[124.75,-5.03],[123.97,-4.59],[123.19,-4.15],[122.41,-3.71],[121.63,-3.26],[120.86,-2.82],[120.08,-2.37],[120.4,-1.91],[120.71,-1.44],[119.89,-0.97],[119.07,-0.5],[118.26,-0.03],[117.44,0.44],[116.62,0.9],[115.79,1.38],[114.96,1.86],[114.13,2.33]]]}},{"type":"Feature","properties":{"ma":170,"type":"gpml:TopologicalClosedPlateBoundary","name":"Meso Tethys","pid":530,"deforming":false},"geometry":{"type":"Polygon","coordinates":[[[63.46,-5.4],[63.81,-4.63],[64.15,-3.86],[64.15,-3.86],[63.41,-3.48],[62.66,-3.1],[61.92,-2.71],[61.18,-2.33],[60.44,-1.95],[59.6,-1.47],[58.75,-1],[57.91,-0.52],[57.07,-0.05],[56.23,0.43],[55.38,0.9],[54.54,1.37],[53.7,1.85],[52.86,2.32],[52.01,2.8],[51.17,3.27],[50.32,3.74],[49.48,4.21],[48.63,4.68],[47.78,5.15],[46.93,5.62],[46.56,5.05],[46.2,4.47],[45.83,3.9],[44.98,4.39],[44.14,4.89],[43.29,5.38],[42.44,5.87],[41.59,6.36],[40.73,6.85],[40.73,6.85],[41.05,7.49],[41.37,8.13],[41.69,8.77],[41.99,9.59],[42.28,10.41],[42.58,11.23],[42.88,12.05],[42.99,13.02],[43.11,13.98],[43.22,14.94],[43.34,15.9],[43.46,16.87],[43.58,17.83],[43.7,18.79],[43.82,19.75],[43.95,20.72],[44.07,21.68],[44.2,22.64],[44.2,22.7],[44.2,22.7],[44.49,22.62],[45.05,22.44],[45.6,22.26],[46.24,22.16],[46.88,22.05],[47.75,21.89],[48.62,21.73],[49.49,21.71],[50.37,21.7],[51.15,21.76],[51.93,21.81],[52.71,21.86],[53.76,21.8],[54.81,21.73],[55.86,21.66],[56.87,21.52],[57.87,21.37],[58.54,20.95],[59.22,20.53],[59.86,20.17],[60.49,19.8],[61.13,19.42],[61.77,19.27],[62.4,19.11],[63.2,18.99],[63.99,18.86],[64.8,18.7],[65.6,18.53],[66.32,18.46],[67.04,18.4],[67.75,18.32],[68.62,18.48],[69.5,18.64],[70.37,18.79],[71.25,18.93],[72.13,19.08],[73.01,19.21],[73.12,19.96],[73.22,20.71],[73.33,21.46],[73.44,22.21],[73.44,22.21],[73.9,22.08],[74.84,21.9],[75.77,21.73],[76.7,21.54],[77.74,21.41],[78.77,21.27],[79.8,21.13],[80.83,20.98],[81.89,20.88],[82.95,20.78],[84.01,20.67],[85.07,20.55],[86.08,20.63],[87.08,20.7],[88.09,20.76],[89.1,20.82],[90.11,20.87],[91.12,20.91],[92.07,21.05],[93.03,21.18],[93.98,21.31],[94.94,21.43],[95.9,21.55],[96.74,21.77],[97.59,21.99],[98.43,22.21],[99.07,22.45],[99.07,22.45],[99.4,23.31],[99.74,24.17],[100.08,25.03],[100.08,25.03],[101.08,24.62],[101.89,24.12],[102.69,23.61],[103.49,23.11],[104.28,22.6],[105.07,22.08],[106,21.61],[106.93,21.14],[107.85,20.66],[108.77,20.18],[109.68,19.69],[110.61,19.43],[111.53,19.16],[112.45,18.89],[113.37,18.62],[114.28,18.34],[115.19,18.05],[116.1,17.77],[117.05,17.49],[118.01,17.22],[118.96,16.94],[119.91,16.65],[120.85,16.36],[121.58,15.86],[122.29,15.36],[123.01,14.86],[123.72,14.35],[124.43,13.84],[125.13,13.33],[126.11,13.05],[127.08,12.78],[128.05,12.49],[128.05,12.49],[127.55,11.63],[127.04,10.76],[126.54,9.89],[126.08,9.28],[125.62,8.66],[125.16,8.04],[124.7,7.43],[123.91,6.89],[123.91,6.89],[123.63,7.56],[123.09,8.23],[122.55,8.91],[122,9.58],[121.45,10.25],[120.91,10.92],[120.39,11.6],[119.87,12.29],[119.34,12.97],[118.82,13.65],[118.82,13.65],[118.5,12.87],[118.19,12.09],[117.88,11.31],[117.58,10.53],[117.17,9.63],[116.77,8.73],[116.38,7.82],[115.98,6.92],[115.59,6.01],[115.2,5.1],[114.8,4.2],[114.41,3.29],[114.23,2.68],[114.05,2.07],[114.05,2.07],[113.12,2.26],[112.78,1.38],[112.44,0.5],[112.1,-0.37],[111.77,-1.25],[111.43,-2.13],[110.47,-1.9],[109.52,-1.67],[108.56,-1.44],[108.23,-2.27],[107.9,-3.1],[107.57,-3.93],[107.23,-4.76],[106.9,-5.59],[106.57,-6.42],[105.66,-6.28],[104.76,-6.14],[103.86,-6],[102.97,-5.86],[102.07,-5.72],[101.73,-6.47],[101.4,-7.22],[101.06,-7.97],[100.72,-8.72],[99.78,-8.38],[98.85,-8.03],[97.91,-7.68],[97.65,-8.35],[97.39,-9.01],[96.89,-8.89],[96.59,-9.59],[96.29,-10.3],[95.56,-10.26],[95.26,-11.04],[94.96,-11.81],[94.65,-12.59],[94.34,-13.37],[93.44,-13.32],[92.55,-13.27],[91.65,-13.21],[90.75,-13.16],[89.85,-13.1],[88.89,-13.05],[87.93,-13],[86.97,-12.95],[86.01,-12.89],[85.05,-12.83],[84.09,-12.76],[83.13,-12.69],[83.19,-12.18],[83.25,-11.67],[82.46,-11.45],[81.68,-11.24],[80.89,-11.02],[80.11,-10.8],[79.18,-10.54],[78.26,-10.28],[77.34,-10.02],[76.41,-9.75],[75.5,-9.48],[74.58,-9.21],[73.66,-8.94],[72.75,-8.67],[71.83,-8.39],[70.92,-8.11],[70.01,-7.83],[69.1,-7.55],[68.19,-7.26],[67.28,-6.98],[66.51,-6.66],[65.75,-6.35],[64.99,-6.03],[64.23,-5.72],[63.46,-5.4]]]}},{"type":"Feature","properties":{"ma":170,"type":"gpml:TopologicalClosedPlateBoundary","name":"Moroccan-Plate","pid":706,"deforming":false},"geometry":{"type":"Polygon","coordinates":[[[6.05,2.62],[5.33,2.68],[4.5,2.77],[3.77,2.81],[3.01,2.94],[2.13,3.03],[1.74,3.01],[1.34,2.87],[1.06,2.91],[0.63,2.99],[0.18,3.1],[0.18,3.1],[-0.2,3.23],[-1.08,3.32],[-1.84,3.44],[-2.48,3.42],[-3.13,3.4],[-3.83,3.42],[-3.83,3.42],[-4.56,3.77],[-5.42,4.18],[-5.75,4.33],[-6.51,4.68],[-6.96,4.85],[-7.35,4.99],[-7.86,5.18],[-8.16,5.3],[-8.85,5.68],[-9.42,6.02],[-9.83,6.24],[-10.15,6.41],[-10.41,6.53],[-10.46,6.56],[-10.46,6.56],[-10.32,6.57],[-9.72,6.39],[-9.28,6.1],[-8.79,5.9],[-8.47,5.73],[-8.14,5.54],[-7.56,5.42],[-7.02,5.23],[-6.39,5.44],[-5.83,5.63],[-5.36,5.79],[-4.85,5.95],[-4.23,6.16],[-3.52,6.39],[-2.91,6.59],[-2.28,6.8],[-1.87,6.93],[-1.74,7],[-1.74,7],[-1.11,6.54],[-0.34,5.98],[0.33,5.69],[0.84,5.46],[1.35,5.24],[1.81,5.03],[2.28,4.83],[2.74,4.61],[3.21,4.39],[3.95,3.93],[4.69,3.48],[5.43,3.02],[6.05,2.62]]]}},{"type":"Feature","properties":{"ma":170,"type":"gpml:TopologicalClosedPlateBoundary","name":"Izanagi Plate 168_161.1","pid":926,"deforming":false},"geometry":{"type":"MultiPolygon","coordinates":[[[[180,86.59],[180,85.59],[180,84.6],[180,83.6],[180,82.61],[180,81.62],[180,80.62],[180,79.63],[180,78.63],[180,77.64],[180,76.65],[180,75.65],[180,74.66],[180,73.67],[180,72.67],[180,71.68],[180,70.68],[180,69.69],[180,68.7],[180,67.7],[180,66.71],[180,65.72],[180,64.72],[180,63.73],[180,62.73],[180,61.74],[180,60.75],[180,59.75],[180,58.76],[180,57.76],[180,56.77],[180,55.78],[180,54.78],[180,53.79],[180,52.8],[180,51.8],[180,50.81],[180,49.81],[180,48.82],[180,47.83],[180,46.83],[180,45.84],[180,44.85],[180,43.85],[180,42.86],[180,41.86],[180,40.87],[180,39.88],[180,38.88],[180,37.89],[180,36.9],[180,35.9],[180,34.91],[180,33.91],[180,32.92],[180,31.93],[180,30.93],[180,29.94],[180,28.94],[180,27.95],[180,26.96],[180,25.96],[180,24.97],[180,23.98],[180,22.98],[180,21.99],[180,20.99],[180,20],[180,19.01],[180,18.01],[180,17.02],[180,16.03],[180,15.03],[180,14.04],[180,13.04],[180,12.05],[180,11.06],[180,10.06],[180,9.07],[180,8.07],[180,7.08],[180,6.09],[180,5.09],[180,4.1],[180,3.11],[180,2.11],[180,1.12],[180,0.12],[180,-0.87],[180,-1.86],[180,-2.86],[180,-3.85],[180,-4.84],[180,-5.84],[179.11,-6.14],[178.22,-6.44],[177.32,-6.74],[176.43,-7.04],[175.53,-7.34],[174.63,-7.63],[173.74,-7.93],[172.84,-8.22],[171.94,-8.51],[171.03,-8.8],[170.8,-8.16],[170.56,-7.52],[169.61,-7.85],[168.67,-8.18],[167.72,-8.5],[166.77,-8.82],[165.82,-9.15],[164.86,-9.46],[163.91,-9.78],[162.95,-10.09],[161.99,-10.4],[161.03,-10.71],[160.07,-11.01],[159.11,-11.31],[158.14,-11.61],[157.17,-11.9],[157,-11.25],[156.82,-10.6],[155.88,-10.87],[154.93,-11.13],[153.98,-11.4],[153.04,-11.66],[152.08,-11.92],[151.13,-12.17],[150.18,-12.42],[149.22,-12.67],[148.26,-12.92],[147.3,-13.16],[146.34,-13.39],[145.38,-13.63],[144.41,-13.86],[143.44,-14.09],[142.48,-14.31],[141.5,-14.53],[141.25,-13.77],[140.99,-13.02],[140.03,-13.19],[139.06,-13.35],[138.1,-13.51],[137.13,-13.66],[136.16,-13.81],[135.19,-13.96],[134.22,-14.11],[134.22,-14.11],[134.17,-13.27],[134.13,-12.44],[134.09,-11.6],[134.05,-10.77],[134.1,-9.86],[134.14,-8.96],[134.19,-8.05],[134.24,-7.15],[134.28,-6.24],[134.33,-5.34],[134.33,-5.34],[133.7,-4.7],[133.08,-4.06],[132.45,-3.43],[131.83,-2.79],[131.15,-2.1],[130.48,-1.41],[129.8,-0.71],[129.13,-0.02],[128.45,0.67],[127.78,1.36],[127.11,2.05],[126.43,2.74],[125.76,3.43],[125.08,4.12],[124.79,4.82],[124.5,5.51],[124.21,6.2],[123.91,6.89],[123.91,6.89],[124.7,7.43],[125.16,8.04],[125.62,8.66],[126.08,9.28],[126.54,9.89],[126.93,10.55],[127.31,11.22],[127.69,11.88],[128.08,12.54],[128.63,13.36],[129.19,14.16],[129.75,14.97],[130.09,15.72],[130.42,16.46],[130.76,17.21],[131.11,17.95],[131.11,17.95],[130.36,18.23],[129.61,18.52],[128.86,18.79],[128.41,19.41],[127.96,20.02],[127.7,20.65],[127.44,21.27],[127.32,21.98],[126.65,22.71],[125.97,23.43],[125.31,24.11],[124.65,24.79],[124.17,25.31],[123.68,25.82],[123.19,26.33],[122.58,26.84],[121.97,27.35],[121.97,27.35],[122.43,27.99],[122.89,28.64],[123.35,29.28],[123.82,29.92],[124.28,30.8],[124.74,31.68],[125.22,32.55],[125.7,33.43],[126.2,34.3],[126.7,35.17],[126.99,35.93],[127.28,36.69],[127.58,37.46],[127.88,38.22],[128.18,39],[128.48,39.77],[128.8,40.55],[129.12,41.32],[129.53,42.21],[129.95,43.1],[130.38,43.99],[130.83,44.87],[131.15,45.51],[131.48,46.16],[131.82,46.8],[132.31,47.66],[132.81,48.52],[133.22,49.2],[133.63,49.87],[133.93,50.52],[134.24,51.16],[134.68,51.74],[135.14,52.33],[135.6,53.03],[136.08,53.72],[136.49,54.34],[136.9,54.95],[137.39,55.63],[137.9,56.3],[138.44,57.24],[139.02,58.17],[139.53,59.07],[140.07,59.97],[140.59,60.74],[141.13,61.52],[141.67,62.3],[142.23,63.09],[142.83,63.87],[143.52,64.79],[144.26,65.71],[144.9,66.45],[145.58,67.19],[146.09,67.93],[146.64,68.67],[147.33,69.57],[148.09,70.46],[148.7,71.14],[149.36,71.81],[150.07,72.48],[150.83,73.27],[151.67,74.05],[152.41,75],[153.25,75.95],[153.75,76.81],[154.32,77.67],[154.98,78.52],[155.76,79.27],[156.67,80.01],[157.71,80.75],[158.94,81.49],[159.96,82.15],[161.16,82.8],[162.61,83.46],[164.06,84.3],[166.03,85.14],[168.8,85.97],[173,86.79],[180,87.58],[180,86.59]]],[[[-180,-4.84],[-180,-3.85],[-180,-2.86],[-180,-1.86],[-180,-0.87],[-180,0.12],[-180,1.12],[-180,2.11],[-180,3.11],[-180,4.1],[-180,5.09],[-180,6.09],[-180,7.08],[-180,8.07],[-180,9.07],[-180,10.06],[-180,11.06],[-180,12.05],[-180,13.04],[-180,14.04],[-180,15.03],[-180,16.03],[-180,17.02],[-180,18.01],[-180,19.01],[-180,20],[-180,20.99],[-180,21.99],[-180,22.98],[-180,23.98],[-180,24.97],[-180,25.96],[-180,26.96],[-180,27.95],[-180,28.94],[-180,29.94],[-180,30.93],[-180,31.93],[-180,32.92],[-180,33.91],[-180,34.91],[-180,35.9],[-180,36.9],[-180,37.89],[-180,38.88],[-180,39.88],[-180,40.87],[-180,41.86],[-180,42.86],[-180,43.85],[-180,44.85],[-180,45.84],[-180,46.83],[-180,47.83],[-180,48.82],[-180,49.81],[-180,50.81],[-180,51.8],[-180,52.8],[-180,53.79],[-180,54.78],[-180,55.78],[-180,56.77],[-180,57.76],[-180,58.76],[-180,59.75],[-180,60.75],[-180,61.74],[-180,62.73],[-180,63.73],[-180,64.72],[-180,65.72],[-180,66.71],[-180,67.7],[-180,68.7],[-180,69.69],[-180,70.68],[-180,71.68],[-180,72.67],[-180,73.67],[-180,74.66],[-180,75.65],[-180,76.65],[-180,77.64],[-180,78.63],[-180,79.63],[-180,80.62],[-180,81.62],[-180,82.61],[-180,83.6],[-180,84.6],[-180,85.59],[-180,86.59],[-180,87.58],[-164.07,88.38],[-127.72,88.88],[-82.19,88.66],[-59.34,87.94],[-49.09,87.07],[-49.09,87.07],[-52.1,86.8],[-56.86,86.16],[-60.25,85.51],[-62.77,84.84],[-64.45,84.24],[-65.81,83.63],[-66.01,82.92],[-66.18,82.21],[-66.63,81.49],[-67.01,80.77],[-68.5,80.15],[-69.81,79.52],[-71.55,78.74],[-73.06,77.96],[-74.4,77.17],[-75.52,76.55],[-76.54,75.94],[-75.9,75.35],[-74.29,74.46],[-74.29,74.46],[-77.73,74.28],[-81.09,74.06],[-84.35,73.78],[-87.49,73.45],[-90.5,73.09],[-93.39,72.67],[-96.13,72.22],[-98.74,71.73],[-101.22,71.21],[-103.56,70.66],[-105.77,70.08],[-107.87,69.47],[-109.84,68.84],[-111.7,68.19],[-113.46,67.52],[-115.12,66.83],[-116.69,66.13],[-115.32,65.56],[-114.01,64.99],[-112.75,64.4],[-111.55,63.8],[-112.98,63.12],[-114.34,62.43],[-115.65,61.72],[-116.89,61.01],[-118.08,60.28],[-119.22,59.54],[-120.31,58.8],[-121.35,58.04],[-122.35,57.28],[-123.31,56.5],[-121.95,56.01],[-120.63,55.5],[-119.34,54.98],[-118.09,54.45],[-118.85,53.72],[-119.59,52.98],[-120.3,52.24],[-120.99,51.5],[-121.66,50.75],[-122.3,49.99],[-122.93,49.24],[-124,49.64],[-125.09,50.03],[-125.74,49.21],[-126.36,48.38],[-126.96,47.55],[-127.54,46.71],[-128.1,45.87],[-128.65,45.03],[-129.18,44.19],[-129.7,43.35],[-130.2,42.5],[-130.69,41.65],[-131.17,40.8],[-131.63,39.94],[-132.09,39.09],[-131.31,38.83],[-130.55,38.57],[-131.01,37.69],[-131.47,36.81],[-131.91,35.92],[-132.35,35.03],[-132.77,34.14],[-133.19,33.25],[-133.6,32.36],[-134,31.47],[-134.39,30.57],[-134.78,29.68],[-135.16,28.78],[-135.53,27.88],[-135.89,26.98],[-136.25,26.08],[-136.61,25.18],[-136.96,24.28],[-137.3,23.38],[-137.64,22.48],[-137.98,21.57],[-138.31,20.67],[-138.64,19.76],[-138.96,18.86],[-139.76,19.14],[-140.57,19.41],[-140.9,18.5],[-141.24,17.59],[-141.57,16.68],[-141.89,15.77],[-142.22,14.86],[-142.54,13.95],[-142.86,13.03],[-143.17,12.12],[-143.49,11.21],[-143.8,10.29],[-144.11,9.38],[-144.42,8.46],[-144.72,7.55],[-145.03,6.64],[-145.1,6.05],[-145.1,6.05],[-145.92,5.58],[-146.75,5.11],[-147.56,4.63],[-148.38,4.16],[-149.23,3.69],[-150.09,3.22],[-150.94,2.75],[-151.79,2.28],[-152.61,1.81],[-153.43,1.34],[-154.25,0.87],[-155.08,0.41],[-155.9,-0.06],[-156.72,-0.53],[-157.54,-1],[-158.37,-1.46],[-159.21,-1.9],[-160.05,-2.33],[-160.9,-2.77],[-161.75,-3.2],[-162.59,-3.64],[-163.44,-4.07],[-164.29,-4.46],[-165.15,-4.84],[-166,-5.23],[-166.86,-5.62],[-167.71,-6],[-168.19,-6.2],[-168.67,-6.4],[-168.67,-6.4],[-168.91,-5.62],[-169.16,-4.83],[-170.1,-5.12],[-171.05,-5.41],[-172,-5.7],[-172.95,-5.99],[-173.9,-6.27],[-174.85,-6.56],[-175.8,-6.84],[-176.76,-7.12],[-177.71,-7.4],[-178.67,-7.68],[-178.86,-6.98],[-179.05,-6.28],[-179.24,-5.58],[-180,-5.84],[-180,-4.84]]]]}},{"type":"Feature","properties":{"ma":170,"type":"gpml:TopologicalClosedPlateBoundary","name":"Chortis","pid":2035,"deforming":false},"geometry":{"type":"Polygon","coordinates":[[[-55.89,3.63],[-56.66,3.48],[-57.61,3.28],[-58.57,3.08],[-59.33,2.89],[-60.09,2.71],[-61.03,2.52],[-61.98,2.32],[-62.59,2.25],[-62.59,2.25],[-62.54,2.8],[-62.48,3.34],[-62.34,4.1],[-62.2,4.86],[-62.06,5.61],[-61.88,6.41],[-61.69,7.21],[-61.51,8.01],[-61.21,8.82],[-60.91,9.63],[-60.91,9.63],[-60.9,9.61],[-60.3,8.91],[-59.69,8.21],[-59.09,7.51],[-58.55,6.88],[-58.01,6.25],[-57.47,5.63],[-56.8,5.1],[-56.13,4.58],[-55.47,4.06],[-55.12,3.78],[-55.89,3.63]]]}},{"type":"Feature","properties":{"ma":170,"type":"gpml:TopologicalClosedPlateBoundary","name":"Sonora Mojave","pid":104,"deforming":false},"geometry":{"type":"Polygon","coordinates":[[[-60.71,10.18],[-60.31,10.54],[-59.92,10.91],[-59.37,11.37],[-58.83,11.83],[-58.46,12.24],[-58.08,12.64],[-58.08,12.64],[-58.17,13.57],[-58.26,14.5],[-58.35,15.43],[-58.44,16.36],[-58.53,17.29],[-58.64,18.1],[-58.75,18.91],[-58.75,18.91],[-58.13,18.28],[-57.51,17.47],[-56.9,16.67],[-56.3,15.86],[-55.7,15.05],[-55.1,14.24],[-54.51,13.42],[-53.92,12.61],[-53.37,11.83],[-52.82,11.06],[-52.27,10.28],[-51.75,9.54],[-51.24,8.81],[-50.73,8.07],[-50.64,7.94],[-50.64,7.94],[-51.38,7.29],[-51.66,6.6],[-52.05,6.24],[-52.45,5.87],[-53.11,5.15],[-53.72,4.78],[-54.4,4.28],[-55.08,3.79],[-55.12,3.78],[-55.12,3.78],[-55.47,4.06],[-56.13,4.58],[-56.8,5.1],[-57.47,5.63],[-58.01,6.25],[-58.55,6.88],[-59.09,7.51],[-59.69,8.21],[-60.3,8.91],[-60.9,9.61],[-60.91,9.63],[-60.71,10.18]]]}},{"type":"Feature","properties":{"ma":170,"type":"gpml:TopologicalClosedPlateBoundary","name":"Gravina Basin","pid":16111,"deforming":false},"geometry":{"type":"Polygon","coordinates":[[[-53.15,33.99],[-53.38,34.73],[-53.62,35.46],[-53.86,36.2],[-54.11,36.93],[-54.27,37.73],[-54.44,38.54],[-54.62,39.34],[-54.4,40.21],[-54.17,41.07],[-53.94,41.94],[-53.65,42.7],[-53.36,43.47],[-53.05,44.23],[-52.74,45],[-52.13,45.86],[-51.51,46.72],[-51.04,47.46],[-50.56,48.2],[-50.07,48.93],[-49.99,49.68],[-49.9,50.42],[-49.82,51.17],[-50.2,51.88],[-50.59,52.6],[-50.99,53.31],[-51.14,54.09],[-51.29,54.86],[-51.29,54.86],[-50.01,54.3],[-48.75,53.72],[-47.54,53.14],[-46.79,52.38],[-46.07,51.61],[-46.11,50.73],[-46.14,49.84],[-46.49,49.1],[-46.82,48.35],[-47.19,47.6],[-47.54,46.85],[-47.89,46.1],[-48.22,45.35],[-48.55,44.49],[-48.86,43.63],[-49.16,42.77],[-49.46,41.91],[-49.6,40.95],[-49.73,40],[-49.86,39.05],[-50.07,38.29],[-50.27,37.54],[-50.47,36.78],[-50.67,36.02],[-51.15,35.54],[-51.63,35.06],[-52.2,34.63],[-52.76,34.2],[-53.14,33.97],[-53.15,33.99]]]}},{"type":"Feature","properties":{"ma":170,"type":"gpml:TopologicalClosedPlateBoundary","name":"Atlantic_opening_east_flank","pid":701,"deforming":false},"geometry":{"type":"Polygon","coordinates":[[[-30.51,-0.96],[-30,-0.72],[-29.48,-0.47],[-28.91,-0.18],[-28.35,0.1],[-27.89,0.42],[-27.43,0.75],[-26.69,1.23],[-26.15,1.6],[-25.81,1.88],[-25.46,2.16],[-25.13,2.43],[-24.92,2.63],[-24.74,2.86],[-24.43,3.21],[-24.1,3.6],[-23.92,3.88],[-23.68,4.34],[-23.52,4.58],[-23.39,4.85],[-23.07,5.15],[-22.99,5.39],[-22.73,5.68],[-22.54,5.82],[-22.32,6],[-21.99,6.25],[-21.74,6.5],[-21.48,6.66],[-21.07,6.88],[-20.65,7.02],[-20.35,7.09],[-20.19,7.13],[-19.35,7.19],[-18.65,7.26],[-17.96,7.33],[-17.41,7.37],[-17.11,7.37],[-16.79,7.4],[-16.32,7.4],[-16.01,7.52],[-15.67,7.68],[-15.39,7.86],[-15.09,8.31],[-14.79,8.46],[-14.45,8.5],[-14.09,8.56],[-13.77,8.65],[-13.42,8.66],[-13.17,8.58],[-13.01,8.54],[-12.86,8.49],[-12.69,8.45],[-12.47,8.46],[-12.24,8.48],[-11.94,8.59],[-11.72,8.67],[-11.42,8.83],[-11.11,9.02],[-10.84,9.15],[-10.53,9.39],[-10.19,9.61],[-9.77,9.74],[-9.45,9.75],[-9.18,9.66],[-8.91,9.76],[-8.39,10.32],[-7.99,10.66],[-7.71,10.83],[-7.71,10.83],[-7.64,10.79],[-7.6,10.76],[-7.6,10.76],[-8.17,9.97],[-8.34,9.66],[-8.83,9.21],[-9.22,8.94],[-9.74,8.71],[-10.45,8.11],[-10.69,7.88],[-10.88,7.68],[-11.11,7.55],[-11.11,7.55],[-11.22,7.5],[-11.58,7.31],[-11.68,7.3],[-11.84,7.24],[-12.05,7.23],[-12.42,7.39],[-12.86,7.44],[-13.17,7.51],[-13.54,7.52],[-14.01,7.57],[-14.6,7.31],[-15.08,6.88],[-15.47,6.64],[-15.6,6.59],[-15.87,6.52],[-16.17,6.47],[-16.63,6.46],[-17.31,6.42],[-17.53,6.44],[-17.81,6.37],[-18.14,6.32],[-18.56,6.25],[-19.39,5.96],[-19.77,5.81],[-20.33,5.56],[-20.33,5.56],[-20.35,5.55],[-20.82,5.49],[-21.32,5.11],[-21.76,4.58],[-22.07,3.99],[-22.32,3.66],[-22.62,3.32],[-22.97,2.98],[-23.16,2.61],[-23.36,2.35],[-23.61,2.04],[-23.82,1.73],[-23.96,1.51],[-24.14,1.34],[-24.29,1.12],[-24.45,0.91],[-24.75,0.6],[-25.02,0.27],[-25.56,-0.07],[-26.26,-0.44],[-26.76,-0.87],[-27.26,-1.3],[-27.6,-1.75],[-27.93,-2.19],[-28.29,-2.59],[-28.64,-2.99],[-29.21,-3.11],[-29.44,-3.41],[-29.49,-3.47],[-29.49,-3.47],[-29.83,-2.68],[-30.23,-2.11],[-30.63,-1.54],[-30.63,-1.54],[-30.53,-1.14],[-30.51,-0.96]]]}},{"type":"Feature","properties":{"ma":170,"type":"gpml:TopologicalClosedPlateBoundary","name":"Atlantic_opening_NAM_flank","pid":101,"deforming":false},"geometry":{"type":"Polygon","coordinates":[[[-30.51,-0.96],[-30.49,-0.71],[-30.5,-0.39],[-30.5,0.53],[-30.54,1.05],[-30.27,1.45],[-30.27,1.66],[-30.52,2.05],[-30.2,2.35],[-29.8,2.62],[-28.99,2.75],[-28.2,2.87],[-27.45,2.97],[-27.08,3.39],[-26.47,3.82],[-26.12,4.14],[-25.67,4.52],[-25.22,4.95],[-24.75,5.39],[-24.62,5.94],[-24.58,6.34],[-24.51,6.76],[-24.35,7.03],[-23.97,7.5],[-23.64,8.11],[-23.12,8.54],[-22.57,8.76],[-21.91,8.81],[-21.56,8.77],[-21.42,8.81],[-21.13,8.93],[-20.96,8.86],[-20.68,8.77],[-20.47,8.69],[-20.24,8.66],[-20.05,8.65],[-19.77,8.62],[-19.49,8.63],[-19.24,8.61],[-19.03,8.64],[-18.81,8.7],[-18.43,8.53],[-18.18,8.4],[-17.92,8.26],[-17.62,8.3],[-17.49,8.42],[-17.32,8.54],[-17.15,8.66],[-17.05,8.74],[-16.92,8.82],[-16.74,8.95],[-16.63,9.05],[-16.36,9.26],[-16.13,9.42],[-16.05,9.48],[-15.97,9.54],[-15.88,9.59],[-15.76,9.65],[-15.46,9.82],[-15.24,9.96],[-15.08,9.97],[-14.53,9.94],[-13.86,9.79],[-13.14,9.37],[-12.59,9.14],[-12.15,9.26],[-11.76,9.49],[-11.47,9.76],[-11.05,10.17],[-10.41,10.67],[-9.67,10.74],[-8.93,10.81],[-8.24,11.06],[-7.82,10.93],[-7.7,10.84],[-7.7,10.84],[-7.99,10.66],[-8.39,10.32],[-8.91,9.76],[-9.18,9.66],[-9.45,9.75],[-9.77,9.74],[-10.19,9.61],[-10.53,9.39],[-10.84,9.15],[-11.11,9.02],[-11.42,8.83],[-11.72,8.67],[-11.94,8.59],[-12.24,8.48],[-12.47,8.46],[-12.69,8.45],[-12.86,8.49],[-13.01,8.54],[-13.17,8.58],[-13.42,8.66],[-13.77,8.65],[-14.09,8.56],[-14.45,8.5],[-14.79,8.46],[-15.09,8.31],[-15.39,7.86],[-15.67,7.68],[-16.01,7.52],[-16.32,7.4],[-16.79,7.4],[-17.11,7.37],[-17.41,7.37],[-17.96,7.33],[-18.65,7.26],[-19.35,7.19],[-20.19,7.13],[-20.35,7.09],[-20.65,7.02],[-21.07,6.88],[-21.48,6.66],[-21.74,6.5],[-21.99,6.25],[-22.32,6],[-22.54,5.82],[-22.73,5.68],[-22.99,5.39],[-23.07,5.15],[-23.39,4.85],[-23.52,4.58],[-23.68,4.34],[-23.92,3.88],[-24.1,3.6],[-24.43,3.21],[-24.74,2.86],[-24.92,2.63],[-25.13,2.43],[-25.46,2.16],[-25.81,1.88],[-26.15,1.6],[-26.69,1.23],[-27.43,0.75],[-27.89,0.42],[-28.35,0.1],[-28.91,-0.18],[-29.48,-0.47],[-30,-0.72],[-30.51,-0.96]]]}},{"type":"Feature","properties":{"ma":170,"type":"gpml:TopologicalClosedPlateBoundary","name":"East Vardar","pid":307,"deforming":false},"geometry":{"type":"Polygon","coordinates":[[[40.73,6.85],[40.19,7.16],[39.64,7.47],[38.8,7.93],[37.96,8.38],[37.12,8.84],[36.27,9.29],[35.79,8.65],[35.3,8.01],[34.43,8.51],[33.56,9.01],[32.69,9.51],[31.82,10.01],[31.42,9.47],[31.02,8.93],[30.62,8.39],[29.85,8.79],[29.07,9.19],[28.3,9.58],[27.52,9.98],[26.75,10.37],[26.33,9.83],[25.5,10.36],[24.66,10.88],[23.82,11.4],[22.98,11.92],[22.13,12.44],[22.13,12.44],[22.88,12.98],[23.64,13.52],[24.39,14.06],[24.98,14.51],[25.57,14.97],[26.16,15.42],[26.16,15.42],[27,15.43],[28.02,15.59],[29.04,15.76],[30.07,15.91],[30.88,16.12],[31.7,16.31],[32.52,16.51],[33.34,16.7],[34.21,17.25],[35.09,17.79],[35.97,18.32],[36.86,18.86],[37.75,19.39],[38.67,19.83],[39.59,20.27],[40.51,20.71],[41.45,21.14],[42.38,21.56],[43.25,21.82],[44.12,22.08],[44.12,22.08],[44.01,21.17],[43.89,20.26],[43.77,19.34],[43.65,18.43],[43.54,17.52],[43.43,16.61],[43.32,15.7],[43.2,14.79],[43.09,13.88],[42.98,12.97],[42.88,12.05],[42.58,11.23],[42.28,10.41],[41.99,9.59],[41.69,8.77],[41.37,8.13],[41.05,7.49],[40.73,6.85]]]}},{"type":"Feature","properties":{"ma":170,"type":"gpml:TopologicalClosedPlateBoundary","name":"AlCaPa","pid":334,"deforming":false},"geometry":{"type":"Polygon","coordinates":[[[23.92,13.72],[23.24,13.24],[22.56,12.75],[21.89,12.26],[21.22,11.77],[20.55,11.28],[19.86,10.81],[19.17,10.34],[18.48,9.87],[18.48,9.87],[17.7,10.32],[16.91,10.76],[16.11,11.19],[15.32,11.63],[14.86,11.97],[14.86,11.97],[15.52,12.62],[16.19,13.26],[16.65,14.01],[17.11,14.75],[17.57,15.5],[18.04,16.24],[18.52,16.98],[19.08,16.69],[19.65,16.39],[19.65,16.39],[20.07,15.99],[20.49,15.59],[21.2,15.13],[21.91,14.67],[22.58,14.36],[23.25,14.04],[23.92,13.72]]]}},{"type":"Feature","properties":{"ma":170,"type":"gpml:TopologicalClosedPlateBoundary","name":"Tisza - Dacia - Moesia","pid":319,"deforming":false},"geometry":{"type":"Polygon","coordinates":[[[23.92,13.72],[23.25,14.04],[22.58,14.36],[21.91,14.67],[21.2,15.13],[20.49,15.59],[19.86,16.18],[19.24,16.77],[18.6,17.36],[18.6,17.36],[19.1,18.05],[19.59,18.73],[19.54,18.92],[20.07,19.71],[20.61,20.49],[20.54,20.73],[20.86,21.25],[21.19,21.78],[21.97,22.13],[22.75,22.48],[23.54,22.82],[24.34,23.16],[25.14,23.5],[25.14,23.5],[26.13,23.53],[27.12,23.55],[28.11,23.57],[29.11,23.58],[30.1,23.59],[31.09,23.58],[32.08,23.58],[33.08,23.56],[34.07,23.54],[34.07,23.54],[33.88,23.15],[33.38,22.54],[32.88,21.93],[32.39,21.32],[31.9,20.71],[31.31,20.14],[30.72,19.58],[30.14,19.01],[29.56,18.44],[28.95,17.88],[28.35,17.31],[27.75,16.74],[27.15,16.17],[26.46,15.65],[25.77,15.12],[25.08,14.59],[24.39,14.06],[23.92,13.72]]]}},{"type":"Feature","properties":{"ma":170,"type":"gpml:TopologicalClosedPlateBoundary","name":"West Vardar","pid":307,"deforming":false},"geometry":{"type":"Polygon","coordinates":[[[39.72,5.09],[38.76,5.21],[37.81,5.32],[36.86,5.43],[35.9,5.69],[34.95,5.95],[33.99,6.21],[33.03,6.47],[32.07,6.72],[31.11,6.98],[30.22,7.4],[29.32,7.83],[28.43,8.25],[27.53,8.67],[26.63,9.09],[25.72,9.5],[24.88,10],[24.04,10.49],[23.19,10.98],[22.52,11.45],[21.84,11.91],[21.83,12.22],[21.83,12.22],[22.13,12.44],[22.13,12.44],[22.98,11.92],[23.82,11.4],[24.66,10.88],[25.5,10.36],[26.33,9.83],[26.75,10.37],[27.52,9.98],[28.3,9.58],[29.07,9.19],[29.85,8.79],[30.62,8.39],[31.02,8.93],[31.42,9.47],[31.82,10.01],[32.69,9.51],[33.56,9.01],[34.43,8.51],[35.3,8.01],[35.79,8.65],[36.27,9.29],[37.12,8.84],[37.96,8.38],[38.8,7.93],[39.64,7.47],[40.19,7.16],[40.73,6.85],[40.73,6.85],[40.4,6.18],[40.06,5.5],[39.72,5.09]]]}},{"type":"Feature","properties":{"ma":170,"type":"gpml:TopologicalClosedPlateBoundary","name":"AlKaPeCa","pid":329,"deforming":false},"geometry":{"type":"Polygon","coordinates":[[[12.01,6.6],[11.26,6.27],[10.51,5.95],[9.76,5.62],[9.01,5.29],[8.26,4.96],[7.4,4.76],[6.54,4.56],[5.67,4.35],[4.81,4.14],[3.95,3.94],[3.95,3.94],[3.21,4.39],[2.74,4.61],[2.28,4.83],[1.44,5.19],[1.44,5.19],[2.32,5.43],[3.19,5.67],[4.06,5.9],[4.93,6.13],[5.81,6.36],[6.68,6.59],[7.56,6.82],[8.43,7.04],[8.31,7.74],[9.11,8.02],[9.91,8.31],[10.72,8.59],[11.53,8.87],[11.53,8.87],[11.69,8.11],[11.85,7.36],[12.01,6.6]]]}},{"type":"Feature","properties":{"ma":170,"type":"gpml:TopologicalClosedPlateBoundary","name":"Guyana","pid":233,"deforming":false},"geometry":{"type":"Polygon","coordinates":[[[-30.54,-5.41],[-30.06,-4.63],[-29.74,-4.12],[-29.15,-3.58],[-29.42,-4.09],[-29.7,-4.61],[-30.15,-5.32],[-30.6,-6.04],[-31.1,-6.72],[-31.1,-6.72],[-31.32,-6.68],[-31.32,-6.68],[-31.31,-6.65],[-30.92,-6.03],[-30.54,-5.41]]]}},{"type":"Feature","properties":{"ma":170,"type":"gpml:TopologicalClosedPlateBoundary","name":"Guyana East","pid":7714,"deforming":false},"geometry":{"type":"Polygon","coordinates":[[[-29.74,-5.1],[-30.03,-5.51],[-30.09,-6],[-30.28,-6.49],[-30.59,-6.8],[-31.1,-6.72],[-31.1,-6.72],[-30.6,-6.04],[-30.24,-5.46],[-29.87,-4.88],[-29.74,-5.1]]]}},{"type":"Feature","properties":{"ma":170,"type":"gpml:TopologicalNetwork","name":"Southern_Central_Atlantic_Mesh","pid":101,"deforming":true},"geometry":{"type":"Polygon","coordinates":[[[-27.91,-4.07],[-28.45,-3.69],[-28.98,-3.31],[-29.12,-3.1],[-29.12,-3.1],[-29.21,-3.11],[-29.44,-3.41],[-29.49,-3.47],[-29.49,-3.47],[-29.83,-2.68],[-30.23,-2.11],[-30.63,-1.54],[-30.63,-1.54],[-30.53,-1.14],[-30.49,-0.71],[-30.5,-0.39],[-30.5,0.12],[-30.5,0.12],[-30.64,0.29],[-31.35,0.9],[-31.88,1.5],[-32.46,1.98],[-33.07,2.37],[-33.88,2.64],[-34.41,3.22],[-34.6,3.54],[-34.6,3.54],[-34.53,3.58],[-34.33,3.69],[-34.02,3.97],[-33.6,4.33],[-33.2,4.62],[-32.82,4.89],[-32.69,5.08],[-32.35,5.15],[-32.03,5.21],[-31.51,5.33],[-30.87,5.42],[-30.23,5.51],[-29.65,5.9],[-29.17,6.32],[-28.91,7.06],[-28.7,7.67],[-28.05,7.94],[-27.25,8.43],[-26.89,8.7],[-26.37,9.14],[-25.86,9.57],[-25.56,10],[-25.36,10.43],[-24.94,10.55],[-24.8,10.65],[-24.55,10.61],[-24.26,10.51],[-23.97,10.49],[-23.5,10.6],[-23.25,10.61],[-23.07,10.6],[-22.74,10.84],[-22.55,10.98],[-22.55,10.98],[-22.03,10.13],[-21.68,9.48],[-21.34,8.84],[-21.34,8.84],[-21.42,8.81],[-21.56,8.77],[-21.91,8.81],[-22.57,8.76],[-23.12,8.54],[-23.64,8.11],[-23.97,7.5],[-24.35,7.03],[-24.51,6.76],[-24.58,6.34],[-24.62,5.94],[-24.75,5.39],[-25.22,4.95],[-25.67,4.52],[-26.12,4.14],[-26.47,3.82],[-27.08,3.39],[-27.45,2.97],[-28.2,2.87],[-28.99,2.75],[-29.8,2.62],[-30.2,2.35],[-30.52,2.05],[-30.27,1.66],[-30.27,1.45],[-30.54,1.05],[-30.5,0.53],[-30.5,-0.39],[-30.49,-0.71],[-30.53,-1.14],[-30.63,-1.54],[-30.63,-1.54],[-30.23,-2.11],[-29.83,-2.68],[-29.49,-3.47],[-29.49,-3.47],[-29.44,-3.41],[-29.21,-3.11],[-28.64,-2.99],[-28.29,-2.59],[-27.93,-2.19],[-27.6,-1.75],[-27.26,-1.3],[-26.76,-0.87],[-26.26,-0.44],[-25.56,-0.07],[-25.02,0.27],[-24.75,0.6],[-24.45,0.91],[-24.29,1.12],[-24.14,1.34],[-23.96,1.51],[-23.82,1.73],[-23.61,2.04],[-23.36,2.35],[-23.16,2.61],[-22.97,2.98],[-22.62,3.32],[-22.32,3.66],[-22.07,3.99],[-21.76,4.58],[-21.32,5.11],[-20.82,5.49],[-20.35,5.55],[-19.93,5.66],[-19.72,5.74],[-19.72,5.74],[-19.11,4.95],[-19.11,4.95],[-19.46,5.02],[-19.59,4.93],[-20.07,4.73],[-20.55,4.53],[-20.91,4.1],[-21.27,3.67],[-21.53,3.24],[-21.8,2.8],[-22.04,2.19],[-22.39,1.66],[-22.79,1.12],[-23.01,0.93],[-23.27,0.69],[-23.4,0.27],[-23.49,-0.17],[-23.57,-0.96],[-23.81,-1.38],[-24.03,-1.74],[-24.34,-1.94],[-24.54,-2.21],[-24.69,-2.46],[-24.91,-2.81],[-25.35,-2.78],[-25.77,-2.76],[-26.39,-3.02],[-26.78,-3.32],[-27.05,-3.68],[-27.26,-4.46],[-27.29,-4.58],[-27.91,-4.07]]]}},{"type":"Feature","properties":{"ma":170,"type":"gpml:TopologicalNetwork","name":"Northern_Central_Atlantic_Mesh","pid":101,"deforming":true},"geometry":{"type":"Polygon","coordinates":[[[-8.13,12.64],[-7.62,12.27],[-7.1,11.9],[-6.67,11.5],[-6.24,11.1],[-5.81,10.71],[-5.24,10.08],[-4.75,9.74],[-4.31,9.3],[-3.88,8.86],[-3.68,8.67],[-3.25,8.26],[-2.9,7.92],[-2.53,7.58],[-2.28,7.39],[-1.85,7.08],[-1.74,7],[-1.74,7],[-1.87,6.93],[-2.28,6.8],[-2.91,6.59],[-3.52,6.39],[-4.23,6.16],[-4.85,5.95],[-5.36,5.79],[-5.83,5.63],[-6.39,5.44],[-7.02,5.23],[-7.56,5.42],[-8.14,5.54],[-8.47,5.73],[-8.79,5.9],[-9.28,6.1],[-9.72,6.39],[-10.32,6.57],[-10.77,6.52],[-11.44,6.28],[-12.26,6.19],[-12.99,6.06],[-13.53,5.79],[-14.44,5.53],[-14.89,5.21],[-15.68,4.84],[-16.41,4.55],[-16.96,4.65],[-17.12,4.75],[-17.63,4.79],[-18.58,4.85],[-19.11,4.95],[-19.11,4.95],[-19.44,5.37],[-19.76,5.79],[-19.77,5.81],[-19.77,5.81],[-19.77,5.81],[-19.39,5.96],[-18.56,6.25],[-18.14,6.32],[-17.81,6.37],[-17.53,6.44],[-17.31,6.42],[-16.63,6.46],[-16.17,6.47],[-15.87,6.52],[-15.6,6.59],[-15.47,6.64],[-15.08,6.88],[-14.6,7.31],[-14.01,7.57],[-13.54,7.52],[-13.17,7.51],[-12.86,7.44],[-12.42,7.39],[-12.05,7.23],[-11.84,7.24],[-11.68,7.3],[-11.58,7.31],[-11.22,7.5],[-11.11,7.55],[-11.11,7.55],[-10.88,7.68],[-10.69,7.88],[-10.45,8.11],[-9.74,8.71],[-9.22,8.94],[-8.83,9.21],[-8.34,9.66],[-8.17,9.97],[-7.6,10.76],[-7.6,10.76],[-7.82,10.93],[-8.24,11.06],[-8.93,10.81],[-9.67,10.74],[-10.41,10.67],[-11.05,10.17],[-11.47,9.76],[-11.76,9.49],[-12.15,9.26],[-12.59,9.14],[-13.14,9.37],[-13.86,9.79],[-14.53,9.94],[-15.08,9.97],[-15.24,9.96],[-15.46,9.82],[-15.76,9.65],[-15.88,9.59],[-15.97,9.54],[-16.05,9.48],[-16.13,9.42],[-16.36,9.26],[-16.63,9.05],[-16.74,8.95],[-16.92,8.82],[-17.05,8.74],[-17.15,8.66],[-17.32,8.54],[-17.49,8.42],[-17.62,8.3],[-17.92,8.26],[-18.18,8.4],[-18.43,8.53],[-18.81,8.7],[-19.03,8.64],[-19.24,8.61],[-19.49,8.63],[-19.77,8.62],[-20.05,8.65],[-20.24,8.66],[-20.47,8.69],[-20.68,8.77],[-20.96,8.86],[-21.13,8.93],[-21.34,8.84],[-21.34,8.84],[-21.68,9.48],[-22.03,10.13],[-22.55,10.98],[-22.55,10.98],[-22.4,11.09],[-21.92,11.18],[-21.54,11.47],[-21.3,12.02],[-21.05,12.09],[-20.67,11.93],[-20.14,12.16],[-19.66,12.14],[-18.89,12.15],[-18.09,12.24],[-17.56,12.35],[-16.77,12.43],[-16.24,12.69],[-15.52,13.04],[-14.91,13.26],[-14.35,13.35],[-13.71,13.44],[-13.37,13.44],[-12.89,13.31],[-12.24,13.2],[-11.65,13.22],[-11.16,13.21],[-10.66,13.19],[-10.14,13.14],[-9.5,13.06],[-8.78,12.85],[-8.13,12.64]]]}},{"type":"Feature","properties":{"ma":170,"type":"gpml:TopologicalNetwork","name":"North_Atlantic_Phase1_Deformation_Mesh","pid":301,"deforming":true},"geometry":{"type":"Polygon","coordinates":[[[6.37,30.11],[6.41,29.99],[6.46,29.53],[6.63,29.05],[6.77,28.61],[6.93,28.03],[7.04,27.57],[7.06,27.33],[7.18,27.03],[7.25,26.78],[7.28,26.56],[7.29,26.36],[7.52,26.09],[7.73,25.96],[8.2,25.8],[8.57,25.85],[8.96,25.72],[9.19,25.46],[9.76,25.02],[9.99,24.51],[10.11,24.1],[10.16,23.55],[10.19,23.17],[10.35,22.86],[10.51,22.47],[10.69,22.25],[10.82,22.14],[11.01,21.97],[11.46,21.77],[11.99,21.52],[12.52,21.3],[13.08,21.03],[13.56,20.83],[13.86,20.66],[13.96,20.62],[14.25,20.52],[14.25,20.52],[14.1,20.19],[13.82,19.77],[13.57,19.39],[13.35,19.09],[13.12,18.77],[12.87,18.35],[12.52,18.21],[12.22,18.15],[11.93,18.15],[11.41,18.16],[10.88,18.26],[10.3,18.4],[10,18.58],[9.63,18.69],[9.17,18.79],[8.71,18.82],[8.28,18.78],[7.9,18.63],[7.56,18.54],[7.31,18.35],[7.15,18.12],[6.99,17.9],[6.76,17.69],[6.5,17.4],[6.04,17.02],[5.51,16.63],[5.17,16.45],[4.85,16.14],[4.26,15.87],[3.84,15.63],[3.66,15.33],[3.66,15.33],[3.4,15.17],[2.85,14.8],[2.28,14.69],[1.62,14.6],[1.1,14.53],[0.83,14.45],[0.83,14.45],[0.79,14.4],[0.67,14.25],[0.58,14.04],[0.48,13.87],[0.37,13.75],[0.32,13.62],[0.23,13.41],[0.14,13.16],[0.02,12.89],[-0.16,12.61],[-0.31,12.3],[-0.45,11.98],[-0.6,11.78],[-0.85,11.41],[-1.04,11.19],[-1.44,10.9],[-1.81,10.48],[-1.93,10.24],[-2.01,9.92],[-2.1,9.52],[-2.32,9.19],[-2.55,8.98],[-2.78,8.76],[-2.95,8.61],[-3.17,8.4],[-3.29,8.3],[-3.29,8.3],[-3.68,8.67],[-3.88,8.86],[-4.31,9.3],[-4.75,9.74],[-5.14,10],[-5.14,10],[-5.01,10.13],[-4.87,10.26],[-4.7,10.41],[-4.58,10.52],[-4.36,10.72],[-4.33,10.86],[-4.29,11],[-4.29,11.17],[-4.29,11.32],[-4.21,11.48],[-4.15,11.58],[-3.9,11.8],[-3.73,11.94],[-3.61,12.04],[-3.48,12.17],[-3.34,12.31],[-3.21,12.51],[-3.17,12.58],[-3.09,12.64],[-2.96,12.73],[-2.9,12.8],[-2.82,12.87],[-2.71,12.99],[-2.66,13.04],[-2.6,13.09],[-2.56,13.12],[-2.49,13.12],[-2.41,13.13],[-2.4,13.13],[-2.4,13.13],[-2.46,13.28],[-2.48,13.35],[-2.48,13.35],[-2.49,13.34],[-2.56,13.25],[-2.62,13.18],[-2.68,13.1],[-2.75,13.04],[-2.82,12.97],[-2.96,12.86],[-3.08,12.76],[-3.21,12.65],[-3.29,12.55],[-3.36,12.43],[-3.45,12.29],[-3.53,12.21],[-3.67,12.12],[-3.79,12.06],[-3.88,11.98],[-3.97,11.89],[-4.09,11.79],[-4.18,11.76],[-4.27,11.73],[-4.51,11.65],[-4.79,11.71],[-4.94,11.78],[-4.94,11.78],[-4.64,11.95],[-4.49,12.02],[-4.34,12.08],[-4.26,12.16],[-4.13,12.25],[-3.99,12.38],[-3.87,12.49],[-3.78,12.62],[-3.65,12.78],[-3.53,12.96],[-3.42,13.11],[-3.33,13.27],[-3.19,13.48],[-3.12,13.71],[-3.18,13.9],[-3.24,14.04],[-3.32,14.19],[-3.4,14.34],[-3.49,14.43],[-3.6,14.55],[-3.67,14.62],[-3.77,14.71],[-3.92,14.84],[-3.92,14.84],[-3.96,14.97],[-3.98,15.17],[-4.02,15.3],[-4.04,15.51],[-3.99,15.8],[-3.94,16.06],[-3.9,16.43],[-3.89,16.8],[-3.95,17.1],[-3.97,17.23],[-3.97,17.23],[-3.86,17.75],[-3.63,18.45],[-3.22,19.16],[-2.86,19.53],[-2.57,20.06],[-1.99,20.69],[-1.53,21.09],[-1.16,21.57],[-0.79,22.05],[-0.56,22.73],[-0.32,23.41],[-0.44,24.09],[-0.76,24.6],[-1.09,25.11],[-0.91,25.91],[-0.54,26.03],[0.21,26.29],[0.91,26.67],[1.4,27.05],[2,27.34],[2.44,27.72],[3.12,28.19],[3.49,28.75],[3.63,29.1],[3.89,29.81],[4.29,30.37],[4.76,30.98],[5.04,31.3],[5.35,31.79],[5.33,31.97],[5.04,32.32],[5.03,32.37],[5.09,33.04],[5.15,33.29],[5.21,33.43],[5.01,33.64],[4.81,33.72],[4.49,33.92],[4.41,34.09],[4.39,34.33],[4.43,34.5],[4.48,34.66],[4.5,34.85],[4.48,35.07],[4.44,35.24],[4.52,35.4],[4.66,35.56],[4.84,35.77],[5.08,36.19],[5.54,36.52],[5.69,36.68],[5.87,36.95],[5.95,37.2],[6,37.55],[5.99,37.73],[5.99,37.93],[6.08,38.13],[6.21,38.26],[6.41,38.69],[6.68,39.2],[6.93,39.39],[7.14,39.58],[7.14,39.58],[7.15,39.52],[7.14,39.5],[7.14,39.5],[7.26,39.37],[7.09,39.05],[7.08,38.79],[7.04,38.52],[6.91,38.01],[6.92,37.72],[6.94,37.33],[6.99,37.14],[7.07,36.76],[6.98,36.43],[6.77,36.25],[6.61,36.06],[6.41,35.86],[6.35,35.64],[6.2,35.41],[6.14,35.24],[6,35.06],[5.98,34.9],[6.08,34.75],[6.22,34.59],[6.44,34.39],[6.6,34.11],[6.72,33.91],[6.85,33.68],[6.88,33.42],[6.8,33.22],[6.61,32.96],[6.68,32.8],[6.74,32.68],[6.82,32.42],[6.91,32.3],[7.06,32.15],[7.05,32.09],[7.01,31.94],[6.96,31.88],[6.88,31.78],[6.86,31.74],[6.73,31.5],[6.6,31.35],[6.45,31.06],[6.43,30.83],[6.4,30.6],[6.38,30.45],[6.4,30.29],[6.4,30.18],[6.37,30.11]]]}},{"type":"Feature","properties":{"ma":170,"type":"gpml:TopologicalNetwork","name":"Proto_Caribbean_Mesh","pid":101,"deforming":true},"geometry":{"type":"Polygon","coordinates":[[[-58.26,-8.97],[-58.19,-8.26],[-58.13,-7.55],[-58.43,-6.85],[-58.73,-6.14],[-59.13,-5.38],[-59.53,-4.62],[-59.89,-3.99],[-60.25,-3.35],[-60.61,-2.71],[-60.89,-2.08],[-61.17,-1.45],[-61.39,-0.77],[-61.61,-0.09],[-61.83,0.6],[-62.23,1.22],[-62.64,1.85],[-62.59,2.25],[-62.59,2.25],[-61.98,2.32],[-61.03,2.52],[-60.09,2.71],[-59.33,2.89],[-58.57,3.08],[-57.61,3.28],[-56.66,3.48],[-55.87,3.63],[-55.08,3.79],[-54.4,4.28],[-53.72,4.78],[-53.11,5.15],[-52.45,5.87],[-52.05,6.24],[-51.66,6.6],[-51.38,7.29],[-50.64,7.94],[-49.9,8.58],[-49.15,9.22],[-48.45,9.6],[-47.75,9.99],[-47.04,10.37],[-46.52,10.32],[-45.99,10.27],[-44.98,10.25],[-44.47,10.07],[-43.96,9.9],[-43.24,9.69],[-42.53,9.48],[-41.73,8.88],[-41.27,8.6],[-40.81,8.31],[-40.33,8.06],[-39.86,7.8],[-39.37,7.5],[-38.89,7.19],[-38.23,6.8],[-37.61,6.23],[-36.9,5.76],[-36.2,5.28],[-35.71,4.78],[-35.23,4.28],[-34.54,3.59],[-34.53,3.58],[-34.53,3.58],[-34.53,3.58],[-35.24,3.2],[-35.69,3],[-35.69,3],[-35.45,2.81],[-35.05,2.38],[-34.67,1.78],[-34.06,1.39],[-33.41,1.16],[-32.6,0.99],[-31.62,0.79],[-31.15,0.26],[-30.86,-0.25],[-30.5,-0.82],[-30.5,-0.82],[-30.53,-1.14],[-30.63,-1.54],[-30.63,-1.54],[-30.23,-2.11],[-29.83,-2.68],[-29.49,-3.46],[-29.49,-3.46],[-29.7,-3.69],[-29.91,-3.9],[-30.18,-4.13],[-30.04,-4.6],[-30.04,-4.6],[-30.06,-4.63],[-30.54,-5.41],[-30.54,-5.41],[-30.92,-6.03],[-31.31,-6.65],[-31.32,-6.68],[-31.32,-6.68],[-30.59,-6.8],[-30.28,-6.49],[-30.09,-6],[-30.03,-5.51],[-29.74,-5.1],[-30.02,-4.65],[-30.18,-4.13],[-29.91,-3.9],[-29.7,-3.69],[-29.49,-3.45],[-29.2,-3.13],[-29.11,-3.11],[-29.11,-3.11],[-28.98,-3.31],[-28.45,-3.69],[-27.91,-4.07],[-27.29,-4.58],[-27.29,-4.58],[-27.49,-5.34],[-27.5,-5.93],[-27.2,-6.56],[-26.9,-7.19],[-26.82,-8.11],[-26.94,-8.84],[-26.94,-9.72],[-27.32,-10.22],[-27.32,-10.22],[-27.35,-10.22],[-27.83,-9.67],[-28.3,-9.12],[-28.75,-8.8],[-29.19,-8.49],[-29.79,-8.21],[-30.38,-7.93],[-30.89,-7.84],[-31.41,-7.75],[-31.42,-7.75],[-31.42,-7.75],[-31.92,-7.91],[-32.41,-8.08],[-32.99,-8.06],[-33.56,-8.04],[-34.08,-7.98],[-34.59,-7.93],[-35.48,-7.62],[-36.26,-7.53],[-37.04,-7.44],[-37.71,-7.32],[-38.38,-7.21],[-39.05,-7.09],[-39.8,-7.23],[-40.55,-7.36],[-41.17,-7.84],[-41.79,-8.32],[-42.39,-8.41],[-43,-8.49],[-43.52,-8.61],[-44.03,-8.72],[-44.6,-8.8],[-45.17,-8.88],[-45.79,-9.1],[-46.42,-9.32],[-47.07,-9.67],[-47.72,-10.02],[-48.46,-10.39],[-49.2,-10.75],[-50.02,-10.92],[-50.84,-11.08],[-51.71,-10.85],[-52.57,-10.61],[-53.24,-10.25],[-53.9,-9.89],[-54.42,-9.68],[-54.93,-9.47],[-55.52,-9.36],[-56.1,-9.24],[-56.66,-9.33],[-57.22,-9.42],[-57.79,-9.39],[-58.36,-9.35],[-58.26,-8.97]]]}},{"type":"Feature","properties":{"ma":170,"type":"gpml:TopologicalNetwork","name":"Atlantic/Caribbean shear","pid":101,"deforming":true},"geometry":{"type":"Polygon","coordinates":[[[-32.32,0.93],[-32.6,0.99],[-33.41,1.16],[-34.06,1.39],[-34.67,1.78],[-35.05,2.38],[-35.45,2.81],[-35.69,3],[-35.69,3],[-35.24,3.2],[-34.6,3.54],[-34.6,3.54],[-34.41,3.22],[-33.88,2.64],[-33.07,2.37],[-32.46,1.98],[-31.88,1.5],[-31.35,0.9],[-30.64,0.29],[-30.5,0.12],[-30.5,0.12],[-30.5,-0.39],[-30.49,-0.71],[-30.52,-1.03],[-30.52,-1.03],[-30.56,-1],[-31.23,-0.29],[-31.91,0.43],[-32.32,0.93]]]}},{"type":"Feature","properties":{"ma":170,"type":"gpml:TopologicalNetwork","name":"WEC","pid":601,"deforming":true},"geometry":{"type":"Polygon","coordinates":[[[135.39,52.7],[133.98,53],[132.56,53.28],[131.12,53.54],[129.66,53.78],[128.19,54.01],[126.7,54.22],[125.19,54.4],[123.68,54.57],[122.62,54.18],[121.59,53.77],[120.48,53.57],[119.39,53.36],[118.3,53.14],[118.22,52.64],[118.14,52.14],[117.04,52.13],[115.94,52.12],[114.84,52.1],[113.55,52.23],[112.26,52.35],[110.96,52.45],[109.53,52.39],[108.11,52.32],[106.58,52],[105.07,51.65],[103.69,51.25],[102.34,50.84],[101.54,50.68],[101.54,50.68],[100.97,51.25],[100.38,51.63],[99.78,52],[98.67,52.6],[97.9,53.03],[97.11,53.46],[96.26,54.15],[95.84,54.99],[95.68,55.71],[95.53,56.55],[95.41,57.45],[95.32,58.12],[95.28,58.65],[95.27,59.1],[95.48,59.48],[95.67,59.82],[95.93,60.26],[96.11,60.8],[96.27,61.27],[96.47,61.82],[96.69,62.37],[96.91,62.91],[97.22,63.59],[97.54,64.27],[97.88,64.95],[98.38,65.85],[98.6,66.65],[98.83,67.45],[98.94,68.3],[99.03,68.91],[99.11,69.49],[99.19,70.07],[99.37,70.44],[99.37,70.44],[100.72,70.75],[102.58,71.14],[104.52,71.52],[107.26,71.99],[110.13,72.43],[111.86,72.66],[113.63,72.87],[116.2,73.15],[118.84,73.4],[120.86,73.56],[122.92,73.7],[125.17,73.83],[127.46,73.93],[130.18,74.02],[132.92,74.08],[135.52,74.1],[138.11,74.1],[140.71,74.06],[143.78,73.97],[146.82,73.84],[149,73.71],[151.14,73.57],[151.14,73.57],[150.59,73.03],[150.07,72.48],[149.36,71.81],[148.7,71.14],[148.09,70.46],[147.33,69.57],[146.64,68.67],[146.09,67.93],[145.58,67.19],[144.9,66.45],[144.26,65.71],[143.52,64.79],[142.83,63.87],[142.23,63.09],[141.67,62.3],[141.13,61.52],[140.59,60.74],[140.07,59.97],[139.53,59.07],[139.02,58.17],[138.44,57.24],[137.9,56.3],[137.39,55.63],[136.9,54.95],[136.49,54.34],[136.08,53.72],[135.73,53.21],[135.39,52.7]]]}}]}