{"type":"FeatureCollection","features":[{"type":"Feature","properties":{"ma":165,"type":"gpml:TopologicalNetwork","name":"Amer_anyui_mesh","pid":101,"deforming":true},"geometry":{"type":"Polygon","coordinates":[[[-5.37,51.52],[-6.71,51.59],[-8.04,51.64],[-9.38,51.67],[-10.86,51.55],[-12.32,51.42],[-13.62,51.5],[-14.91,51.57],[-16.01,51.74],[-17.12,51.9],[-18.24,52.05],[-19.45,52.28],[-20.67,52.49],[-21.91,52.7],[-23.12,52.64],[-24.32,52.58],[-25.8,52.29],[-27.26,51.99],[-28.17,51.77],[-29.07,51.54],[-29.87,51.37],[-30.67,51.2],[-31.44,51.01],[-32.2,50.82],[-33.11,50.71],[-33.58,50.69],[-33.79,50.75],[-33.79,50.75],[-33.63,50.85],[-33.46,50.97],[-33.03,51.48],[-32.03,52.08],[-31.79,52.29],[-31.01,52.96],[-30.7,53.16],[-30.07,53.41],[-29.31,53.86],[-28.53,54.31],[-27.46,55.05],[-26.74,55.28],[-26.15,55.44],[-25.01,55.62],[-24.4,55.65],[-23.7,55.8],[-22.95,55.95],[-22.11,55.99],[-21.14,56.03],[-20.32,56.05],[-19.26,56.08],[-18.35,56.09],[-17.26,56.1],[-16.24,56.09],[-14.84,56.07],[-13.44,56.04],[-11.83,55.84],[-10.23,55.62],[-8.65,55.38],[-7.27,55.08],[-5.9,54.77],[-5.9,54.77],[-5.67,53.84],[-5.45,52.91],[-5.24,51.97],[-5.37,51.52]]]}},{"type":"Feature","properties":{"ma":165,"type":"gpml:TopologicalNetwork","name":"East_West_Gondwana_Mesh","pid":802,"deforming":true},"geometry":{"type":"Polygon","coordinates":[[[46.43,-26.16],[46.82,-26.89],[47.21,-27.61],[47.62,-28.33],[48.02,-29.05],[48.44,-29.77],[48.9,-30.12],[49.37,-30.46],[49.37,-30.46],[48.9,-30.98],[48.43,-31.49],[48.15,-31.61],[47.59,-31.84],[46.54,-32.26],[45.83,-32.71],[45.1,-33.16],[44.23,-33.56],[43.35,-33.95],[42.72,-34.57],[42.09,-35.18],[41.32,-35.89],[40.53,-36.59],[39.73,-37.28],[39.17,-37.86],[38.59,-38.44],[38.01,-39.02],[37.43,-39.54],[36.83,-40.06],[36.23,-40.58],[35.85,-41.37],[35.46,-42.17],[34.7,-42.79],[33.93,-43.4],[33.29,-43.89],[32.63,-44.37],[31.84,-44.61],[31.05,-44.84],[30.08,-45.2],[29.1,-45.56],[28.14,-45.78],[27.18,-45.99],[26.21,-46.2],[25.16,-46.41],[24.1,-46.62],[23.03,-46.81],[21.66,-47.13],[20.26,-47.43],[19.59,-48.12],[18.89,-48.8],[18.21,-49.56],[17.5,-50.32],[17.05,-51.16],[16.59,-52.01],[16.22,-52.72],[15.84,-53.42],[15.83,-54.3],[15.82,-55.19],[15.46,-56.04],[15.08,-56.89],[14.38,-57.58],[13.66,-58.26],[12.9,-58.94],[11.38,-59.36],[9.82,-59.76],[8.49,-60.2],[7.13,-60.63],[5.89,-60.69],[4.64,-60.74],[3.05,-60.6],[1.48,-60.45],[0.16,-60.49],[-1.16,-60.51],[-2.42,-60.71],[-3.7,-60.91],[-4.97,-61.02],[-6.26,-61.11],[-7.65,-61.39],[-9.07,-61.65],[-11.06,-61.8],[-13.08,-61.92],[-14.82,-62.32],[-16.62,-62.69],[-18.46,-63.04],[-19.52,-63.64],[-20.63,-64.23],[-22.21,-64.71],[-23.85,-65.17],[-25.55,-65.62],[-27.64,-66.02],[-29.79,-66.39],[-32.02,-66.58],[-34.28,-66.73],[-36.57,-66.86],[-38.88,-66.95],[-40.95,-67.08],[-43.04,-67.19],[-45.15,-67.28],[-47.27,-67.33],[-49.39,-67.36],[-51.83,-67.27],[-54.24,-67.14],[-56.62,-66.98],[-58.97,-66.78],[-61.27,-66.55],[-63.54,-66.29],[-65.78,-65.99],[-67.97,-65.66],[-70.1,-65.29],[-72.18,-64.9],[-72.18,-64.9],[-71.16,-64.28],[-70.18,-63.66],[-69.25,-63.03],[-69.21,-63.01],[-69.21,-63.01],[-69.31,-62.68],[-69.31,-62.67],[-69.31,-62.67],[-67.5,-62.86],[-65.66,-63.03],[-63.8,-63.17],[-61.98,-63.37],[-60.14,-63.54],[-58.28,-63.69],[-56.4,-63.82],[-54.5,-63.92],[-52.92,-63.91],[-51.35,-63.88],[-49.78,-63.84],[-47.62,-63.92],[-45.44,-63.98],[-43.25,-64],[-41.14,-63.81],[-39.05,-63.6],[-37,-63.35],[-35.51,-63.2],[-34.03,-63.03],[-32.36,-62.89],[-30.7,-62.74],[-28.52,-62.7],[-26.36,-62.63],[-24.2,-62.53],[-22.67,-62.35],[-21.16,-62.16],[-19.67,-61.95],[-18.66,-61.48],[-17.68,-61.01],[-16.73,-60.53],[-15.34,-60.15],[-13.98,-59.75],[-12.32,-59.37],[-10.7,-58.96],[-8.91,-58.8],[-7.15,-58.62],[-6.2,-58.18],[-5.28,-57.74],[-4.24,-57.31],[-3.23,-56.87],[-1.62,-56.76],[-0.69,-56.29],[0.95,-56.01],[2.05,-55.98],[3.14,-55.94],[4.74,-55.82],[6.34,-55.68],[7.48,-55.28],[8.6,-54.88],[9.42,-54.02],[9.8,-53.2],[10.17,-52.37],[10.23,-51.6],[10.29,-50.83],[10.53,-50.1],[10.76,-49.37],[10.96,-48.58],[11.15,-47.79],[11.7,-47.15],[12.24,-46.5],[12.7,-46.07],[13.16,-45.64],[13.92,-45.2],[14.66,-44.76],[15.55,-44.32],[16.43,-43.87],[16.96,-43.22],[17.47,-42.57],[17.98,-41.92],[18.68,-41.35],[19.38,-40.76],[20.06,-40.18],[20.41,-39.4],[20.73,-38.6],[21.11,-37.78],[21.49,-36.96],[22.16,-36.54],[22.83,-36.11],[23.76,-35.7],[24.69,-35.28],[25.67,-35.14],[26.64,-35],[27.5,-34.9],[28.35,-34.79],[29.29,-34.59],[30.22,-34.39],[30.92,-33.99],[31.62,-33.58],[31.96,-33.15],[32.3,-32.72],[32.66,-32.32],[33.03,-31.91],[33.62,-31.7],[34.21,-31.49],[35.1,-31.16],[35.98,-30.83],[36.81,-30.42],[37.63,-30.01],[38.44,-29.59],[39.08,-29.09],[39.7,-28.58],[40.32,-28.07],[41.03,-27.57],[41.72,-27.06],[42.51,-26.44],[43.28,-25.81],[44.05,-25.18],[44.65,-24.51],[45.24,-25.07],[45.83,-25.62],[46.43,-26.16]]]}},{"type":"Feature","properties":{"ma":165,"type":"gpml:TopologicalClosedPlateBoundary","name":"Antarctica","pid":802,"deforming":false},"geometry":{"type":"Polygon","coordinates":[[[180,-84.53],[180,-85.44],[180,-86.35],[180,-87.26],[180,-88.18],[180,-89.09],[180,-90],[-180,-90],[-180,-89.09],[-180,-88.18],[-180,-87.26],[-180,-86.35],[-180,-85.44],[-180,-84.53],[-180,-83.61],[-174,-83.14],[-168.84,-82.59],[-164.49,-82.12],[-160.65,-81.6],[-157.26,-81.06],[-153.71,-80.28],[-150.69,-79.47],[-146.84,-78.95],[-143.34,-78.38],[-139.63,-77.88],[-136.22,-77.34],[-133.1,-76.76],[-130.17,-76.35],[-127.41,-75.91],[-124.83,-75.44],[-122.4,-74.95],[-120.37,-74.45],[-118.47,-73.93],[-118.47,-73.93],[-116.51,-73.78],[-113.76,-73.54],[-111.09,-73.26],[-108.5,-72.95],[-106.02,-72.61],[-103.73,-72.28],[-101.53,-71.93],[-99.42,-71.55],[-97.39,-71.15],[-95.02,-70.87],[-92.73,-70.55],[-90.51,-70.21],[-88.36,-69.84],[-85.93,-69.42],[-83.59,-68.98],[-81.35,-68.5],[-79.21,-68],[-77.16,-67.47],[-75.81,-66.84],[-74.54,-66.2],[-73.33,-65.56],[-72.18,-64.9],[-72.18,-64.9],[-70.1,-65.29],[-67.97,-65.66],[-65.78,-65.99],[-63.54,-66.29],[-61.27,-66.55],[-58.97,-66.78],[-56.62,-66.98],[-54.24,-67.14],[-51.83,-67.27],[-49.39,-67.36],[-47.27,-67.33],[-45.15,-67.28],[-43.04,-67.19],[-40.95,-67.08],[-38.88,-66.95],[-36.57,-66.86],[-34.28,-66.73],[-32.02,-66.58],[-29.79,-66.39],[-27.64,-66.02],[-25.55,-65.62],[-23.85,-65.17],[-22.21,-64.71],[-20.63,-64.23],[-19.52,-63.64],[-18.46,-63.04],[-16.62,-62.69],[-14.82,-62.32],[-13.08,-61.92],[-11.06,-61.8],[-9.07,-61.65],[-7.65,-61.39],[-6.26,-61.11],[-4.97,-61.02],[-3.7,-60.91],[-2.42,-60.71],[-1.16,-60.51],[0.16,-60.49],[1.48,-60.45],[3.05,-60.6],[4.64,-60.74],[5.89,-60.69],[7.13,-60.63],[8.49,-60.2],[9.82,-59.76],[11.38,-59.36],[12.9,-58.94],[12.91,-58.93],[13.17,-58.99],[14.22,-59.1],[15.5,-58.78],[16.75,-58.43],[17.65,-58.03],[18.53,-57.63],[19.47,-57.36],[20.39,-57.08],[21.51,-56.85],[23.19,-56.54],[24.67,-56.52],[25.81,-56.6],[26.94,-56.68],[28.23,-56.81],[29.46,-56.98],[30.75,-56.88],[32.02,-56.77],[33.74,-57.09],[34.68,-57.34],[35.63,-57.58],[36.75,-57.73],[37.89,-57.87],[39.27,-57.95],[40.72,-57.96],[41.78,-58.09],[43.27,-58.27],[44,-58.67],[44.76,-59.07],[45.82,-59.34],[46.9,-59.54],[47.99,-59.73],[49.2,-59.81],[50.4,-59.88],[52.04,-60.1],[53.92,-60.24],[55.82,-60.35],[57.73,-60.43],[59.64,-60.49],[61.56,-60.52],[63.49,-60.52],[65.02,-60.62],[66.56,-60.71],[66.56,-60.71],[66.62,-60.76],[67.84,-61.19],[68.48,-61.44],[68.65,-61.52],[68.86,-61.65],[69.31,-61.87],[69.68,-62.08],[70.12,-62.27],[70.5,-62.38],[71.06,-62.57],[71.48,-62.78],[72.05,-62.95],[73.06,-63.15],[73.53,-63.22],[74.47,-63.33],[75.32,-63.42],[75.93,-63.48],[76.66,-63.53],[77.19,-63.61],[77.89,-63.69],[78.68,-63.82],[79.04,-63.94],[80.04,-64.16],[80.71,-64.31],[81.36,-64.39],[82.06,-64.55],[82.54,-64.62],[83.22,-64.64],[83.99,-64.65],[84.74,-64.67],[85.41,-64.7],[86.12,-64.75],[86.99,-64.87],[88.03,-64.99],[88.7,-65.09],[89.67,-65.29],[90.28,-65.39],[90.74,-65.49],[91.35,-65.59],[91.71,-65.66],[92.29,-65.74],[93.06,-65.89],[93.49,-66.03],[93.9,-66.21],[94.37,-66.51],[94.62,-66.77],[94.97,-67],[95.17,-67.13],[95.61,-67.29],[96.33,-67.45],[97.02,-67.57],[97.76,-67.67],[98.93,-67.83],[99.57,-67.92],[100.11,-68.06],[101.2,-68.25],[101.78,-68.36],[102.67,-68.55],[103.62,-68.76],[104.88,-69.1],[105.7,-69.33],[106.65,-69.56],[108.08,-70.14],[109.6,-70.71],[111.21,-71.27],[112.84,-71.84],[114.57,-72.4],[116.42,-72.93],[118.36,-73.63],[120.48,-74.31],[122.77,-74.97],[125.27,-75.6],[126.95,-76.26],[128.79,-76.91],[130.83,-77.55],[133.08,-78.17],[135.41,-79.02],[138.11,-79.84],[141.29,-80.64],[145.04,-81.41],[149.5,-82.14],[151.73,-82.83],[154.44,-83.5],[159.23,-83.7],[164.29,-83.86],[171.84,-83.88],[178.56,-83.71],[180,-83.61],[180,-84.53]]]}},{"type":"Feature","properties":{"ma":165,"type":"gpml:TopologicalClosedPlateBoundary","name":"East Gondwana Plate","pid":801,"deforming":false},"geometry":{"type":"MultiPolygon","coordinates":[[[[180,-74.68],[180,-75.67],[180,-76.66],[180,-77.66],[180,-78.65],[180,-79.64],[180,-80.64],[180,-81.63],[180,-82.62],[180,-83.61],[178.56,-83.71],[171.84,-83.88],[164.29,-83.86],[159.23,-83.7],[154.44,-83.5],[151.73,-82.83],[149.5,-82.14],[145.04,-81.41],[141.29,-80.64],[138.11,-79.84],[135.41,-79.02],[133.08,-78.17],[130.83,-77.55],[128.79,-76.91],[126.95,-76.26],[125.27,-75.6],[122.77,-74.97],[120.48,-74.31],[118.36,-73.63],[116.42,-72.93],[114.57,-72.4],[112.84,-71.84],[111.21,-71.27],[109.6,-70.71],[108.08,-70.14],[106.65,-69.56],[105.7,-69.33],[104.88,-69.1],[103.62,-68.76],[102.67,-68.55],[101.78,-68.36],[101.2,-68.25],[100.11,-68.06],[99.57,-67.92],[98.93,-67.83],[97.76,-67.67],[97.02,-67.57],[96.33,-67.45],[95.61,-67.29],[95.17,-67.13],[94.97,-67],[94.62,-66.77],[94.37,-66.51],[93.9,-66.21],[93.49,-66.03],[93.06,-65.89],[92.29,-65.74],[91.71,-65.66],[91.35,-65.59],[90.74,-65.49],[90.28,-65.39],[89.67,-65.29],[88.7,-65.09],[88.03,-64.99],[86.99,-64.87],[86.12,-64.75],[85.41,-64.7],[84.74,-64.67],[83.99,-64.65],[83.22,-64.64],[82.54,-64.62],[82.06,-64.55],[81.36,-64.39],[80.71,-64.31],[80.04,-64.16],[79.04,-63.94],[78.68,-63.82],[77.89,-63.69],[77.19,-63.61],[76.66,-63.53],[75.93,-63.48],[75.32,-63.42],[74.47,-63.33],[73.53,-63.22],[73.06,-63.15],[72.05,-62.95],[71.48,-62.78],[71.06,-62.57],[70.5,-62.38],[70.12,-62.27],[69.68,-62.08],[69.31,-61.87],[68.86,-61.65],[68.65,-61.52],[68.48,-61.44],[67.84,-61.19],[66.62,-60.76],[66.56,-60.71],[66.56,-60.71],[65.02,-60.62],[63.49,-60.52],[61.56,-60.52],[59.64,-60.49],[57.73,-60.43],[55.82,-60.35],[53.92,-60.24],[52.04,-60.1],[50.4,-59.88],[49.2,-59.81],[47.99,-59.73],[46.9,-59.54],[45.82,-59.34],[44.76,-59.07],[44,-58.67],[43.27,-58.27],[41.78,-58.09],[40.72,-57.96],[39.27,-57.95],[37.89,-57.87],[36.75,-57.73],[35.63,-57.58],[34.68,-57.34],[33.74,-57.09],[32.02,-56.77],[30.75,-56.88],[29.46,-56.98],[28.23,-56.81],[26.94,-56.68],[25.81,-56.6],[24.67,-56.52],[23.19,-56.54],[21.51,-56.85],[20.39,-57.08],[19.47,-57.36],[18.53,-57.63],[17.65,-58.03],[16.75,-58.43],[15.5,-58.78],[14.22,-59.1],[13.17,-58.99],[12.91,-58.93],[12.91,-58.93],[13.66,-58.25],[14.39,-57.58],[15.08,-56.89],[15.46,-56.04],[15.82,-55.19],[15.83,-54.3],[15.84,-53.42],[16.22,-52.72],[16.59,-52.01],[17.05,-51.16],[17.5,-50.32],[18.21,-49.56],[18.89,-48.8],[19.59,-48.12],[20.26,-47.43],[21.66,-47.13],[23.03,-46.81],[24.1,-46.62],[25.16,-46.41],[26.21,-46.2],[27.18,-45.99],[28.14,-45.78],[29.1,-45.56],[30.08,-45.2],[31.05,-44.84],[31.84,-44.61],[32.63,-44.37],[33.29,-43.89],[33.93,-43.4],[34.7,-42.79],[35.46,-42.17],[35.85,-41.37],[36.23,-40.58],[36.83,-40.06],[37.43,-39.54],[38.01,-39.02],[38.59,-38.44],[39.17,-37.86],[39.73,-37.28],[40.53,-36.59],[41.32,-35.89],[42.09,-35.18],[42.72,-34.57],[43.35,-33.95],[44.23,-33.56],[45.1,-33.16],[45.83,-32.71],[46.54,-32.26],[47.59,-31.84],[48.15,-31.61],[48.43,-31.49],[48.9,-30.98],[49.37,-30.46],[49.37,-30.46],[48.9,-30.12],[48.44,-29.77],[47.94,-28.91],[47.46,-28.05],[46.98,-27.19],[46.52,-26.33],[46.52,-26.33],[47.17,-25.59],[47.81,-24.85],[48.49,-24.26],[49.16,-23.67],[49.82,-23.08],[50.48,-22.49],[51.13,-21.89],[51.77,-21.29],[52.39,-20.58],[52.99,-19.86],[53.6,-19.15],[54.19,-18.43],[54.79,-17.7],[55.37,-16.98],[55.96,-16.25],[56.53,-15.53],[57.11,-14.8],[57.68,-14.07],[58.18,-13.21],[58.68,-12.34],[59.18,-11.48],[59.67,-10.61],[60.16,-9.75],[60.65,-8.88],[61.13,-8.01],[61.62,-7.14],[62.02,-6.24],[62.43,-5.34],[62.83,-4.44],[63.23,-3.54],[63.23,-3.54],[64.08,-3.87],[64.92,-4.2],[65.77,-4.53],[66.61,-4.86],[67.46,-5.19],[68.37,-5.46],[69.28,-5.73],[70.19,-5.99],[71.1,-6.26],[72.02,-6.52],[72.93,-6.78],[73.85,-7.04],[74.76,-7.3],[75.68,-7.56],[76.6,-7.81],[77.52,-8.07],[78.44,-8.32],[79.36,-8.56],[80.29,-8.81],[81.07,-9.02],[81.85,-9.23],[82.63,-9.44],[83.42,-9.65],[83.36,-10.16],[83.31,-10.68],[84.26,-10.73],[85.21,-10.79],[86.17,-10.84],[87.12,-10.89],[88.07,-10.94],[89.03,-10.98],[89.98,-11.02],[90.88,-11.08],[91.77,-11.13],[92.66,-11.18],[93.55,-11.23],[94.44,-11.28],[94.75,-10.5],[95.05,-9.72],[95.35,-8.94],[95.65,-8.16],[96.36,-8.2],[96.66,-7.49],[96.96,-6.79],[97.46,-6.92],[97.72,-6.25],[97.98,-5.58],[98.91,-5.93],[99.84,-6.28],[100.77,-6.63],[101.11,-5.88],[101.45,-5.12],[101.78,-4.37],[102.12,-3.62],[103.01,-3.77],[103.91,-3.91],[104.81,-4.05],[105.7,-4.19],[106.6,-4.33],[106.94,-3.51],[107.27,-2.68],[107.61,-1.85],[107.95,-1.03],[108.28,-0.2],[108.62,0.63],[109.57,0.39],[110.53,0.16],[111.48,-0.08],[111.83,0.8],[112.17,1.67],[112.52,2.55],[112.86,3.42],[113.21,4.29],[114.01,4.12],[114.01,4.12],[114.03,4.18],[114.14,4.42],[114.14,4.42],[114.83,4.01],[115.52,3.59],[116.21,3.18],[116.9,2.76],[117.7,2.28],[118.51,1.79],[119.32,1.3],[120.12,0.81],[120.93,0.33],[120.61,-0.13],[120.28,-0.59],[121.05,-1.06],[121.81,-1.52],[122.57,-1.98],[123.34,-2.44],[124.1,-2.91],[124.87,-3.37],[125.64,-3.83],[125.31,-4.34],[124.97,-4.85],[125.72,-5.32],[126.48,-5.78],[127.23,-6.24],[127.98,-6.7],[128.74,-7.16],[129.5,-7.61],[130.26,-8.07],[131.02,-8.52],[130.64,-9.05],[130.26,-9.58],[131.11,-10.02],[131.96,-10.45],[132.81,-10.89],[133.67,-11.31],[133.67,-11.31],[133.71,-12.27],[133.75,-13.23],[133.8,-14.19],[133.84,-15.15],[133.88,-16.11],[133.93,-17.07],[133.91,-17.94],[133.9,-18.82],[133.89,-19.69],[133.88,-20.57],[133.86,-21.44],[133.85,-22.32],[133.83,-23.19],[133.83,-24.13],[133.83,-25.07],[133.83,-26.01],[133.83,-26.96],[133.83,-27.9],[133.83,-28.84],[133.83,-29.78],[133.82,-30.72],[133.84,-31.58],[133.85,-32.45],[133.86,-33.31],[133.88,-34.17],[133.89,-35.04],[134.54,-35.81],[135.2,-36.57],[135.87,-37.33],[136.56,-38.09],[137.02,-38.73],[137.5,-39.38],[137.94,-39.85],[138.39,-40.31],[139.01,-40.59],[139.64,-40.85],[140.75,-41.27],[141.88,-41.68],[142.89,-42.27],[143.92,-42.84],[144.97,-43.41],[146.04,-43.96],[146.04,-43.96],[146.17,-44.7],[146.3,-45.44],[146.44,-46.18],[146.63,-46.98],[146.83,-47.78],[147.03,-48.58],[147.25,-49.38],[147.46,-50.17],[147.6,-51.05],[147.74,-51.92],[147.88,-52.79],[148.03,-53.66],[148.19,-54.54],[148.81,-55.44],[149.46,-56.34],[150.14,-57.24],[150.85,-58.13],[151.6,-59.02],[152.18,-59.79],[152.79,-60.56],[153.43,-61.33],[154.09,-62.09],[154.2,-62.68],[154.32,-63.26],[154.03,-63.83],[153.73,-64.39],[152.89,-65.31],[151.99,-66.24],[150.96,-67.15],[149.85,-68.05],[149.52,-68.57],[150.84,-69.39],[151.34,-70.22],[151.88,-71.04],[152.47,-71.86],[152.47,-71.86],[154.97,-72.13],[157.53,-72.37],[160.17,-72.58],[162.85,-72.75],[165.59,-72.89],[168.35,-73.13],[171.19,-73.33],[174.08,-73.49],[177.02,-73.61],[180,-73.69],[180,-74.68]]],[[[-180,-82.62],[-180,-81.63],[-180,-80.64],[-180,-79.64],[-180,-78.65],[-180,-77.66],[-180,-76.66],[-180,-75.67],[-180,-74.68],[-180,-73.69],[-176.94,-73.72],[-173.88,-73.71],[-170.82,-73.66],[-167.79,-73.57],[-164.81,-73.43],[-161.88,-73.25],[-158.6,-73.53],[-155.22,-73.76],[-151.76,-73.94],[-148.24,-74.06],[-144.68,-74.12],[-141.42,-74.27],[-138.12,-74.37],[-134.79,-74.42],[-131.44,-74.42],[-128.11,-74.37],[-124.84,-74.27],[-121.62,-74.12],[-118.47,-73.93],[-120.37,-74.45],[-122.4,-74.95],[-124.83,-75.44],[-127.41,-75.91],[-130.17,-76.35],[-133.1,-76.76],[-136.22,-77.34],[-139.63,-77.88],[-143.34,-78.38],[-146.84,-78.95],[-150.69,-79.47],[-153.71,-80.28],[-157.26,-81.06],[-160.65,-81.6],[-164.49,-82.12],[-168.84,-82.59],[-174,-83.14],[-180,-83.61],[-180,-82.62]]]]}},{"type":"Feature","properties":{"ma":165,"type":"gpml:TopologicalClosedPlateBoundary","name":"Farallon Plate 165-160","pid":902,"deforming":false},"geometry":{"type":"Polygon","coordinates":[[[-77.44,73.49],[-76.28,72.83],[-75.21,72.15],[-73.78,71.52],[-72.44,70.89],[-71.18,70.24],[-70,69.58],[-68.64,68.96],[-67.36,68.32],[-66.15,67.68],[-65.01,67.03],[-63.16,66.42],[-61.4,65.8],[-59.73,65.15],[-58.08,64.52],[-56.51,63.86],[-55.01,63.19],[-53.58,62.66],[-52.2,62.12],[-50.87,61.56],[-50.87,61.56],[-51.5,60.76],[-52.1,59.96],[-52.68,59.15],[-53.22,58.34],[-53.58,57.67],[-53.93,57],[-54.26,56.33],[-54.05,55.58],[-53.85,54.83],[-53.66,54.08],[-53.47,53.32],[-53.03,52.62],[-52.6,51.91],[-52.19,51.2],[-52.24,50.46],[-52.29,49.71],[-52.33,48.96],[-52.79,48.22],[-53.24,47.47],[-53.68,46.73],[-54.27,45.85],[-54.84,44.98],[-55.12,44.21],[-55.39,43.44],[-55.66,42.67],[-55.92,41.9],[-56.12,41.03],[-56.32,40.16],[-56.51,39.29],[-56.31,38.49],[-56.12,37.69],[-55.93,36.89],[-55.59,35.96],[-55.25,35.03],[-55.25,35.03],[-55.75,34.54],[-56.24,34.05],[-56.93,33.31],[-57.62,32.58],[-58.29,31.84],[-58.95,31.09],[-59.37,30.31],[-59.79,29.53],[-60.2,28.74],[-60.6,27.96],[-61,27.17],[-60.94,26.4],[-60.87,25.63],[-60.81,24.86],[-60.75,24.09],[-60.59,23.14],[-60.44,22.2],[-60.28,21.25],[-60.13,20.31],[-59.99,19.36],[-59.84,18.41],[-59.69,17.47],[-59.58,16.49],[-59.46,15.51],[-59.35,14.54],[-59.24,13.56],[-59.13,12.58],[-59.02,11.6],[-59.01,11.59],[-59.01,11.59],[-59.37,11.18],[-59.91,10.7],[-60.44,10.23],[-60.83,9.85],[-61.21,9.48],[-61.46,8.75],[-61.71,8.02],[-61.96,7.29],[-62.12,6.49],[-62.29,5.69],[-62.46,4.88],[-62.58,4.12],[-62.7,3.36],[-62.83,2.6],[-62.89,1.85],[-62.95,1.1],[-62.53,0.49],[-62.11,-0.13],[-61.88,-0.8],[-61.64,-1.48],[-61.41,-2.16],[-61.11,-2.78],[-60.82,-3.41],[-60.44,-4.04],[-60.07,-4.66],[-59.69,-5.29],[-59.27,-6.04],[-58.86,-6.79],[-58.54,-7.49],[-58.22,-8.19],[-58.29,-9.16],[-58.29,-9.16],[-58.33,-9.21],[-58.51,-9.52],[-58.72,-9.87],[-58.8,-10.11],[-58.89,-10.3],[-59.04,-10.65],[-59.15,-10.91],[-59.24,-11.16],[-59.34,-11.42],[-59.67,-12.23],[-60,-13.03],[-60.33,-13.83],[-60.66,-14.63],[-60.99,-15.43],[-60.92,-16.29],[-60.85,-17.16],[-60.78,-18.02],[-60.68,-18.88],[-60.58,-19.74],[-60.48,-20.59],[-60.38,-21.45],[-60.28,-22.31],[-60.17,-23.16],[-59.95,-23.97],[-59.73,-24.79],[-59.5,-25.6],[-59.32,-26.28],[-59.13,-26.97],[-58.94,-27.66],[-58.36,-28.42],[-58.36,-28.42],[-59.37,-28.81],[-60.39,-29.19],[-61.41,-29.57],[-62.45,-29.93],[-63.49,-30.29],[-64.53,-30.64],[-65.59,-30.98],[-66.65,-31.32],[-67.72,-31.64],[-68.8,-31.95],[-69.88,-32.26],[-70.97,-32.56],[-72.07,-32.84],[-73.18,-33.12],[-74.29,-33.39],[-75.41,-33.65],[-76.54,-33.89],[-77.67,-34.13],[-78.81,-34.36],[-79.96,-34.57],[-81.11,-34.78],[-81.28,-34.03],[-81.45,-33.29],[-81.62,-32.54],[-82.79,-32.67],[-83.97,-32.79],[-85.16,-32.89],[-86.34,-32.99],[-87.53,-33.07],[-88.72,-33.14],[-89.91,-33.2],[-91.11,-33.25],[-92.3,-33.29],[-92.28,-32.52],[-92.26,-31.75],[-92.24,-30.98],[-92.22,-30.21],[-93.28,-30.13],[-94.35,-30.03],[-95.41,-29.93],[-96.46,-29.82],[-97.52,-29.7],[-98.57,-29.57],[-99.62,-29.44],[-100.67,-29.3],[-101.71,-29.14],[-102.75,-28.98],[-103.79,-28.81],[-104.82,-28.64],[-105.86,-28.45],[-105.6,-27.48],[-105.35,-26.51],[-105.11,-25.53],[-106.09,-25.26],[-107.06,-24.98],[-108.03,-24.69],[-109,-24.4],[-109.96,-24.1],[-110.91,-23.79],[-111.86,-23.48],[-112.81,-23.16],[-113.75,-22.84],[-114.69,-22.51],[-115.62,-22.18],[-116.55,-21.84],[-117.47,-21.49],[-117.2,-20.84],[-116.93,-20.19],[-116.66,-19.53],[-117.62,-19.15],[-118.58,-18.77],[-119.53,-18.38],[-120.48,-17.99],[-121.43,-17.59],[-122.37,-17.19],[-123.3,-16.78],[-124.23,-16.37],[-125.16,-15.96],[-126.08,-15.54],[-127,-15.12],[-127.92,-14.69],[-127.54,-13.94],[-127.16,-13.19],[-126.78,-12.44],[-127.59,-11.9],[-128.4,-11.35],[-129.2,-10.8],[-130,-10.25],[-130.8,-9.7],[-131.59,-9.15],[-132.39,-8.59],[-133.18,-8.03],[-133.97,-7.47],[-134.38,-7.19],[-135.19,-6.78],[-136.01,-6.36],[-136.82,-5.95],[-137.63,-5.53],[-138.44,-5.11],[-138.44,-5.11],[-139.04,-4.32],[-139.63,-3.53],[-140.22,-2.74],[-140.8,-1.94],[-141.39,-1.15],[-141.98,-0.36],[-142.51,0.42],[-143.04,1.2],[-143.57,1.98],[-144.1,2.75],[-144.63,3.53],[-145.16,4.31],[-145.69,5.08],[-146.22,5.86],[-146.76,6.64],[-146.76,6.64],[-146.62,6.72],[-146.62,6.72],[-146.44,7.52],[-146.26,8.33],[-146.07,9.13],[-145.82,10.04],[-145.56,10.95],[-145.29,11.85],[-145.03,12.76],[-144.77,13.67],[-144.5,14.57],[-144.23,15.48],[-143.96,16.38],[-143.68,17.29],[-143.41,18.19],[-143.13,19.1],[-142.85,20],[-142.56,20.9],[-142.27,21.8],[-141.98,22.71],[-141.68,23.61],[-140.81,23.41],[-139.94,23.2],[-139.07,22.99],[-138.21,22.77],[-137.35,22.55],[-137.03,23.49],[-136.7,24.43],[-136.37,25.37],[-136.03,26.31],[-135.69,27.25],[-135.34,28.19],[-134.99,29.12],[-134.63,30.06],[-134.26,30.99],[-133.88,31.93],[-133.5,32.86],[-133.11,33.79],[-132.71,34.72],[-132.3,35.65],[-131.88,36.58],[-131.46,37.51],[-131.02,38.43],[-130.57,39.35],[-130.1,40.27],[-129.63,41.19],[-129.14,42.11],[-130.07,42.37],[-131,42.62],[-130.52,43.48],[-130.02,44.34],[-129.51,45.2],[-128.98,46.06],[-128.44,46.91],[-127.88,47.77],[-127.3,48.62],[-126.7,49.46],[-126.08,50.3],[-125.44,51.14],[-124.77,51.98],[-123.7,51.7],[-122.64,51.41],[-121.6,51.12],[-120.88,52],[-120.14,52.88],[-119.37,53.76],[-118.56,54.63],[-117.72,55.5],[-116.84,56.36],[-115.92,57.21],[-114.96,58.06],[-116.66,58.5],[-118.4,58.92],[-117.6,59.75],[-116.76,60.58],[-115.88,61.41],[-114.95,62.23],[-113.97,63.04],[-112.94,63.84],[-111.84,64.64],[-110.68,65.43],[-109.44,66.21],[-108.13,66.97],[-110.08,67.61],[-112.13,68.21],[-110.42,68.85],[-108.61,69.47],[-106.69,70.07],[-104.66,70.65],[-102.51,71.2],[-100.24,71.73],[-97.85,72.23],[-95.32,72.7],[-93.68,72.95],[-91.98,73.19],[-88.81,73.51],[-85.53,73.78],[-82.14,74],[-78.68,74.16],[-77.44,73.49]]]}},{"type":"Feature","properties":{"ma":165,"type":"gpml:TopologicalClosedPlateBoundary","name":"Meso Tethys","pid":530,"deforming":false},"geometry":{"type":"Polygon","coordinates":[[[43.64,23.74],[43.93,23.66],[44.49,23.48],[45.05,23.3],[45.69,23.19],[46.34,23.08],[47.21,22.91],[48.08,22.74],[48.96,22.72],[49.85,22.7],[50.63,22.75],[51.42,22.8],[52.2,22.85],[53.26,22.78],[54.32,22.7],[55.38,22.61],[56.39,22.46],[57.39,22.31],[58.07,21.88],[58.74,21.46],[59.38,21.08],[60.02,20.71],[60.65,20.33],[61.29,20.17],[61.93,20],[62.73,19.87],[63.52,19.73],[64.33,19.56],[65.14,19.38],[65.86,19.31],[66.58,19.23],[67.3,19.15],[68.17,19.3],[69.05,19.44],[69.94,19.58],[70.82,19.72],[71.71,19.85],[72.59,19.97],[72.73,20.87],[72.88,21.77],[73.02,22.67],[73.02,22.67],[73.6,22.52],[74.18,22.36],[75.12,22.19],[76.06,22.02],[76.99,21.84],[78.03,21.72],[79.07,21.58],[80.1,21.45],[81.13,21.3],[82.2,21.21],[83.26,21.12],[84.33,21.01],[85.39,20.9],[86.4,20.98],[87.4,21.06],[88.41,21.12],[89.43,21.19],[90.44,21.24],[91.45,21.29],[92.4,21.43],[93.36,21.57],[94.32,21.7],[95.28,21.83],[96.24,21.95],[97.08,22.18],[97.93,22.4],[98.77,22.62],[99.41,22.86],[99.41,22.86],[99.74,23.72],[100.08,24.58],[100.41,25.45],[100.41,25.45],[101.42,25.04],[102.23,24.54],[103.04,24.04],[103.84,23.53],[104.64,23.02],[105.43,22.51],[106.37,22.05],[107.3,21.58],[108.23,21.1],[109.15,20.62],[110.07,20.14],[110.99,19.88],[111.92,19.61],[112.84,19.34],[113.76,19.07],[114.68,18.79],[115.59,18.51],[116.5,18.22],[117.28,18],[118.06,17.78],[118.84,17.55],[119.61,17.32],[119.61,17.32],[119.26,16.48],[118.91,15.64],[118.56,14.8],[118.22,13.96],[117.88,13.11],[117.54,12.27],[117.21,11.42],[116.8,10.52],[116.4,9.62],[116,8.71],[115.61,7.81],[115.21,6.9],[114.82,6],[114.42,5.09],[114.03,4.18],[114.01,4.12],[114.01,4.12],[113.21,4.29],[112.86,3.42],[112.52,2.55],[112.17,1.67],[111.83,0.8],[111.48,-0.08],[110.53,0.16],[109.57,0.39],[108.62,0.63],[108.28,-0.2],[107.95,-1.03],[107.61,-1.85],[107.27,-2.68],[106.94,-3.51],[106.6,-4.33],[105.7,-4.19],[104.81,-4.05],[103.91,-3.91],[103.01,-3.77],[102.12,-3.62],[101.78,-4.37],[101.45,-5.12],[101.11,-5.88],[100.77,-6.63],[99.84,-6.28],[98.91,-5.93],[97.98,-5.58],[97.72,-6.25],[97.46,-6.92],[96.96,-6.79],[96.66,-7.49],[96.36,-8.2],[95.65,-8.16],[95.35,-8.94],[95.05,-9.72],[94.75,-10.5],[94.44,-11.28],[93.55,-11.23],[92.66,-11.18],[91.77,-11.13],[90.88,-11.08],[89.98,-11.02],[89.03,-10.98],[88.07,-10.94],[87.12,-10.89],[86.17,-10.84],[85.21,-10.79],[84.26,-10.73],[83.31,-10.68],[83.36,-10.16],[83.42,-9.65],[82.63,-9.44],[81.85,-9.23],[81.07,-9.02],[80.29,-8.81],[79.36,-8.56],[78.44,-8.32],[77.52,-8.07],[76.6,-7.81],[75.68,-7.56],[74.76,-7.3],[73.85,-7.04],[72.93,-6.78],[72.02,-6.52],[71.1,-6.26],[70.19,-5.99],[69.28,-5.73],[68.37,-5.46],[67.46,-5.19],[66.61,-4.86],[65.77,-4.53],[64.92,-4.2],[64.08,-3.87],[63.23,-3.54],[63.23,-3.54],[63.57,-2.79],[63.9,-2.04],[64.23,-1.29],[64.23,-1.29],[63.47,-0.91],[62.71,-0.53],[61.95,-0.16],[61.19,0.22],[60.42,0.6],[59.57,1.06],[58.72,1.52],[57.87,1.97],[57.02,2.43],[56.17,2.89],[55.31,3.35],[54.46,3.8],[53.6,4.26],[52.75,4.71],[51.89,5.16],[51.03,5.61],[50.17,6.06],[49.31,6.51],[48.45,6.96],[47.58,7.41],[46.72,7.85],[46.36,7.27],[46.01,6.68],[45.66,6.1],[44.81,6.56],[43.96,7.02],[43.11,7.48],[42.26,7.94],[41.4,8.39],[40.54,8.85],[40.54,8.85],[40.79,9.34],[41.04,9.83],[41.34,10.65],[41.64,11.47],[41.94,12.29],[42.25,13.11],[42.37,14.07],[42.49,15.03],[42.61,15.99],[42.73,16.95],[42.86,17.91],[42.98,18.88],[43.11,19.84],[43.24,20.8],[43.37,21.76],[43.5,22.72],[43.64,23.68],[43.64,23.74]]]}},{"type":"Feature","properties":{"ma":165,"type":"gpml:TopologicalClosedPlateBoundary","name":"Mongol-Okhotsk Ocean","pid":380,"deforming":false},"geometry":{"type":"Polygon","coordinates":[[[-180,88.43],[-180,89.21],[-180,90],[180,90],[180,89.21],[180,88.43],[180,87.64],[173.17,86.89],[169.02,86.11],[166.27,85.32],[164.31,84.52],[162.85,83.72],[161.35,83.07],[160.1,82.41],[159.05,81.75],[157.79,81.02],[156.72,80.27],[155.8,79.53],[155,78.78],[154.34,77.93],[153.77,77.07],[153.27,76.21],[152.42,75.26],[151.67,74.31],[150.83,73.53],[150.06,72.74],[149.35,72.07],[148.69,71.39],[148.08,70.72],[147.32,69.82],[146.62,68.93],[146.07,68.18],[145.56,67.44],[144.88,66.7],[144.24,65.96],[143.5,65.04],[142.81,64.12],[142.21,63.34],[141.65,62.55],[141.11,61.77],[140.57,60.99],[140.06,60.21],[139.52,59.31],[139.01,58.41],[138.43,57.48],[137.89,56.55],[137.38,55.87],[136.9,55.19],[136.48,54.58],[136.08,53.96],[135.6,53.26],[135.14,52.57],[134.68,51.98],[134.23,51.4],[133.93,50.75],[133.63,50.11],[133.22,49.43],[132.82,48.75],[132.31,47.89],[131.83,47.03],[131.49,46.39],[131.16,45.74],[130.84,45.1],[130.4,44.21],[129.96,43.33],[129.54,42.44],[129.14,41.55],[128.82,40.77],[128.51,39.99],[128.21,39.22],[127.91,38.44],[127.61,37.68],[127.31,36.91],[127.02,36.15],[126.74,35.38],[126.24,34.51],[125.74,33.64],[125.26,32.77],[124.79,31.89],[124.33,31.01],[123.87,30.13],[123.33,29.39],[122.8,28.65],[122.27,27.9],[122.27,27.9],[122.94,27.34],[123.61,26.79],[124.1,26.28],[124.59,25.77],[125.08,25.25],[125.74,24.57],[126.4,23.89],[127.08,23.17],[127.75,22.44],[127.87,21.73],[128.14,21.11],[128.4,20.48],[128.85,19.87],[129.3,19.25],[130.05,18.97],[130.8,18.69],[131.55,18.41],[131.55,18.41],[131.21,17.67],[130.87,16.92],[130.53,16.18],[130.19,15.43],[129.63,14.62],[129.07,13.82],[128.52,13],[128.49,12.95],[128.49,12.95],[127.51,13.24],[126.54,13.51],[125.56,13.79],[124.86,14.3],[124.15,14.81],[123.43,15.32],[122.72,15.82],[122,16.32],[121.27,16.82],[120.32,17.11],[119.37,17.39],[118.42,17.67],[117.46,17.95],[116.5,18.22],[115.59,18.51],[114.68,18.79],[113.76,19.07],[112.84,19.34],[111.92,19.61],[110.99,19.88],[110.07,20.14],[109.15,20.62],[108.23,21.1],[107.3,21.58],[106.37,22.05],[105.43,22.51],[104.64,23.02],[103.84,23.53],[103.04,24.04],[102.23,24.54],[101.42,25.04],[100.41,25.45],[100.41,25.45],[100.08,24.58],[99.74,23.72],[99.41,22.86],[99.41,22.86],[98.77,22.62],[97.93,22.4],[97.08,22.18],[96.24,21.95],[95.28,21.83],[94.32,21.7],[93.36,21.57],[92.4,21.43],[91.45,21.29],[90.44,21.24],[89.43,21.19],[88.41,21.12],[87.4,21.06],[86.4,20.98],[85.39,20.9],[84.33,21.01],[83.26,21.12],[82.2,21.21],[81.13,21.3],[80.1,21.45],[79.07,21.58],[78.03,21.72],[76.99,21.84],[76.06,22.02],[75.12,22.19],[74.18,22.36],[73.28,22.6],[72.37,22.84],[71.45,23.07],[70.5,23.34],[69.55,23.6],[68.6,23.86],[67.64,24.34],[66.68,24.81],[65.71,25.28],[65.67,25.88],[65.34,26.81],[64.99,27.73],[64.64,28.65],[64.28,29.58],[63.92,30.5],[63.55,31.42],[63.55,31.42],[64.22,32.11],[64.91,32.81],[65.6,33.5],[65.75,34.31],[65.89,35.12],[66.05,35.93],[66.2,36.74],[66.36,37.55],[66.19,38.27],[66.03,38.99],[65.85,39.71],[65.35,40.38],[64.84,41.05],[64.41,41.86],[63.97,42.68],[64.43,43.56],[64.91,44.45],[65.4,45.33],[65.9,46.21],[66.42,47.09],[66.94,47.68],[67.46,48.27],[67.99,48.86],[68.95,49.6],[69.93,50.33],[70.95,51.05],[71.81,51.65],[72.69,52.24],[73.59,52.83],[74.52,53.41],[75.25,54.08],[76,54.75],[75.88,55.33],[75.75,55.91],[74.61,56.35],[73.43,56.77],[72.23,57.19],[71.01,57.59],[69.99,58.13],[68.93,58.67],[67.84,59.19],[66.72,59.71],[67.28,60.46],[67.86,61.21],[68.47,61.96],[69.11,62.71],[69.11,62.71],[69.78,63.43],[70.49,64.16],[71.23,64.87],[72.02,65.59],[71.81,66.46],[71.59,67.32],[71.36,68.19],[71.11,69.06],[71.36,69.75],[71.64,70.44],[71.94,71.13],[73.52,71.75],[75.2,72.36],[77.01,72.96],[76.51,73.75],[75.97,74.55],[75.37,75.34],[74.71,76.13],[75.64,77.03],[76.72,77.92],[77.96,78.81],[79.41,79.69],[81.13,80.57],[83.2,81.43],[85.72,82.28],[88.86,83.11],[92.84,83.92],[93.94,84.81],[95.5,85.69],[97.84,86.56],[97.84,86.56],[91.73,87.5],[78.76,88.37],[60.19,88.86],[25.24,89.09],[-29.94,88.98],[-55.87,88.3],[-59.71,88.03],[-59.71,88.03],[-83.05,88.71],[-128.73,88.91],[-164.36,88.42],[-180,87.64],[-180,88.43]]]}},{"type":"Feature","properties":{"ma":165,"type":"gpml:TopologicalClosedPlateBoundary","name":"West Gondwana","pid":701,"deforming":false},"geometry":{"type":"Polygon","coordinates":[[[-11.03,6.98],[-10.77,6.86],[-10.44,6.69],[-10.03,6.48],[-9.45,6.15],[-8.75,5.79],[-8.45,5.67],[-7.94,5.5],[-7.54,5.37],[-7.09,5.21],[-6.33,4.88],[-5.99,4.73],[-5.12,4.33],[-4.38,4],[-4.38,4],[-3.68,4],[-3.03,4.03],[-2.39,4.06],[-1.63,3.96],[-0.75,3.88],[-0.36,3.76],[-0.36,3.76],[0.09,3.66],[0.53,3.59],[0.81,3.56],[1.2,3.7],[1.59,3.73],[2.47,3.65],[3.23,3.55],[3.97,3.52],[4.8,3.44],[5.52,3.4],[5.52,3.4],[4.89,3.78],[4.14,4.23],[3.39,4.67],[3.39,4.67],[4.25,4.89],[5.11,5.12],[5.97,5.34],[6.83,5.56],[7.69,5.78],[8.44,6.12],[9.18,6.46],[9.92,6.8],[10.67,7.14],[11.41,7.47],[11.41,7.47],[11.22,8.33],[11.02,9.19],[10.82,10.05],[10.82,10.05],[11.37,10.46],[11.92,10.86],[12.48,11.26],[12.48,11.26],[12.19,11.66],[12.19,11.66],[12.74,12.12],[13.3,12.57],[13.85,13.03],[13.85,13.03],[14.52,12.55],[15.32,12.12],[16.11,11.68],[16.91,11.25],[17.7,10.81],[17.7,10.81],[18.39,11.28],[19.07,11.75],[19.76,12.22],[20.56,12.8],[20.56,12.8],[20.5,12.29],[21.11,11.68],[21.71,11.06],[22.31,10.45],[23.04,10],[23.77,9.54],[24.49,9.09],[25.22,8.63],[25.94,8.17],[26.86,7.77],[27.78,7.37],[28.69,6.96],[29.61,6.55],[30.49,6.32],[31.38,6.08],[32.27,5.84],[33.15,5.61],[34.04,5.37],[34.92,5.13],[35.89,5],[36.85,4.87],[37.82,4.73],[37.82,4.73],[38.34,5.34],[38.87,5.95],[39.39,6.56],[39.77,7.33],[40.16,8.09],[40.54,8.85],[40.54,8.85],[41.4,8.39],[42.26,7.94],[43.11,7.48],[43.96,7.02],[44.81,6.56],[45.66,6.1],[46.01,6.68],[46.36,7.27],[46.72,7.85],[47.58,7.41],[48.45,6.96],[49.31,6.51],[50.17,6.06],[51.03,5.61],[51.89,5.16],[52.75,4.71],[53.6,4.26],[54.46,3.8],[55.31,3.35],[56.17,2.89],[57.02,2.43],[57.87,1.97],[58.72,1.52],[59.57,1.06],[60.42,0.6],[61.19,0.22],[61.95,-0.16],[62.71,-0.53],[63.47,-0.91],[64.23,-1.29],[64.23,-1.29],[63.86,-2.13],[63.49,-2.96],[63.12,-3.8],[62.74,-4.64],[62.37,-5.47],[61.99,-6.31],[61.62,-7.14],[61.13,-8.01],[60.65,-8.88],[60.16,-9.75],[59.67,-10.61],[59.18,-11.48],[58.68,-12.34],[58.18,-13.21],[57.68,-14.07],[57.11,-14.8],[56.53,-15.53],[55.96,-16.25],[55.37,-16.98],[54.79,-17.7],[54.19,-18.43],[53.6,-19.15],[52.99,-19.86],[52.39,-20.58],[51.77,-21.29],[51.13,-21.89],[50.48,-22.49],[49.82,-23.08],[49.16,-23.67],[48.49,-24.26],[47.81,-24.85],[47.17,-25.59],[46.52,-26.33],[46.52,-26.33],[46.43,-26.16],[45.83,-25.62],[45.24,-25.07],[44.65,-24.51],[44.65,-24.51],[44.05,-25.18],[43.28,-25.81],[42.51,-26.44],[41.72,-27.06],[41.03,-27.57],[40.32,-28.07],[39.7,-28.58],[39.08,-29.09],[38.44,-29.59],[37.63,-30.01],[36.81,-30.42],[35.98,-30.83],[35.1,-31.16],[34.21,-31.49],[33.62,-31.7],[33.03,-31.91],[32.66,-32.32],[32.3,-32.72],[31.96,-33.15],[31.62,-33.58],[30.92,-33.99],[30.22,-34.39],[29.29,-34.59],[28.35,-34.79],[27.5,-34.9],[26.64,-35],[25.67,-35.14],[24.69,-35.28],[23.76,-35.7],[22.83,-36.11],[22.16,-36.54],[21.49,-36.96],[21.11,-37.78],[20.73,-38.6],[20.41,-39.4],[20.06,-40.18],[19.38,-40.76],[18.68,-41.35],[17.98,-41.92],[17.47,-42.57],[16.96,-43.22],[16.43,-43.87],[15.55,-44.32],[14.66,-44.76],[13.92,-45.2],[13.16,-45.64],[12.7,-46.07],[12.24,-46.5],[11.7,-47.15],[11.15,-47.79],[10.96,-48.58],[10.76,-49.37],[10.53,-50.1],[10.29,-50.83],[10.23,-51.6],[10.17,-52.37],[9.8,-53.2],[9.42,-54.02],[8.6,-54.88],[7.48,-55.28],[6.34,-55.68],[4.74,-55.82],[3.14,-55.94],[2.05,-55.98],[0.95,-56.01],[-0.69,-56.29],[-1.62,-56.76],[-3.23,-56.87],[-4.24,-57.31],[-5.28,-57.74],[-6.2,-58.18],[-7.15,-58.62],[-8.91,-58.8],[-10.7,-58.96],[-12.32,-59.37],[-13.98,-59.75],[-15.34,-60.15],[-16.73,-60.53],[-17.68,-61.01],[-18.66,-61.48],[-19.67,-61.95],[-21.16,-62.16],[-22.67,-62.35],[-24.2,-62.53],[-26.36,-62.63],[-28.52,-62.7],[-30.7,-62.74],[-32.36,-62.89],[-34.03,-63.03],[-35.51,-63.2],[-37,-63.35],[-39.05,-63.6],[-41.14,-63.81],[-43.25,-64],[-45.44,-63.98],[-47.62,-63.92],[-49.78,-63.84],[-51.35,-63.88],[-52.92,-63.91],[-54.5,-63.92],[-56.4,-63.82],[-58.28,-63.69],[-60.14,-63.54],[-61.98,-63.37],[-63.8,-63.17],[-65.66,-63.03],[-67.5,-62.86],[-69.31,-62.67],[-69.31,-62.67],[-69.35,-62.34],[-69.4,-62.04],[-69.38,-61.78],[-69.37,-61.46],[-69.33,-61.1],[-69.11,-60.66],[-68.8,-60.32],[-68.59,-60.11],[-68.35,-59.87],[-68.06,-59.58],[-67.59,-59.14],[-67.15,-58.76],[-66.85,-58.43],[-66.62,-58.11],[-66.59,-57.67],[-66.54,-57.39],[-66.51,-57.15],[-66.48,-57.08],[-66.39,-56.82],[-66.29,-56.52],[-66.15,-56.16],[-66.01,-55.86],[-65.86,-55.54],[-65.69,-55.19],[-65.57,-54.93],[-65.27,-54.28],[-65.08,-53.87],[-64.89,-53.47],[-64.71,-53.1],[-64.45,-52.59],[-64.31,-52.3],[-64.12,-51.84],[-64.01,-51.56],[-63.87,-51.2],[-63.6,-50.92],[-63.26,-50.35],[-63.26,-50.35],[-63.19,-50.02],[-63.19,-50.02],[-63.17,-49.9],[-63.06,-49.63],[-62.58,-48.82],[-62.11,-48.01],[-62.04,-47.27],[-61.97,-46.53],[-61.88,-45.69],[-61.8,-44.85],[-61.32,-44.09],[-60.85,-43.33],[-60.39,-42.57],[-59.94,-41.81],[-59.51,-41.04],[-59.35,-40.27],[-59.19,-39.5],[-59.03,-38.73],[-58.88,-37.96],[-58.78,-37.09],[-58.67,-36.23],[-58.62,-35.79],[-58.56,-35.4],[-58.54,-35.08],[-58.46,-34.51],[-58.41,-33.8],[-58.25,-33.34],[-58.03,-32.5],[-57.92,-32.01],[-57.95,-31.42],[-57.95,-31.42],[-57.98,-31.13],[-58.03,-30.77],[-58.02,-30.22],[-58.18,-29.47],[-58.27,-28.95],[-58.36,-28.43],[-58.94,-27.66],[-59.13,-26.97],[-59.32,-26.28],[-59.5,-25.6],[-59.73,-24.79],[-59.95,-23.97],[-60.17,-23.16],[-60.28,-22.31],[-60.38,-21.45],[-60.48,-20.59],[-60.58,-19.74],[-60.68,-18.88],[-60.78,-18.02],[-60.85,-17.16],[-60.92,-16.29],[-60.99,-15.43],[-60.66,-14.63],[-60.33,-13.83],[-60,-13.03],[-59.67,-12.23],[-59.34,-11.42],[-59.24,-11.16],[-59.15,-10.91],[-59.04,-10.65],[-58.89,-10.3],[-58.8,-10.11],[-58.72,-9.87],[-58.51,-9.52],[-58.33,-9.21],[-58.29,-9.16],[-58.29,-9.16],[-58.32,-9.6],[-58.4,-9.97],[-58.4,-9.97],[-57.49,-10.01],[-56.94,-9.91],[-56.38,-9.8],[-55.79,-9.91],[-55.2,-10.01],[-54.68,-10.21],[-54.16,-10.41],[-53.49,-10.76],[-52.81,-11.1],[-51.94,-11.32],[-51.07,-11.53],[-50.25,-11.35],[-49.43,-11.17],[-48.7,-10.79],[-47.97,-10.41],[-47.33,-10.05],[-46.69,-9.68],[-46.06,-9.45],[-45.44,-9.21],[-44.87,-9.12],[-44.31,-9.03],[-43.8,-8.9],[-43.28,-8.78],[-42.68,-8.67],[-42.07,-8.57],[-41.46,-8.08],[-40.86,-7.59],[-40.11,-7.44],[-39.37,-7.28],[-38.69,-7.39],[-38.02,-7.49],[-37.34,-7.59],[-36.56,-7.66],[-35.78,-7.74],[-34.89,-8.02],[-34.37,-8.06],[-33.85,-8.1],[-33.28,-8.11],[-32.7,-8.12],[-32.21,-7.95],[-31.71,-7.77],[-31.71,-7.77],[-31.7,-7.77],[-31.19,-7.85],[-30.67,-7.92],[-30.07,-8.19],[-29.48,-8.46],[-29.02,-8.76],[-28.56,-9.07],[-28.08,-9.61],[-27.59,-10.14],[-27.56,-10.15],[-27.56,-10.15],[-27.19,-9.63],[-27.21,-8.76],[-27.11,-8.03],[-27.21,-7.1],[-27.53,-6.49],[-27.84,-5.87],[-27.85,-5.27],[-27.64,-4.39],[-27.45,-3.61],[-27.18,-3.24],[-26.79,-2.93],[-26.18,-2.66],[-25.76,-2.66],[-25.32,-2.69],[-25.11,-2.33],[-24.97,-2.08],[-24.78,-1.8],[-24.47,-1.59],[-24.25,-1.23],[-24.03,-0.8],[-23.96,-0.02],[-23.89,0.43],[-23.76,0.85],[-23.5,1.09],[-23.29,1.29],[-22.91,1.84],[-22.57,2.38],[-22.34,3],[-22.08,3.44],[-21.82,3.88],[-21.48,4.31],[-21.13,4.75],[-20.66,4.96],[-20.18,5.18],[-20.05,5.27],[-19.16,5.11],[-18.21,5.07],[-17.7,5.05],[-17.54,4.96],[-16.99,4.87],[-16.26,5.17],[-15.48,5.56],[-15.04,5.89],[-14.14,6.17],[-13.6,6.45],[-12.87,6.59],[-12.05,6.7],[-11.39,6.96],[-11.08,7],[-11.03,6.98]]]}},{"type":"Feature","properties":{"ma":165,"type":"gpml:TopologicalClosedPlateBoundary","name":"AACM","pid":18100,"deforming":false},"geometry":{"type":"Polygon","coordinates":[[[-12.23,75.63],[-11.5,74.78],[-10.85,73.92],[-10.27,73.07],[-9.73,72.21],[-9.51,71.31],[-9.3,70.42],[-9.12,69.53],[-8.94,68.63],[-8.93,68.57],[-8.88,68.23],[-8.88,68.21],[-8.88,68.21],[-8.6,67.32],[-8.34,66.43],[-8.1,65.54],[-7.87,64.66],[-7.66,63.77],[-7.42,62.92],[-7.2,62.07],[-6.99,61.23],[-6.79,60.38],[-6.6,59.53],[-6.32,58.81],[-6.06,58.09],[-5.81,57.36],[-6.45,56.8],[-6.26,56.12],[-6.08,55.45],[-5.9,54.77],[-5.9,54.77],[-7.27,55.08],[-8.65,55.38],[-10.23,55.62],[-11.83,55.84],[-13.44,56.04],[-14.84,56.07],[-16.24,56.09],[-17.26,56.1],[-18.35,56.09],[-19.26,56.08],[-20.32,56.05],[-21.14,56.03],[-22.11,55.99],[-22.95,55.95],[-23.7,55.8],[-24.4,55.65],[-25.01,55.62],[-26.15,55.44],[-26.74,55.28],[-27.46,55.05],[-28.53,54.31],[-29.31,53.86],[-30.07,53.41],[-30.7,53.16],[-31.01,52.96],[-31.79,52.29],[-32.03,52.08],[-33.03,51.48],[-33.33,51.12],[-33.33,51.12],[-34.59,51.71],[-35.89,52.29],[-37.23,52.85],[-38.37,53.43],[-39.54,54],[-40.75,54.56],[-41.99,55.11],[-43.27,55.65],[-44.94,55.91],[-46.65,56.16],[-48.37,56.38],[-49.82,56.42],[-51.28,56.44],[-52.75,56.45],[-54.21,56.43],[-54.21,56.43],[-53.73,57.39],[-53.22,58.34],[-52.68,59.15],[-52.1,59.96],[-51.5,60.76],[-50.87,61.56],[-50.87,61.56],[-52.2,62.12],[-53.58,62.66],[-55.01,63.19],[-56.51,63.86],[-58.08,64.52],[-59.73,65.15],[-61.4,65.8],[-63.16,66.42],[-65.01,67.03],[-65.84,67.51],[-66.71,67.98],[-66.71,67.98],[-65.22,68.51],[-63.66,68.94],[-62.03,69.35],[-60.34,69.75],[-57.87,70.18],[-55.29,70.58],[-53.47,70.87],[-51.59,71.14],[-49.67,71.4],[-47.38,71.81],[-44.99,72.2],[-42.5,72.56],[-40.59,72.92],[-38.6,73.26],[-36.52,73.58],[-33.7,73.75],[-30.81,73.89],[-27.89,73.99],[-24.5,74.33],[-20.96,74.62],[-18.18,74.99],[-15.27,75.33],[-12.23,75.63]]]}},{"type":"Feature","properties":{"ma":165,"type":"gpml:TopologicalClosedPlateBoundary","name":"Junction Plate North","pid":786,"deforming":false},"geometry":{"type":"Polygon","coordinates":[[[133.67,-11.31],[132.81,-10.89],[131.96,-10.45],[131.11,-10.02],[130.26,-9.58],[130.64,-9.05],[131.02,-8.52],[130.26,-8.07],[129.5,-7.61],[128.74,-7.16],[127.98,-6.7],[127.23,-6.24],[126.48,-5.78],[125.72,-5.32],[124.97,-4.85],[125.31,-4.34],[125.64,-3.83],[124.87,-3.37],[124.1,-2.91],[123.34,-2.44],[122.57,-1.98],[121.81,-1.52],[121.05,-1.06],[120.28,-0.59],[120.61,-0.13],[120.93,0.33],[120.12,0.81],[119.32,1.3],[118.51,1.79],[117.7,2.28],[116.9,2.76],[116.21,3.18],[115.52,3.59],[114.83,4.01],[114.14,4.42],[114.14,4.42],[114.51,5.3],[114.89,6.17],[115.28,7.05],[115.66,7.93],[116.04,8.8],[116.43,9.68],[116.82,10.55],[117.21,11.42],[117.54,12.27],[117.88,13.11],[118.22,13.96],[118.56,14.8],[118.91,15.64],[119.26,16.48],[119.61,17.32],[119.61,17.32],[120.44,17.07],[121.27,16.82],[122,16.32],[122.72,15.82],[123.43,15.32],[124.15,14.81],[124.86,14.3],[125.56,13.79],[126.54,13.51],[127.51,13.24],[128.49,12.95],[128.49,12.95],[127.98,12.09],[127.47,11.22],[126.97,10.35],[126.49,9.7],[126,9.06],[125.52,8.41],[125.52,8.41],[125.86,7.47],[126.2,6.54],[126.84,5.81],[127.48,5.09],[128.12,4.36],[128.76,3.64],[129.4,2.91],[130.04,2.19],[130.67,1.46],[131.31,0.73],[131.94,0.01],[132.58,-0.72],[133.07,-1.27],[133.55,-1.83],[134.04,-2.39],[134.04,-2.39],[133.99,-3.33],[133.93,-4.27],[133.88,-5.22],[133.83,-6.16],[133.77,-7.1],[133.72,-8.05],[133.66,-8.99],[133.61,-9.94],[133.64,-10.63],[133.67,-11.31]]]}},{"type":"Feature","properties":{"ma":165,"type":"gpml:TopologicalClosedPlateBoundary","name":"Izanagi Plate","pid":926,"deforming":false},"geometry":{"type":"MultiPolygon","coordinates":[[[[180,86.64],[180,85.65],[180,84.65],[180,83.66],[180,82.66],[180,81.67],[180,80.67],[180,79.68],[180,78.68],[180,77.69],[180,76.69],[180,75.7],[180,74.7],[180,73.71],[180,72.71],[180,71.72],[180,70.72],[180,69.73],[180,68.73],[180,67.74],[180,66.74],[180,65.75],[180,64.75],[180,63.76],[180,62.76],[180,61.77],[180,60.77],[180,59.78],[180,58.78],[180,57.79],[180,56.79],[180,55.8],[180,54.8],[180,53.81],[180,52.81],[180,51.82],[180,50.82],[180,49.83],[180,48.83],[180,47.84],[180,46.84],[180,45.85],[180,44.85],[180,43.86],[180,42.86],[180,41.87],[180,40.87],[180,39.88],[180,38.88],[180,37.89],[180,36.89],[180,35.9],[180,34.9],[180,33.91],[180,32.91],[180,31.92],[180,30.92],[180,29.93],[180,28.93],[180,27.94],[180,26.94],[180,25.95],[180,24.95],[180,23.95],[180,22.96],[180,21.96],[180,20.97],[180,19.97],[180,18.98],[180,17.98],[180,16.99],[180,15.99],[180,15],[180,14],[180,13.01],[180,12.01],[180,11.02],[180,10.02],[180,9.03],[180,8.03],[180,7.04],[180,6.04],[180,5.05],[180,4.05],[180,3.06],[180,2.06],[180,1.07],[180,0.07],[180,-0.92],[180,-1.92],[180,-2.91],[180,-3.91],[180,-4.9],[180,-5.9],[180,-6.89],[179.86,-6.4],[178.93,-6.73],[177.99,-7.05],[177.05,-7.38],[176.11,-7.7],[175.17,-8.01],[174.23,-8.33],[173.28,-8.64],[172.33,-8.95],[171.39,-9.26],[170.44,-9.57],[170.22,-8.59],[170,-7.62],[169.1,-7.96],[168.19,-8.31],[167.28,-8.65],[166.37,-8.99],[165.46,-9.33],[164.55,-9.66],[163.64,-9.99],[162.72,-10.32],[161.8,-10.65],[160.88,-10.98],[159.96,-11.3],[159.04,-11.62],[158.11,-11.93],[157.18,-12.25],[156.25,-12.56],[156.09,-11.78],[155.93,-11],[155.77,-10.21],[154.82,-10.5],[153.88,-10.79],[152.92,-11.08],[151.97,-11.36],[151.02,-11.63],[150.06,-11.91],[149.1,-12.18],[148.14,-12.45],[147.18,-12.72],[146.22,-12.98],[145.25,-13.23],[144.28,-13.49],[143.31,-13.74],[142.34,-13.99],[141.37,-14.23],[140.39,-14.47],[140.2,-13.71],[140,-12.95],[139.12,-13.21],[138.24,-13.47],[137.36,-13.72],[136.48,-13.97],[135.59,-14.21],[134.71,-14.45],[133.82,-14.69],[133.82,-14.69],[133.78,-13.74],[133.73,-12.79],[133.69,-11.84],[133.65,-10.89],[133.61,-9.94],[133.66,-8.99],[133.72,-8.05],[133.77,-7.1],[133.83,-6.16],[133.88,-5.22],[133.93,-4.27],[133.99,-3.33],[134.04,-2.39],[134.04,-2.39],[133.55,-1.83],[133.07,-1.27],[132.58,-0.72],[131.94,0.01],[131.31,0.73],[130.67,1.46],[130.04,2.19],[129.4,2.91],[128.76,3.64],[128.12,4.36],[127.48,5.09],[126.84,5.81],[126.2,6.54],[125.86,7.47],[125.52,8.41],[125.52,8.41],[126,9.06],[126.49,9.7],[126.97,10.35],[127.36,11.02],[127.74,11.68],[128.13,12.34],[128.52,13],[129.07,13.82],[129.63,14.62],[130.19,15.43],[130.53,16.18],[130.87,16.92],[131.21,17.67],[131.55,18.41],[131.55,18.41],[130.8,18.69],[130.05,18.97],[129.3,19.25],[128.85,19.87],[128.4,20.48],[128.14,21.11],[127.87,21.73],[127.75,22.44],[127.08,23.17],[126.4,23.89],[125.74,24.57],[125.08,25.25],[124.59,25.77],[124.1,26.28],[123.61,26.79],[122.94,27.34],[122.27,27.9],[122.27,27.9],[122.8,28.65],[123.33,29.39],[123.87,30.13],[124.33,31.01],[124.79,31.89],[125.26,32.77],[125.74,33.64],[126.24,34.51],[126.74,35.38],[127.02,36.15],[127.31,36.91],[127.61,37.68],[127.91,38.44],[128.21,39.22],[128.51,39.99],[128.82,40.77],[129.14,41.55],[129.54,42.44],[129.96,43.33],[130.4,44.21],[130.84,45.1],[131.16,45.74],[131.49,46.39],[131.83,47.03],[132.31,47.89],[132.82,48.75],[133.22,49.43],[133.63,50.11],[133.93,50.75],[134.23,51.4],[134.68,51.98],[135.14,52.57],[135.6,53.26],[136.08,53.96],[136.48,54.58],[136.9,55.19],[137.38,55.87],[137.89,56.55],[138.43,57.48],[139.01,58.41],[139.52,59.31],[140.06,60.21],[140.57,60.99],[141.11,61.77],[141.65,62.55],[142.21,63.34],[142.81,64.12],[143.5,65.04],[144.24,65.96],[144.88,66.7],[145.56,67.44],[146.07,68.18],[146.62,68.93],[147.32,69.82],[148.08,70.72],[148.69,71.39],[149.35,72.07],[150.06,72.74],[150.83,73.53],[151.67,74.31],[152.42,75.26],[153.27,76.21],[153.77,77.07],[154.34,77.93],[155,78.78],[155.8,79.53],[156.72,80.27],[157.79,81.02],[159.05,81.75],[160.1,82.41],[161.35,83.07],[162.85,83.72],[164.31,84.52],[166.27,85.32],[169.02,86.11],[173.17,86.89],[180,87.64],[180,86.64]]],[[[-180,-5.9],[-180,-4.9],[-180,-3.91],[-180,-2.91],[-180,-1.92],[-180,-0.92],[-180,0.07],[-180,1.07],[-180,2.06],[-180,3.06],[-180,4.05],[-180,5.05],[-180,6.04],[-180,7.04],[-180,8.03],[-180,9.03],[-180,10.02],[-180,11.02],[-180,12.01],[-180,13.01],[-180,14],[-180,15],[-180,15.99],[-180,16.99],[-180,17.98],[-180,18.98],[-180,19.97],[-180,20.97],[-180,21.96],[-180,22.96],[-180,23.95],[-180,24.95],[-180,25.95],[-180,26.94],[-180,27.94],[-180,28.93],[-180,29.93],[-180,30.92],[-180,31.92],[-180,32.91],[-180,33.91],[-180,34.9],[-180,35.9],[-180,36.89],[-180,37.89],[-180,38.88],[-180,39.88],[-180,40.87],[-180,41.87],[-180,42.86],[-180,43.86],[-180,44.85],[-180,45.85],[-180,46.84],[-180,47.84],[-180,48.83],[-180,49.83],[-180,50.82],[-180,51.82],[-180,52.81],[-180,53.81],[-180,54.8],[-180,55.8],[-180,56.79],[-180,57.79],[-180,58.78],[-180,59.78],[-180,60.77],[-180,61.77],[-180,62.76],[-180,63.76],[-180,64.75],[-180,65.75],[-180,66.74],[-180,67.74],[-180,68.73],[-180,69.73],[-180,70.72],[-180,71.72],[-180,72.71],[-180,73.71],[-180,74.7],[-180,75.7],[-180,76.69],[-180,77.69],[-180,78.68],[-180,79.68],[-180,80.67],[-180,81.67],[-180,82.66],[-180,83.66],[-180,84.65],[-180,85.65],[-180,86.64],[-180,87.64],[-164.36,88.42],[-128.73,88.91],[-83.05,88.71],[-59.71,88.03],[-59.71,88.03],[-65.51,87.37],[-68.98,86.7],[-70.86,86.01],[-72.19,85.31],[-73.17,84.62],[-73.8,84],[-74.3,83.38],[-73.74,82.68],[-73.27,81.97],[-73.17,81.24],[-73.09,80.52],[-74.2,79.88],[-75.17,79.23],[-76.54,78.43],[-77.73,77.63],[-78.78,76.82],[-79.89,76.05],[-80.89,75.28],[-80.89,75.28],[-80.59,75.06],[-79.61,74.61],[-78.68,74.16],[-82.14,74],[-85.53,73.78],[-88.81,73.51],[-91.98,73.19],[-93.68,72.95],[-95.32,72.7],[-97.85,72.23],[-100.24,71.73],[-102.51,71.2],[-104.66,70.65],[-106.69,70.07],[-108.61,69.47],[-110.42,68.85],[-112.13,68.21],[-110.08,67.61],[-108.13,66.97],[-109.44,66.21],[-110.68,65.43],[-111.84,64.64],[-112.94,63.84],[-113.97,63.04],[-114.95,62.23],[-115.88,61.41],[-116.76,60.58],[-117.6,59.75],[-118.4,58.92],[-116.66,58.5],[-114.96,58.06],[-115.92,57.21],[-116.84,56.36],[-117.72,55.5],[-118.56,54.63],[-119.37,53.76],[-120.14,52.88],[-120.88,52],[-121.6,51.12],[-122.64,51.41],[-123.7,51.7],[-124.77,51.98],[-125.44,51.14],[-126.08,50.3],[-126.7,49.46],[-127.3,48.62],[-127.88,47.77],[-128.44,46.91],[-128.98,46.06],[-129.51,45.2],[-130.02,44.34],[-130.52,43.48],[-131,42.62],[-130.07,42.37],[-129.14,42.11],[-129.63,41.19],[-130.1,40.27],[-130.57,39.35],[-131.02,38.43],[-131.46,37.51],[-131.88,36.58],[-132.3,35.65],[-132.71,34.72],[-133.11,33.79],[-133.5,32.86],[-133.88,31.93],[-134.26,30.99],[-134.63,30.06],[-134.99,29.12],[-135.34,28.19],[-135.69,27.25],[-136.03,26.31],[-136.37,25.37],[-136.7,24.43],[-137.03,23.49],[-137.35,22.55],[-138.21,22.77],[-139.07,22.99],[-139.94,23.2],[-140.81,23.41],[-141.68,23.61],[-141.98,22.71],[-142.27,21.8],[-142.56,20.9],[-142.85,20],[-143.13,19.1],[-143.41,18.19],[-143.68,17.29],[-143.96,16.38],[-144.23,15.48],[-144.5,14.57],[-144.77,13.67],[-145.03,12.76],[-145.29,11.85],[-145.56,10.95],[-145.82,10.04],[-146.07,9.13],[-146.26,8.33],[-146.44,7.52],[-146.62,6.72],[-146.62,6.72],[-147.34,6.28],[-147.83,6.01],[-148.32,5.75],[-147.86,5.06],[-148.33,4.77],[-148.81,4.49],[-148.4,3.83],[-148,3.16],[-148.67,2.78],[-149.34,2.39],[-150.01,2],[-150.67,1.61],[-150.34,1.02],[-150,0.44],[-150.84,-0.06],[-151.68,-0.56],[-152.51,-1.05],[-153.35,-1.55],[-154.19,-2.05],[-155.03,-2.54],[-155.86,-3.04],[-156.7,-3.53],[-157.47,-3.99],[-158.24,-4.45],[-159.02,-4.9],[-159.79,-5.36],[-160.56,-5.81],[-161.34,-6.27],[-162.11,-6.72],[-163.02,-7.07],[-163.02,-7.07],[-163.67,-7.17],[-164.31,-7.26],[-165.3,-7.42],[-166.29,-7.59],[-167.28,-7.75],[-168.27,-7.91],[-169.26,-8.07],[-169.43,-7.35],[-169.6,-6.63],[-169.76,-5.91],[-170.65,-6.14],[-171.55,-6.36],[-172.44,-6.59],[-173.33,-6.81],[-174.22,-7.02],[-175.12,-7.24],[-176.01,-7.46],[-176.91,-7.67],[-177.81,-7.88],[-178.71,-8.09],[-179.6,-8.3],[-179.8,-7.6],[-180,-6.89],[-180,-5.9]]]]}},{"type":"Feature","properties":{"ma":165,"type":"gpml:TopologicalClosedPlateBoundary","name":"NAM","pid":101,"deforming":false},"geometry":{"type":"Polygon","coordinates":[[[-6.11,10.82],[-6.52,11.25],[-6.96,11.63],[-7.4,12.02],[-7.84,12.42],[-8.58,12.93],[-9.33,13.43],[-10.1,13.85],[-10.1,13.85],[-10.47,13.95],[-11.11,14.03],[-11.64,14.07],[-12.14,14.09],[-12.63,14.09],[-13.22,14.06],[-13.88,14.17],[-14.36,14.29],[-14.7,14.29],[-15.34,14.2],[-15.91,14.09],[-16.51,13.87],[-17.23,13.51],[-17.76,13.24],[-18.55,13.15],[-19.08,13.04],[-19.89,12.94],[-20.66,12.93],[-21.13,12.93],[-21.67,12.7],[-22.05,12.86],[-22.3,12.78],[-22.53,12.23],[-22.91,11.93],[-23.38,11.83],[-23.73,11.59],[-24.06,11.34],[-24.24,11.35],[-24.49,11.33],[-24.96,11.22],[-25.24,11.24],[-25.54,11.33],[-25.78,11.37],[-25.92,11.27],[-26.34,11.14],[-26.54,10.71],[-26.83,10.28],[-27.34,9.83],[-27.85,9.39],[-28.21,9.11],[-29.01,8.61],[-29.65,8.33],[-29.85,7.72],[-30.1,6.98],[-30.58,6.55],[-31.15,6.16],[-31.79,6.05],[-32.43,5.95],[-32.95,5.83],[-33.27,5.76],[-33.61,5.68],[-33.74,5.49],[-34.12,5.22],[-34.51,4.92],[-34.93,4.55],[-35.23,4.28],[-35.43,4.16],[-35.43,4.16],[-35.44,4.17],[-36.14,4.85],[-36.63,5.34],[-37.12,5.83],[-37.84,6.3],[-38.55,6.77],[-39.18,7.32],[-39.84,7.71],[-40.34,8],[-40.83,8.3],[-41.31,8.55],[-41.79,8.8],[-42.26,9.07],[-42.72,9.35],[-43.53,9.93],[-44.25,10.13],[-44.97,10.33],[-45.48,10.5],[-46,10.66],[-47.01,10.66],[-47.54,10.71],[-48.07,10.75],[-48.76,10.35],[-49.46,9.96],[-50.16,9.56],[-50.89,8.91],[-51.62,8.26],[-51.62,8.26],[-51.71,8.39],[-52.24,9.11],[-52.76,9.84],[-53.29,10.57],[-53.86,11.33],[-54.42,12.1],[-54.99,12.87],[-55.59,13.67],[-56.2,14.47],[-56.81,15.27],[-57.43,16.07],[-58.05,16.87],[-58.68,17.67],[-59.31,18.46],[-59.94,19.08],[-59.94,19.08],[-60.07,19.92],[-60.2,20.75],[-60.34,21.59],[-60.47,22.42],[-60.61,23.25],[-60.75,24.09],[-60.81,24.86],[-60.87,25.63],[-60.94,26.4],[-61,27.17],[-60.6,27.96],[-60.2,28.74],[-59.79,29.53],[-59.37,30.31],[-58.95,31.09],[-58.29,31.84],[-57.62,32.58],[-56.93,33.31],[-56.24,34.05],[-55.75,34.54],[-55.25,35.03],[-55.25,35.03],[-55.07,34.52],[-54.89,34.01],[-54.89,34.01],[-54.4,34.33],[-53.84,34.77],[-53.29,35.21],[-52.82,35.7],[-52.35,36.19],[-52.17,36.95],[-52,37.71],[-51.82,38.47],[-51.63,39.23],[-51.53,40.19],[-51.42,41.14],[-51.32,42.09],[-51.05,42.96],[-50.77,43.83],[-50.49,44.7],[-50.2,45.56],[-49.89,46.32],[-49.57,47.08],[-49.25,47.83],[-48.91,48.59],[-48.61,49.34],[-48.29,50.09],[-48.3,50.98],[-48.3,51.86],[-49.06,52.61],[-49.85,53.36],[-51.17,53.95],[-52.53,54.53],[-53.92,55.1],[-53.92,55.1],[-54.09,55.71],[-54.26,56.33],[-54.21,56.43],[-54.21,56.43],[-52.75,56.45],[-51.28,56.44],[-49.82,56.42],[-48.37,56.38],[-46.65,56.16],[-44.94,55.91],[-43.27,55.65],[-41.99,55.11],[-40.75,54.56],[-39.54,54],[-38.37,53.43],[-37.23,52.85],[-35.89,52.29],[-34.59,51.71],[-33.33,51.12],[-33.33,51.12],[-33.46,50.97],[-33.63,50.85],[-33.79,50.75],[-33.79,50.75],[-33.58,50.69],[-33.11,50.71],[-32.2,50.82],[-31.44,51.01],[-30.67,51.2],[-29.87,51.37],[-29.07,51.54],[-28.17,51.77],[-27.26,51.99],[-25.8,52.29],[-24.32,52.58],[-23.12,52.64],[-21.91,52.7],[-20.67,52.49],[-19.45,52.28],[-18.24,52.05],[-17.12,51.9],[-16.01,51.74],[-14.91,51.57],[-13.62,51.5],[-12.32,51.42],[-10.86,51.55],[-9.38,51.67],[-8.04,51.64],[-6.71,51.59],[-5.37,51.52],[-5.37,51.52],[-5.61,50.66],[-5.84,49.8],[-6.06,48.94],[-6.27,48.07],[-5.3,47.79],[-4.34,47.5],[-3.4,47.19],[-2.24,46.95],[-1.1,46.7],[0.04,46.43],[1.23,46.62],[2.44,46.8],[3.28,46.45],[4.11,46.11],[4.6,45.27],[5.07,44.44],[5.14,43.74],[5.21,43.05],[5.45,42.34],[5.68,41.63],[5.93,41.54],[5.93,41.54],[6.06,41.23],[6.07,40.79],[6.1,40.6],[6.1,40.6],[6.09,40.59],[5.87,40.4],[5.61,40.21],[5.35,39.69],[5.15,39.26],[5.02,39.13],[4.93,38.93],[4.93,38.74],[4.94,38.55],[4.89,38.21],[4.81,37.95],[4.63,37.68],[4.48,37.52],[4.02,37.18],[3.78,36.77],[3.59,36.55],[3.46,36.4],[3.38,36.23],[3.42,36.06],[3.45,35.84],[3.43,35.65],[3.38,35.49],[3.34,35.32],[3.35,35.08],[3.44,34.92],[3.77,34.72],[3.97,34.64],[4.17,34.43],[4.11,34.28],[4.06,34.04],[3.99,33.37],[4,33.31],[4.3,32.97],[4.33,32.78],[4.02,32.29],[3.73,31.98],[3.26,31.37],[2.87,30.8],[2.6,30.09],[2.47,29.74],[2.1,29.18],[1.41,28.7],[0.97,28.32],[0.37,28.02],[-0.12,27.65],[-0.83,27.26],[-1.58,26.99],[-1.95,26.87],[-2.12,26.07],[-1.79,25.56],[-1.46,25.05],[-1.34,24.37],[-1.57,23.69],[-1.79,23.01],[-2.16,22.53],[-2.53,22.04],[-2.99,21.64],[-3.57,21.01],[-3.86,20.47],[-4.21,20.1],[-4.62,19.39],[-4.85,18.69],[-4.96,18.17],[-4.96,18.17],[-4.93,18.04],[-4.87,17.74],[-4.87,17.37],[-4.91,17],[-4.96,16.74],[-5.01,16.45],[-4.99,16.24],[-4.95,16.1],[-4.92,15.91],[-4.88,15.78],[-4.88,15.78],[-4.73,15.65],[-4.63,15.56],[-4.56,15.5],[-4.45,15.37],[-4.36,15.28],[-4.27,15.14],[-4.19,14.98],[-4.13,14.84],[-4.07,14.65],[-4.14,14.42],[-4.28,14.22],[-4.36,14.06],[-4.47,13.9],[-4.6,13.72],[-4.72,13.56],[-4.81,13.43],[-4.94,13.32],[-5.07,13.19],[-5.2,13.09],[-5.29,13.02],[-5.43,12.96],[-5.58,12.88],[-5.9,12.71],[-5.9,12.71],[-5.7,12.61],[-5.42,12.56],[-5.18,12.64],[-5.09,12.67],[-5,12.7],[-4.88,12.8],[-4.79,12.89],[-4.7,12.97],[-4.58,13.04],[-4.44,13.12],[-4.36,13.2],[-4.27,13.34],[-4.21,13.46],[-4.12,13.57],[-3.99,13.68],[-3.87,13.78],[-3.74,13.89],[-3.66,13.96],[-3.59,14.02],[-3.53,14.1],[-3.48,14.17],[-3.4,14.26],[-3.31,14.37],[-3.31,14.37],[-3.31,14.37],[-3.23,14.11],[-3.22,14.09],[-3.22,14.09],[-3.32,14.05],[-3.41,14.04],[-3.48,14.04],[-3.51,14.01],[-3.58,13.96],[-3.63,13.91],[-3.74,13.79],[-3.81,13.71],[-3.87,13.65],[-4,13.55],[-4.08,13.5],[-4.12,13.43],[-4.25,13.22],[-4.39,13.08],[-4.52,12.95],[-4.64,12.85],[-4.81,12.71],[-5.06,12.49],[-5.12,12.38],[-5.2,12.22],[-5.2,12.08],[-5.2,11.91],[-5.23,11.76],[-5.26,11.62],[-5.48,11.42],[-5.6,11.31],[-5.77,11.16],[-5.9,11.03],[-6.08,10.86],[-6.11,10.82]]]}},{"type":"Feature","properties":{"ma":165,"type":"gpml:TopologicalClosedPlateBoundary","name":"Eurasia","pid":301,"deforming":false},"geometry":{"type":"Polygon","coordinates":[[[-0.26,6.35],[-0.94,6.63],[-1.72,7.18],[-2.47,7.7],[-2.91,8.01],[-3.17,8.18],[-3.54,8.52],[-3.9,8.86],[-4.19,9.12],[-4.19,9.12],[-4.13,9.18],[-3.96,9.34],[-3.73,9.55],[-3.57,9.71],[-3.33,9.92],[-3.11,10.13],[-2.89,10.47],[-2.8,10.87],[-2.73,11.2],[-2.61,11.43],[-2.24,11.86],[-1.85,12.15],[-1.65,12.37],[-1.4,12.74],[-1.26,12.94],[-1.12,13.27],[-0.97,13.58],[-0.8,13.86],[-0.68,14.13],[-0.59,14.38],[-0.5,14.59],[-0.45,14.72],[-0.34,14.85],[-0.24,15.01],[-0.16,15.23],[-0.03,15.38],[0.01,15.43],[0.01,15.43],[0.28,15.51],[0.79,15.58],[1.46,15.68],[2.03,15.79],[2.58,16.16],[2.84,16.33],[2.84,16.33],[3.01,16.63],[3.43,16.87],[4.03,17.15],[4.34,17.46],[4.69,17.65],[5.22,18.04],[5.68,18.42],[5.94,18.71],[6.17,18.93],[6.33,19.15],[6.49,19.37],[6.74,19.57],[7.08,19.66],[7.46,19.81],[7.9,19.86],[8.36,19.83],[8.81,19.73],[9.19,19.62],[9.5,19.44],[10.08,19.3],[10.61,19.21],[11.14,19.2],[11.43,19.21],[11.73,19.26],[12.08,19.4],[12.33,19.83],[12.56,20.15],[12.78,20.46],[13.03,20.83],[13.31,21.25],[13.46,21.58],[13.46,21.58],[13.17,21.69],[13.06,21.73],[12.76,21.89],[12.27,22.09],[11.71,22.36],[11.18,22.57],[10.64,22.82],[10.19,23.02],[10,23.19],[9.86,23.3],[9.68,23.52],[9.51,23.9],[9.35,24.21],[9.32,24.59],[9.27,25.14],[9.14,25.55],[8.91,26.06],[8.33,26.49],[8.1,26.76],[7.7,26.88],[7.32,26.83],[6.85,26.99],[6.64,27.12],[6.41,27.38],[6.39,27.58],[6.36,27.8],[6.28,28.05],[6.16,28.35],[6.14,28.59],[6.02,29.05],[5.86,29.63],[5.72,30.07],[5.54,30.55],[5.48,31.01],[5.44,31.13],[5.44,31.13],[5.47,31.2],[5.47,31.31],[5.45,31.47],[5.47,31.62],[5.49,31.85],[5.51,32.08],[5.66,32.37],[5.8,32.52],[5.92,32.76],[5.94,32.8],[6.02,32.9],[6.07,32.96],[6.11,33.11],[6.12,33.17],[5.97,33.33],[5.87,33.44],[5.79,33.7],[5.73,33.82],[5.66,33.98],[5.84,34.24],[5.93,34.45],[5.89,34.7],[5.76,34.93],[5.64,35.13],[5.48,35.41],[5.25,35.6],[5.1,35.77],[5,35.92],[5.02,36.07],[5.16,36.26],[5.22,36.42],[5.37,36.66],[5.42,36.88],[5.63,37.08],[5.78,37.28],[6,37.45],[6.08,37.78],[5.99,38.16],[5.95,38.36],[5.92,38.74],[5.91,39.03],[6.03,39.55],[6.07,39.81],[6.08,40.07],[6.25,40.4],[6.11,40.54],[6.11,40.54],[6.07,40.79],[6.06,41.23],[5.93,41.54],[5.93,41.54],[5.68,41.63],[5.45,42.34],[5.21,43.05],[5.14,43.74],[5.07,44.44],[4.6,45.27],[4.11,46.11],[3.28,46.45],[2.44,46.8],[1.23,46.62],[0.04,46.43],[-1.1,46.7],[-2.24,46.95],[-3.4,47.19],[-4.34,47.5],[-5.3,47.79],[-6.27,48.07],[-6.03,49.05],[-5.78,50.03],[-5.52,51],[-5.24,51.97],[-5.46,52.94],[-5.69,53.91],[-5.93,54.87],[-6.18,55.84],[-6.45,56.8],[-5.81,57.36],[-6.06,58.09],[-6.32,58.81],[-6.6,59.53],[-6.79,60.38],[-6.99,61.23],[-7.2,62.07],[-7.42,62.92],[-7.66,63.77],[-7.87,64.66],[-8.1,65.54],[-8.34,66.43],[-8.6,67.32],[-8.88,68.21],[-8.88,68.21],[-8.88,68.23],[-8.93,68.57],[-8.94,68.63],[-9.12,69.53],[-9.3,70.42],[-9.51,71.31],[-9.73,72.21],[-10.27,73.07],[-10.85,73.92],[-11.5,74.78],[-12.23,75.63],[-12.23,75.63],[-15.27,75.33],[-18.18,74.99],[-20.96,74.62],[-24.5,74.33],[-27.89,73.99],[-30.81,73.89],[-33.7,73.75],[-36.52,73.58],[-38.6,73.26],[-40.59,72.92],[-42.5,72.56],[-44.99,72.2],[-47.38,71.81],[-49.67,71.4],[-51.59,71.14],[-53.47,70.87],[-55.29,70.58],[-57.87,70.18],[-60.34,69.75],[-62.03,69.35],[-63.66,68.94],[-65.22,68.51],[-66.71,67.98],[-66.71,67.98],[-68.29,68.79],[-70,69.58],[-71.18,70.24],[-72.44,70.89],[-73.78,71.52],[-75.21,72.15],[-76.39,72.89],[-77.67,73.62],[-79.06,74.35],[-80.59,75.06],[-80.89,75.28],[-80.89,75.28],[-79.89,76.05],[-78.78,76.82],[-77.73,77.63],[-76.54,78.43],[-75.17,79.23],[-74.2,79.88],[-73.09,80.52],[-73.17,81.24],[-73.27,81.97],[-73.74,82.68],[-74.3,83.38],[-73.8,84],[-73.17,84.62],[-72.19,85.31],[-70.86,86.01],[-68.98,86.7],[-64.53,87.51],[-55.87,88.3],[-29.94,88.98],[25.24,89.09],[60.19,88.86],[78.76,88.37],[91.73,87.5],[97.84,86.56],[97.84,86.56],[95.5,85.69],[93.94,84.81],[92.84,83.92],[88.86,83.11],[85.72,82.28],[83.2,81.43],[81.13,80.57],[79.41,79.69],[77.96,78.81],[76.72,77.92],[75.64,77.03],[74.71,76.13],[75.37,75.34],[75.97,74.55],[76.51,73.75],[77.01,72.96],[75.2,72.36],[73.52,71.75],[71.94,71.13],[71.64,70.44],[71.36,69.75],[71.11,69.06],[71.36,68.19],[71.59,67.32],[71.81,66.46],[72.02,65.59],[71.23,64.87],[70.49,64.16],[69.78,63.43],[69.11,62.71],[69.11,62.71],[68.47,61.96],[67.86,61.21],[67.28,60.46],[66.72,59.71],[67.84,59.19],[68.93,58.67],[69.99,58.13],[71.01,57.59],[72.23,57.19],[73.43,56.77],[74.61,56.35],[75.75,55.91],[75.88,55.33],[76,54.75],[75.25,54.08],[74.52,53.41],[73.59,52.83],[72.69,52.24],[71.81,51.65],[70.95,51.05],[69.93,50.33],[68.95,49.6],[67.99,48.86],[67.46,48.27],[66.94,47.68],[66.42,47.09],[65.9,46.21],[65.4,45.33],[64.91,44.45],[64.43,43.56],[63.97,42.68],[64.41,41.86],[64.84,41.05],[65.35,40.38],[65.85,39.71],[66.03,38.99],[66.19,38.27],[66.36,37.55],[66.2,36.74],[66.05,35.93],[65.89,35.12],[65.75,34.31],[65.6,33.5],[64.91,32.81],[64.22,32.11],[63.55,31.42],[63.55,31.42],[63.92,30.5],[64.28,29.58],[64.64,28.65],[64.99,27.73],[65.34,26.81],[65.67,25.88],[65.71,25.28],[65.71,25.28],[66.68,24.81],[67.64,24.34],[68.6,23.86],[69.55,23.6],[70.5,23.34],[71.45,23.07],[72.24,22.87],[73.02,22.67],[73.02,22.67],[72.88,21.77],[72.73,20.87],[72.59,19.97],[71.71,19.85],[70.82,19.72],[69.94,19.58],[69.05,19.44],[68.17,19.3],[67.3,19.15],[66.58,19.23],[65.86,19.31],[65.14,19.38],[64.33,19.56],[63.52,19.73],[62.73,19.87],[61.93,20],[61.29,20.17],[60.65,20.33],[60.02,20.71],[59.38,21.08],[58.74,21.46],[58.07,21.88],[57.39,22.31],[56.39,22.46],[55.38,22.61],[54.32,22.7],[53.26,22.78],[52.2,22.85],[51.42,22.8],[50.63,22.75],[49.85,22.7],[48.96,22.72],[48.08,22.74],[47.21,22.91],[46.34,23.08],[45.69,23.19],[45.05,23.3],[44.49,23.48],[43.93,23.66],[43.64,23.74],[43.64,23.74],[43.64,23.68],[43.56,23.12],[43.56,23.12],[42.68,22.87],[41.8,22.62],[40.86,22.2],[39.92,21.77],[38.98,21.34],[38.05,20.9],[37.13,20.46],[36.22,19.93],[35.33,19.4],[34.44,18.87],[33.55,18.33],[32.67,17.79],[31.85,17.6],[31.03,17.4],[30.2,17.2],[29.39,17],[28.35,16.85],[27.33,16.68],[26.3,16.52],[25.57,16.51],[25.57,16.51],[26.38,17.13],[26.98,17.7],[27.59,18.27],[28.19,18.84],[28.8,19.4],[29.39,19.97],[29.97,20.54],[30.57,21.1],[31.16,21.67],[31.65,22.28],[32.15,22.89],[32.65,23.5],[33.15,24.11],[33.4,24.62],[33.4,24.62],[32.32,24.65],[31.24,24.66],[30.16,24.67],[29.08,24.67],[28,24.67],[26.92,24.65],[25.84,24.63],[24.76,24.6],[24.76,24.6],[23.9,24.24],[23.04,23.88],[22.19,23.51],[21.34,23.13],[20.49,22.76],[20.17,22.23],[19.85,21.71],[19.92,21.47],[19.38,20.68],[18.84,19.9],[18.9,19.71],[18.4,19.02],[17.91,18.34],[17.91,18.34],[18.57,17.73],[19.24,17.12],[19.24,17.12],[18.47,17.52],[17.7,17.92],[17.23,17.17],[16.76,16.43],[16.3,15.68],[15.84,14.94],[15.38,14.19],[14.72,13.54],[14.05,12.88],[14.05,12.88],[13.85,13.03],[13.85,13.03],[13.3,12.57],[12.74,12.12],[12.19,11.66],[12.19,11.66],[12.48,11.26],[12.48,11.26],[11.92,10.86],[11.37,10.46],[10.82,10.05],[10.82,10.05],[10.86,9.88],[10.86,9.88],[10.04,9.58],[9.23,9.28],[8.41,8.98],[7.6,8.68],[7.74,7.98],[6.85,7.74],[5.96,7.49],[5.08,7.24],[4.19,6.99],[3.3,6.74],[2.42,6.48],[1.53,6.23],[0.65,5.97],[-0.26,6.35]]]}},{"type":"Feature","properties":{"ma":165,"type":"gpml:TopologicalClosedPlateBoundary","name":"Moroccan-Plate","pid":706,"deforming":false},"geometry":{"type":"Polygon","coordinates":[[[5.21,3.59],[5.13,3.42],[5.13,3.42],[4.8,3.44],[3.97,3.52],[3.23,3.55],[2.47,3.65],[1.59,3.73],[1.2,3.7],[0.81,3.56],[0.53,3.59],[0.09,3.66],[-0.36,3.76],[-0.36,3.76],[-0.75,3.88],[-1.63,3.96],[-2.39,4.06],[-3.03,4.03],[-3.68,4],[-4.38,4],[-4.38,4],[-5.12,4.33],[-5.99,4.73],[-6.33,4.88],[-7.09,5.21],[-7.54,5.37],[-7.94,5.5],[-8.45,5.67],[-8.75,5.79],[-9.45,6.15],[-10.03,6.48],[-10.44,6.69],[-10.77,6.86],[-11.03,6.98],[-11.08,7],[-11.08,7],[-10.94,7.02],[-10.34,6.85],[-9.89,6.57],[-9.4,6.38],[-9.07,6.22],[-8.74,6.04],[-8.15,5.93],[-7.61,5.75],[-6.99,5.97],[-6.43,6.17],[-5.96,6.34],[-5.45,6.52],[-4.83,6.73],[-4.13,6.98],[-3.53,7.19],[-2.9,7.41],[-2.49,7.55],[-2.36,7.62],[-2.36,7.62],[-1.72,7.18],[-0.94,6.63],[-0.26,6.35],[0.25,6.14],[0.77,5.92],[1.23,5.73],[1.7,5.53],[2.17,5.32],[2.64,5.11],[3.39,4.67],[4.14,4.23],[4.89,3.78],[5.21,3.59]]]}},{"type":"Feature","properties":{"ma":165,"type":"gpml:TopologicalClosedPlateBoundary","name":"Chortis","pid":2035,"deforming":false},"geometry":{"type":"Polygon","coordinates":[[[-57,3.81],[-57.57,3.69],[-58.52,3.48],[-59.46,3.26],[-60.22,3.06],[-60.98,2.86],[-61.91,2.65],[-62.84,2.45],[-62.84,2.45],[-62.83,2.6],[-62.7,3.36],[-62.58,4.12],[-62.46,4.88],[-62.29,5.69],[-62.12,6.49],[-61.96,7.29],[-61.68,8.11],[-61.4,8.92],[-61.4,8.92],[-61.39,8.91],[-60.77,8.22],[-60.15,7.54],[-59.54,6.85],[-58.98,6.23],[-58.42,5.62],[-57.87,5],[-57.15,4.47],[-56.44,3.93],[-57,3.81]]]}},{"type":"Feature","properties":{"ma":165,"type":"gpml:TopologicalClosedPlateBoundary","name":"Pacific Plate","pid":901,"deforming":false},"geometry":{"type":"Polygon","coordinates":[[[-165.22,-7.98],[-164.48,-7.64],[-163.69,-7.33],[-162.9,-7.03],[-162.11,-6.72],[-161.34,-6.27],[-160.56,-5.81],[-159.79,-5.36],[-159.02,-4.9],[-158.24,-4.45],[-157.47,-3.99],[-156.7,-3.53],[-155.86,-3.04],[-155.03,-2.54],[-154.19,-2.05],[-153.35,-1.55],[-152.51,-1.05],[-151.68,-0.56],[-150.84,-0.06],[-150,0.44],[-150.34,1.02],[-150.67,1.61],[-150.01,2],[-149.34,2.39],[-148.67,2.78],[-148,3.16],[-148.4,3.83],[-148.81,4.49],[-148.33,4.77],[-147.86,5.06],[-148.32,5.75],[-147.83,6.01],[-147.34,6.28],[-146.76,6.64],[-146.76,6.64],[-146.22,5.86],[-145.69,5.08],[-145.16,4.31],[-144.63,3.53],[-144.1,2.75],[-143.57,1.98],[-143.04,1.2],[-142.51,0.42],[-141.98,-0.36],[-141.43,-1.1],[-140.88,-1.84],[-140.32,-2.59],[-139.77,-3.33],[-139.22,-4.08],[-138.66,-4.82],[-138.11,-5.56],[-137.55,-6.3],[-136.99,-7.05],[-136.43,-7.79],[-135.93,-8.28],[-135.43,-8.78],[-135.43,-8.78],[-136.13,-8.79],[-137.11,-8.8],[-138.09,-8.81],[-139.07,-8.82],[-140.04,-8.82],[-141.02,-8.82],[-142,-8.82],[-142.98,-8.82],[-143.96,-8.81],[-144.93,-8.8],[-145.91,-8.79],[-146.89,-8.78],[-147.87,-8.76],[-148.84,-8.74],[-149.82,-8.72],[-150.8,-8.7],[-151.78,-8.67],[-152.75,-8.64],[-153.73,-8.61],[-154.71,-8.58],[-155.68,-8.54],[-156.66,-8.51],[-157.64,-8.47],[-158.61,-8.42],[-159.59,-8.38],[-160.56,-8.33],[-161.54,-8.28],[-162.51,-8.23],[-163.49,-8.17],[-164.35,-8.07],[-165.22,-7.98]]]}},{"type":"Feature","properties":{"ma":165,"type":"gpml:TopologicalClosedPlateBoundary","name":"Phoenix Plate","pid":919,"deforming":false},"geometry":{"type":"MultiPolygon","coordinates":[[[[180,-7.89],[180,-8.89],[180,-9.88],[180,-10.88],[180,-11.88],[180,-12.87],[180,-13.87],[180,-14.87],[180,-15.86],[180,-16.86],[180,-17.86],[180,-18.86],[180,-19.85],[180,-20.85],[180,-21.85],[180,-22.84],[180,-23.84],[180,-24.84],[180,-25.83],[180,-26.83],[180,-27.83],[180,-28.82],[180,-29.82],[180,-30.82],[180,-31.81],[180,-32.81],[180,-33.81],[180,-34.81],[180,-35.8],[180,-36.8],[180,-37.8],[180,-38.79],[180,-39.79],[180,-40.79],[180,-41.78],[180,-42.78],[180,-43.78],[180,-44.77],[180,-45.77],[180,-46.77],[180,-47.77],[180,-48.76],[180,-49.76],[180,-50.76],[180,-51.75],[180,-52.75],[180,-53.75],[180,-54.74],[180,-55.74],[180,-56.74],[180,-57.73],[180,-58.73],[180,-59.73],[180,-60.73],[180,-61.72],[180,-62.72],[180,-63.72],[180,-64.71],[180,-65.71],[180,-66.71],[180,-67.7],[180,-68.7],[180,-69.7],[180,-70.69],[180,-71.69],[180,-72.69],[180,-73.69],[177.02,-73.61],[174.08,-73.49],[171.19,-73.33],[168.35,-73.13],[165.59,-72.89],[162.85,-72.75],[160.17,-72.58],[157.53,-72.37],[154.97,-72.13],[152.47,-71.86],[152.47,-71.86],[151.88,-71.04],[151.34,-70.22],[150.84,-69.39],[149.52,-68.57],[149.85,-68.05],[150.96,-67.15],[151.99,-66.24],[152.89,-65.31],[153.73,-64.39],[154.03,-63.83],[154.32,-63.26],[154.2,-62.68],[154.09,-62.09],[153.43,-61.33],[152.79,-60.56],[152.18,-59.79],[151.6,-59.02],[150.85,-58.13],[150.14,-57.24],[149.46,-56.34],[148.81,-55.44],[148.19,-54.54],[148.03,-53.66],[147.88,-52.79],[147.74,-51.92],[147.6,-51.05],[147.46,-50.17],[147.25,-49.38],[147.03,-48.58],[146.83,-47.78],[146.63,-46.98],[146.44,-46.18],[146.3,-45.44],[146.17,-44.7],[146.04,-43.96],[146.04,-43.96],[144.97,-43.41],[143.92,-42.84],[142.89,-42.27],[141.88,-41.68],[140.75,-41.27],[139.64,-40.85],[139.01,-40.59],[138.39,-40.31],[137.94,-39.85],[137.5,-39.38],[137.02,-38.73],[136.56,-38.09],[135.87,-37.33],[135.2,-36.57],[134.54,-35.81],[133.89,-35.04],[133.88,-34.17],[133.86,-33.31],[133.85,-32.45],[133.84,-31.58],[133.82,-30.72],[133.83,-29.78],[133.83,-28.84],[133.83,-27.9],[133.83,-26.96],[133.83,-26.01],[133.83,-25.07],[133.83,-24.13],[133.83,-23.19],[133.85,-22.32],[133.86,-21.44],[133.88,-20.57],[133.89,-19.69],[133.9,-18.82],[133.91,-17.94],[133.93,-17.07],[133.89,-16.28],[133.85,-15.48],[133.82,-14.69],[133.82,-14.69],[134.71,-14.45],[135.59,-14.21],[136.48,-13.97],[137.36,-13.72],[138.24,-13.47],[139.12,-13.21],[140,-12.95],[140.2,-13.71],[140.39,-14.47],[141.37,-14.23],[142.34,-13.99],[143.31,-13.74],[144.28,-13.49],[145.25,-13.23],[146.22,-12.98],[147.18,-12.72],[148.14,-12.45],[149.1,-12.18],[150.06,-11.91],[151.02,-11.63],[151.97,-11.36],[152.92,-11.08],[153.88,-10.79],[154.82,-10.5],[155.77,-10.21],[155.93,-11],[156.09,-11.78],[156.25,-12.56],[157.18,-12.25],[158.11,-11.93],[159.04,-11.62],[159.96,-11.3],[160.88,-10.98],[161.8,-10.65],[162.72,-10.32],[163.64,-9.99],[164.55,-9.66],[165.46,-9.33],[166.37,-8.99],[167.28,-8.65],[168.19,-8.31],[169.1,-7.96],[170,-7.62],[170.22,-8.59],[170.44,-9.57],[171.39,-9.26],[172.33,-8.95],[173.28,-8.64],[174.23,-8.33],[175.17,-8.01],[176.11,-7.7],[177.05,-7.38],[177.99,-7.05],[178.93,-6.73],[179.86,-6.4],[180,-6.89],[180,-7.89]]],[[[-180,-72.69],[-180,-71.69],[-180,-70.69],[-180,-69.7],[-180,-68.7],[-180,-67.7],[-180,-66.71],[-180,-65.71],[-180,-64.71],[-180,-63.72],[-180,-62.72],[-180,-61.72],[-180,-60.73],[-180,-59.73],[-180,-58.73],[-180,-57.73],[-180,-56.74],[-180,-55.74],[-180,-54.74],[-180,-53.75],[-180,-52.75],[-180,-51.75],[-180,-50.76],[-180,-49.76],[-180,-48.76],[-180,-47.77],[-180,-46.77],[-180,-45.77],[-180,-44.77],[-180,-43.78],[-180,-42.78],[-180,-41.78],[-180,-40.79],[-180,-39.79],[-180,-38.79],[-180,-37.8],[-180,-36.8],[-180,-35.8],[-180,-34.81],[-180,-33.81],[-180,-32.81],[-180,-31.81],[-180,-30.82],[-180,-29.82],[-180,-28.82],[-180,-27.83],[-180,-26.83],[-180,-25.83],[-180,-24.84],[-180,-23.84],[-180,-22.84],[-180,-21.85],[-180,-20.85],[-180,-19.85],[-180,-18.86],[-180,-17.86],[-180,-16.86],[-180,-15.86],[-180,-14.87],[-180,-13.87],[-180,-12.87],[-180,-11.88],[-180,-10.88],[-180,-9.88],[-180,-8.89],[-180,-7.89],[-180,-6.89],[-179.8,-7.6],[-179.6,-8.3],[-178.71,-8.09],[-177.81,-7.88],[-176.91,-7.67],[-176.01,-7.46],[-175.12,-7.24],[-174.22,-7.02],[-173.33,-6.81],[-172.44,-6.59],[-171.55,-6.36],[-170.65,-6.14],[-169.76,-5.91],[-169.6,-6.63],[-169.43,-7.35],[-169.26,-8.07],[-168.27,-7.91],[-167.28,-7.75],[-166.29,-7.59],[-165.3,-7.42],[-164.31,-7.26],[-163.67,-7.17],[-163.02,-7.07],[-163.02,-7.07],[-163.75,-7.36],[-164.48,-7.64],[-165.22,-7.98],[-165.22,-7.98],[-164.35,-8.07],[-163.49,-8.17],[-162.51,-8.23],[-161.54,-8.28],[-160.56,-8.33],[-159.59,-8.38],[-158.61,-8.42],[-157.64,-8.47],[-156.66,-8.51],[-155.68,-8.54],[-154.71,-8.58],[-153.73,-8.61],[-152.75,-8.64],[-151.78,-8.67],[-150.8,-8.7],[-149.82,-8.72],[-148.84,-8.74],[-147.87,-8.76],[-146.89,-8.78],[-145.91,-8.79],[-144.93,-8.8],[-143.96,-8.81],[-142.98,-8.82],[-142,-8.82],[-141.02,-8.82],[-140.04,-8.82],[-139.07,-8.82],[-138.09,-8.81],[-137.11,-8.8],[-136.13,-8.79],[-135.43,-8.78],[-135.93,-8.28],[-136.43,-7.79],[-136.94,-7.12],[-137.44,-6.45],[-137.94,-5.78],[-138.44,-5.11],[-138.44,-5.11],[-137.63,-5.53],[-136.82,-5.95],[-136.01,-6.36],[-135.19,-6.78],[-134.38,-7.19],[-133.97,-7.47],[-133.18,-8.03],[-132.39,-8.59],[-131.59,-9.15],[-130.8,-9.7],[-130,-10.25],[-129.2,-10.8],[-128.4,-11.35],[-127.59,-11.9],[-126.78,-12.44],[-127.16,-13.19],[-127.54,-13.94],[-127.92,-14.69],[-127,-15.12],[-126.08,-15.54],[-125.16,-15.96],[-124.23,-16.37],[-123.3,-16.78],[-122.37,-17.19],[-121.43,-17.59],[-120.48,-17.99],[-119.53,-18.38],[-118.58,-18.77],[-117.62,-19.15],[-116.66,-19.53],[-116.93,-20.19],[-117.2,-20.84],[-117.47,-21.49],[-116.55,-21.84],[-115.62,-22.18],[-114.69,-22.51],[-113.75,-22.84],[-112.81,-23.16],[-111.86,-23.48],[-110.91,-23.79],[-109.96,-24.1],[-109,-24.4],[-108.03,-24.69],[-107.06,-24.98],[-106.09,-25.26],[-105.11,-25.53],[-105.35,-26.51],[-105.6,-27.48],[-105.86,-28.45],[-104.82,-28.64],[-103.79,-28.81],[-102.75,-28.98],[-101.71,-29.14],[-100.67,-29.3],[-99.62,-29.44],[-98.57,-29.57],[-97.52,-29.7],[-96.46,-29.82],[-95.41,-29.93],[-94.35,-30.03],[-93.28,-30.13],[-92.22,-30.21],[-92.24,-30.98],[-92.26,-31.75],[-92.28,-32.52],[-92.3,-33.29],[-91.11,-33.25],[-89.91,-33.2],[-88.72,-33.14],[-87.53,-33.07],[-86.34,-32.99],[-85.16,-32.89],[-83.97,-32.79],[-82.79,-32.67],[-81.62,-32.54],[-81.45,-33.29],[-81.28,-34.03],[-81.11,-34.78],[-79.96,-34.57],[-78.81,-34.36],[-77.67,-34.13],[-76.54,-33.89],[-75.41,-33.65],[-74.29,-33.39],[-73.18,-33.12],[-72.07,-32.84],[-70.97,-32.56],[-69.88,-32.26],[-68.8,-31.95],[-67.72,-31.64],[-66.65,-31.32],[-65.59,-30.98],[-64.53,-30.64],[-63.49,-30.29],[-62.45,-29.93],[-61.41,-29.57],[-60.39,-29.19],[-59.37,-28.81],[-58.36,-28.42],[-58.36,-28.42],[-58.36,-28.43],[-58.27,-28.95],[-58.18,-29.47],[-58.02,-30.22],[-58.03,-30.77],[-57.98,-31.13],[-57.95,-31.42],[-57.95,-31.42],[-57.92,-32.01],[-58.03,-32.5],[-58.25,-33.34],[-58.41,-33.8],[-58.46,-34.51],[-58.54,-35.08],[-58.56,-35.4],[-58.62,-35.79],[-58.67,-36.23],[-58.78,-37.09],[-58.88,-37.96],[-59.03,-38.73],[-59.19,-39.5],[-59.35,-40.27],[-59.51,-41.04],[-59.94,-41.81],[-60.39,-42.57],[-60.85,-43.33],[-61.32,-44.09],[-61.8,-44.85],[-61.88,-45.69],[-61.97,-46.53],[-62.04,-47.27],[-62.11,-48.01],[-62.58,-48.82],[-63.06,-49.63],[-63.17,-49.9],[-63.19,-50.02],[-63.19,-50.02],[-63.26,-50.35],[-63.26,-50.35],[-63.6,-50.92],[-63.87,-51.2],[-64.01,-51.56],[-64.12,-51.84],[-64.31,-52.3],[-64.45,-52.59],[-64.71,-53.1],[-64.89,-53.47],[-65.08,-53.87],[-65.27,-54.28],[-65.57,-54.93],[-65.69,-55.19],[-65.86,-55.54],[-66.01,-55.86],[-66.15,-56.16],[-66.29,-56.52],[-66.39,-56.82],[-66.48,-57.08],[-66.51,-57.15],[-66.54,-57.39],[-66.59,-57.67],[-66.62,-58.11],[-66.85,-58.43],[-67.15,-58.76],[-67.59,-59.14],[-68.06,-59.58],[-68.35,-59.87],[-68.59,-60.11],[-68.8,-60.32],[-69.11,-60.66],[-69.33,-61.1],[-69.37,-61.46],[-69.38,-61.78],[-69.4,-62.04],[-69.35,-62.34],[-69.31,-62.68],[-69.21,-63.01],[-69.21,-63.01],[-69.25,-63.03],[-70.39,-63.79],[-71.6,-64.55],[-72.87,-65.3],[-74.22,-66.04],[-75.64,-66.76],[-77.16,-67.47],[-79.21,-68],[-81.35,-68.5],[-83.59,-68.98],[-85.93,-69.42],[-88.36,-69.84],[-90.51,-70.21],[-92.73,-70.55],[-95.02,-70.87],[-97.39,-71.15],[-99.42,-71.55],[-101.53,-71.93],[-103.73,-72.28],[-106.02,-72.61],[-108.5,-72.95],[-111.09,-73.26],[-113.76,-73.54],[-116.51,-73.78],[-119.32,-73.99],[-122.2,-74.15],[-125.13,-74.28],[-128.11,-74.37],[-131.44,-74.42],[-134.79,-74.42],[-138.12,-74.37],[-141.42,-74.27],[-144.68,-74.12],[-148.24,-74.06],[-151.76,-73.94],[-155.22,-73.76],[-158.6,-73.53],[-161.88,-73.25],[-164.81,-73.43],[-167.79,-73.57],[-170.82,-73.66],[-173.88,-73.71],[-176.94,-73.72],[-180,-73.69],[-180,-72.69]]]]}},{"type":"Feature","properties":{"ma":165,"type":"gpml:TopologicalClosedPlateBoundary","name":"Sonora Mojave","pid":104,"deforming":false},"geometry":{"type":"Polygon","coordinates":[[[-61.21,9.48],[-60.83,9.85],[-60.44,10.23],[-59.91,10.7],[-59.37,11.18],[-59.01,11.59],[-59.01,11.59],[-59.02,11.6],[-59.13,12.58],[-59.24,13.56],[-59.35,14.54],[-59.46,15.51],[-59.58,16.49],[-59.69,17.47],[-59.82,18.28],[-59.94,19.08],[-59.94,19.08],[-59.31,18.46],[-58.68,17.67],[-58.05,16.87],[-57.43,16.07],[-56.81,15.27],[-56.2,14.47],[-55.59,13.67],[-54.99,12.87],[-54.42,12.1],[-53.86,11.33],[-53.29,10.57],[-52.76,9.84],[-52.24,9.11],[-51.71,8.39],[-51.62,8.26],[-51.62,8.26],[-52.35,7.6],[-52.61,6.9],[-53,6.53],[-53.39,6.16],[-54.04,5.42],[-54.65,5.04],[-55.32,4.53],[-55.99,4.03],[-56.44,3.93],[-56.44,3.93],[-57.15,4.47],[-57.87,5],[-58.42,5.62],[-58.98,6.23],[-59.54,6.85],[-60.15,7.54],[-60.77,8.22],[-61.39,8.91],[-61.4,8.92],[-61.21,9.48]]]}},{"type":"Feature","properties":{"ma":165,"type":"gpml:TopologicalClosedPlateBoundary","name":"Gravina Basin","pid":16111,"deforming":false},"geometry":{"type":"Polygon","coordinates":[[[-55.15,34.73],[-55.4,35.45],[-55.66,36.17],[-55.93,36.89],[-56.12,37.69],[-56.31,38.49],[-56.51,39.29],[-56.32,40.16],[-56.12,41.03],[-55.92,41.9],[-55.66,42.67],[-55.39,43.44],[-55.12,44.21],[-54.84,44.98],[-54.27,45.85],[-53.68,46.73],[-53.24,47.47],[-52.79,48.22],[-52.33,48.96],[-52.29,49.71],[-52.24,50.46],[-52.19,51.2],[-52.6,51.91],[-53.03,52.62],[-53.47,53.32],[-53.69,54.21],[-53.92,55.1],[-53.92,55.1],[-52.53,54.53],[-51.17,53.95],[-49.85,53.36],[-49.06,52.61],[-48.3,51.86],[-48.3,50.98],[-48.29,50.09],[-48.61,49.34],[-48.91,48.59],[-49.25,47.83],[-49.57,47.08],[-49.89,46.32],[-50.2,45.56],[-50.49,44.7],[-50.77,43.83],[-51.05,42.96],[-51.32,42.09],[-51.42,41.14],[-51.53,40.19],[-51.63,39.23],[-51.82,38.47],[-52,37.71],[-52.17,36.95],[-52.35,36.19],[-52.82,35.7],[-53.29,35.21],[-53.84,34.77],[-54.4,34.33],[-54.89,34.01],[-55.15,34.73]]]}},{"type":"Feature","properties":{"ma":165,"type":"gpml:TopologicalClosedPlateBoundary","name":"Atlantic_opening_east_flank","pid":701,"deforming":false},"geometry":{"type":"Polygon","coordinates":[[[-31.43,-0.78],[-30.78,-0.46],[-30.13,-0.13],[-29.57,0.16],[-29.01,0.46],[-28.56,0.79],[-28.11,1.12],[-27.38,1.62],[-26.84,2],[-26.5,2.29],[-26.16,2.57],[-25.83,2.85],[-25.63,3.05],[-25.45,3.28],[-25.15,3.64],[-24.83,4.04],[-24.65,4.32],[-24.42,4.78],[-24.26,5.02],[-24.14,5.3],[-23.82,5.6],[-23.74,5.85],[-23.49,6.14],[-23.31,6.28],[-23.09,6.47],[-22.76,6.72],[-22.51,6.98],[-22.26,7.14],[-21.85,7.37],[-21.43,7.51],[-21.13,7.59],[-20.97,7.63],[-20.13,7.7],[-19.44,7.79],[-18.75,7.87],[-18.2,7.92],[-17.89,7.92],[-17.57,7.96],[-17.1,7.97],[-16.8,8.09],[-16.46,8.25],[-16.18,8.45],[-15.89,8.9],[-15.59,9.05],[-15.25,9.1],[-14.89,9.16],[-14.57,9.26],[-14.22,9.28],[-13.97,9.2],[-13.81,9.16],[-13.65,9.11],[-13.49,9.08],[-13.26,9.09],[-13.03,9.11],[-12.73,9.23],[-12.52,9.32],[-12.22,9.48],[-11.91,9.67],[-11.65,9.8],[-11.34,10.05],[-11,10.28],[-10.58,10.41],[-10.26,10.42],[-9.99,10.35],[-9.72,10.44],[-9.21,11.01],[-8.82,11.36],[-8.44,11.6],[-8.44,11.6],[-8.44,11.6],[-8.28,11.45],[-8.2,11.41],[-8.2,11.41],[-8.53,10.94],[-8.86,10.46],[-9.03,10.15],[-9.51,9.69],[-9.89,9.41],[-10.41,9.17],[-11.11,8.56],[-11.34,8.31],[-11.53,8.11],[-11.76,7.98],[-11.76,7.98],[-11.86,7.93],[-12.22,7.73],[-12.31,7.72],[-12.48,7.65],[-12.68,7.64],[-13.06,7.79],[-13.5,7.83],[-13.81,7.89],[-14.19,7.9],[-14.65,7.93],[-15.24,7.66],[-15.71,7.22],[-16.09,6.97],[-16.22,6.92],[-16.49,6.84],[-16.79,6.79],[-17.25,6.77],[-17.93,6.71],[-18.15,6.73],[-18.43,6.66],[-18.76,6.59],[-19.18,6.51],[-20,6.21],[-20.37,6.05],[-20.94,5.78],[-20.94,5.78],[-20.95,5.78],[-21.43,5.71],[-21.91,5.31],[-22.34,4.78],[-22.64,4.18],[-22.88,3.84],[-23.17,3.49],[-23.51,3.15],[-23.7,2.78],[-23.89,2.51],[-24.13,2.19],[-24.34,1.88],[-24.47,1.65],[-24.64,1.48],[-24.79,1.26],[-24.95,1.05],[-25.24,0.72],[-25.5,0.4],[-26.03,0.04],[-26.73,-0.35],[-27.22,-0.79],[-27.71,-1.23],[-28.03,-1.68],[-28.36,-2.13],[-28.7,-2.54],[-29.05,-2.95],[-29.61,-3.09],[-29.84,-3.38],[-29.89,-3.45],[-29.89,-3.45],[-30.21,-2.65],[-30.6,-2.06],[-30.98,-1.48],[-31.45,-0.88],[-31.45,-0.88],[-31.43,-0.78]]]}},{"type":"Feature","properties":{"ma":165,"type":"gpml:TopologicalClosedPlateBoundary","name":"Atlantic_opening_NAM_flank","pid":101,"deforming":false},"geometry":{"type":"Polygon","coordinates":[[[-31.43,-0.78],[-31.36,-0.5],[-31.32,-0.07],[-31.34,0.25],[-31.35,1.17],[-31.4,1.69],[-31.14,2.1],[-31.14,2.3],[-31.39,2.69],[-31.08,2.99],[-30.68,3.27],[-29.87,3.42],[-29.08,3.54],[-28.34,3.65],[-27.97,4.07],[-27.37,4.52],[-27.02,4.84],[-26.57,5.23],[-26.13,5.66],[-25.67,6.11],[-25.55,6.66],[-25.51,7.06],[-25.45,7.48],[-25.29,7.75],[-24.91,8.23],[-24.59,8.85],[-24.07,9.28],[-23.53,9.5],[-22.87,9.57],[-22.51,9.53],[-22.37,9.57],[-22.08,9.7],[-21.92,9.63],[-21.64,9.54],[-21.42,9.46],[-21.19,9.43],[-21,9.42],[-20.72,9.4],[-20.44,9.41],[-20.18,9.39],[-19.98,9.43],[-19.75,9.5],[-19.37,9.33],[-19.13,9.2],[-18.86,9.07],[-18.56,9.11],[-18.44,9.23],[-18.26,9.35],[-18.09,9.47],[-17.99,9.56],[-17.87,9.63],[-17.69,9.77],[-17.58,9.87],[-17.31,10.08],[-17.08,10.24],[-17,10.3],[-16.92,10.36],[-16.84,10.42],[-16.72,10.48],[-16.41,10.65],[-16.19,10.79],[-16.03,10.8],[-15.48,10.78],[-14.81,10.64],[-14.09,10.22],[-13.53,10],[-13.09,10.13],[-12.7,10.36],[-12.42,10.63],[-12,11.04],[-11.36,11.55],[-10.62,11.63],[-9.88,11.7],[-9.18,11.96],[-8.76,11.83],[-8.44,11.6],[-8.44,11.6],[-8.82,11.36],[-9.21,11.01],[-9.72,10.44],[-9.99,10.35],[-10.26,10.42],[-10.58,10.41],[-11,10.28],[-11.34,10.05],[-11.65,9.8],[-11.91,9.67],[-12.22,9.48],[-12.52,9.32],[-12.73,9.23],[-13.03,9.11],[-13.26,9.09],[-13.49,9.08],[-13.65,9.11],[-13.81,9.16],[-13.97,9.2],[-14.22,9.28],[-14.57,9.26],[-14.89,9.16],[-15.25,9.1],[-15.59,9.05],[-15.89,8.9],[-16.18,8.45],[-16.46,8.25],[-16.8,8.09],[-17.1,7.97],[-17.57,7.96],[-17.89,7.92],[-18.2,7.92],[-18.75,7.87],[-19.44,7.79],[-20.13,7.7],[-20.97,7.63],[-21.13,7.59],[-21.43,7.51],[-21.85,7.37],[-22.26,7.14],[-22.51,6.98],[-22.76,6.72],[-23.09,6.47],[-23.31,6.28],[-23.49,6.14],[-23.74,5.85],[-23.82,5.6],[-24.14,5.3],[-24.26,5.02],[-24.42,4.78],[-24.65,4.32],[-24.83,4.04],[-25.15,3.64],[-25.45,3.28],[-25.63,3.05],[-25.83,2.85],[-26.16,2.57],[-26.5,2.29],[-26.84,2],[-27.38,1.62],[-28.11,1.12],[-28.56,0.79],[-29.01,0.46],[-29.57,0.16],[-30.13,-0.13],[-30.78,-0.46],[-31.43,-0.78]]]}},{"type":"Feature","properties":{"ma":165,"type":"gpml:TopologicalClosedPlateBoundary","name":"East Vardar","pid":307,"deforming":false},"geometry":{"type":"Polygon","coordinates":[[[40.54,8.85],[39.94,9.16],[39.34,9.48],[38.48,9.91],[37.62,10.34],[36.76,10.76],[35.89,11.18],[35.42,10.53],[34.95,9.87],[34.07,10.34],[33.18,10.81],[32.28,11.28],[31.39,11.74],[31,11.19],[30.62,10.63],[30.24,10.08],[29.45,10.45],[28.66,10.82],[27.86,11.18],[27.07,11.55],[26.27,11.91],[25.88,11.35],[25.06,11.82],[24.24,12.29],[23.41,12.75],[22.58,13.22],[21.75,13.67],[21.75,13.67],[22.37,14.12],[23,14.57],[23.62,15.01],[24.27,15.51],[24.92,16.01],[25.57,16.51],[25.57,16.51],[26.3,16.52],[27.33,16.68],[28.35,16.85],[29.39,17],[30.2,17.2],[31.03,17.4],[31.85,17.6],[32.67,17.79],[33.55,18.33],[34.44,18.87],[35.33,19.4],[36.22,19.93],[37.13,20.46],[38.05,20.9],[38.98,21.34],[39.92,21.77],[40.86,22.2],[41.8,22.62],[42.68,22.87],[43.56,23.12],[43.56,23.12],[43.43,22.21],[43.31,21.3],[43.19,20.39],[43.06,19.48],[42.94,18.57],[42.82,17.66],[42.71,16.75],[42.59,15.84],[42.47,14.93],[42.36,14.02],[42.25,13.11],[41.94,12.29],[41.64,11.47],[41.34,10.65],[41.04,9.83],[40.79,9.34],[40.54,8.85]]]}},{"type":"Feature","properties":{"ma":165,"type":"gpml:TopologicalClosedPlateBoundary","name":"AlCaPa","pid":334,"deforming":false},"geometry":{"type":"Polygon","coordinates":[[[23.24,14.74],[22.54,14.24],[21.84,13.74],[21.15,13.24],[20.45,12.73],[19.76,12.22],[19.07,11.75],[18.39,11.28],[17.7,10.81],[17.7,10.81],[16.91,11.25],[16.11,11.68],[15.32,12.12],[14.52,12.55],[14.05,12.88],[14.05,12.88],[14.72,13.54],[15.38,14.19],[15.84,14.94],[16.3,15.68],[16.76,16.43],[17.23,17.17],[17.7,17.92],[18.47,17.52],[19.24,17.12],[19.24,17.12],[19.83,16.57],[20.55,16.12],[21.26,15.66],[21.92,15.36],[22.59,15.05],[23.24,14.74]]]}},{"type":"Feature","properties":{"ma":165,"type":"gpml:TopologicalClosedPlateBoundary","name":"Tisza - Dacia - Moesia","pid":319,"deforming":false},"geometry":{"type":"Polygon","coordinates":[[[23.24,14.74],[22.59,15.05],[21.92,15.36],[21.26,15.66],[20.55,16.12],[19.83,16.57],[19.19,17.16],[18.55,17.75],[17.91,18.34],[17.91,18.34],[18.4,19.02],[18.9,19.71],[18.84,19.9],[19.38,20.68],[19.92,21.47],[19.85,21.71],[20.17,22.23],[20.49,22.76],[21.34,23.13],[22.19,23.51],[23.04,23.88],[23.9,24.24],[24.76,24.6],[24.76,24.6],[25.84,24.63],[26.92,24.65],[28,24.67],[29.08,24.67],[30.16,24.67],[31.24,24.66],[32.32,24.65],[33.4,24.62],[33.4,24.62],[33.15,24.11],[32.65,23.5],[32.15,22.89],[31.65,22.28],[31.16,21.67],[30.57,21.1],[29.97,20.54],[29.39,19.97],[28.8,19.4],[28.19,18.84],[27.59,18.27],[26.98,17.7],[26.38,17.13],[25.69,16.6],[25,16.07],[24.31,15.54],[23.62,15.01],[23.24,14.74]]]}},{"type":"Feature","properties":{"ma":165,"type":"gpml:TopologicalClosedPlateBoundary","name":"West Vardar","pid":307,"deforming":false},"geometry":{"type":"Polygon","coordinates":[[[37.82,4.73],[36.85,4.87],[35.89,5],[34.92,5.13],[34.04,5.37],[33.15,5.61],[32.27,5.84],[31.38,6.08],[30.49,6.32],[29.61,6.55],[28.69,6.96],[27.78,7.37],[26.86,7.77],[25.94,8.17],[25.22,8.63],[24.49,9.09],[23.77,9.54],[23.04,10],[22.31,10.45],[21.71,11.06],[21.11,11.68],[20.5,12.29],[20.56,12.8],[20.56,12.8],[21.15,13.24],[21.75,13.67],[21.75,13.67],[22.58,13.22],[23.41,12.75],[24.24,12.29],[25.06,11.82],[25.88,11.35],[26.27,11.91],[27.07,11.55],[27.86,11.18],[28.66,10.82],[29.45,10.45],[30.24,10.08],[30.62,10.63],[31,11.19],[31.39,11.74],[32.28,11.28],[33.18,10.81],[34.07,10.34],[34.95,9.87],[35.42,10.53],[35.89,11.18],[36.76,10.76],[37.62,10.34],[38.48,9.91],[39.34,9.48],[39.94,9.16],[40.54,8.85],[40.54,8.85],[40.16,8.09],[39.77,7.33],[39.39,6.56],[38.87,5.95],[38.34,5.34],[37.82,4.73]]]}},{"type":"Feature","properties":{"ma":165,"type":"gpml:TopologicalClosedPlateBoundary","name":"AlKaPeCa","pid":329,"deforming":false},"geometry":{"type":"Polygon","coordinates":[[[11.41,7.47],[10.67,7.14],[9.92,6.8],[9.18,6.46],[8.44,6.12],[7.69,5.78],[6.83,5.56],[5.97,5.34],[5.11,5.12],[4.25,4.89],[3.39,4.67],[3.39,4.67],[2.64,5.11],[2.17,5.32],[1.7,5.53],[1.23,5.73],[0.77,5.92],[0.65,5.97],[0.65,5.97],[1.53,6.23],[2.42,6.48],[3.3,6.74],[4.19,6.99],[5.08,7.24],[5.96,7.49],[6.85,7.74],[7.74,7.98],[7.6,8.68],[8.41,8.98],[9.23,9.28],[10.04,9.58],[10.86,9.88],[10.86,9.88],[11.05,9.08],[11.23,8.28],[11.41,7.47]]]}},{"type":"Feature","properties":{"ma":165,"type":"gpml:TopologicalClosedPlateBoundary","name":"Guyana","pid":233,"deforming":false},"geometry":{"type":"Polygon","coordinates":[[[-30.99,-5.36],[-30.49,-4.6],[-30.16,-4.1],[-29.55,-3.56],[-29.83,-4.08],[-30.11,-4.59],[-30.56,-5.3],[-31.01,-6.02],[-31.53,-6.72],[-31.53,-6.72],[-31.85,-6.67],[-31.85,-6.67],[-31.79,-6.58],[-31.39,-5.97],[-30.99,-5.36]]]}},{"type":"Feature","properties":{"ma":165,"type":"gpml:TopologicalClosedPlateBoundary","name":"Guyana East","pid":7714,"deforming":false},"geometry":{"type":"Polygon","coordinates":[[[-30.09,-5.08],[-30.37,-5.5],[-30.43,-5.99],[-30.61,-6.48],[-30.91,-6.8],[-31.53,-6.72],[-31.53,-6.72],[-31.01,-6.02],[-30.64,-5.43],[-30.26,-4.83],[-30.09,-5.08]]]}},{"type":"Feature","properties":{"ma":165,"type":"gpml:TopologicalNetwork","name":"North_Atlantic_Phase1_Deformation_Mesh","pid":301,"deforming":true},"geometry":{"type":"Polygon","coordinates":[[[5.44,31.13],[5.48,31.01],[5.54,30.55],[5.72,30.07],[5.86,29.63],[6.02,29.05],[6.14,28.59],[6.16,28.35],[6.28,28.05],[6.36,27.8],[6.39,27.58],[6.41,27.38],[6.64,27.12],[6.85,26.99],[7.32,26.83],[7.7,26.88],[8.1,26.76],[8.33,26.49],[8.91,26.06],[9.14,25.55],[9.27,25.14],[9.32,24.59],[9.35,24.21],[9.51,23.9],[9.68,23.52],[9.86,23.3],[10,23.19],[10.19,23.02],[10.64,22.82],[11.18,22.57],[11.71,22.36],[12.27,22.09],[12.76,21.89],[13.06,21.73],[13.17,21.69],[13.46,21.58],[13.46,21.58],[13.31,21.25],[13.03,20.83],[12.78,20.46],[12.56,20.15],[12.33,19.83],[12.08,19.4],[11.73,19.26],[11.43,19.21],[11.14,19.2],[10.61,19.21],[10.08,19.3],[9.5,19.44],[9.19,19.62],[8.81,19.73],[8.36,19.83],[7.9,19.86],[7.46,19.81],[7.08,19.66],[6.74,19.57],[6.49,19.37],[6.33,19.15],[6.17,18.93],[5.94,18.71],[5.68,18.42],[5.22,18.04],[4.69,17.65],[4.34,17.46],[4.03,17.15],[3.43,16.87],[3.01,16.63],[2.84,16.33],[2.84,16.33],[2.58,16.16],[2.03,15.79],[1.46,15.68],[0.79,15.58],[0.28,15.51],[0.01,15.43],[0.01,15.43],[-0.03,15.38],[-0.16,15.23],[-0.24,15.01],[-0.34,14.85],[-0.45,14.72],[-0.5,14.59],[-0.59,14.38],[-0.68,14.13],[-0.8,13.86],[-0.97,13.58],[-1.12,13.27],[-1.26,12.94],[-1.4,12.74],[-1.65,12.37],[-1.85,12.15],[-2.24,11.86],[-2.61,11.43],[-2.73,11.2],[-2.8,10.87],[-2.89,10.47],[-3.11,10.13],[-3.33,9.92],[-3.57,9.71],[-3.73,9.55],[-3.96,9.34],[-4.13,9.18],[-4.19,9.12],[-4.19,9.12],[-4.33,9.25],[-4.54,9.44],[-4.99,9.87],[-5.43,10.3],[-5.94,10.63],[-6.11,10.82],[-6.11,10.82],[-6.08,10.86],[-5.9,11.03],[-5.77,11.16],[-5.6,11.31],[-5.48,11.42],[-5.26,11.62],[-5.23,11.76],[-5.2,11.91],[-5.2,12.08],[-5.2,12.22],[-5.12,12.38],[-5.06,12.49],[-4.81,12.71],[-4.64,12.85],[-4.52,12.95],[-4.39,13.08],[-4.25,13.22],[-4.12,13.43],[-4.08,13.5],[-4,13.55],[-3.87,13.65],[-3.81,13.71],[-3.74,13.79],[-3.63,13.91],[-3.58,13.96],[-3.51,14.01],[-3.48,14.04],[-3.41,14.04],[-3.33,14.05],[-3.33,14.05],[-3.33,14.06],[-3.4,14.23],[-3.41,14.25],[-3.41,14.25],[-3.48,14.17],[-3.53,14.1],[-3.59,14.02],[-3.66,13.96],[-3.74,13.89],[-3.87,13.78],[-3.99,13.68],[-4.12,13.57],[-4.21,13.46],[-4.27,13.34],[-4.36,13.2],[-4.44,13.12],[-4.58,13.04],[-4.7,12.97],[-4.79,12.89],[-4.88,12.8],[-5,12.7],[-5.09,12.67],[-5.18,12.64],[-5.42,12.56],[-5.7,12.61],[-5.9,12.71],[-5.9,12.71],[-5.58,12.88],[-5.43,12.96],[-5.29,13.02],[-5.2,13.09],[-5.07,13.19],[-4.94,13.32],[-4.81,13.43],[-4.72,13.56],[-4.6,13.72],[-4.47,13.9],[-4.36,14.06],[-4.28,14.22],[-4.14,14.42],[-4.07,14.65],[-4.13,14.84],[-4.19,14.98],[-4.27,15.14],[-4.36,15.28],[-4.45,15.37],[-4.56,15.5],[-4.63,15.56],[-4.73,15.65],[-4.88,15.78],[-4.88,15.78],[-4.92,15.91],[-4.95,16.1],[-4.99,16.24],[-5.01,16.45],[-4.96,16.74],[-4.91,17],[-4.87,17.37],[-4.87,17.74],[-4.93,18.04],[-4.96,18.17],[-4.96,18.17],[-4.85,18.69],[-4.62,19.39],[-4.21,20.1],[-3.86,20.47],[-3.57,21.01],[-2.99,21.64],[-2.53,22.04],[-2.16,22.53],[-1.79,23.01],[-1.57,23.69],[-1.34,24.37],[-1.46,25.05],[-1.79,25.56],[-2.12,26.07],[-1.95,26.87],[-1.58,26.99],[-0.83,27.26],[-0.12,27.65],[0.37,28.02],[0.97,28.32],[1.41,28.7],[2.1,29.18],[2.47,29.74],[2.6,30.09],[2.87,30.8],[3.26,31.37],[3.73,31.98],[4.02,32.29],[4.33,32.78],[4.3,32.97],[4,33.31],[3.99,33.37],[4.06,34.04],[4.11,34.28],[4.17,34.43],[3.97,34.64],[3.77,34.72],[3.44,34.92],[3.35,35.08],[3.34,35.32],[3.38,35.49],[3.43,35.65],[3.45,35.84],[3.42,36.06],[3.38,36.23],[3.46,36.4],[3.59,36.55],[3.78,36.77],[4.02,37.18],[4.48,37.52],[4.63,37.68],[4.81,37.95],[4.89,38.21],[4.94,38.55],[4.93,38.74],[4.93,38.93],[5.02,39.13],[5.15,39.26],[5.35,39.69],[5.61,40.21],[5.87,40.4],[6.09,40.59],[6.1,40.6],[6.1,40.6],[6.11,40.54],[6.11,40.54],[6.25,40.4],[6.08,40.07],[6.07,39.81],[6.03,39.55],[5.91,39.03],[5.92,38.74],[5.95,38.36],[5.99,38.16],[6.08,37.78],[6,37.45],[5.78,37.28],[5.63,37.08],[5.42,36.88],[5.37,36.66],[5.22,36.42],[5.16,36.26],[5.02,36.07],[5,35.92],[5.1,35.77],[5.25,35.6],[5.48,35.41],[5.64,35.13],[5.76,34.93],[5.89,34.7],[5.93,34.45],[5.84,34.24],[5.66,33.98],[5.73,33.82],[5.79,33.7],[5.87,33.44],[5.97,33.33],[6.12,33.17],[6.11,33.11],[6.07,32.96],[6.02,32.9],[5.94,32.8],[5.92,32.76],[5.8,32.52],[5.66,32.37],[5.51,32.08],[5.49,31.85],[5.47,31.62],[5.45,31.47],[5.47,31.31],[5.47,31.2],[5.44,31.13]]]}},{"type":"Feature","properties":{"ma":165,"type":"gpml:TopologicalNetwork","name":"Proto_Caribbean_Mesh","pid":101,"deforming":true},"geometry":{"type":"Polygon","coordinates":[[[-58.32,-9.6],[-58.27,-8.9],[-58.22,-8.19],[-58.54,-7.49],[-58.86,-6.79],[-59.27,-6.04],[-59.69,-5.29],[-60.07,-4.66],[-60.44,-4.04],[-60.82,-3.41],[-61.11,-2.78],[-61.41,-2.16],[-61.64,-1.48],[-61.88,-0.8],[-62.11,-0.13],[-62.53,0.49],[-62.95,1.1],[-62.89,1.78],[-62.84,2.45],[-62.84,2.45],[-61.91,2.65],[-60.98,2.86],[-60.22,3.06],[-59.46,3.26],[-58.52,3.48],[-57.57,3.69],[-56.78,3.86],[-55.99,4.03],[-55.32,4.53],[-54.65,5.04],[-54.04,5.42],[-53.39,6.16],[-53,6.53],[-52.61,6.9],[-52.35,7.6],[-51.62,8.25],[-50.89,8.91],[-50.16,9.56],[-49.46,9.96],[-48.76,10.35],[-48.07,10.75],[-47.54,10.71],[-47.01,10.66],[-46,10.66],[-45.48,10.5],[-44.97,10.33],[-44.25,10.13],[-43.53,9.93],[-42.72,9.35],[-42.26,9.07],[-41.79,8.8],[-41.31,8.55],[-40.83,8.3],[-40.34,8],[-39.84,7.71],[-39.18,7.32],[-38.55,6.77],[-37.84,6.3],[-37.12,5.83],[-36.63,5.34],[-36.14,4.85],[-35.44,4.17],[-35.43,4.16],[-35.43,4.16],[-35.43,4.16],[-36.14,3.77],[-36.38,3.66],[-36.38,3.66],[-36.16,3.4],[-35.67,2.99],[-35.28,2.55],[-34.92,1.94],[-34.32,1.53],[-33.67,1.29],[-32.87,1.09],[-31.89,0.87],[-31.45,0.32],[-31.33,0.12],[-31.33,0.12],[-31.32,-0.07],[-31.36,-0.5],[-31.45,-0.88],[-31.45,-0.88],[-30.98,-1.48],[-30.6,-2.06],[-30.21,-2.65],[-29.89,-3.44],[-29.89,-3.44],[-30.09,-3.68],[-30.29,-3.89],[-30.56,-4.13],[-30.43,-4.51],[-30.43,-4.51],[-30.49,-4.6],[-30.99,-5.36],[-30.99,-5.36],[-31.39,-5.97],[-31.79,-6.58],[-31.85,-6.67],[-31.85,-6.67],[-30.91,-6.8],[-30.61,-6.48],[-30.43,-5.99],[-30.37,-5.5],[-30.09,-5.08],[-30.39,-4.64],[-30.56,-4.13],[-30.29,-3.89],[-30.09,-3.68],[-29.88,-3.43],[-29.6,-3.1],[-29.52,-3.08],[-29.52,-3.08],[-29.38,-3.31],[-28.85,-3.7],[-28.33,-4.09],[-27.7,-4.64],[-27.7,-4.64],[-27.85,-5.27],[-27.84,-5.87],[-27.53,-6.49],[-27.21,-7.1],[-27.11,-8.03],[-27.21,-8.76],[-27.19,-9.63],[-27.56,-10.15],[-27.56,-10.15],[-27.59,-10.14],[-28.08,-9.61],[-28.56,-9.07],[-29.02,-8.76],[-29.48,-8.46],[-30.07,-8.19],[-30.67,-7.92],[-31.19,-7.85],[-31.7,-7.77],[-31.71,-7.77],[-31.71,-7.77],[-32.21,-7.95],[-32.7,-8.12],[-33.28,-8.11],[-33.85,-8.1],[-34.37,-8.06],[-34.89,-8.02],[-35.78,-7.74],[-36.56,-7.66],[-37.34,-7.59],[-38.02,-7.49],[-38.69,-7.39],[-39.37,-7.28],[-40.11,-7.44],[-40.86,-7.59],[-41.46,-8.08],[-42.07,-8.57],[-42.68,-8.67],[-43.28,-8.78],[-43.8,-8.9],[-44.31,-9.03],[-44.87,-9.12],[-45.44,-9.21],[-46.06,-9.45],[-46.69,-9.68],[-47.33,-10.05],[-47.97,-10.41],[-48.7,-10.79],[-49.43,-11.17],[-50.25,-11.35],[-51.07,-11.53],[-51.94,-11.32],[-52.81,-11.1],[-53.49,-10.76],[-54.16,-10.41],[-54.68,-10.21],[-55.2,-10.01],[-55.79,-9.91],[-56.38,-9.8],[-56.94,-9.91],[-57.49,-10.01],[-58.4,-9.97],[-58.32,-9.6]]]}},{"type":"Feature","properties":{"ma":165,"type":"gpml:TopologicalNetwork","name":"Central_Atlantic_Mesh","pid":101,"deforming":true},"geometry":{"type":"Polygon","coordinates":[[[-10.1,13.85],[-9.33,13.43],[-8.58,12.93],[-7.84,12.42],[-7.4,12.02],[-6.96,11.63],[-6.52,11.25],[-5.94,10.63],[-5.43,10.3],[-4.99,9.87],[-4.54,9.44],[-4.33,9.25],[-3.9,8.86],[-3.54,8.52],[-3.17,8.18],[-2.91,8.01],[-2.47,7.7],[-2.36,7.62],[-2.36,7.62],[-2.49,7.55],[-2.9,7.41],[-3.53,7.19],[-4.13,6.98],[-4.83,6.73],[-5.45,6.52],[-5.96,6.34],[-6.43,6.17],[-6.99,5.97],[-7.61,5.75],[-8.15,5.93],[-8.74,6.04],[-9.07,6.22],[-9.4,6.38],[-9.89,6.57],[-10.34,6.85],[-10.94,7.02],[-11.39,6.96],[-12.05,6.7],[-12.87,6.59],[-13.6,6.45],[-14.14,6.17],[-15.04,5.89],[-15.48,5.56],[-16.26,5.17],[-16.99,4.87],[-17.54,4.96],[-17.7,5.05],[-18.21,5.07],[-19.16,5.11],[-20.05,5.27],[-20.18,5.18],[-20.66,4.96],[-21.13,4.75],[-21.48,4.31],[-21.82,3.88],[-22.08,3.44],[-22.34,3],[-22.57,2.38],[-22.91,1.84],[-23.29,1.29],[-23.5,1.09],[-23.76,0.85],[-23.89,0.43],[-23.96,-0.02],[-24.03,-0.8],[-24.25,-1.23],[-24.47,-1.59],[-24.78,-1.8],[-24.97,-2.08],[-25.11,-2.33],[-25.32,-2.69],[-25.76,-2.66],[-26.18,-2.66],[-26.79,-2.93],[-27.18,-3.24],[-27.45,-3.61],[-27.64,-4.39],[-27.7,-4.64],[-27.7,-4.64],[-28.33,-4.09],[-28.85,-3.7],[-29.38,-3.31],[-29.53,-3.07],[-29.53,-3.07],[-29.05,-2.95],[-28.7,-2.54],[-28.36,-2.13],[-28.03,-1.68],[-27.71,-1.23],[-27.22,-0.79],[-26.73,-0.35],[-26.03,0.04],[-25.5,0.4],[-25.24,0.72],[-24.95,1.05],[-24.79,1.26],[-24.64,1.48],[-24.47,1.65],[-24.34,1.88],[-24.13,2.19],[-23.89,2.51],[-23.7,2.78],[-23.51,3.15],[-23.17,3.49],[-22.88,3.84],[-22.64,4.18],[-22.34,4.78],[-21.91,5.31],[-21.43,5.71],[-20.95,5.78],[-20.94,5.78],[-20.94,5.78],[-20.37,6.05],[-20,6.21],[-19.18,6.51],[-18.76,6.59],[-18.43,6.66],[-18.15,6.73],[-17.93,6.71],[-17.25,6.77],[-16.79,6.79],[-16.49,6.84],[-16.22,6.92],[-16.09,6.97],[-15.71,7.22],[-15.24,7.66],[-14.65,7.93],[-14.19,7.9],[-13.81,7.89],[-13.5,7.83],[-13.06,7.79],[-12.68,7.64],[-12.48,7.65],[-12.31,7.72],[-12.22,7.73],[-11.86,7.93],[-11.76,7.98],[-11.76,7.98],[-11.53,8.11],[-11.34,8.31],[-11.11,8.56],[-10.41,9.17],[-9.89,9.41],[-9.51,9.69],[-9.03,10.15],[-8.86,10.46],[-8.53,10.94],[-8.2,11.42],[-8.2,11.42],[-8.76,11.83],[-9.18,11.96],[-9.88,11.7],[-10.62,11.63],[-11.36,11.55],[-12,11.04],[-12.42,10.63],[-12.7,10.36],[-13.09,10.13],[-13.53,10],[-14.09,10.22],[-14.81,10.64],[-15.48,10.78],[-16.03,10.8],[-16.19,10.79],[-16.41,10.65],[-16.72,10.48],[-16.84,10.42],[-16.92,10.36],[-17,10.3],[-17.08,10.24],[-17.31,10.08],[-17.58,9.87],[-17.69,9.77],[-17.87,9.63],[-17.99,9.56],[-18.09,9.47],[-18.26,9.35],[-18.44,9.23],[-18.56,9.11],[-18.86,9.07],[-19.13,9.2],[-19.37,9.33],[-19.75,9.5],[-19.98,9.43],[-20.18,9.39],[-20.44,9.41],[-20.72,9.4],[-21,9.42],[-21.19,9.43],[-21.42,9.46],[-21.64,9.54],[-21.92,9.63],[-22.08,9.7],[-22.37,9.57],[-22.51,9.53],[-22.87,9.57],[-23.53,9.5],[-24.07,9.28],[-24.59,8.85],[-24.91,8.23],[-25.29,7.75],[-25.45,7.48],[-25.51,7.06],[-25.55,6.66],[-25.67,6.11],[-26.13,5.66],[-26.57,5.23],[-27.02,4.84],[-27.37,4.52],[-27.97,4.07],[-28.34,3.65],[-29.08,3.54],[-29.87,3.42],[-30.68,3.27],[-31.08,2.99],[-31.39,2.69],[-31.14,2.3],[-31.14,2.1],[-31.4,1.69],[-31.35,1.17],[-31.35,0.76],[-31.35,0.76],[-31.49,0.92],[-32.21,1.53],[-32.75,2.12],[-33.34,2.6],[-33.95,2.98],[-34.76,3.23],[-35.3,3.8],[-35.5,4.12],[-35.5,4.12],[-35.43,4.16],[-35.23,4.28],[-34.93,4.55],[-34.51,4.92],[-34.12,5.22],[-33.74,5.49],[-33.61,5.68],[-33.27,5.76],[-32.95,5.83],[-32.43,5.95],[-31.79,6.05],[-31.15,6.16],[-30.58,6.55],[-30.1,6.98],[-29.85,7.72],[-29.65,8.33],[-29.01,8.61],[-28.21,9.11],[-27.85,9.39],[-27.34,9.83],[-26.83,10.28],[-26.54,10.71],[-26.34,11.14],[-25.92,11.27],[-25.78,11.37],[-25.54,11.33],[-25.24,11.24],[-24.96,11.22],[-24.49,11.33],[-24.24,11.35],[-24.06,11.34],[-23.73,11.59],[-23.38,11.83],[-22.91,11.93],[-22.53,12.23],[-22.3,12.78],[-22.05,12.86],[-21.67,12.7],[-21.13,12.93],[-20.66,12.93],[-19.89,12.94],[-19.08,13.04],[-18.55,13.15],[-17.76,13.24],[-17.23,13.51],[-16.51,13.87],[-15.91,14.09],[-15.34,14.2],[-14.7,14.29],[-14.36,14.29],[-13.88,14.17],[-13.22,14.06],[-12.63,14.09],[-12.14,14.09],[-11.64,14.07],[-11.11,14.03],[-10.47,13.95],[-10.1,13.85]]]}},{"type":"Feature","properties":{"ma":165,"type":"gpml:TopologicalNetwork","name":"Atlantic/Caribbean shear","pid":101,"deforming":true},"geometry":{"type":"Polygon","coordinates":[[[-31.33,0.12],[-31.45,0.32],[-31.89,0.87],[-32.87,1.09],[-33.67,1.29],[-34.32,1.53],[-34.92,1.94],[-35.28,2.55],[-35.67,2.99],[-36.16,3.4],[-36.38,3.66],[-36.38,3.66],[-36.14,3.77],[-35.5,4.12],[-35.5,4.12],[-35.3,3.8],[-34.76,3.23],[-33.95,2.98],[-33.34,2.6],[-32.75,2.12],[-32.21,1.53],[-31.49,0.92],[-31.35,0.76],[-31.35,0.76],[-31.34,0.25],[-31.33,0.12]]]}},{"type":"Feature","properties":{"ma":165,"type":"gpml:TopologicalNetwork","name":"WEC","pid":601,"deforming":true},"geometry":{"type":"Polygon","coordinates":[[[135.58,53.23],[134,53.56],[132.4,53.86],[130.77,54.14],[129.13,54.4],[127.47,54.63],[125.78,54.85],[124.08,55.03],[123.02,54.64],[121.97,54.23],[120.85,54.03],[119.75,53.82],[118.65,53.59],[118.57,53.09],[118.49,52.59],[117.38,52.59],[116.26,52.57],[115.15,52.55],[113.85,52.68],[112.54,52.79],[111.23,52.89],[109.79,52.84],[108.35,52.76],[106.81,52.43],[105.29,52.08],[103.9,51.68],[102.54,51.26],[101.73,51.1],[101.73,51.1],[101.16,51.66],[100.56,52.04],[99.95,52.41],[98.82,53],[98.04,53.43],[97.24,53.86],[96.38,54.55],[95.94,55.38],[95.77,56.1],[95.61,56.94],[95.48,57.84],[95.37,58.52],[95.33,59.05],[95.3,59.49],[95.51,59.87],[95.7,60.22],[95.95,60.65],[96.13,61.19],[96.29,61.66],[96.48,62.22],[96.69,62.76],[96.91,63.31],[97.2,63.99],[97.52,64.67],[97.85,65.35],[98.34,66.25],[98.54,67.05],[98.76,67.85],[98.85,68.7],[98.93,69.31],[98.99,69.89],[99.05,70.48],[99.23,70.85],[99.23,70.85],[100.59,71.16],[102.48,71.56],[104.46,71.94],[107.24,72.42],[110.17,72.86],[111.94,73.1],[113.75,73.32],[116.38,73.6],[119.09,73.85],[121.17,74.01],[123.28,74.15],[125.59,74.28],[127.95,74.38],[130.74,74.47],[133.57,74.53],[136.23,74.55],[138.9,74.53],[141.56,74.49],[144.72,74.39],[147.83,74.25],[151.37,74.04],[151.37,74.04],[150.69,73.39],[150.06,72.74],[149.35,72.07],[148.69,71.39],[148.08,70.72],[147.32,69.82],[146.62,68.93],[146.07,68.18],[145.56,67.44],[144.88,66.7],[144.24,65.96],[143.5,65.04],[142.81,64.12],[142.21,63.34],[141.65,62.55],[141.11,61.77],[140.57,60.99],[140.06,60.21],[139.52,59.31],[139.01,58.41],[138.43,57.48],[137.89,56.55],[137.38,55.87],[136.9,55.19],[136.48,54.58],[136.08,53.96],[135.58,53.23]]]}}]}