{"type":"FeatureCollection","features":[{"type":"Feature","properties":{"ma":180,"type":"gpml:TopologicalNetwork","name":"Amer_anyui_mesh","pid":101,"deforming":true},"geometry":{"type":"Polygon","coordinates":[[[-3.26,50.52],[-4.56,50.57],[-5.87,50.62],[-7.19,50.65],[-8.63,50.52],[-10.06,50.38],[-11.32,50.45],[-12.59,50.52],[-13.67,50.68],[-14.75,50.84],[-15.84,50.99],[-17.03,51.22],[-18.22,51.43],[-19.43,51.64],[-20.61,51.58],[-21.79,51.51],[-23.23,51.22],[-24.65,50.92],[-25.54,50.7],[-26.43,50.48],[-27.21,50.31],[-28,50.14],[-28.75,49.95],[-29.49,49.77],[-30.38,49.65],[-30.81,49.64],[-30.81,49.64],[-30.77,49.67],[-30.6,49.78],[-30.17,50.28],[-29.2,50.88],[-28.96,51.09],[-28.19,51.76],[-27.89,51.96],[-27.27,52.2],[-26.53,52.66],[-25.77,53.1],[-24.73,53.84],[-24.03,54.07],[-23.45,54.22],[-22.34,54.4],[-21.75,54.43],[-21.08,54.58],[-20.35,54.73],[-19.53,54.77],[-18.59,54.81],[-17.8,54.84],[-16.77,54.86],[-15.89,54.88],[-14.83,54.89],[-13.84,54.88],[-12.48,54.86],[-11.13,54.83],[-9.56,54.64],[-8.01,54.43],[-6.47,54.19],[-5.1,53.9],[-3.75,53.58],[-3.75,53.58],[-3.53,52.72],[-3.33,51.85],[-3.13,50.99],[-3.26,50.52]]]}},{"type":"Feature","properties":{"ma":180,"type":"gpml:TopologicalNetwork","name":"East_West_Gondwana_Mesh","pid":802,"deforming":true},"geometry":{"type":"Polygon","coordinates":[[[47.26,-27.5],[47.72,-28.4],[48.19,-29.3],[48.67,-30.19],[48.67,-30.19],[48.16,-30.7],[47.88,-30.8],[47.31,-31],[46.25,-31.38],[45.52,-31.8],[44.77,-32.22],[43.89,-32.58],[43,-32.93],[42.34,-33.52],[41.68,-34.11],[40.87,-34.78],[40.06,-35.45],[39.23,-36.11],[38.64,-36.67],[38.03,-37.22],[37.43,-37.77],[36.82,-38.27],[36.2,-38.77],[35.57,-39.27],[35.15,-40.04],[34.71,-40.82],[33.93,-41.41],[33.14,-41.99],[32.47,-42.46],[31.79,-42.92],[31.01,-43.12],[30.23,-43.33],[29.26,-43.65],[28.28,-43.97],[27.33,-44.16],[26.38,-44.34],[25.43,-44.51],[24.39,-44.69],[23.35,-44.85],[22.31,-45.01],[20.96,-45.29],[19.59,-45.54],[18.89,-46.21],[18.18,-46.87],[17.47,-47.61],[16.74,-48.35],[16.25,-49.18],[15.74,-50.01],[15.34,-50.7],[14.92,-51.4],[14.84,-52.28],[14.76,-53.16],[14.35,-54],[13.92,-54.85],[13.2,-55.51],[12.45,-56.17],[11.68,-56.83],[10.2,-57.21],[8.7,-57.57],[7.42,-57.98],[6.11,-58.37],[4.94,-58.41],[3.78,-58.44],[2.31,-58.27],[0.85,-58.08],[-0.38,-58.09],[-1.61,-58.09],[-2.8,-58.28],[-4,-58.45],[-5.19,-58.54],[-6.39,-58.62],[-7.69,-58.88],[-9.01,-59.13],[-10.87,-59.25],[-12.73,-59.36],[-14.36,-59.74],[-16.02,-60.1],[-17.72,-60.44],[-18.7,-61.03],[-19.73,-61.62],[-21.18,-62.09],[-22.68,-62.56],[-24.22,-63],[-26.12,-63.41],[-28.06,-63.78],[-30.08,-63.98],[-32.12,-64.15],[-34.19,-64.29],[-36.28,-64.41],[-38.14,-64.56],[-40.03,-64.7],[-41.93,-64.81],[-43.85,-64.9],[-45.78,-64.96],[-48,-64.92],[-50.22,-64.84],[-52.41,-64.73],[-54.59,-64.59],[-56.74,-64.41],[-58.86,-64.21],[-60.98,-63.97],[-63.07,-63.7],[-65.11,-63.4],[-67.1,-63.07],[-69.05,-62.72],[-69.05,-62.72],[-69.03,-62.6],[-68.97,-62.27],[-68.92,-62.11],[-68.91,-61.79],[-69.03,-61.39],[-69.12,-61.01],[-69.12,-61],[-69.12,-61],[-67.41,-61.21],[-65.68,-61.4],[-63.93,-61.57],[-62.22,-61.79],[-60.49,-62],[-58.73,-62.18],[-56.96,-62.33],[-55.16,-62.47],[-53.67,-62.49],[-52.17,-62.49],[-50.67,-62.47],[-48.61,-62.61],[-46.54,-62.71],[-44.45,-62.78],[-42.4,-62.64],[-40.37,-62.47],[-38.37,-62.28],[-36.92,-62.16],[-35.48,-62.03],[-33.84,-61.94],[-32.22,-61.83],[-30.1,-61.85],[-27.99,-61.84],[-25.88,-61.8],[-24.36,-61.66],[-22.86,-61.51],[-21.38,-61.35],[-20.33,-60.91],[-19.31,-60.47],[-18.31,-60.02],[-16.9,-59.68],[-15.51,-59.32],[-13.83,-58.99],[-12.18,-58.64],[-10.4,-58.53],[-8.63,-58.4],[-7.64,-58],[-6.67,-57.59],[-5.59,-57.19],[-4.54,-56.78],[-2.92,-56.72],[-1.95,-56.28],[-0.28,-56.06],[0.82,-56.06],[1.92,-56.05],[3.54,-55.98],[5.15,-55.89],[6.34,-55.54],[7.5,-55.17],[8.4,-54.33],[8.86,-53.52],[9.3,-52.71],[9.43,-51.94],[9.55,-51.17],[9.85,-50.45],[10.13,-49.73],[10.39,-48.94],[10.64,-48.16],[11.24,-47.54],[11.82,-46.91],[12.31,-46.5],[12.8,-46.08],[13.59,-45.67],[14.37,-45.24],[15.3,-44.83],[16.21,-44.41],[16.77,-43.78],[17.33,-43.14],[17.87,-42.51],[18.62,-41.95],[19.35,-41.39],[20.07,-40.83],[20.46,-40.06],[20.82,-39.27],[21.25,-38.46],[21.66,-37.65],[22.36,-37.25],[23.05,-36.84],[24.02,-36.46],[24.97,-36.07],[25.96,-35.96],[26.95,-35.84],[27.82,-35.76],[28.69,-35.68],[29.64,-35.51],[30.59,-35.33],[31.32,-34.95],[32.04,-34.56],[32.4,-34.14],[32.76,-33.72],[33.14,-33.33],[33.53,-32.93],[34.13,-32.73],[34.74,-32.53],[35.64,-32.23],[36.55,-31.92],[37.4,-31.54],[38.24,-31.14],[39.08,-30.74],[39.74,-30.26],[40.39,-29.77],[41.03,-29.27],[41.76,-28.79],[42.47,-28.3],[43.29,-27.69],[44.09,-27.08],[44.88,-26.47],[45.51,-25.81],[46.09,-26.38],[46.67,-26.94],[47.26,-27.5]]]}},{"type":"Feature","properties":{"ma":180,"type":"gpml:TopologicalClosedPlateBoundary","name":"Eurasia","pid":301,"deforming":false},"geometry":{"type":"Polygon","coordinates":[[[8.13,39.6],[8.09,39.85],[8.07,40.28],[7.94,40.61],[7.94,40.61],[7.7,40.69],[7.46,41.4],[7.23,42.11],[7.15,42.81],[7.07,43.5],[6.6,44.33],[6.11,45.16],[5.29,45.51],[4.45,45.84],[3.27,45.66],[2.1,45.47],[0.98,45.73],[-0.15,45.98],[-1.28,46.22],[-2.21,46.51],[-3.16,46.8],[-4.11,47.09],[-3.88,48.06],[-3.64,49.04],[-3.39,50.01],[-3.13,50.99],[-3.35,51.95],[-3.58,52.92],[-3.82,53.88],[-4.08,54.85],[-4.34,55.81],[-3.73,56.38],[-3.98,57.1],[-4.24,57.82],[-4.52,58.54],[-4.71,59.39],[-4.91,60.24],[-5.13,61.08],[-5.35,61.93],[-5.59,62.77],[-5.8,63.65],[-6.02,64.52],[-6.26,65.39],[-6.51,66.26],[-6.51,66.26],[-6.56,66.68],[-6.59,66.97],[-6.61,67.13],[-6.61,67.24],[-6.66,67.58],[-6.67,67.65],[-6.83,68.54],[-7,69.44],[-7.19,70.33],[-7.39,71.22],[-7.88,72.08],[-8.42,72.94],[-9.01,73.8],[-9.67,74.65],[-9.67,74.65],[-12.54,74.36],[-15.29,74.03],[-17.93,73.66],[-21.29,73.4],[-24.52,73.07],[-27.3,73],[-30.05,72.88],[-32.76,72.73],[-34.76,72.43],[-36.7,72.11],[-38.57,71.77],[-40.99,71.43],[-43.33,71.07],[-45.58,70.68],[-47.46,70.45],[-49.3,70.2],[-51.1,69.93],[-53.64,69.57],[-56.1,69.17],[-57.78,68.8],[-59.41,68.41],[-60.99,68],[-62.5,67.5],[-62.5,67.5],[-63.96,68.33],[-65.53,69.14],[-66.61,69.82],[-67.75,70.48],[-68.97,71.14],[-70.28,71.79],[-71.3,72.55],[-72.41,73.3],[-73.63,74.05],[-74.96,74.78],[-75.67,75.44],[-76.45,76.1],[-76.45,76.1],[-75.35,76.8],[-74.21,77.61],[-72.92,78.4],[-71.44,79.2],[-70.37,79.84],[-69.15,80.47],[-69.08,81.2],[-68.99,81.92],[-69.25,82.63],[-69.56,83.34],[-68.78,83.95],[-67.84,84.57],[-66.39,85.26],[-64.45,85.94],[-61.74,86.62],[-55.85,87.41],[-45.07,88.15],[-19.05,88.72],[23.32,88.79],[52.17,88.64],[71.45,88.24],[79.34,87.93],[79.34,87.93],[81.88,87.38],[83.51,86.53],[84.51,85.68],[85.17,84.83],[85.65,83.98],[82.8,83.12],[80.59,82.24],[78.82,81.35],[77.39,80.45],[76.2,79.55],[75.19,78.65],[74.33,77.74],[73.59,76.83],[72.95,75.92],[73.82,75.15],[74.6,74.36],[75.31,73.58],[75.96,72.8],[74.29,72.17],[72.73,71.53],[71.28,70.88],[71.09,70.19],[70.91,69.5],[70.75,68.8],[71.11,67.94],[71.44,67.08],[71.75,66.22],[72.03,65.35],[71.32,64.63],[70.65,63.9],[70.01,63.16],[69.4,62.43],[69.4,62.43],[68.83,61.67],[68.28,60.91],[67.75,60.15],[67.25,59.39],[68.39,58.89],[69.5,58.38],[70.58,57.87],[71.63,57.34],[72.87,56.96],[74.08,56.57],[75.27,56.16],[76.44,55.74],[76.59,55.16],[76.74,54.59],[76.03,53.91],[75.34,53.22],[74.44,52.63],[73.57,52.02],[72.72,51.42],[71.89,50.8],[70.91,50.07],[69.96,49.32],[69.04,48.57],[68.53,47.97],[68.03,47.37],[67.54,46.77],[67.05,45.89],[66.58,45],[66.12,44.11],[65.68,43.22],[65.25,42.32],[65.71,41.52],[66.15,40.71],[66.68,40.05],[67.2,39.38],[67.39,38.67],[67.58,37.95],[67.76,37.23],[67.62,36.42],[67.49,35.61],[67.36,34.79],[67.23,33.98],[67.11,33.17],[66.43,32.47],[65.77,31.76],[65.11,31.06],[65.11,31.06],[65.5,30.14],[65.88,29.23],[66.26,28.31],[66.62,27.39],[66.99,26.47],[67.34,25.56],[67.42,24.61],[67.5,23.67],[67.57,22.73],[67.64,21.79],[67.72,20.85],[67.79,19.91],[67.86,18.97],[67.86,18.97],[66.93,19.05],[66.12,19.21],[65.31,19.37],[64.52,19.5],[63.72,19.62],[63.08,19.77],[62.44,19.92],[61.8,20.29],[61.16,20.66],[60.51,21.02],[59.84,21.44],[59.15,21.85],[58.15,21.99],[57.14,22.13],[56.09,22.2],[55.03,22.26],[53.98,22.32],[53.19,22.26],[52.41,22.2],[51.63,22.13],[50.75,22.14],[49.87,22.15],[49,22.31],[48.13,22.46],[47.48,22.57],[46.84,22.67],[46.29,22.84],[45.73,23.01],[45.43,23.09],[45.43,23.09],[45.44,23.03],[45.33,22.2],[45.33,22.2],[44.84,21.42],[44.45,20.74],[44.07,20.06],[43.86,19.58],[43.66,19.09],[43.28,18.56],[42.9,18.03],[42.2,17.8],[41.51,17.56],[40.81,17.32],[39.86,17.34],[38.91,17.36],[37.96,17.37],[36.99,17.17],[36.02,16.97],[35.32,16.83],[34.62,16.69],[33.93,16.55],[33,16.52],[32.08,16.49],[31.15,16.46],[30.38,16.64],[29.61,16.82],[28.84,17],[28.84,17],[29.47,17.59],[30.1,18.18],[30.74,18.77],[31.32,19.34],[31.91,19.91],[32.5,20.47],[33.1,21.03],[33.59,21.64],[34.09,22.25],[34.59,22.86],[35.09,23.46],[35.28,23.85],[35.28,23.85],[34.25,23.86],[33.21,23.87],[32.18,23.87],[31.14,23.86],[30.11,23.85],[29.07,23.82],[28.04,23.79],[27.01,23.76],[25.97,23.72],[24.94,23.67],[24.94,23.67],[24.06,23.2],[23.19,22.73],[22.32,22.25],[21.91,21.71],[21.5,21.17],[21.71,21.02],[21.12,20.22],[20.54,19.41],[20.69,19.36],[20.12,18.59],[19.55,17.82],[19.75,17.66],[19.24,16.88],[18.74,16.1],[18.25,15.33],[17.75,14.55],[17.26,13.77],[16.51,13.14],[15.77,12.51],[15.77,12.51],[15.64,12.6],[15.64,12.6],[15.06,12.18],[14.49,11.75],[13.92,11.33],[13.92,11.33],[14.18,10.93],[14.18,10.93],[13.36,10.36],[12.54,9.8],[12.54,9.8],[12.66,9.17],[12.66,9.17],[11.92,8.9],[11.17,8.63],[10.43,8.35],[9.69,8.08],[9.63,7.38],[8.76,7.1],[7.88,6.83],[7,6.55],[6.17,6.37],[5.33,6.19],[4.5,6.01],[3.66,5.82],[2.83,5.64],[2.83,5.64],[2.39,5.84],[1.89,6.07],[1.38,6.3],[0.71,6.6],[-0.05,7.17],[-0.79,7.72],[-1.21,8.04],[-1.47,8.22],[-1.72,8.47],[-1.72,8.47],[-1.62,8.56],[-1.45,8.72],[-1.22,8.94],[-1,9.15],[-0.78,9.49],[-0.69,9.88],[-0.62,10.21],[-0.5,10.45],[-0.14,10.87],[0.26,11.16],[0.45,11.39],[0.7,11.76],[0.84,11.96],[0.98,12.29],[1.13,12.6],[1.3,12.88],[1.42,13.15],[1.51,13.4],[1.59,13.61],[1.65,13.74],[1.75,13.87],[1.85,14.03],[1.93,14.25],[2.06,14.39],[2.1,14.45],[2.1,14.45],[2.37,14.53],[2.88,14.6],[3.54,14.7],[4.11,14.81],[4.66,15.19],[4.92,15.35],[4.92,15.35],[5.09,15.65],[5.51,15.9],[6.1,16.18],[6.41,16.48],[6.75,16.68],[7.28,17.07],[7.74,17.45],[7.99,17.74],[8.22,17.96],[8.38,18.18],[8.53,18.41],[8.78,18.6],[9.12,18.7],[9.5,18.85],[9.93,18.9],[10.39,18.87],[10.85,18.77],[11.22,18.66],[11.53,18.49],[12.11,18.35],[12.64,18.26],[13.16,18.26],[13.45,18.26],[13.75,18.32],[14.09,18.46],[14.35,18.89],[14.56,19.21],[14.78,19.52],[15.03,19.89],[15.3,20.32],[15.45,20.65],[15.45,20.65],[15.16,20.75],[15.06,20.79],[14.76,20.96],[14.27,21.15],[13.71,21.41],[13.18,21.62],[12.64,21.87],[12.2,22.07],[12.01,22.24],[11.87,22.34],[11.69,22.57],[11.52,22.95],[11.36,23.26],[11.32,23.63],[11.27,24.19],[11.14,24.6],[10.91,25.1],[10.33,25.53],[10.1,25.8],[9.71,25.92],[9.33,25.86],[8.86,26.02],[8.65,26.16],[8.42,26.42],[8.41,26.62],[8.37,26.84],[8.3,27.09],[8.18,27.39],[8.16,27.62],[8.04,28.08],[7.87,28.66],[7.73,29.1],[7.55,29.58],[7.49,30.04],[7.45,30.16],[7.45,30.16],[7.47,30.23],[7.48,30.34],[7.46,30.5],[7.48,30.66],[7.5,30.88],[7.52,31.11],[7.66,31.4],[7.8,31.55],[7.92,31.79],[7.94,31.83],[8.01,31.93],[8.06,31.99],[8.1,32.15],[8.12,32.21],[7.96,32.36],[7.86,32.47],[7.78,32.74],[7.73,32.85],[7.65,33.01],[7.83,33.27],[7.92,33.48],[7.88,33.74],[7.74,33.96],[7.62,34.16],[7.46,34.44],[7.24,34.63],[7.09,34.8],[7,34.95],[7.01,35.1],[7.15,35.29],[7.2,35.45],[7.35,35.69],[7.41,35.91],[7.6,36.11],[7.76,36.31],[7.97,36.49],[8.05,36.82],[7.96,37.19],[7.92,37.39],[7.89,37.78],[7.88,38.06],[7.99,38.58],[8.03,38.85],[8.04,39.1],[8.21,39.43],[8.11,39.53],[8.13,39.6]]]}},{"type":"Feature","properties":{"ma":180,"type":"gpml:TopologicalClosedPlateBoundary","name":"Meso Tethys","pid":530,"deforming":false},"geometry":{"type":"Polygon","coordinates":[[[74.87,23.37],[75.82,23.15],[76.76,22.93],[77.8,22.76],[78.83,22.58],[79.86,22.39],[80.89,22.2],[81.96,22.06],[83.02,21.92],[84.09,21.77],[85.15,21.61],[86.16,21.64],[87.18,21.66],[88.19,21.68],[89.21,21.7],[90.23,21.71],[91.25,21.71],[92.21,21.8],[93.17,21.9],[94.14,21.98],[95.11,22.06],[96.08,22.14],[96.93,22.32],[97.79,22.5],[98.65,22.68],[99.3,22.89],[99.3,22.89],[99.68,23.73],[100.06,24.58],[100.45,25.43],[100.45,25.43],[101.43,24.97],[102.21,24.43],[102.99,23.89],[103.76,23.35],[104.52,22.8],[105.28,22.25],[106.19,21.74],[107.1,21.23],[107.99,20.71],[108.89,20.19],[109.77,19.66],[110.68,19.35],[111.59,19.05],[112.49,18.73],[113.39,18.42],[114.29,18.1],[115.18,17.77],[116.07,17.44],[117.01,17.13],[117.95,16.81],[118.89,16.49],[119.82,16.16],[120.75,15.83],[121.44,15.3],[122.13,14.76],[122.82,14.23],[123.51,13.69],[124.19,13.15],[124.87,12.61],[125.83,12.29],[126.78,11.97],[127.74,11.65],[127.74,11.65],[127.19,10.8],[126.65,9.96],[126.12,9.11],[125.63,8.52],[125.14,7.92],[124.65,7.33],[124.16,6.73],[123.46,6.29],[122.76,5.86],[122.05,5.42],[121.35,4.98],[120.84,4.62],[120.34,4.25],[120.34,4.25],[119.78,4.86],[119.23,5.47],[118.68,6.07],[118.2,6.65],[117.72,7.22],[117.72,7.22],[117.32,6.39],[116.93,5.55],[116.54,4.72],[116.15,3.89],[115.76,3.06],[115.37,2.22],[115.08,1.34],[114.78,0.47],[114.49,-0.41],[114.2,-1.29],[114.2,-1.29],[113.63,-1.17],[113.06,-1.04],[112.71,-1.91],[112.36,-2.78],[112.01,-3.66],[111.65,-4.53],[111.3,-5.4],[110.34,-5.15],[109.39,-4.91],[108.43,-4.66],[108.09,-5.49],[107.74,-6.31],[107.39,-7.13],[107.04,-7.95],[106.68,-8.78],[106.33,-9.6],[105.42,-9.44],[104.52,-9.28],[103.62,-9.12],[102.72,-8.96],[101.82,-8.8],[101.46,-9.54],[101.1,-10.28],[100.74,-11.02],[100.38,-11.77],[99.44,-11.4],[98.51,-11.02],[97.58,-10.65],[97.29,-11.3],[97.01,-11.96],[96.51,-11.82],[96.18,-12.52],[95.85,-13.21],[95.13,-13.15],[94.8,-13.92],[94.46,-14.69],[94.13,-15.45],[93.79,-16.22],[92.88,-16.14],[91.97,-16.06],[91.06,-15.98],[90.16,-15.89],[89.25,-15.79],[88.28,-15.71],[87.31,-15.63],[86.34,-15.54],[85.37,-15.44],[84.41,-15.34],[83.44,-15.24],[82.47,-15.13],[82.56,-14.62],[82.64,-14.11],[81.85,-13.86],[81.07,-13.61],[80.29,-13.36],[79.51,-13.11],[78.59,-12.81],[77.67,-12.51],[76.76,-12.21],[75.84,-11.9],[74.93,-11.59],[74.02,-11.28],[73.11,-10.96],[72.21,-10.64],[71.3,-10.32],[70.4,-10],[69.5,-9.67],[68.6,-9.34],[67.7,-9.01],[66.81,-8.68],[66.02,-8.31],[65.24,-7.94],[64.46,-7.57],[63.67,-7.2],[63.67,-7.2],[63.89,-6.73],[63.89,-6.73],[63.18,-6.32],[62.47,-5.91],[61.77,-5.49],[61.06,-5.08],[60.35,-4.67],[59.54,-4.15],[58.72,-3.63],[57.9,-3.11],[57.09,-2.59],[56.27,-2.07],[55.46,-1.55],[54.64,-1.03],[53.83,-0.51],[53.02,0.02],[52.2,0.54],[51.39,1.06],[50.57,1.58],[49.76,2.1],[48.94,2.62],[48.13,3.14],[47.31,3.66],[46.91,3.11],[46.51,2.57],[46.11,2.02],[45.39,2.5],[44.66,2.99],[43.94,3.47],[43.22,3.96],[42.5,4.44],[41.77,4.92],[41.05,5.4],[41.05,5.4],[41.33,5.74],[41.33,5.74],[40.55,6.31],[39.77,6.87],[38.99,7.44],[38.21,8.01],[37.42,8.57],[36.64,9.13],[35.85,9.69],[35.38,9.26],[34.52,9.76],[33.65,10.25],[32.79,10.74],[31.92,11.23],[31.05,11.72],[30.17,12.2],[29.3,12.68],[28.41,13.16],[27.53,13.64],[27.03,13.17],[26.52,12.7],[25.88,13.05],[25.23,13.39],[24.58,13.72],[24.58,13.72],[25.07,14.07],[25.55,14.41],[26.24,14.94],[26.93,15.46],[27.62,15.99],[28.32,16.51],[28.84,17],[28.84,17],[29.61,16.82],[30.38,16.64],[31.15,16.46],[32.08,16.49],[33,16.52],[33.93,16.55],[34.62,16.69],[35.32,16.83],[36.02,16.97],[36.99,17.17],[37.96,17.37],[38.91,17.36],[39.86,17.34],[40.81,17.32],[41.51,17.56],[42.2,17.8],[42.9,18.03],[43.28,18.56],[43.66,19.09],[43.86,19.58],[44.07,20.06],[44.45,20.74],[44.84,21.42],[45.29,22.14],[45.75,22.85],[45.88,22.97],[45.88,22.97],[46.84,22.67],[47.48,22.57],[48.13,22.46],[49,22.31],[49.87,22.15],[50.75,22.14],[51.63,22.13],[52.41,22.2],[53.19,22.26],[53.98,22.32],[55.03,22.26],[56.09,22.2],[57.14,22.13],[58.15,21.99],[59.15,21.85],[59.84,21.44],[60.51,21.02],[61.16,20.66],[61.8,20.29],[62.44,19.92],[63.08,19.77],[63.72,19.62],[64.52,19.5],[65.31,19.37],[66.12,19.21],[66.93,19.05],[67.65,18.99],[68.37,18.92],[69.09,18.85],[69.96,19.02],[70.84,19.17],[71.72,19.33],[72.6,19.48],[73.48,19.62],[74.36,19.76],[74.48,20.66],[74.61,21.57],[74.74,22.47],[74.87,23.37]]]}},{"type":"Feature","properties":{"ma":180,"type":"gpml:TopologicalClosedPlateBoundary","name":"Mongol-Okhotsk Ocean","pid":380,"deforming":false},"geometry":{"type":"Polygon","coordinates":[[[-180,83.33],[-180,84.28],[-180,85.23],[-180,86.19],[-180,87.14],[-180,88.09],[-180,89.05],[-180,90],[180,90],[180,89.05],[180,88.09],[180,87.14],[180,86.19],[180,85.23],[180,84.28],[180,83.33],[180,82.37],[177.72,81.73],[175.76,81.08],[170.94,80.9],[168.96,80.06],[167.28,79.21],[165.85,78.36],[164.61,77.49],[163.52,76.63],[162.57,75.76],[161.86,75.16],[161.19,74.56],[160.34,73.86],[159.56,73.15],[158.66,72.52],[157.83,71.89],[157.05,71.25],[155.89,70.34],[154.83,69.43],[154.14,68.78],[153.49,68.14],[152.46,67.23],[151.5,66.32],[150.52,65.6],[149.59,64.87],[149.03,64.28],[148.48,63.69],[147.94,63.24],[147.41,62.79],[146.87,62.24],[146.35,61.69],[145.79,61.05],[145.25,60.41],[144.69,59.8],[144.15,59.18],[143.63,58.56],[143.18,58],[142.74,57.44],[142.32,56.87],[141.92,56.29],[141.41,55.67],[140.93,55.05],[140.44,54.51],[139.97,53.97],[139.55,53.47],[139.15,52.97],[138.46,52.17],[138.05,51.72],[137.66,51.26],[137.21,50.76],[136.77,50.26],[136.28,49.53],[135.8,48.81],[135.37,48.23],[134.95,47.65],[134.49,46.9],[134.04,46.14],[133.51,45.39],[132.99,44.63],[132.47,43.77],[131.96,42.91],[131.51,42.15],[131.07,41.38],[130.64,40.62],[130.16,39.73],[129.69,38.84],[129.24,37.94],[128.83,37.1],[128.43,36.27],[128.04,35.43],[127.52,34.56],[127.01,33.69],[126.5,32.82],[126.01,31.95],[125.34,31.13],[124.68,30.31],[124.03,29.49],[123.39,28.67],[122.76,27.84],[122.14,27.01],[122.14,27.01],[122.86,26.35],[123.57,25.68],[124.03,25.15],[124.49,24.62],[124.95,24.08],[125.57,23.37],[126.19,22.66],[126.82,21.91],[127.45,21.15],[127.53,20.44],[127.76,19.81],[127.99,19.17],[128.41,18.54],[128.83,17.91],[129.56,17.6],[130.29,17.29],[131.02,16.97],[131.02,16.97],[130.65,16.24],[130.28,15.51],[129.91,14.78],[129.54,14.05],[128.94,13.27],[128.35,12.48],[127.77,11.7],[127.74,11.65],[127.74,11.65],[126.78,11.97],[125.83,12.29],[124.87,12.61],[124.19,13.15],[123.51,13.69],[122.82,14.23],[122.13,14.76],[121.44,15.3],[120.75,15.83],[119.82,16.16],[118.89,16.49],[117.95,16.81],[117.01,17.13],[116.07,17.44],[115.18,17.77],[114.29,18.1],[113.39,18.42],[112.49,18.73],[111.59,19.05],[110.68,19.35],[109.77,19.66],[108.89,20.19],[107.99,20.71],[107.1,21.23],[106.19,21.74],[105.28,22.25],[104.52,22.8],[103.76,23.35],[102.99,23.89],[102.21,24.43],[101.43,24.97],[100.45,25.43],[100.45,25.43],[100.06,24.58],[99.68,23.73],[99.3,22.89],[99.3,22.89],[98.65,22.68],[97.79,22.5],[96.93,22.32],[96.08,22.14],[95.11,22.06],[94.14,21.98],[93.17,21.9],[92.21,21.8],[91.25,21.71],[90.23,21.71],[89.21,21.7],[88.19,21.68],[87.18,21.66],[86.16,21.64],[85.15,21.61],[84.09,21.77],[83.02,21.92],[81.96,22.06],[80.89,22.2],[79.86,22.39],[78.83,22.58],[77.8,22.76],[76.76,22.93],[75.82,23.15],[74.87,23.37],[74.87,23.37],[74.74,22.47],[74.61,21.57],[74.48,20.66],[74.36,19.76],[73.48,19.62],[72.6,19.48],[71.72,19.33],[70.84,19.17],[69.96,19.02],[69.09,18.85],[68.47,18.91],[67.86,18.97],[67.79,19.91],[67.72,20.85],[67.64,21.79],[67.57,22.73],[67.5,23.67],[67.42,24.61],[67.34,25.56],[66.99,26.47],[66.62,27.39],[66.26,28.31],[65.88,29.23],[65.5,30.14],[65.11,31.06],[65.11,31.06],[65.77,31.76],[66.43,32.47],[67.11,33.17],[67.23,33.98],[67.36,34.79],[67.49,35.61],[67.62,36.42],[67.76,37.23],[67.58,37.95],[67.39,38.67],[67.2,39.38],[66.68,40.05],[66.15,40.71],[65.71,41.52],[65.25,42.32],[65.68,43.22],[66.12,44.11],[66.58,45],[67.05,45.89],[67.54,46.77],[68.03,47.37],[68.53,47.97],[69.04,48.57],[69.96,49.32],[70.91,50.07],[71.89,50.8],[72.72,51.42],[73.57,52.02],[74.44,52.63],[75.34,53.22],[76.03,53.91],[76.74,54.59],[76.59,55.16],[76.44,55.74],[75.27,56.16],[74.08,56.57],[72.87,56.96],[71.63,57.34],[70.58,57.87],[69.5,58.38],[68.39,58.89],[67.25,59.39],[67.75,60.15],[68.28,60.91],[68.83,61.67],[69.4,62.43],[69.4,62.43],[70.01,63.16],[70.65,63.9],[71.32,64.63],[72.03,65.35],[71.75,66.22],[71.44,67.08],[71.11,67.94],[70.75,68.8],[70.91,69.5],[71.09,70.19],[71.28,70.88],[72.73,71.53],[74.29,72.17],[75.96,72.8],[75.31,73.58],[74.6,74.36],[73.82,75.15],[72.95,75.92],[73.59,76.83],[74.33,77.74],[75.19,78.65],[76.2,79.55],[77.39,80.45],[78.82,81.35],[80.59,82.24],[82.8,83.12],[85.65,83.98],[85.17,84.83],[84.51,85.68],[83.51,86.53],[81.88,87.38],[79.34,87.93],[79.34,87.93],[71.45,88.24],[52.17,88.64],[23.32,88.79],[-19.05,88.72],[-45.07,88.15],[-55.85,87.41],[-61.74,86.62],[-64.4,85.96],[-66.32,85.29],[-67.75,84.61],[-67.75,84.61],[-72.22,85.11],[-77.64,85.56],[-87.61,86.04],[-99.8,86.36],[-113.62,86.5],[-129.81,86.42],[-144.21,86.08],[-155.72,85.53],[-164.47,84.85],[-171.06,84.08],[-176.09,83.25],[-180,82.37],[-180,83.33]]]}},{"type":"Feature","properties":{"ma":180,"type":"gpml:TopologicalClosedPlateBoundary","name":"North America","pid":101,"deforming":false},"geometry":{"type":"Polygon","coordinates":[[[-3.26,50.52],[-3.48,49.66],[-3.7,48.8],[-3.9,47.94],[-4.11,47.09],[-3.16,46.8],[-2.21,46.51],[-1.28,46.22],[-0.15,45.98],[0.98,45.73],[2.1,45.47],[3.27,45.66],[4.45,45.84],[5.29,45.51],[6.11,45.16],[6.6,44.33],[7.07,43.5],[7.15,42.81],[7.23,42.11],[7.46,41.4],[7.7,40.69],[7.94,40.61],[7.94,40.61],[8.07,40.28],[8.09,39.85],[8.13,39.63],[8.13,39.63],[7.96,39.48],[7.71,39.29],[7.46,38.77],[7.27,38.33],[7.14,38.2],[7.06,38],[7.06,37.81],[7.07,37.62],[7.03,37.28],[6.96,37.02],[6.78,36.75],[6.63,36.59],[6.18,36.25],[5.95,35.83],[5.77,35.61],[5.64,35.46],[5.57,35.29],[5.6,35.12],[5.64,34.9],[5.62,34.71],[5.57,34.55],[5.53,34.38],[5.55,34.14],[5.65,33.98],[5.97,33.78],[6.17,33.7],[6.37,33.5],[6.32,33.35],[6.26,33.1],[6.21,32.44],[6.22,32.38],[6.52,32.04],[6.55,31.85],[6.25,31.36],[5.97,31.04],[5.51,30.42],[5.13,29.86],[4.87,29.15],[4.74,28.79],[4.38,28.23],[3.71,27.74],[3.27,27.36],[2.69,27.06],[2.2,26.68],[1.5,26.29],[0.76,26.01],[0.39,25.89],[0.23,25.09],[0.56,24.58],[0.89,24.07],[1.02,23.39],[0.8,22.71],[0.58,22.03],[0.22,21.55],[-0.14,21.06],[-0.6,20.65],[-1.16,20.01],[-1.45,19.48],[-1.8,19.1],[-2.2,18.39],[-2.42,17.69],[-2.52,17.16],[-2.52,17.16],[-2.5,17.04],[-2.44,16.74],[-2.44,16.37],[-2.47,16],[-2.52,15.74],[-2.57,15.45],[-2.55,15.23],[-2.51,15.1],[-2.47,14.91],[-2.43,14.77],[-2.43,14.77],[-2.28,14.65],[-2.18,14.56],[-2.11,14.5],[-2,14.37],[-1.91,14.28],[-1.82,14.14],[-1.74,13.98],[-1.68,13.84],[-1.61,13.66],[-1.68,13.43],[-1.82,13.22],[-1.91,13.06],[-2.01,12.9],[-2.14,12.72],[-2.26,12.56],[-2.35,12.43],[-2.47,12.31],[-2.6,12.18],[-2.73,12.09],[-2.82,12.01],[-2.96,11.95],[-3.11,11.88],[-3.38,11.73],[-3.38,11.73],[-3.32,11.69],[-3.03,11.64],[-2.79,11.73],[-2.7,11.76],[-2.62,11.79],[-2.5,11.89],[-2.41,11.98],[-2.32,12.06],[-2.2,12.13],[-2.06,12.21],[-1.98,12.29],[-1.89,12.43],[-1.83,12.55],[-1.75,12.66],[-1.62,12.77],[-1.5,12.87],[-1.37,12.98],[-1.29,13.05],[-1.22,13.12],[-1.16,13.19],[-1.11,13.26],[-1.04,13.35],[-0.99,13.4],[-0.99,13.4],[-0.99,13.4],[-0.98,13.33],[-0.95,13.23],[-0.92,13.16],[-0.92,13.16],[-0.95,13.15],[-1.04,13.14],[-1.11,13.13],[-1.14,13.1],[-1.21,13.05],[-1.26,13],[-1.37,12.89],[-1.44,12.81],[-1.5,12.74],[-1.63,12.65],[-1.71,12.59],[-1.75,12.52],[-1.87,12.31],[-2.01,12.17],[-2.14,12.04],[-2.26,11.94],[-2.43,11.79],[-2.68,11.58],[-2.73,11.47],[-2.82,11.31],[-2.81,11.17],[-2.81,10.99],[-2.84,10.85],[-2.88,10.71],[-3.09,10.51],[-3.21,10.39],[-3.37,10.24],[-3.44,10.18],[-3.44,10.18],[-3.42,10.16],[-3.42,10.16],[-3.45,10.08],[-3.75,10.04],[-4.13,10.06],[-4.43,10.17],[-4.39,10.58],[-4.37,10.79],[-4.49,10.84],[-4.54,10.83],[-4.87,10.67],[-4.98,10.9],[-5,11.09],[-4.68,11.07],[-4.53,11.17],[-4.46,11.28],[-4.71,11.48],[-4.88,11.67],[-4.99,11.77],[-5.11,11.92],[-5.33,12.02],[-5.49,12.24],[-5.82,12.36],[-6.59,12.51],[-7.26,12.72],[-7.99,12.92],[-8.63,12.99],[-9.15,13.03],[-9.65,13.05],[-10.14,13.04],[-10.72,13.02],[-11.38,13.12],[-11.86,13.25],[-12.2,13.24],[-12.84,13.15],[-13.4,13.04],[-14,12.81],[-14.72,12.46],[-15.25,12.19],[-16.03,12.09],[-16.56,11.98],[-17.36,11.88],[-18.13,11.86],[-18.6,11.87],[-19.13,11.63],[-19.51,11.79],[-19.76,11.72],[-20,11.17],[-20.37,10.87],[-20.84,10.77],[-21.18,10.52],[-21.51,10.27],[-21.69,10.28],[-21.94,10.27],[-22.41,10.15],[-22.7,10.17],[-22.99,10.27],[-23.23,10.3],[-23.37,10.2],[-23.79,10.07],[-23.99,9.64],[-24.28,9.21],[-24.79,8.77],[-25.29,8.33],[-25.66,8.05],[-26.45,7.55],[-27.09,7.27],[-27.29,6.66],[-27.54,5.91],[-28.02,5.49],[-28.6,5.1],[-29.23,5],[-29.87,4.89],[-30.39,4.77],[-30.71,4.7],[-31.05,4.63],[-31.18,4.44],[-31.56,4.17],[-31.95,3.87],[-32.37,3.51],[-32.67,3.23],[-32.87,3.11],[-32.87,3.11],[-32.88,3.13],[-33.57,3.8],[-34.06,4.3],[-34.56,4.79],[-35.26,5.26],[-35.98,5.73],[-36.6,6.29],[-37.26,6.68],[-37.75,6.98],[-38.24,7.27],[-38.72,7.53],[-39.2,7.78],[-39.66,8.06],[-40.12,8.33],[-40.92,8.92],[-41.64,9.12],[-42.36,9.33],[-42.87,9.5],[-43.38,9.67],[-44.39,9.68],[-44.92,9.72],[-45.44,9.77],[-46.14,9.38],[-46.84,8.99],[-47.54,8.6],[-48.27,7.95],[-49.01,7.3],[-49.74,6.65],[-50.01,5.96],[-50.4,5.59],[-50.79,5.22],[-51.45,4.49],[-52.06,4.12],[-52.74,3.62],[-53.41,3.11],[-54.2,2.95],[-54.99,2.8],[-55.94,2.59],[-56.89,2.38],[-57.65,2.19],[-58.41,2],[-59.35,1.8],[-60.29,1.6],[-61.18,1.49],[-61.18,1.49],[-61.12,2.16],[-61.05,2.83],[-60.91,3.59],[-60.78,4.35],[-60.64,5.1],[-60.46,5.9],[-60.28,6.7],[-60.1,7.5],[-59.84,8.22],[-59.58,8.95],[-59.31,9.68],[-58.92,10.04],[-58.53,10.41],[-57.98,10.87],[-57.44,11.34],[-57,11.82],[-56.56,12.31],[-56.52,12.37],[-56.52,12.37],[-56.61,13.22],[-56.7,14.06],[-56.78,14.91],[-56.87,15.75],[-56.96,16.59],[-57.09,17.54],[-57.23,18.49],[-57.37,19.44],[-57.5,20.38],[-57.64,21.33],[-57.78,22.28],[-57.93,23.22],[-57.98,23.99],[-58.03,24.77],[-58.08,25.54],[-58.14,26.31],[-57.73,27.09],[-57.32,27.87],[-56.91,28.65],[-56.48,29.43],[-56.05,30.21],[-55.39,30.95],[-54.71,31.68],[-54.02,32.41],[-53.33,33.14],[-52.72,33.74],[-52.1,34.34],[-52.1,34.34],[-52.32,34.98],[-52.54,35.62],[-52.76,36.27],[-52.93,37.07],[-53.11,37.87],[-53.29,38.67],[-53.09,39.54],[-52.88,40.41],[-52.66,41.28],[-52.39,42.04],[-52.11,42.81],[-51.82,43.58],[-51.52,44.34],[-50.94,45.21],[-50.33,46.07],[-49.89,46.82],[-49.43,47.56],[-48.96,48.3],[-48.89,49.05],[-48.83,49.79],[-48.76,50.54],[-49.15,51.25],[-49.55,51.96],[-49.96,52.67],[-50.17,53.62],[-50.38,54.56],[-50.6,55.5],[-50.6,55.5],[-49.25,55.5],[-47.9,55.48],[-46.55,55.45],[-45.2,55.4],[-43.53,55.17],[-41.87,54.91],[-40.24,54.64],[-39.01,54.09],[-37.81,53.54],[-36.64,52.97],[-35.5,52.4],[-34.39,51.81],[-33.37,51.37],[-32.37,50.91],[-31.39,50.45],[-30.43,49.99],[-30.43,49.99],[-30.6,49.78],[-30.77,49.67],[-30.81,49.64],[-30.81,49.64],[-30.38,49.65],[-29.49,49.77],[-28.75,49.95],[-28,50.14],[-27.21,50.31],[-26.43,50.48],[-25.54,50.7],[-24.65,50.92],[-23.23,51.22],[-21.79,51.51],[-20.61,51.58],[-19.43,51.64],[-18.22,51.43],[-17.03,51.22],[-15.84,50.99],[-14.75,50.84],[-13.67,50.68],[-12.59,50.52],[-11.32,50.45],[-10.06,50.38],[-8.63,50.52],[-7.19,50.65],[-5.87,50.62],[-4.56,50.57],[-3.26,50.52]]]}},{"type":"Feature","properties":{"ma":180,"type":"gpml:TopologicalClosedPlateBoundary","name":"Pacific Plate","pid":901,"deforming":false},"geometry":{"type":"Polygon","coordinates":[[[-142.62,-2.7],[-143.59,-2.64],[-144.56,-2.58],[-145.53,-2.51],[-146.5,-2.45],[-147.47,-2.38],[-148.44,-2.32],[-149.41,-2.25],[-150.38,-2.18],[-151.35,-2.11],[-152.32,-2.05],[-153.29,-1.98],[-154.26,-1.91],[-155.23,-1.84],[-156.2,-1.77],[-157.17,-1.7],[-157.17,-1.7],[-157.17,-1.7],[-157.17,-1.7],[-157.2,-1.69],[-157.3,-1.68],[-157.3,-1.68],[-156.59,-1.34],[-155.75,-0.9],[-154.91,-0.46],[-154.08,-0.02],[-153.24,0.42],[-152.4,0.86],[-151.57,1.3],[-150.73,1.74],[-149.89,2.18],[-149.03,2.62],[-148.16,3.07],[-147.29,3.51],[-146.43,3.95],[-146.39,3.97],[-146.39,3.97],[-146.4,3.94],[-146.4,3.94],[-145.87,3.2],[-145.34,2.45],[-144.81,1.71],[-144.29,0.96],[-143.76,0.22],[-143.23,-0.53],[-142.71,-1.27],[-142.18,-2.02],[-141.65,-2.76],[-142.62,-2.7]]]}},{"type":"Feature","properties":{"ma":180,"type":"gpml:TopologicalClosedPlateBoundary","name":"Phoenix Plate","pid":919,"deforming":false},"geometry":{"type":"MultiPolygon","coordinates":[[[[180,-4.14],[180,-5.14],[180,-6.14],[180,-7.14],[180,-8.13],[180,-9.13],[180,-10.13],[180,-11.13],[180,-12.12],[180,-13.12],[180,-14.12],[180,-15.12],[180,-16.12],[180,-17.11],[180,-18.11],[180,-19.11],[180,-20.11],[180,-21.1],[180,-22.1],[180,-23.1],[180,-24.1],[180,-25.09],[180,-26.09],[180,-27.09],[180,-28.09],[180,-29.08],[180,-30.08],[180,-31.08],[180,-32.08],[180,-33.07],[180,-34.07],[180,-35.07],[180,-36.07],[180,-37.07],[180,-38.06],[180,-39.06],[180,-40.06],[180,-41.06],[180,-42.05],[180,-43.05],[180,-44.05],[180,-45.05],[180,-46.04],[180,-47.04],[180,-48.04],[180,-49.04],[180,-50.03],[180,-51.03],[180,-52.03],[180,-53.03],[180,-54.02],[180,-55.02],[180,-56.02],[180,-57.02],[180,-58.02],[180,-59.01],[180,-60.01],[180,-61.01],[180,-62.01],[180,-63],[180,-64],[180,-65],[180,-66],[180,-66.99],[180,-67.99],[180,-68.99],[180,-69.99],[180,-70.98],[180,-71.98],[180,-72.98],[180,-73.98],[180,-74.97],[180,-75.97],[176.11,-75.86],[172.3,-75.69],[168.6,-75.46],[165.38,-75.34],[162.22,-75.19],[159.13,-74.99],[156.13,-74.75],[153.22,-74.47],[153.22,-74.47],[152.57,-73.65],[151.98,-72.82],[151.44,-72],[149.98,-71.17],[150.37,-70.65],[151.65,-69.75],[152.82,-68.85],[153.84,-67.93],[154.78,-67],[155.12,-66.44],[155.44,-65.88],[155.32,-65.29],[155.2,-64.71],[154.48,-63.94],[153.79,-63.17],[153.14,-62.4],[152.52,-61.63],[151.72,-60.74],[150.97,-59.84],[150.25,-58.94],[149.57,-58.04],[148.93,-57.13],[148.77,-56.26],[148.63,-55.38],[148.49,-54.51],[148.36,-53.64],[148.23,-52.76],[148.02,-51.96],[147.81,-51.16],[147.6,-50.36],[147.41,-49.56],[147.22,-48.76],[147.09,-48.02],[146.96,-47.28],[146.83,-46.54],[146.83,-46.54],[145.72,-45.98],[144.64,-45.4],[143.58,-44.82],[142.53,-44.22],[141.37,-43.8],[140.22,-43.37],[139.57,-43.09],[138.93,-42.81],[138.48,-42.34],[138.03,-41.86],[137.56,-41.21],[137.09,-40.56],[136.4,-39.79],[135.72,-39.02],[135.06,-38.24],[134.41,-37.46],[134.42,-36.6],[134.43,-35.74],[134.44,-34.87],[134.45,-34.01],[134.45,-33.15],[134.48,-32.21],[134.5,-31.26],[134.52,-30.32],[134.55,-29.38],[134.57,-28.44],[134.59,-27.5],[134.61,-26.56],[134.63,-25.62],[134.66,-24.74],[134.69,-23.87],[134.73,-23],[134.76,-22.12],[134.79,-21.25],[134.82,-20.37],[134.85,-19.5],[134.82,-18.61],[134.8,-17.71],[134.77,-16.82],[134.75,-15.93],[134.72,-15.04],[134.7,-14.15],[134.68,-13.25],[134.65,-12.36],[134.68,-12.01],[135.66,-11.83],[136.63,-11.65],[137.6,-11.47],[138.58,-11.28],[139.55,-11.09],[140.52,-10.89],[141.49,-10.7],[142.45,-10.5],[143.42,-10.29],[143.7,-11.04],[143.98,-11.78],[144.93,-11.53],[145.88,-11.27],[146.83,-11.02],[147.78,-10.76],[148.72,-10.49],[149.67,-10.23],[150.61,-9.96],[151.55,-9.69],[152.49,-9.41],[153.43,-9.14],[154.36,-8.86],[155.3,-8.58],[156.23,-8.29],[157.16,-8.01],[158.09,-7.72],[159.02,-7.43],[159.21,-8.08],[159.4,-8.73],[160.35,-8.42],[161.3,-8.1],[162.25,-7.79],[163.2,-7.47],[164.15,-7.14],[165.09,-6.82],[166.04,-6.49],[166.98,-6.17],[167.92,-5.84],[168.86,-5.51],[169.8,-5.17],[170.74,-4.84],[171.68,-4.51],[172.62,-4.17],[172.86,-4.81],[173.1,-5.44],[173.96,-5.16],[174.83,-4.87],[175.69,-4.59],[176.55,-4.3],[177.42,-4.01],[178.28,-3.73],[179.14,-3.44],[180,-3.15],[180,-4.14]]],[[[-180,-74.97],[-180,-73.98],[-180,-72.98],[-180,-71.98],[-180,-70.98],[-180,-69.99],[-180,-68.99],[-180,-67.99],[-180,-66.99],[-180,-66],[-180,-65],[-180,-64],[-180,-63],[-180,-62.01],[-180,-61.01],[-180,-60.01],[-180,-59.01],[-180,-58.02],[-180,-57.02],[-180,-56.02],[-180,-55.02],[-180,-54.02],[-180,-53.03],[-180,-52.03],[-180,-51.03],[-180,-50.03],[-180,-49.04],[-180,-48.04],[-180,-47.04],[-180,-46.04],[-180,-45.05],[-180,-44.05],[-180,-43.05],[-180,-42.05],[-180,-41.06],[-180,-40.06],[-180,-39.06],[-180,-38.06],[-180,-37.07],[-180,-36.07],[-180,-35.07],[-180,-34.07],[-180,-33.07],[-180,-32.08],[-180,-31.08],[-180,-30.08],[-180,-29.08],[-180,-28.09],[-180,-27.09],[-180,-26.09],[-180,-25.09],[-180,-24.1],[-180,-23.1],[-180,-22.1],[-180,-21.1],[-180,-20.11],[-180,-19.11],[-180,-18.11],[-180,-17.11],[-180,-16.12],[-180,-15.12],[-180,-14.12],[-180,-13.12],[-180,-12.12],[-180,-11.13],[-180,-10.13],[-180,-9.13],[-180,-8.13],[-180,-7.14],[-180,-6.14],[-180,-5.14],[-180,-4.14],[-180,-3.15],[-179.08,-2.83],[-178.16,-2.52],[-177.24,-2.21],[-177.05,-2.91],[-176.86,-3.61],[-176.68,-4.31],[-175.73,-4.04],[-174.77,-3.76],[-173.82,-3.49],[-172.87,-3.22],[-171.92,-2.94],[-170.98,-2.66],[-170.03,-2.38],[-169.08,-2.11],[-168.13,-1.83],[-167.18,-1.55],[-166.97,-2.27],[-166.76,-2.98],[-166.55,-3.7],[-165.61,-3.51],[-164.67,-3.31],[-163.73,-3.11],[-162.79,-2.91],[-161.85,-2.71],[-160.92,-2.51],[-159.98,-2.3],[-159.04,-2.1],[-158.1,-1.9],[-157.17,-1.7],[-157.17,-1.7],[-156.22,-1.76],[-155.26,-1.83],[-154.31,-1.9],[-153.36,-1.97],[-152.41,-2.04],[-151.46,-2.11],[-150.51,-2.17],[-149.55,-2.24],[-148.6,-2.3],[-147.65,-2.37],[-146.7,-2.43],[-145.75,-2.5],[-144.79,-2.56],[-143.84,-2.62],[-142.89,-2.68],[-141.94,-2.74],[-140.98,-2.8],[-140.03,-2.86],[-140.03,-2.86],[-139.83,-2.99],[-139.03,-3.49],[-138.22,-4],[-137.41,-4.5],[-136.6,-5.01],[-135.78,-5.51],[-134.97,-6.01],[-134.16,-6.52],[-133.34,-7.01],[-132.52,-7.51],[-132.91,-8.13],[-133.31,-8.76],[-133.7,-9.38],[-132.85,-9.91],[-132,-10.45],[-131.14,-10.98],[-130.28,-11.51],[-129.42,-12.04],[-128.55,-12.57],[-127.68,-13.09],[-126.81,-13.61],[-125.93,-14.12],[-125.05,-14.64],[-124.17,-15.15],[-123.28,-15.65],[-123.74,-16.41],[-124.21,-17.16],[-123.35,-17.63],[-122.49,-18.09],[-121.62,-18.55],[-120.75,-19.01],[-119.87,-19.46],[-118.99,-19.91],[-118.1,-20.35],[-117.21,-20.79],[-116.31,-21.23],[-115.4,-21.66],[-114.5,-22.08],[-113.58,-22.5],[-112.66,-22.92],[-113,-23.63],[-113.33,-24.34],[-113.68,-25.05],[-112.74,-25.44],[-111.8,-25.82],[-110.85,-26.2],[-109.89,-26.57],[-108.93,-26.94],[-107.96,-27.3],[-106.99,-27.65],[-106.01,-27.99],[-105.02,-28.33],[-104.03,-28.66],[-103.03,-28.99],[-102.02,-29.3],[-101.01,-29.61],[-101.28,-30.35],[-101.55,-31.08],[-100.49,-31.37],[-99.42,-31.65],[-98.35,-31.92],[-97.28,-32.18],[-96.2,-32.43],[-95.11,-32.67],[-94.01,-32.9],[-92.91,-33.13],[-91.81,-33.34],[-90.7,-33.54],[-89.58,-33.74],[-88.46,-33.92],[-87.34,-34.1],[-86.21,-34.26],[-85.07,-34.41],[-85.02,-33.62],[-83.86,-33.72],[-82.7,-33.81],[-81.54,-33.89],[-80.38,-33.96],[-79.21,-34.02],[-78.04,-34.06],[-76.88,-34.1],[-75.71,-34.12],[-74.54,-34.13],[-73.37,-34.13],[-72.2,-34.13],[-71.07,-34.11],[-69.95,-34.09],[-68.83,-34.05],[-67.7,-34.01],[-66.58,-33.95],[-65.46,-33.89],[-64.35,-33.81],[-63.23,-33.73],[-62.12,-33.64],[-61.01,-33.53],[-59.9,-33.42],[-58.8,-33.29],[-57.69,-33.16],[-57.69,-33.16],[-57.77,-33.57],[-57.79,-33.89],[-57.86,-34.28],[-57.92,-34.71],[-58.05,-35.58],[-58.18,-36.44],[-58.35,-37.21],[-58.52,-37.98],[-58.69,-38.75],[-58.87,-39.51],[-59.32,-40.27],[-59.78,-41.03],[-60.25,-41.78],[-60.73,-42.53],[-61.22,-43.28],[-61.32,-44.12],[-61.43,-44.96],[-61.52,-45.7],[-61.62,-46.43],[-62.1,-47.24],[-62.6,-48.04],[-62.71,-48.31],[-62.73,-48.43],[-62.73,-48.43],[-62.81,-48.76],[-62.81,-48.76],[-63.16,-49.33],[-63.43,-49.6],[-63.58,-49.96],[-63.69,-50.24],[-63.89,-50.7],[-64.04,-50.98],[-64.31,-51.49],[-64.5,-51.85],[-64.7,-52.25],[-64.9,-52.66],[-65.2,-53.3],[-65.33,-53.56],[-65.51,-53.91],[-65.66,-54.23],[-65.81,-54.53],[-65.96,-54.89],[-66.07,-55.19],[-66.17,-55.44],[-66.2,-55.52],[-66.24,-55.75],[-66.3,-56.03],[-66.34,-56.47],[-66.58,-56.79],[-66.88,-57.11],[-67.31,-57.49],[-67.78,-57.93],[-68.07,-58.21],[-68.31,-58.45],[-68.52,-58.65],[-68.83,-58.99],[-69.06,-59.43],[-69.12,-59.79],[-69.14,-60.11],[-69.18,-60.36],[-69.14,-60.67],[-69.12,-61.01],[-69.03,-61.39],[-68.91,-61.79],[-68.92,-62.11],[-68.97,-62.27],[-69.03,-62.6],[-69.11,-62.98],[-69.18,-63.34],[-69.17,-63.72],[-69.15,-63.78],[-68.92,-64.18],[-68.81,-64.27],[-68.81,-64.27],[-70,-65.04],[-71.26,-65.79],[-73.05,-66.39],[-74.93,-66.97],[-76.9,-67.53],[-78.96,-68.06],[-81.11,-68.56],[-83.01,-69.01],[-84.98,-69.44],[-87.03,-69.84],[-89.16,-70.23],[-90.93,-70.71],[-92.78,-71.17],[-94.73,-71.62],[-96.76,-72.04],[-98.98,-72.49],[-101.32,-72.91],[-103.76,-73.3],[-106.31,-73.66],[-108.96,-74],[-111.71,-74.29],[-114.56,-74.55],[-117.49,-74.78],[-120.85,-74.98],[-124.28,-75.13],[-127.77,-75.23],[-131.29,-75.27],[-134.82,-75.26],[-138.67,-75.35],[-142.54,-75.38],[-146.41,-75.34],[-150.24,-75.23],[-154,-75.07],[-157.45,-75.37],[-161.03,-75.61],[-164.72,-75.8],[-168.49,-75.94],[-172.32,-76.01],[-176.16,-76.02],[-180,-75.97],[-180,-74.97]]]]}},{"type":"Feature","properties":{"ma":180,"type":"gpml:TopologicalClosedPlateBoundary","name":"West Gondwana","pid":701,"deforming":false},"geometry":{"type":"Polygon","coordinates":[[[-69.12,-61],[-69.14,-60.67],[-69.18,-60.36],[-69.14,-60.11],[-69.12,-59.79],[-69.06,-59.43],[-68.83,-58.99],[-68.52,-58.65],[-68.31,-58.45],[-68.07,-58.21],[-67.78,-57.93],[-67.31,-57.49],[-66.88,-57.11],[-66.58,-56.79],[-66.34,-56.47],[-66.3,-56.03],[-66.24,-55.75],[-66.2,-55.52],[-66.17,-55.44],[-66.07,-55.19],[-65.96,-54.89],[-65.81,-54.53],[-65.66,-54.23],[-65.51,-53.91],[-65.33,-53.56],[-65.2,-53.3],[-64.9,-52.66],[-64.7,-52.25],[-64.5,-51.85],[-64.31,-51.49],[-64.04,-50.98],[-63.89,-50.7],[-63.69,-50.24],[-63.58,-49.96],[-63.43,-49.6],[-63.16,-49.33],[-62.81,-48.76],[-62.81,-48.76],[-62.73,-48.43],[-62.73,-48.43],[-62.71,-48.31],[-62.6,-48.04],[-62.1,-47.24],[-61.62,-46.43],[-61.52,-45.7],[-61.43,-44.96],[-61.32,-44.12],[-61.22,-43.28],[-60.73,-42.53],[-60.25,-41.78],[-59.78,-41.03],[-59.32,-40.27],[-58.87,-39.51],[-58.69,-38.75],[-58.52,-37.98],[-58.35,-37.21],[-58.18,-36.44],[-58.05,-35.58],[-57.92,-34.71],[-57.86,-34.28],[-57.79,-33.89],[-57.77,-33.57],[-57.67,-33],[-57.6,-32.29],[-57.44,-31.83],[-57.2,-31],[-57.08,-30.51],[-57.1,-29.91],[-57.1,-29.91],[-57.12,-29.63],[-57.16,-29.27],[-57.14,-28.71],[-57.28,-27.97],[-57.36,-27.44],[-57.43,-26.92],[-57.99,-26.14],[-58.17,-25.45],[-58.34,-24.76],[-58.5,-24.07],[-58.71,-23.26],[-58.91,-22.44],[-59.12,-21.63],[-59.2,-20.77],[-59.29,-19.91],[-59.38,-19.05],[-59.46,-18.2],[-59.55,-17.34],[-59.63,-16.48],[-59.68,-15.61],[-59.74,-14.74],[-59.79,-13.88],[-59.45,-13.08],[-59.1,-12.29],[-58.76,-11.49],[-58.42,-10.7],[-58.08,-9.9],[-57.98,-9.64],[-57.89,-9.4],[-57.76,-9.14],[-57.61,-8.79],[-57.52,-8.6],[-57.43,-8.36],[-57.22,-8.02],[-57.03,-7.71],[-56.87,-7.51],[-56.87,-7.51],[-56.64,-8.04],[-56.68,-8.49],[-56.68,-8.49],[-56.22,-8.52],[-55.66,-8.43],[-55.1,-8.33],[-54.52,-8.45],[-53.93,-8.56],[-53.42,-8.77],[-52.91,-8.98],[-52.24,-9.34],[-51.58,-9.7],[-50.72,-9.93],[-49.85,-10.17],[-49.03,-10],[-48.22,-9.84],[-47.48,-9.47],[-46.74,-9.11],[-46.09,-8.76],[-45.45,-8.41],[-44.82,-8.19],[-44.19,-7.97],[-43.63,-7.89],[-43.06,-7.81],[-42.55,-7.7],[-42.03,-7.58],[-41.43,-7.49],[-40.82,-7.41],[-40.2,-6.93],[-39.59,-6.45],[-38.84,-6.32],[-38.09,-6.18],[-37.42,-6.3],[-36.75,-6.42],[-36.08,-6.54],[-35.31,-6.63],[-34.53,-6.73],[-33.64,-7.03],[-33.13,-7.09],[-32.62,-7.15],[-32.04,-7.17],[-31.47,-7.19],[-30.86,-7],[-30.26,-6.8],[-29.46,-6.62],[-28.66,-6.44],[-27.86,-6.26],[-27.35,-5.6],[-26.85,-4.95],[-26.72,-4.23],[-26.59,-3.51],[-26.56,-3.04],[-26.56,-3.04],[-26.37,-3.18],[-26.22,-3.29],[-26.22,-3.29],[-26.09,-2.82],[-25.82,-2.46],[-25.43,-2.17],[-24.81,-1.91],[-24.39,-1.93],[-23.94,-1.97],[-23.72,-1.62],[-23.57,-1.37],[-23.38,-1.1],[-23.06,-0.9],[-22.84,-0.54],[-22.6,-0.12],[-22.51,0.66],[-22.42,1.1],[-22.28,1.53],[-22.02,1.76],[-21.8,1.95],[-21.4,2.49],[-21.05,3.02],[-20.8,3.63],[-20.53,4.06],[-20.26,4.49],[-19.9,4.92],[-19.54,5.35],[-19.06,5.54],[-18.58,5.74],[-18.44,5.83],[-17.56,5.65],[-16.61,5.58],[-16.1,5.54],[-15.94,5.44],[-15.39,5.34],[-14.65,5.62],[-13.86,5.98],[-13.41,6.3],[-12.5,6.55],[-11.95,6.81],[-11.22,6.94],[-10.4,7.02],[-9.73,7.26],[-9.41,7.29],[-9.41,7.29],[-9.36,7.26],[-9.11,7.14],[-8.78,6.96],[-8.38,6.74],[-7.81,6.39],[-7.13,6.01],[-6.83,5.88],[-6.32,5.69],[-5.92,5.54],[-5.48,5.37],[-4.73,5.02],[-4.4,4.85],[-3.54,4.44],[-2.81,4.08],[-2.81,4.08],[-2.11,4.05],[-1.46,4.06],[-0.82,4.07],[-0.06,3.95],[0.82,3.85],[1.2,3.71],[1.2,3.71],[1.65,3.6],[2.08,3.51],[2.36,3.47],[2.75,3.61],[3.14,3.62],[4.03,3.52],[4.79,3.39],[5.52,3.34],[6.35,3.23],[7.07,3.17],[7.07,3.17],[6.45,3.57],[5.63,4.09],[5.63,4.09],[6.53,4.33],[7.42,4.56],[8.31,4.8],[9.21,5.03],[10.01,5.34],[10.81,5.65],[11.62,5.95],[12.42,6.26],[13.23,6.56],[13.23,6.56],[13.16,6.63],[13.01,7.43],[12.85,8.22],[12.7,9.01],[12.54,9.8],[12.54,9.8],[13.36,10.36],[14.18,10.93],[14.18,10.93],[13.92,11.33],[13.92,11.33],[14.49,11.75],[15.06,12.18],[15.64,12.6],[15.64,12.6],[16.46,12],[17.25,11.57],[18.04,11.13],[18.83,10.68],[19.62,10.24],[19.62,10.24],[20.31,10.71],[21,11.17],[21.69,11.64],[22.41,12.16],[23.13,12.69],[23.86,13.21],[24.58,13.72],[24.58,13.72],[25.23,13.39],[25.88,13.05],[26.52,12.7],[27.03,13.17],[27.53,13.64],[28.41,13.16],[29.3,12.68],[30.17,12.2],[31.05,11.72],[31.92,11.23],[32.79,10.74],[33.65,10.25],[34.52,9.76],[35.38,9.26],[35.85,9.69],[36.64,9.13],[37.42,8.57],[38.21,8.01],[38.99,7.44],[39.77,6.87],[40.55,6.31],[41.33,5.74],[41.33,5.74],[41.05,5.4],[41.05,5.4],[41.77,4.92],[42.5,4.44],[43.22,3.96],[43.94,3.47],[44.66,2.99],[45.39,2.5],[46.11,2.02],[46.51,2.57],[46.91,3.11],[47.31,3.66],[48.13,3.14],[48.94,2.62],[49.76,2.1],[50.57,1.58],[51.39,1.06],[52.2,0.54],[53.02,0.02],[53.83,-0.51],[54.64,-1.03],[55.46,-1.55],[56.27,-2.07],[57.09,-2.59],[57.9,-3.11],[58.72,-3.63],[59.54,-4.15],[60.35,-4.67],[61.06,-5.08],[61.77,-5.49],[62.47,-5.91],[63.18,-6.32],[63.89,-6.73],[63.89,-6.73],[63.58,-7.4],[63.26,-8.08],[62.94,-8.75],[62.45,-9.62],[61.95,-10.48],[61.44,-11.34],[60.94,-12.19],[60.43,-13.05],[59.92,-13.91],[59.4,-14.76],[58.88,-15.62],[58.29,-16.34],[57.7,-17.06],[57.1,-17.77],[56.5,-18.49],[55.9,-19.2],[55.28,-19.92],[54.67,-20.62],[54.04,-21.33],[53.42,-22.04],[52.78,-22.74],[52.11,-23.33],[51.44,-23.91],[50.77,-24.49],[50.08,-25.07],[49.39,-25.64],[48.7,-26.21],[48.02,-26.94],[47.34,-27.67],[47.34,-27.67],[47.26,-27.5],[46.67,-26.94],[46.09,-26.38],[45.51,-25.81],[45.51,-25.81],[44.88,-26.47],[44.09,-27.08],[43.29,-27.69],[42.47,-28.3],[41.76,-28.79],[41.03,-29.27],[40.39,-29.77],[39.74,-30.26],[39.08,-30.74],[38.24,-31.14],[37.4,-31.54],[36.55,-31.92],[35.64,-32.23],[34.74,-32.53],[34.13,-32.73],[33.53,-32.93],[33.14,-33.33],[32.76,-33.72],[32.4,-34.14],[32.04,-34.56],[31.32,-34.95],[30.59,-35.33],[29.64,-35.51],[28.69,-35.68],[27.82,-35.76],[26.95,-35.84],[25.96,-35.96],[24.97,-36.07],[24.02,-36.46],[23.05,-36.84],[22.36,-37.25],[21.66,-37.65],[21.25,-38.46],[20.82,-39.27],[20.46,-40.06],[20.07,-40.83],[19.35,-41.39],[18.62,-41.95],[17.87,-42.51],[17.33,-43.14],[16.77,-43.78],[16.21,-44.41],[15.3,-44.83],[14.37,-45.24],[13.59,-45.67],[12.8,-46.08],[12.31,-46.5],[11.82,-46.91],[11.24,-47.54],[10.64,-48.16],[10.39,-48.94],[10.13,-49.73],[9.85,-50.45],[9.55,-51.17],[9.43,-51.94],[9.3,-52.71],[8.86,-53.52],[8.4,-54.33],[7.5,-55.17],[6.34,-55.54],[5.15,-55.89],[3.54,-55.98],[1.92,-56.05],[0.82,-56.06],[-0.28,-56.06],[-1.95,-56.28],[-2.92,-56.72],[-4.54,-56.78],[-5.59,-57.19],[-6.67,-57.59],[-7.64,-58],[-8.63,-58.4],[-10.4,-58.53],[-12.18,-58.64],[-13.83,-58.99],[-15.51,-59.32],[-16.9,-59.68],[-18.31,-60.02],[-19.31,-60.47],[-20.33,-60.91],[-21.38,-61.35],[-22.86,-61.51],[-24.36,-61.66],[-25.88,-61.8],[-27.99,-61.84],[-30.1,-61.85],[-32.22,-61.83],[-33.84,-61.94],[-35.48,-62.03],[-36.92,-62.16],[-38.37,-62.28],[-40.37,-62.47],[-42.4,-62.64],[-44.45,-62.78],[-46.54,-62.71],[-48.61,-62.61],[-50.67,-62.47],[-52.17,-62.49],[-53.67,-62.49],[-55.16,-62.47],[-56.96,-62.33],[-58.73,-62.18],[-60.49,-62],[-62.22,-61.79],[-63.93,-61.57],[-65.68,-61.4],[-67.41,-61.21],[-69.12,-61]]]}},{"type":"Feature","properties":{"ma":180,"type":"gpml:TopologicalClosedPlateBoundary","name":"Farallon Plate 186-183","pid":902,"deforming":false},"geometry":{"type":"Polygon","coordinates":[[[-70.28,71.79],[-68.97,71.14],[-67.75,70.48],[-66.61,69.82],[-65.53,69.14],[-64.28,68.5],[-63.1,67.85],[-61.98,67.19],[-60.93,66.52],[-59.17,65.89],[-57.51,65.24],[-55.92,64.57],[-54.36,63.91],[-52.86,63.24],[-51.44,62.55],[-49.98,61.96],[-48.57,61.36],[-47.22,60.75],[-47.22,60.75],[-47.84,59.99],[-48.44,59.22],[-49,58.46],[-49.55,57.69],[-49.92,57.02],[-50.29,56.35],[-50.64,55.68],[-50.46,54.93],[-50.29,54.18],[-50.12,53.42],[-49.96,52.67],[-49.55,51.96],[-49.15,51.25],[-48.76,50.54],[-48.83,49.79],[-48.89,49.05],[-48.96,48.3],[-49.43,47.56],[-49.89,46.82],[-50.33,46.07],[-50.94,45.21],[-51.52,44.34],[-51.82,43.58],[-52.11,42.81],[-52.39,42.04],[-52.66,41.28],[-52.88,40.41],[-53.09,39.54],[-53.29,38.67],[-53.11,37.87],[-52.93,37.07],[-52.76,36.27],[-52.54,35.62],[-52.32,34.98],[-52.1,34.34],[-52.1,34.34],[-52.72,33.74],[-53.33,33.14],[-54.02,32.41],[-54.71,31.68],[-55.39,30.95],[-56.05,30.21],[-56.48,29.43],[-56.91,28.65],[-57.32,27.87],[-57.73,27.09],[-58.14,26.31],[-58.08,25.54],[-58.03,24.77],[-57.98,23.99],[-57.93,23.22],[-57.78,22.28],[-57.64,21.33],[-57.5,20.38],[-57.37,19.44],[-57.23,18.49],[-57.09,17.54],[-56.96,16.59],[-56.87,15.75],[-56.78,14.91],[-56.7,14.06],[-56.61,13.22],[-56.52,12.37],[-56.52,12.37],[-56.56,12.31],[-57,11.82],[-57.44,11.34],[-57.98,10.87],[-58.53,10.41],[-58.92,10.04],[-59.31,9.68],[-59.58,8.95],[-59.84,8.22],[-60.1,7.5],[-60.28,6.7],[-60.46,5.9],[-60.64,5.1],[-60.78,4.35],[-60.91,3.59],[-61.05,2.83],[-61.12,2.08],[-61.2,1.33],[-60.79,0.71],[-60.38,0.09],[-60.16,-0.59],[-59.94,-1.27],[-59.72,-1.95],[-59.43,-2.59],[-59.15,-3.22],[-58.78,-3.85],[-58.42,-4.48],[-58.06,-5.12],[-57.65,-5.87],[-57.25,-6.63],[-56.87,-7.51],[-56.87,-7.51],[-57.03,-7.71],[-57.22,-8.02],[-57.43,-8.36],[-57.52,-8.6],[-57.61,-8.79],[-57.76,-9.14],[-57.89,-9.4],[-57.98,-9.64],[-58.08,-9.9],[-58.42,-10.7],[-58.76,-11.49],[-59.1,-12.29],[-59.45,-13.08],[-59.79,-13.88],[-59.74,-14.74],[-59.68,-15.61],[-59.63,-16.48],[-59.55,-17.34],[-59.46,-18.2],[-59.38,-19.05],[-59.29,-19.91],[-59.2,-20.77],[-59.12,-21.63],[-58.91,-22.44],[-58.71,-23.26],[-58.5,-24.07],[-58.34,-24.76],[-58.17,-25.45],[-57.99,-26.14],[-57.43,-26.92],[-57.36,-27.44],[-57.28,-27.97],[-57.14,-28.71],[-57.16,-29.27],[-57.12,-29.63],[-57.1,-29.91],[-57.1,-29.91],[-57.08,-30.51],[-57.2,-31],[-57.44,-31.83],[-57.6,-32.29],[-57.67,-33],[-57.69,-33.16],[-57.69,-33.16],[-58.8,-33.29],[-59.9,-33.42],[-61.01,-33.53],[-62.12,-33.64],[-63.23,-33.73],[-64.35,-33.81],[-65.46,-33.89],[-66.58,-33.95],[-67.7,-34.01],[-68.83,-34.05],[-69.95,-34.09],[-71.07,-34.11],[-72.2,-34.13],[-73.37,-34.13],[-74.54,-34.13],[-75.71,-34.12],[-76.88,-34.1],[-78.04,-34.06],[-79.21,-34.02],[-80.38,-33.96],[-81.54,-33.89],[-82.7,-33.81],[-83.86,-33.72],[-85.02,-33.62],[-85.07,-34.41],[-86.21,-34.26],[-87.34,-34.1],[-88.46,-33.92],[-89.58,-33.74],[-90.7,-33.54],[-91.81,-33.34],[-92.91,-33.13],[-94.01,-32.9],[-95.11,-32.67],[-96.2,-32.43],[-97.28,-32.18],[-98.35,-31.92],[-99.42,-31.65],[-100.49,-31.37],[-101.55,-31.08],[-101.28,-30.35],[-101.01,-29.61],[-102.02,-29.3],[-103.03,-28.99],[-104.03,-28.66],[-105.02,-28.33],[-106.01,-27.99],[-106.99,-27.65],[-107.96,-27.3],[-108.93,-26.94],[-109.89,-26.57],[-110.85,-26.2],[-111.8,-25.82],[-112.74,-25.44],[-113.68,-25.05],[-113.33,-24.34],[-113,-23.63],[-112.66,-22.92],[-113.58,-22.5],[-114.5,-22.08],[-115.4,-21.66],[-116.31,-21.23],[-117.21,-20.79],[-118.1,-20.35],[-118.99,-19.91],[-119.87,-19.46],[-120.75,-19.01],[-121.62,-18.55],[-122.49,-18.09],[-123.35,-17.63],[-124.21,-17.16],[-123.74,-16.41],[-123.28,-15.65],[-124.17,-15.15],[-125.05,-14.64],[-125.93,-14.12],[-126.81,-13.61],[-127.68,-13.09],[-128.55,-12.57],[-129.42,-12.04],[-130.28,-11.51],[-131.14,-10.98],[-132,-10.45],[-132.85,-9.91],[-133.7,-9.38],[-133.31,-8.76],[-132.91,-8.13],[-132.52,-7.51],[-133.34,-7.01],[-134.16,-6.52],[-134.97,-6.01],[-135.78,-5.51],[-136.6,-5.01],[-137.41,-4.5],[-138.22,-4],[-139.03,-3.49],[-139.83,-2.99],[-140.03,-2.86],[-140.03,-2.86],[-140.84,-2.81],[-141.65,-2.76],[-141.65,-2.76],[-142.18,-2.02],[-142.71,-1.27],[-143.23,-0.53],[-143.76,0.22],[-144.29,0.96],[-144.81,1.71],[-145.34,2.45],[-145.87,3.2],[-146.4,3.94],[-146.4,3.94],[-146.07,4.84],[-145.74,5.75],[-145.41,6.65],[-145.07,7.55],[-144.74,8.45],[-144.4,9.35],[-144.07,10.25],[-143.73,11.16],[-143.38,12.06],[-143.04,12.96],[-142.69,13.86],[-142.35,14.75],[-141.99,15.65],[-141.64,16.55],[-140.85,16.26],[-140.07,15.96],[-139.73,16.86],[-139.39,17.75],[-139.04,18.65],[-138.68,19.55],[-138.33,20.44],[-137.97,21.34],[-137.6,22.23],[-137.24,23.12],[-136.86,24.02],[-136.48,24.91],[-136.1,25.8],[-135.71,26.69],[-135.31,27.57],[-134.91,28.46],[-134.5,29.35],[-134.08,30.23],[-133.65,31.11],[-133.22,32],[-132.78,32.88],[-132.33,33.75],[-131.87,34.63],[-131.4,35.51],[-132.13,35.78],[-132.86,36.05],[-132.4,36.89],[-131.94,37.74],[-131.46,38.58],[-130.97,39.43],[-130.47,40.27],[-129.95,41.1],[-129.43,41.94],[-128.88,42.77],[-128.33,43.6],[-127.76,44.43],[-127.17,45.25],[-126.56,46.07],[-125.94,46.89],[-124.92,46.49],[-123.92,46.08],[-123.32,46.83],[-122.7,47.58],[-122.06,48.32],[-121.41,49.06],[-120.73,49.8],[-120.03,50.53],[-119.31,51.26],[-120.47,51.8],[-121.66,52.33],[-122.87,52.84],[-124.11,53.35],[-123.21,54.11],[-122.27,54.87],[-121.3,55.62],[-120.29,56.36],[-119.24,57.09],[-118.14,57.81],[-117,58.53],[-115.82,59.23],[-114.59,59.92],[-113.3,60.6],[-114.39,61.2],[-115.51,61.79],[-116.68,62.37],[-117.9,62.93],[-116.46,63.66],[-114.94,64.36],[-113.34,65.06],[-111.66,65.73],[-109.9,66.38],[-108.03,67.02],[-106.08,67.63],[-104.01,68.21],[-101.85,68.77],[-99.57,69.3],[-97.19,69.8],[-94.69,70.26],[-92.08,70.69],[-89.37,71.08],[-86.55,71.43],[-83.63,71.73],[-80.63,71.99],[-77.54,72.2],[-74.4,72.37],[-71.2,72.48],[-70.28,71.79]]]}},{"type":"Feature","properties":{"ma":180,"type":"gpml:TopologicalClosedPlateBoundary","name":"Junction Plate North","pid":786,"deforming":false},"geometry":{"type":"Polygon","coordinates":[[[114.27,-1.09],[114.54,-0.26],[114.82,0.57],[115.09,1.39],[115.37,2.22],[115.76,3.06],[116.15,3.89],[116.54,4.72],[116.93,5.55],[117.32,6.39],[117.72,7.22],[117.72,7.22],[118.2,6.65],[118.68,6.07],[119.26,5.44],[119.84,4.8],[120.42,4.16],[121,3.52],[121.57,2.88],[121.99,2.05],[122.4,1.21],[122.81,0.38],[123.23,-0.46],[123.94,-1.1],[124.66,-1.75],[125.38,-2.4],[126.1,-3.04],[126.82,-3.68],[127.54,-4.33],[128.26,-4.97],[128.99,-5.61],[129.71,-6.26],[130.44,-6.9],[131.16,-7.52],[131.88,-8.15],[132.6,-8.78],[133.33,-9.4],[134.05,-10.03],[134.78,-10.65],[134.78,-10.65],[134.72,-11.51],[134.65,-12.36],[134.68,-13.24],[134.7,-14.12],[134.72,-15],[134.75,-15.89],[134.75,-15.89],[133.83,-15.5],[132.92,-15.11],[132,-14.72],[131.1,-14.33],[130.19,-13.93],[130.55,-13.38],[130.9,-12.83],[130.11,-12.42],[129.31,-12],[128.52,-11.58],[127.74,-11.16],[126.95,-10.74],[126.17,-10.32],[125.39,-9.89],[124.61,-9.46],[124.92,-8.94],[125.23,-8.41],[124.43,-7.98],[123.64,-7.56],[122.85,-7.13],[122.06,-6.7],[121.28,-6.27],[120.49,-5.83],[119.7,-5.4],[120.01,-4.93],[120.32,-4.46],[119.49,-4],[118.67,-3.54],[117.84,-3.09],[117.02,-2.63],[116.2,-2.17],[115.55,-1.81],[114.91,-1.45],[114.27,-1.09]]]}},{"type":"Feature","properties":{"ma":180,"type":"gpml:TopologicalClosedPlateBoundary","name":"AACM","pid":18100,"deforming":false},"geometry":{"type":"Polygon","coordinates":[[[-9.67,74.65],[-9.01,73.8],[-8.42,72.94],[-7.88,72.08],[-7.39,71.22],[-7.19,70.33],[-7,69.44],[-6.83,68.54],[-6.67,67.65],[-6.66,67.58],[-6.61,67.24],[-6.61,67.13],[-6.59,66.97],[-6.56,66.68],[-6.51,66.26],[-6.51,66.26],[-6.26,65.39],[-6.02,64.52],[-5.8,63.65],[-5.59,62.77],[-5.35,61.93],[-5.13,61.08],[-4.91,60.24],[-4.71,59.39],[-4.52,58.54],[-4.24,57.82],[-3.98,57.1],[-3.73,56.38],[-4.34,55.81],[-4.14,55.07],[-3.94,54.33],[-3.75,53.58],[-3.75,53.58],[-5.1,53.9],[-6.47,54.19],[-8.01,54.43],[-9.56,54.64],[-11.13,54.83],[-12.48,54.86],[-13.84,54.88],[-14.83,54.89],[-15.89,54.88],[-16.77,54.86],[-17.8,54.84],[-18.59,54.81],[-19.53,54.77],[-20.35,54.73],[-21.08,54.58],[-21.75,54.43],[-22.34,54.4],[-23.45,54.22],[-24.03,54.07],[-24.73,53.84],[-25.77,53.1],[-26.53,52.66],[-27.27,52.2],[-27.89,51.96],[-28.19,51.76],[-28.96,51.09],[-29.2,50.88],[-30.17,50.28],[-30.43,49.99],[-30.43,49.99],[-31.39,50.45],[-32.37,50.91],[-33.37,51.37],[-34.39,51.81],[-35.5,52.4],[-36.64,52.97],[-37.81,53.54],[-39.01,54.09],[-40.24,54.64],[-41.87,54.91],[-43.53,55.17],[-45.2,55.4],[-46.55,55.45],[-47.9,55.48],[-49.25,55.5],[-50.6,55.5],[-50.6,55.5],[-50.64,55.68],[-50.29,56.35],[-49.92,57.02],[-49.55,57.69],[-49,58.46],[-48.44,59.22],[-47.84,59.99],[-47.22,60.75],[-47.22,60.75],[-48.57,61.36],[-49.98,61.96],[-51.44,62.55],[-52.86,63.24],[-54.36,63.91],[-55.92,64.57],[-57.51,65.24],[-59.17,65.89],[-60.93,66.52],[-61.7,67.01],[-62.5,67.5],[-62.5,67.5],[-60.99,68],[-59.41,68.41],[-57.78,68.8],[-56.1,69.17],[-53.64,69.57],[-51.1,69.93],[-49.3,70.2],[-47.46,70.45],[-45.58,70.68],[-43.33,71.07],[-40.99,71.43],[-38.57,71.77],[-36.7,72.11],[-34.76,72.43],[-32.76,72.73],[-30.05,72.88],[-27.3,73],[-24.52,73.07],[-21.29,73.4],[-17.93,73.66],[-15.29,74.03],[-12.54,74.36],[-9.67,74.65]]]}},{"type":"Feature","properties":{"ma":180,"type":"gpml:TopologicalClosedPlateBoundary","name":"Moroccan-Plate","pid":706,"deforming":false},"geometry":{"type":"Polygon","coordinates":[[[-0.68,7.64],[-0.05,7.17],[0.71,6.6],[1.38,6.3],[1.89,6.07],[2.39,5.84],[2.86,5.63],[3.32,5.42],[3.78,5.19],[4.24,4.97],[4.98,4.5],[5.72,4.04],[6.45,3.57],[7.07,3.17],[7.07,3.17],[6.35,3.23],[5.52,3.34],[4.79,3.39],[4.03,3.52],[3.14,3.62],[2.75,3.61],[2.36,3.47],[2.08,3.51],[1.65,3.6],[1.2,3.71],[1.2,3.71],[0.82,3.85],[-0.06,3.95],[-0.82,4.07],[-1.46,4.06],[-2.11,4.05],[-2.81,4.08],[-2.81,4.08],[-3.54,4.44],[-4.4,4.85],[-4.73,5.02],[-5.48,5.37],[-5.92,5.54],[-6.32,5.69],[-6.83,5.88],[-7.13,6.01],[-7.81,6.39],[-8.38,6.74],[-8.78,6.96],[-9.11,7.14],[-9.36,7.26],[-9.41,7.29],[-9.41,7.29],[-9.28,7.3],[-8.67,7.11],[-8.24,6.82],[-7.75,6.62],[-7.43,6.44],[-7.11,6.25],[-6.52,6.13],[-5.98,5.93],[-5.35,6.13],[-4.79,6.31],[-4.31,6.46],[-3.8,6.63],[-3.18,6.83],[-2.46,7.05],[-1.86,7.24],[-1.22,7.44],[-0.81,7.57],[-0.68,7.64]]]}},{"type":"Feature","properties":{"ma":180,"type":"gpml:TopologicalClosedPlateBoundary","name":"Izanagi Plate 168_161.1","pid":926,"deforming":false},"geometry":{"type":"MultiPolygon","coordinates":[[[[180,81.38],[180,80.39],[180,79.39],[180,78.4],[180,77.4],[180,76.41],[180,75.41],[180,74.42],[180,73.42],[180,72.43],[180,71.44],[180,70.44],[180,69.45],[180,68.45],[180,67.46],[180,66.46],[180,65.47],[180,64.47],[180,63.48],[180,62.49],[180,61.49],[180,60.5],[180,59.5],[180,58.51],[180,57.51],[180,56.52],[180,55.52],[180,54.53],[180,53.54],[180,52.54],[180,51.55],[180,50.55],[180,49.56],[180,48.56],[180,47.57],[180,46.58],[180,45.58],[180,44.59],[180,43.59],[180,42.6],[180,41.6],[180,40.61],[180,39.61],[180,38.62],[180,37.63],[180,36.63],[180,35.64],[180,34.64],[180,33.65],[180,32.65],[180,31.66],[180,30.66],[180,29.67],[180,28.68],[180,27.68],[180,26.69],[180,25.69],[180,24.7],[180,23.7],[180,22.71],[180,21.71],[180,20.72],[180,19.73],[180,18.73],[180,17.74],[180,16.74],[180,15.75],[180,14.75],[180,13.76],[180,12.76],[180,11.77],[180,10.78],[180,9.78],[180,8.79],[180,7.79],[180,6.8],[180,5.8],[180,4.81],[180,3.81],[180,2.82],[180,1.83],[180,0.83],[180,-0.16],[180,-1.16],[180,-2.15],[180,-3.15],[179.14,-3.44],[178.28,-3.73],[177.42,-4.01],[176.55,-4.3],[175.69,-4.59],[174.83,-4.87],[173.96,-5.16],[173.1,-5.44],[172.86,-4.81],[172.62,-4.17],[171.68,-4.51],[170.74,-4.84],[169.8,-5.17],[168.86,-5.51],[167.92,-5.84],[166.98,-6.17],[166.04,-6.49],[165.09,-6.82],[164.15,-7.14],[163.2,-7.47],[162.25,-7.79],[161.3,-8.1],[160.35,-8.42],[159.4,-8.73],[159.21,-8.08],[159.02,-7.43],[158.09,-7.72],[157.16,-8.01],[156.23,-8.29],[155.3,-8.58],[154.36,-8.86],[153.43,-9.14],[152.49,-9.41],[151.55,-9.69],[150.61,-9.96],[149.67,-10.23],[148.72,-10.49],[147.78,-10.76],[146.83,-11.02],[145.88,-11.27],[144.93,-11.53],[143.98,-11.78],[143.7,-11.04],[143.42,-10.29],[142.45,-10.5],[141.49,-10.7],[140.52,-10.89],[139.55,-11.09],[138.58,-11.28],[137.6,-11.47],[136.63,-11.65],[135.66,-11.83],[134.68,-12.01],[134.68,-12.01],[134.73,-11.33],[134.78,-10.65],[134.78,-10.65],[134.05,-10.03],[133.33,-9.4],[132.6,-8.78],[131.88,-8.15],[131.16,-7.52],[130.44,-6.9],[129.71,-6.26],[128.99,-5.61],[128.26,-4.97],[127.54,-4.33],[126.82,-3.68],[126.1,-3.04],[125.38,-2.4],[124.66,-1.75],[123.94,-1.1],[123.23,-0.46],[122.81,0.38],[122.4,1.21],[121.99,2.05],[121.57,2.88],[120.95,3.57],[120.34,4.25],[120.34,4.25],[120.84,4.62],[121.35,4.98],[122.05,5.42],[122.76,5.86],[123.46,6.29],[124.16,6.73],[124.65,7.33],[125.14,7.92],[125.63,8.52],[126.12,9.11],[126.53,9.76],[126.94,10.41],[127.35,11.05],[127.77,11.7],[128.35,12.48],[128.94,13.27],[129.54,14.05],[129.91,14.78],[130.28,15.51],[130.65,16.24],[131.02,16.97],[131.02,16.97],[130.29,17.29],[129.56,17.6],[128.83,17.91],[128.41,18.54],[127.99,19.17],[127.76,19.81],[127.53,20.44],[127.45,21.15],[126.82,21.91],[126.19,22.66],[125.57,23.37],[124.95,24.08],[124.49,24.62],[124.03,25.15],[123.57,25.68],[122.86,26.35],[122.14,27.01],[122.14,27.01],[122.76,27.84],[123.39,28.67],[124.03,29.49],[124.68,30.31],[125.34,31.13],[126.01,31.95],[126.5,32.82],[127.01,33.69],[127.52,34.56],[128.04,35.43],[128.43,36.27],[128.83,37.1],[129.24,37.94],[129.69,38.84],[130.16,39.73],[130.64,40.62],[131.07,41.38],[131.51,42.15],[131.96,42.91],[132.47,43.77],[132.99,44.63],[133.51,45.39],[134.04,46.14],[134.49,46.9],[134.95,47.65],[135.37,48.23],[135.8,48.81],[136.28,49.53],[136.77,50.26],[137.21,50.76],[137.66,51.26],[138.05,51.72],[138.46,52.17],[139.15,52.97],[139.55,53.47],[139.97,53.97],[140.44,54.51],[140.93,55.05],[141.41,55.67],[141.92,56.29],[142.32,56.87],[142.74,57.44],[143.18,58],[143.63,58.56],[144.15,59.18],[144.69,59.8],[145.25,60.41],[145.79,61.05],[146.35,61.69],[146.87,62.24],[147.41,62.79],[147.94,63.24],[148.48,63.69],[149.03,64.28],[149.59,64.87],[150.52,65.6],[151.5,66.32],[152.46,67.23],[153.49,68.14],[154.14,68.78],[154.83,69.43],[155.89,70.34],[157.05,71.25],[157.83,71.89],[158.66,72.52],[159.56,73.15],[160.34,73.86],[161.19,74.56],[161.86,75.16],[162.57,75.76],[163.52,76.63],[164.61,77.49],[165.85,78.36],[167.28,79.21],[168.96,80.06],[170.94,80.9],[175.76,81.08],[177.72,81.73],[180,82.37],[180,81.38]]],[[[-180,-2.15],[-180,-1.16],[-180,-0.16],[-180,0.83],[-180,1.83],[-180,2.82],[-180,3.81],[-180,4.81],[-180,5.8],[-180,6.8],[-180,7.79],[-180,8.79],[-180,9.78],[-180,10.78],[-180,11.77],[-180,12.76],[-180,13.76],[-180,14.75],[-180,15.75],[-180,16.74],[-180,17.74],[-180,18.73],[-180,19.73],[-180,20.72],[-180,21.71],[-180,22.71],[-180,23.7],[-180,24.7],[-180,25.69],[-180,26.69],[-180,27.68],[-180,28.68],[-180,29.67],[-180,30.66],[-180,31.66],[-180,32.65],[-180,33.65],[-180,34.64],[-180,35.64],[-180,36.63],[-180,37.63],[-180,38.62],[-180,39.61],[-180,40.61],[-180,41.6],[-180,42.6],[-180,43.59],[-180,44.59],[-180,45.58],[-180,46.58],[-180,47.57],[-180,48.56],[-180,49.56],[-180,50.55],[-180,51.55],[-180,52.54],[-180,53.54],[-180,54.53],[-180,55.52],[-180,56.52],[-180,57.51],[-180,58.51],[-180,59.5],[-180,60.5],[-180,61.49],[-180,62.49],[-180,63.48],[-180,64.47],[-180,65.47],[-180,66.46],[-180,67.46],[-180,68.45],[-180,69.45],[-180,70.44],[-180,71.44],[-180,72.43],[-180,73.42],[-180,74.42],[-180,75.41],[-180,76.41],[-180,77.4],[-180,78.4],[-180,79.39],[-180,80.39],[-180,81.38],[-180,82.37],[-176.09,83.25],[-171.06,84.08],[-164.47,84.85],[-155.72,85.53],[-144.21,86.08],[-129.81,86.42],[-113.62,86.5],[-99.8,86.36],[-87.61,86.04],[-77.64,85.56],[-72.22,85.11],[-67.75,84.61],[-67.75,84.61],[-67.84,84.57],[-68.78,83.95],[-69.56,83.34],[-69.25,82.63],[-68.99,81.92],[-69.08,81.2],[-69.15,80.47],[-70.37,79.84],[-71.44,79.2],[-72.92,78.4],[-74.21,77.61],[-75.35,76.8],[-76.45,76.1],[-75.67,75.44],[-74.96,74.78],[-73.59,74.02],[-72.34,73.25],[-71.2,72.48],[-71.2,72.48],[-74.4,72.37],[-77.54,72.2],[-80.63,71.99],[-83.63,71.73],[-86.55,71.43],[-89.37,71.08],[-92.08,70.69],[-94.69,70.26],[-97.19,69.8],[-99.57,69.3],[-101.85,68.77],[-104.01,68.21],[-106.08,67.63],[-108.03,67.02],[-109.9,66.38],[-111.66,65.73],[-113.34,65.06],[-114.94,64.36],[-116.46,63.66],[-117.9,62.93],[-116.68,62.37],[-115.51,61.79],[-114.39,61.2],[-113.3,60.6],[-114.59,59.92],[-115.82,59.23],[-117,58.53],[-118.14,57.81],[-119.24,57.09],[-120.29,56.36],[-121.3,55.62],[-122.27,54.87],[-123.21,54.11],[-124.11,53.35],[-122.87,52.84],[-121.66,52.33],[-120.47,51.8],[-119.31,51.26],[-120.03,50.53],[-120.73,49.8],[-121.41,49.06],[-122.06,48.32],[-122.7,47.58],[-123.32,46.83],[-123.92,46.08],[-124.92,46.49],[-125.94,46.89],[-126.56,46.07],[-127.17,45.25],[-127.76,44.43],[-128.33,43.6],[-128.88,42.77],[-129.43,41.94],[-129.95,41.1],[-130.47,40.27],[-130.97,39.43],[-131.46,38.58],[-131.94,37.74],[-132.4,36.89],[-132.86,36.05],[-132.13,35.78],[-131.4,35.51],[-131.87,34.63],[-132.33,33.75],[-132.78,32.88],[-133.22,32],[-133.65,31.11],[-134.08,30.23],[-134.5,29.35],[-134.91,28.46],[-135.31,27.57],[-135.71,26.69],[-136.1,25.8],[-136.48,24.91],[-136.86,24.02],[-137.24,23.12],[-137.6,22.23],[-137.97,21.34],[-138.33,20.44],[-138.68,19.55],[-139.04,18.65],[-139.39,17.75],[-139.73,16.86],[-140.07,15.96],[-140.85,16.26],[-141.64,16.55],[-141.99,15.66],[-142.34,14.76],[-142.69,13.86],[-143.04,12.96],[-143.38,12.07],[-143.72,11.17],[-144.06,10.27],[-144.4,9.37],[-144.73,8.47],[-145.07,7.57],[-145.4,6.67],[-145.73,5.77],[-146.06,4.87],[-146.39,3.97],[-146.39,3.97],[-146.43,3.95],[-147.29,3.51],[-148.16,3.07],[-149.03,2.62],[-149.89,2.18],[-150.73,1.74],[-151.57,1.3],[-152.4,0.86],[-153.24,0.42],[-154.08,-0.02],[-154.91,-0.46],[-155.75,-0.9],[-156.59,-1.34],[-157.3,-1.68],[-157.3,-1.68],[-157.2,-1.69],[-157.17,-1.7],[-157.17,-1.7],[-158.1,-1.9],[-159.04,-2.1],[-159.98,-2.3],[-160.92,-2.51],[-161.85,-2.71],[-162.79,-2.91],[-163.73,-3.11],[-164.67,-3.31],[-165.61,-3.51],[-166.55,-3.7],[-166.76,-2.98],[-166.97,-2.27],[-167.18,-1.55],[-168.13,-1.83],[-169.08,-2.11],[-170.03,-2.38],[-170.98,-2.66],[-171.92,-2.94],[-172.87,-3.22],[-173.82,-3.49],[-174.77,-3.76],[-175.73,-4.04],[-176.68,-4.31],[-176.86,-3.61],[-177.05,-2.91],[-177.24,-2.21],[-178.16,-2.52],[-179.08,-2.83],[-180,-3.15],[-180,-2.15]]]]}},{"type":"Feature","properties":{"ma":180,"type":"gpml:TopologicalClosedPlateBoundary","name":"East Gondwana","pid":801,"deforming":false},"geometry":{"type":"Polygon","coordinates":[[[180,-76.91],[180,-77.84],[180,-78.78],[180,-79.71],[180,-80.65],[180,-81.58],[180,-82.52],[180,-83.45],[180,-84.39],[180,-85.32],[180,-86.26],[180,-87.19],[180,-88.13],[180,-89.06],[180,-90],[-180,-90],[-180,-89.06],[-180,-88.13],[-180,-87.19],[-180,-86.26],[-180,-85.32],[-180,-84.39],[-180,-83.45],[-180,-82.52],[-180,-81.58],[-180,-80.65],[-180,-79.71],[-180,-78.78],[-180,-77.84],[-180,-76.91],[-180,-75.97],[-176.16,-76.02],[-172.32,-76.01],[-168.49,-75.94],[-164.72,-75.8],[-161.03,-75.61],[-157.45,-75.37],[-154,-75.07],[-150.24,-75.23],[-146.41,-75.34],[-142.54,-75.38],[-138.67,-75.35],[-134.82,-75.26],[-131.29,-75.27],[-127.77,-75.23],[-124.28,-75.13],[-120.85,-74.98],[-117.49,-74.78],[-114.56,-74.55],[-111.71,-74.29],[-108.96,-74],[-106.31,-73.66],[-103.76,-73.3],[-101.32,-72.91],[-98.98,-72.49],[-96.76,-72.04],[-94.73,-71.62],[-92.78,-71.17],[-90.93,-70.71],[-89.16,-70.23],[-87.03,-69.84],[-84.98,-69.44],[-83.01,-69.01],[-81.11,-68.56],[-78.96,-68.06],[-76.9,-67.53],[-74.93,-66.97],[-73.05,-66.39],[-71.26,-65.79],[-70,-65.04],[-68.81,-64.27],[-68.81,-64.27],[-68.92,-64.18],[-69.15,-63.78],[-69.17,-63.72],[-69.18,-63.34],[-69.11,-62.98],[-69.05,-62.72],[-69.05,-62.72],[-67.1,-63.07],[-65.11,-63.4],[-63.07,-63.7],[-60.98,-63.97],[-58.86,-64.21],[-56.74,-64.41],[-54.59,-64.59],[-52.41,-64.73],[-50.22,-64.84],[-48,-64.92],[-45.78,-64.96],[-43.85,-64.9],[-41.93,-64.81],[-40.03,-64.7],[-38.14,-64.56],[-36.28,-64.41],[-34.19,-64.29],[-32.12,-64.15],[-30.08,-63.98],[-28.06,-63.78],[-26.12,-63.41],[-24.22,-63],[-22.68,-62.56],[-21.18,-62.09],[-19.73,-61.62],[-18.7,-61.03],[-17.72,-60.44],[-16.02,-60.1],[-14.36,-59.74],[-12.73,-59.36],[-10.87,-59.25],[-9.01,-59.13],[-7.69,-58.88],[-6.39,-58.62],[-5.19,-58.54],[-4,-58.45],[-2.8,-58.28],[-1.61,-58.09],[-0.38,-58.09],[0.85,-58.08],[2.31,-58.27],[3.78,-58.44],[4.94,-58.41],[6.11,-58.37],[7.42,-57.98],[8.7,-57.57],[10.2,-57.21],[11.68,-56.83],[12.45,-56.17],[13.2,-55.51],[13.92,-54.85],[14.35,-54],[14.76,-53.16],[14.84,-52.28],[14.92,-51.4],[15.34,-50.7],[15.74,-50.01],[16.25,-49.18],[16.74,-48.35],[17.47,-47.61],[18.18,-46.87],[18.89,-46.21],[19.59,-45.54],[20.96,-45.29],[22.31,-45.01],[23.35,-44.85],[24.39,-44.69],[25.43,-44.51],[26.38,-44.34],[27.33,-44.16],[28.28,-43.97],[29.26,-43.65],[30.23,-43.33],[31.01,-43.12],[31.79,-42.92],[32.47,-42.46],[33.14,-41.99],[33.93,-41.41],[34.71,-40.82],[35.15,-40.04],[35.57,-39.27],[36.2,-38.77],[36.82,-38.27],[37.43,-37.77],[38.03,-37.22],[38.64,-36.67],[39.23,-36.11],[40.06,-35.45],[40.87,-34.78],[41.68,-34.11],[42.34,-33.52],[43,-32.93],[43.89,-32.58],[44.77,-32.22],[45.52,-31.8],[46.25,-31.38],[47.31,-31],[47.88,-30.8],[48.16,-30.7],[48.67,-30.19],[48.67,-30.19],[48.22,-29.35],[47.78,-28.51],[47.34,-27.67],[48.02,-26.94],[48.7,-26.21],[49.39,-25.64],[50.08,-25.07],[50.77,-24.49],[51.44,-23.91],[52.11,-23.33],[52.78,-22.74],[53.42,-22.04],[54.04,-21.33],[54.67,-20.62],[55.28,-19.92],[55.9,-19.2],[56.5,-18.49],[57.1,-17.77],[57.7,-17.06],[58.29,-16.34],[58.88,-15.62],[59.4,-14.76],[59.92,-13.91],[60.43,-13.05],[60.94,-12.19],[61.44,-11.34],[61.95,-10.48],[62.45,-9.62],[62.94,-8.75],[63.31,-7.98],[63.67,-7.2],[63.67,-7.2],[64.46,-7.57],[65.24,-7.94],[66.02,-8.31],[66.81,-8.68],[67.7,-9.01],[68.6,-9.34],[69.5,-9.67],[70.4,-10],[71.3,-10.32],[72.21,-10.64],[73.11,-10.96],[74.02,-11.28],[74.93,-11.59],[75.84,-11.9],[76.76,-12.21],[77.67,-12.51],[78.59,-12.81],[79.51,-13.11],[80.29,-13.36],[81.07,-13.61],[81.85,-13.86],[82.64,-14.11],[82.56,-14.62],[82.47,-15.13],[83.44,-15.24],[84.41,-15.34],[85.37,-15.44],[86.34,-15.54],[87.31,-15.63],[88.28,-15.71],[89.25,-15.79],[90.16,-15.89],[91.06,-15.98],[91.97,-16.06],[92.88,-16.14],[93.79,-16.22],[94.13,-15.45],[94.46,-14.69],[94.8,-13.92],[95.13,-13.15],[95.85,-13.21],[96.18,-12.52],[96.51,-11.82],[97.01,-11.96],[97.29,-11.3],[97.58,-10.65],[98.51,-11.02],[99.44,-11.4],[100.38,-11.77],[100.74,-11.02],[101.1,-10.28],[101.46,-9.54],[101.82,-8.8],[102.72,-8.96],[103.62,-9.12],[104.52,-9.28],[105.42,-9.44],[106.33,-9.6],[106.68,-8.78],[107.04,-7.95],[107.39,-7.13],[107.74,-6.31],[108.09,-5.49],[108.43,-4.66],[109.39,-4.91],[110.34,-5.15],[111.3,-5.4],[111.65,-4.53],[112.01,-3.66],[112.36,-2.78],[112.71,-1.91],[113.06,-1.04],[113.63,-1.17],[114.2,-1.29],[114.2,-1.29],[114.27,-1.09],[114.27,-1.09],[114.91,-1.45],[115.55,-1.81],[116.2,-2.17],[117.02,-2.63],[117.84,-3.09],[118.67,-3.54],[119.49,-4],[120.32,-4.46],[120.01,-4.93],[119.7,-5.4],[120.49,-5.83],[121.28,-6.27],[122.06,-6.7],[122.85,-7.13],[123.64,-7.56],[124.43,-7.98],[125.23,-8.41],[124.92,-8.94],[124.61,-9.46],[125.39,-9.89],[126.17,-10.32],[126.95,-10.74],[127.74,-11.16],[128.52,-11.58],[129.31,-12],[130.11,-12.42],[130.9,-12.83],[130.55,-13.38],[130.19,-13.93],[131.1,-14.33],[132,-14.72],[132.92,-15.11],[133.83,-15.5],[134.75,-15.89],[134.75,-15.89],[134.77,-16.79],[134.8,-17.69],[134.82,-18.6],[134.85,-19.5],[134.82,-20.37],[134.79,-21.25],[134.76,-22.12],[134.73,-23],[134.69,-23.87],[134.66,-24.74],[134.63,-25.62],[134.61,-26.56],[134.59,-27.5],[134.57,-28.44],[134.55,-29.38],[134.52,-30.32],[134.5,-31.26],[134.48,-32.21],[134.45,-33.15],[134.45,-34.01],[134.44,-34.87],[134.43,-35.74],[134.42,-36.6],[134.41,-37.46],[135.06,-38.24],[135.72,-39.02],[136.4,-39.79],[137.09,-40.56],[137.56,-41.21],[138.03,-41.86],[138.48,-42.34],[138.93,-42.81],[139.57,-43.09],[140.22,-43.37],[141.37,-43.8],[142.53,-44.22],[143.58,-44.82],[144.64,-45.4],[145.72,-45.98],[146.83,-46.54],[146.83,-46.54],[146.96,-47.28],[147.09,-48.02],[147.22,-48.76],[147.41,-49.56],[147.6,-50.36],[147.81,-51.16],[148.02,-51.96],[148.23,-52.76],[148.36,-53.64],[148.49,-54.51],[148.63,-55.38],[148.77,-56.26],[148.93,-57.13],[149.57,-58.04],[150.25,-58.94],[150.97,-59.84],[151.72,-60.74],[152.52,-61.63],[153.14,-62.4],[153.79,-63.17],[154.48,-63.94],[155.2,-64.71],[155.32,-65.29],[155.44,-65.88],[155.12,-66.44],[154.78,-67],[153.84,-67.93],[152.82,-68.85],[151.65,-69.75],[150.37,-70.65],[149.98,-71.17],[151.44,-72],[151.98,-72.82],[152.57,-73.65],[153.22,-74.47],[153.22,-74.47],[156.13,-74.75],[159.13,-74.99],[162.22,-75.19],[165.38,-75.34],[168.6,-75.46],[172.3,-75.69],[176.11,-75.86],[180,-75.97],[180,-76.91]]]}},{"type":"Feature","properties":{"ma":180,"type":"gpml:TopologicalClosedPlateBoundary","name":"Atlantic_opening_NAM_flank","pid":101,"deforming":false},"geometry":{"type":"Polygon","coordinates":[[[-28.81,-0.19],[-28.88,0.58],[-28.64,0.94],[-28.14,1.48],[-27.51,2.12],[-27.17,2.43],[-26.55,2.52],[-25.86,2.61],[-25.38,2.93],[-24.71,3.61],[-24.09,4.08],[-23.76,4.32],[-23.43,4.57],[-23.2,4.87],[-23.11,5.15],[-23,5.52],[-22.93,5.87],[-22.9,6.28],[-22.8,6.6],[-22.59,6.88],[-22.36,7.26],[-22.18,7.48],[-21.9,7.77],[-21.61,8.07],[-21.31,8.29],[-20.97,8.46],[-20.67,8.47],[-20.25,8.48],[-19.97,8.44],[-19.67,8.61],[-19.43,8.62],[-19.27,8.57],[-19.27,8.57],[-18.82,8.36],[-18.35,8.35],[-17.86,8.34],[-17.17,8.46],[-16.82,8.29],[-16.57,8.15],[-16.36,8.02],[-16.36,8.02],[-16.2,8],[-15.99,8.08],[-15.68,8.34],[-15.33,8.56],[-15.09,8.71],[-14.82,8.93],[-14.55,9.15],[-14.33,9.37],[-14.15,9.49],[-14.02,9.58],[-13.85,9.63],[-13.73,9.71],[-13.18,9.73],[-12.98,9.7],[-12.98,9.7],[-12.48,9.63],[-11.89,9.34],[-11.39,9.09],[-10.95,8.87],[-10.75,8.99],[-10.52,9.11],[-10.22,9.26],[-10,9.44],[-9.82,9.67],[-9.13,10.35],[-8.91,10.5],[-8.13,10.74],[-7.34,10.97],[-6.89,10.93],[-6.89,10.93],[-7.08,10.68],[-7.26,10.37],[-7.64,10.03],[-7.64,10.03],[-7.86,9.95],[-8.13,10.03],[-8.45,10.02],[-8.88,9.9],[-9.21,9.68],[-9.53,9.43],[-9.79,9.31],[-10.1,9.12],[-10.4,8.96],[-10.62,8.88],[-10.92,8.76],[-11.15,8.74],[-11.37,8.73],[-11.54,8.77],[-11.69,8.82],[-11.85,8.86],[-12.1,8.94],[-12.45,8.93],[-12.78,8.84],[-13.13,8.78],[-13.48,8.74],[-13.77,8.59],[-14.07,8.14],[-14.35,7.95],[-14.69,7.79],[-15,7.67],[-15.47,7.67],[-15.79,7.64],[-16.1,7.64],[-16.65,7.6],[-17.34,7.53],[-18.03,7.45],[-18.87,7.39],[-19.03,7.35],[-19.33,7.28],[-19.76,7.14],[-20.16,6.92],[-20.42,6.76],[-20.67,6.51],[-21,6.25],[-21.22,6.08],[-21.41,5.94],[-21.67,5.65],[-21.75,5.4],[-22.07,5.1],[-22.19,4.83],[-22.35,4.59],[-22.6,4.13],[-22.78,3.85],[-23.11,3.46],[-23.41,3.1],[-23.59,2.87],[-23.8,2.68],[-24.13,2.41],[-24.47,2.13],[-24.82,1.85],[-25.36,1.47],[-26.1,0.98],[-26.56,0.66],[-27.01,0.34],[-27.58,0.05],[-28.14,-0.24],[-28.79,-0.55],[-28.81,-0.19]]]}},{"type":"Feature","properties":{"ma":180,"type":"gpml:TopologicalClosedPlateBoundary","name":"Atlantic_opening_east_flank","pid":701,"deforming":false},"geometry":{"type":"Polygon","coordinates":[[[-28.79,-0.55],[-28.14,-0.24],[-27.58,0.05],[-27.01,0.34],[-26.56,0.66],[-26.1,0.98],[-25.36,1.47],[-24.82,1.85],[-24.47,2.13],[-24.13,2.41],[-23.8,2.68],[-23.59,2.87],[-23.41,3.1],[-23.11,3.46],[-22.78,3.85],[-22.6,4.13],[-22.35,4.59],[-22.19,4.83],[-22.07,5.1],[-21.75,5.4],[-21.67,5.65],[-21.41,5.94],[-21.22,6.08],[-21,6.25],[-20.67,6.51],[-20.42,6.76],[-20.16,6.92],[-19.76,7.14],[-19.33,7.28],[-19.03,7.35],[-18.87,7.39],[-18.03,7.45],[-17.34,7.53],[-16.65,7.6],[-16.1,7.64],[-15.79,7.64],[-15.47,7.67],[-15,7.67],[-14.69,7.79],[-14.35,7.95],[-14.07,8.14],[-13.77,8.59],[-13.48,8.74],[-13.13,8.78],[-12.78,8.84],[-12.45,8.93],[-12.1,8.94],[-11.85,8.86],[-11.69,8.82],[-11.54,8.77],[-11.37,8.73],[-11.15,8.74],[-10.92,8.76],[-10.62,8.88],[-10.4,8.96],[-10.1,9.12],[-9.79,9.31],[-9.53,9.43],[-9.21,9.68],[-8.88,9.9],[-8.45,10.02],[-8.13,10.03],[-7.86,9.95],[-7.64,10.03],[-7.64,10.03],[-7.76,9.92],[-8.15,9.66],[-8.67,9.44],[-9.39,8.84],[-9.63,8.61],[-9.83,8.41],[-10.06,8.29],[-10.06,8.29],[-10.16,8.24],[-10.53,8.05],[-10.63,8.05],[-10.79,7.98],[-11,7.98],[-11.37,8.13],[-11.81,8.19],[-12.12,8.26],[-12.49,8.28],[-12.96,8.33],[-13.55,8.07],[-14.04,7.65],[-14.43,7.41],[-14.56,7.36],[-14.83,7.3],[-15.14,7.25],[-15.59,7.25],[-16.28,7.21],[-16.49,7.23],[-16.78,7.17],[-17.11,7.11],[-17.53,7.05],[-18.37,6.77],[-18.74,6.62],[-19.31,6.37],[-19.31,6.37],[-19.32,6.37],[-19.8,6.31],[-20.3,5.93],[-20.75,5.41],[-21.06,4.82],[-21.32,4.48],[-21.62,4.15],[-21.97,3.82],[-22.16,3.45],[-22.36,3.19],[-22.61,2.88],[-22.83,2.57],[-22.97,2.35],[-23.15,2.18],[-23.3,1.97],[-23.46,1.76],[-23.77,1.44],[-24.04,1.12],[-24.58,0.77],[-25.28,0.41],[-25.79,-0.02],[-26.29,-0.44],[-26.63,-0.88],[-26.97,-1.32],[-27.32,-1.73],[-27.67,-2.13],[-28.24,-2.25],[-28.48,-2.54],[-28.68,-2.79],[-28.86,-3.05],[-28.86,-3.05],[-28.92,-2.95],[-29.02,-2.53],[-29.29,-2.18],[-28.93,-2.26],[-28.86,-1.85],[-28.82,-0.92],[-28.78,-0.62],[-28.79,-0.55]]]}},{"type":"Feature","properties":{"ma":180,"type":"gpml:TopologicalClosedPlateBoundary","name":"AlCaPa-Tisza-Dacia-Moesia","pid":319,"deforming":false},"geometry":{"type":"Polygon","coordinates":[[[35.28,23.85],[35.09,23.46],[34.59,22.86],[34.09,22.25],[33.59,21.64],[33.1,21.03],[32.5,20.47],[31.91,19.91],[31.32,19.34],[30.74,18.77],[30.13,18.21],[29.52,17.65],[28.92,17.08],[28.32,16.51],[27.62,15.99],[26.93,15.46],[26.24,14.94],[25.55,14.41],[24.77,13.86],[24,13.31],[23.22,12.75],[22.45,12.2],[21.69,11.64],[21,11.17],[20.31,10.71],[19.62,10.24],[19.62,10.24],[18.83,10.68],[18.04,11.13],[17.25,11.57],[16.46,12],[15.77,12.51],[15.77,12.51],[16.51,13.14],[17.26,13.77],[17.75,14.55],[18.25,15.33],[18.74,16.1],[19.24,16.88],[19.75,17.66],[19.55,17.82],[20.12,18.59],[20.69,19.36],[20.54,19.41],[21.12,20.22],[21.71,21.02],[21.5,21.17],[21.91,21.71],[22.32,22.25],[23.19,22.73],[24.06,23.2],[24.94,23.67],[24.94,23.67],[25.97,23.72],[27.01,23.76],[28.04,23.79],[29.07,23.82],[30.11,23.85],[31.14,23.86],[32.18,23.87],[33.21,23.87],[34.25,23.86],[35.28,23.85]]]}},{"type":"Feature","properties":{"ma":180,"type":"gpml:TopologicalClosedPlateBoundary","name":"AlKaPeCa","pid":329,"deforming":false},"geometry":{"type":"Polygon","coordinates":[[[13.23,6.56],[12.42,6.26],[11.62,5.95],[10.81,5.65],[10.01,5.34],[9.21,5.03],[8.31,4.8],[7.42,4.56],[6.53,4.33],[5.63,4.09],[5.63,4.09],[4.94,4.53],[4.24,4.97],[3.78,5.19],[3.32,5.42],[2.83,5.64],[2.83,5.64],[3.66,5.82],[4.5,6.01],[5.33,6.19],[6.17,6.37],[7,6.55],[7.88,6.83],[8.76,7.1],[9.63,7.38],[9.69,8.08],[10.43,8.35],[11.17,8.63],[11.92,8.9],[12.66,9.17],[12.66,9.17],[12.83,8.32],[13,7.48],[13.16,6.63],[13.23,6.56]]]}},{"type":"Feature","properties":{"ma":180,"type":"gpml:TopologicalNetwork","name":"Southern_Central_Atlantic_Mesh","pid":101,"deforming":true},"geometry":{"type":"Polygon","coordinates":[[[-28.68,-2.79],[-28.48,-2.54],[-28.24,-2.25],[-27.67,-2.13],[-27.32,-1.73],[-26.97,-1.32],[-26.63,-0.88],[-26.29,-0.44],[-25.79,-0.02],[-25.28,0.41],[-24.58,0.77],[-24.04,1.12],[-23.77,1.44],[-23.46,1.76],[-23.3,1.97],[-23.15,2.18],[-22.97,2.35],[-22.83,2.57],[-22.61,2.88],[-22.36,3.19],[-22.16,3.45],[-21.97,3.82],[-21.62,4.15],[-21.32,4.48],[-21.06,4.82],[-20.75,5.41],[-20.3,5.93],[-19.8,6.31],[-19.32,6.37],[-19.31,6.37],[-19.31,6.37],[-18.75,6.62],[-18.75,6.62],[-18.73,6.6],[-18.41,6.18],[-18.09,5.76],[-18.09,5.76],[-18.44,5.83],[-18.58,5.74],[-19.06,5.54],[-19.54,5.35],[-19.9,4.92],[-20.26,4.49],[-20.53,4.06],[-20.8,3.63],[-21.05,3.02],[-21.4,2.49],[-21.8,1.95],[-22.02,1.76],[-22.28,1.53],[-22.42,1.1],[-22.51,0.66],[-22.6,-0.12],[-22.84,-0.54],[-23.06,-0.9],[-23.38,-1.1],[-23.57,-1.37],[-23.72,-1.62],[-23.94,-1.97],[-24.39,-1.93],[-24.81,-1.91],[-25.43,-2.17],[-25.82,-2.46],[-26.09,-2.82],[-26.22,-3.29],[-26.22,-3.29],[-26.37,-3.18],[-26.56,-3.04],[-26.56,-3.04],[-26.59,-3.51],[-26.72,-4.23],[-26.85,-4.95],[-26.93,-5.05],[-26.93,-5.05],[-27.06,-4.95],[-27.34,-4.76],[-27.6,-4.59],[-27.89,-4.38],[-28.25,-4.18],[-28.47,-4.11],[-28.82,-3.87],[-29.08,-3.72],[-29.25,-3.53],[-29.28,-3.28],[-29.35,-2.99],[-29.31,-2.74],[-29.32,-2.5],[-29.47,-2.21],[-29.49,-2.05],[-29.45,-1.95],[-29.51,-1.76],[-29.61,-1.66],[-29.73,-1.55],[-29.82,-1.41],[-30.03,-1.15],[-30.29,-0.84],[-30.44,-0.62],[-30.41,-0.37],[-30.32,-0.01],[-30.33,0.17],[-30.54,0.28],[-30.67,0.54],[-30.78,0.68],[-30.91,0.69],[-31.08,1.03],[-31.21,1.37],[-31.39,1.69],[-31.46,2.05],[-31.63,2.42],[-31.78,2.77],[-31.85,2.98],[-31.9,3.23],[-31.97,3.48],[-32.05,3.7],[-32.06,3.78],[-32.06,3.78],[-31.95,3.87],[-31.56,4.17],[-31.18,4.44],[-31.05,4.63],[-30.71,4.7],[-30.39,4.77],[-29.87,4.89],[-29.23,5],[-28.6,5.1],[-28.02,5.49],[-27.54,5.91],[-27.29,6.66],[-27.09,7.27],[-26.45,7.55],[-25.66,8.05],[-25.29,8.33],[-24.79,8.77],[-24.28,9.21],[-23.99,9.64],[-23.79,10.07],[-23.37,10.2],[-23.23,10.3],[-22.99,10.27],[-22.7,10.17],[-22.41,10.15],[-21.94,10.27],[-21.69,10.28],[-21.51,10.27],[-21.18,10.52],[-20.99,10.66],[-20.99,10.66],[-20.46,9.82],[-20.11,9.19],[-19.76,8.56],[-19.76,8.56],[-19.97,8.44],[-20.25,8.48],[-20.67,8.47],[-20.97,8.46],[-21.31,8.29],[-21.61,8.07],[-21.9,7.77],[-22.18,7.48],[-22.36,7.26],[-22.59,6.88],[-22.8,6.6],[-22.9,6.28],[-22.93,5.87],[-23,5.52],[-23.11,5.15],[-23.2,4.87],[-23.43,4.57],[-23.76,4.32],[-24.09,4.08],[-24.71,3.61],[-25.38,2.93],[-25.86,2.61],[-26.55,2.52],[-27.17,2.43],[-27.51,2.12],[-28.14,1.48],[-28.64,0.94],[-28.88,0.58],[-28.81,-0.19],[-28.78,-0.62],[-28.82,-0.92],[-28.86,-1.85],[-28.93,-2.26],[-29.29,-2.18],[-29.02,-2.53],[-28.92,-2.95],[-28.86,-3.05],[-28.68,-2.79]]]}},{"type":"Feature","properties":{"ma":180,"type":"gpml:TopologicalNetwork","name":"North_Atlantic_Phase1_Deformation_Mesh","pid":301,"deforming":true},"geometry":{"type":"Polygon","coordinates":[[[7.45,30.16],[7.49,30.04],[7.55,29.58],[7.73,29.1],[7.87,28.66],[8.04,28.08],[8.16,27.62],[8.18,27.39],[8.3,27.09],[8.37,26.84],[8.41,26.62],[8.42,26.42],[8.65,26.16],[8.86,26.02],[9.33,25.86],[9.71,25.92],[10.1,25.8],[10.33,25.53],[10.91,25.1],[11.14,24.6],[11.27,24.19],[11.32,23.63],[11.36,23.26],[11.52,22.95],[11.69,22.57],[11.87,22.34],[12.01,22.24],[12.2,22.07],[12.64,21.87],[13.18,21.62],[13.71,21.41],[14.27,21.15],[14.76,20.96],[15.06,20.79],[15.16,20.75],[15.45,20.65],[15.45,20.65],[15.3,20.32],[15.03,19.89],[14.78,19.52],[14.56,19.21],[14.35,18.89],[14.09,18.46],[13.75,18.32],[13.45,18.26],[13.16,18.26],[12.64,18.26],[12.11,18.35],[11.53,18.49],[11.22,18.66],[10.85,18.77],[10.39,18.87],[9.93,18.9],[9.5,18.85],[9.12,18.7],[8.78,18.6],[8.53,18.41],[8.38,18.18],[8.22,17.96],[7.99,17.74],[7.74,17.45],[7.28,17.07],[6.75,16.68],[6.41,16.48],[6.1,16.18],[5.51,15.9],[5.09,15.65],[4.92,15.35],[4.92,15.35],[4.66,15.19],[4.11,14.81],[3.54,14.7],[2.88,14.6],[2.37,14.53],[2.1,14.45],[2.1,14.45],[2.06,14.39],[1.93,14.25],[1.85,14.03],[1.75,13.87],[1.65,13.74],[1.59,13.61],[1.51,13.4],[1.42,13.15],[1.3,12.88],[1.13,12.6],[0.98,12.29],[0.84,11.96],[0.7,11.76],[0.45,11.39],[0.26,11.16],[-0.14,10.87],[-0.5,10.45],[-0.62,10.21],[-0.69,9.88],[-0.78,9.49],[-1,9.15],[-1.22,8.94],[-1.45,8.72],[-1.62,8.56],[-1.72,8.47],[-1.72,8.47],[-1.82,8.57],[-2.18,8.92],[-2.6,9.32],[-2.8,9.52],[-3.44,10.18],[-3.44,10.18],[-3.37,10.24],[-3.21,10.39],[-3.09,10.51],[-2.88,10.71],[-2.84,10.85],[-2.81,10.99],[-2.81,11.17],[-2.82,11.31],[-2.73,11.47],[-2.68,11.58],[-2.43,11.79],[-2.26,11.94],[-2.14,12.04],[-2.01,12.17],[-1.87,12.31],[-1.75,12.52],[-1.71,12.59],[-1.63,12.65],[-1.5,12.74],[-1.44,12.81],[-1.37,12.89],[-1.26,13],[-1.21,13.05],[-1.14,13.1],[-1.11,13.13],[-1.04,13.14],[-0.95,13.15],[-0.92,13.16],[-0.92,13.16],[-0.95,13.23],[-0.98,13.33],[-0.99,13.4],[-0.99,13.4],[-0.99,13.4],[-1.04,13.35],[-1.11,13.26],[-1.16,13.19],[-1.22,13.12],[-1.29,13.05],[-1.37,12.98],[-1.5,12.87],[-1.62,12.77],[-1.75,12.66],[-1.83,12.55],[-1.89,12.43],[-1.98,12.29],[-2.06,12.21],[-2.2,12.13],[-2.32,12.06],[-2.41,11.98],[-2.5,11.89],[-2.62,11.79],[-2.7,11.76],[-2.79,11.73],[-3.03,11.64],[-3.32,11.69],[-3.38,11.73],[-3.38,11.73],[-3.11,11.88],[-2.96,11.95],[-2.82,12.01],[-2.73,12.09],[-2.6,12.18],[-2.47,12.31],[-2.35,12.43],[-2.26,12.56],[-2.14,12.72],[-2.01,12.9],[-1.91,13.06],[-1.82,13.22],[-1.68,13.43],[-1.61,13.66],[-1.68,13.84],[-1.74,13.98],[-1.82,14.14],[-1.91,14.28],[-2,14.37],[-2.11,14.5],[-2.18,14.56],[-2.28,14.65],[-2.43,14.77],[-2.43,14.77],[-2.47,14.91],[-2.51,15.1],[-2.55,15.23],[-2.57,15.45],[-2.52,15.74],[-2.47,16],[-2.44,16.37],[-2.44,16.74],[-2.5,17.04],[-2.52,17.16],[-2.52,17.16],[-2.42,17.69],[-2.2,18.39],[-1.8,19.1],[-1.45,19.48],[-1.16,20.01],[-0.6,20.65],[-0.14,21.06],[0.22,21.55],[0.58,22.03],[0.8,22.71],[1.02,23.39],[0.89,24.07],[0.56,24.58],[0.23,25.09],[0.39,25.89],[0.76,26.01],[1.5,26.29],[2.2,26.68],[2.69,27.06],[3.27,27.36],[3.71,27.74],[4.38,28.23],[4.74,28.79],[4.87,29.15],[5.13,29.86],[5.51,30.42],[5.97,31.04],[6.25,31.36],[6.55,31.85],[6.52,32.04],[6.22,32.38],[6.21,32.44],[6.26,33.1],[6.32,33.35],[6.37,33.5],[6.17,33.7],[5.97,33.78],[5.65,33.98],[5.55,34.14],[5.53,34.38],[5.57,34.55],[5.62,34.71],[5.64,34.9],[5.6,35.12],[5.57,35.29],[5.64,35.46],[5.77,35.61],[5.95,35.83],[6.18,36.25],[6.63,36.59],[6.78,36.75],[6.96,37.02],[7.03,37.28],[7.07,37.62],[7.06,37.81],[7.06,38],[7.14,38.2],[7.27,38.33],[7.46,38.77],[7.71,39.29],[7.96,39.48],[8.13,39.63],[8.13,39.63],[8.13,39.6],[8.11,39.53],[8.11,39.53],[8.21,39.43],[8.04,39.1],[8.03,38.85],[7.99,38.58],[7.88,38.06],[7.89,37.78],[7.92,37.39],[7.96,37.19],[8.05,36.82],[7.97,36.49],[7.76,36.31],[7.6,36.11],[7.41,35.91],[7.35,35.69],[7.2,35.45],[7.15,35.29],[7.01,35.1],[7,34.95],[7.09,34.8],[7.24,34.63],[7.46,34.44],[7.62,34.16],[7.74,33.96],[7.88,33.74],[7.92,33.48],[7.83,33.27],[7.65,33.01],[7.73,32.85],[7.78,32.74],[7.86,32.47],[7.96,32.36],[8.12,32.21],[8.1,32.15],[8.06,31.99],[8.01,31.93],[7.94,31.83],[7.92,31.79],[7.8,31.55],[7.66,31.4],[7.52,31.11],[7.5,30.88],[7.48,30.66],[7.46,30.5],[7.48,30.34],[7.47,30.23],[7.45,30.16]]]}},{"type":"Feature","properties":{"ma":180,"type":"gpml:TopologicalNetwork","name":"Proto_Caribbean_Mesh","pid":101,"deforming":true},"geometry":{"type":"Polygon","coordinates":[[[-32.67,3.23],[-32.37,3.51],[-32.06,3.78],[-32.06,3.78],[-32.05,3.7],[-31.97,3.48],[-31.9,3.23],[-31.85,2.98],[-31.78,2.77],[-31.63,2.42],[-31.46,2.05],[-31.39,1.69],[-31.21,1.37],[-31.08,1.03],[-30.91,0.69],[-30.78,0.68],[-30.67,0.54],[-30.54,0.28],[-30.33,0.17],[-30.32,-0.01],[-30.41,-0.37],[-30.44,-0.62],[-30.29,-0.84],[-30.03,-1.15],[-29.82,-1.41],[-29.73,-1.55],[-29.61,-1.66],[-29.51,-1.76],[-29.45,-1.95],[-29.49,-2.05],[-29.47,-2.21],[-29.32,-2.5],[-29.31,-2.74],[-29.35,-2.99],[-29.28,-3.28],[-29.25,-3.53],[-29.08,-3.72],[-28.82,-3.87],[-28.47,-4.11],[-28.25,-4.18],[-27.89,-4.38],[-27.6,-4.59],[-27.34,-4.76],[-27.06,-4.95],[-26.93,-5.05],[-26.93,-5.05],[-27.39,-5.66],[-27.86,-6.26],[-28.66,-6.44],[-29.46,-6.62],[-30.26,-6.8],[-30.86,-7],[-31.47,-7.19],[-32.04,-7.17],[-32.62,-7.15],[-33.13,-7.09],[-33.64,-7.03],[-34.53,-6.73],[-35.31,-6.63],[-36.08,-6.54],[-36.75,-6.42],[-37.42,-6.3],[-38.09,-6.18],[-38.84,-6.32],[-39.59,-6.45],[-40.2,-6.93],[-40.82,-7.41],[-41.43,-7.49],[-42.03,-7.58],[-42.55,-7.7],[-43.06,-7.81],[-43.63,-7.89],[-44.19,-7.97],[-44.82,-8.19],[-45.45,-8.41],[-46.09,-8.76],[-46.74,-9.11],[-47.48,-9.47],[-48.22,-9.84],[-49.03,-10],[-49.85,-10.17],[-50.72,-9.93],[-51.58,-9.7],[-52.24,-9.34],[-52.91,-8.98],[-53.42,-8.77],[-53.93,-8.56],[-54.52,-8.45],[-55.1,-8.33],[-55.66,-8.43],[-56.22,-8.52],[-56.68,-8.49],[-56.68,-8.49],[-56.64,-8.04],[-56.95,-7.34],[-57.25,-6.63],[-57.65,-5.87],[-58.06,-5.12],[-58.42,-4.48],[-58.78,-3.85],[-59.15,-3.22],[-59.43,-2.59],[-59.72,-1.95],[-59.94,-1.27],[-60.16,-0.59],[-60.38,0.09],[-60.79,0.71],[-61.2,1.33],[-61.18,1.49],[-61.18,1.49],[-60.29,1.6],[-59.35,1.8],[-58.41,2],[-57.65,2.19],[-56.89,2.38],[-55.94,2.59],[-54.99,2.8],[-54.2,2.95],[-53.41,3.11],[-52.74,3.62],[-52.06,4.12],[-51.45,4.49],[-50.79,5.22],[-50.4,5.59],[-50.01,5.96],[-49.74,6.65],[-49.01,7.3],[-48.27,7.95],[-47.54,8.6],[-46.84,8.99],[-46.14,9.38],[-45.44,9.77],[-44.92,9.72],[-44.39,9.68],[-43.38,9.67],[-42.87,9.5],[-42.36,9.33],[-41.64,9.12],[-40.92,8.92],[-40.12,8.33],[-39.66,8.06],[-39.2,7.78],[-38.72,7.53],[-38.24,7.27],[-37.75,6.98],[-37.26,6.68],[-36.6,6.29],[-35.98,5.73],[-35.26,5.26],[-34.56,4.79],[-34.06,4.3],[-33.57,3.8],[-32.88,3.13],[-32.87,3.11],[-32.67,3.23]]]}},{"type":"Feature","properties":{"ma":180,"type":"gpml:TopologicalNetwork","name":"Northern_Central_Atlantic_Mesh","pid":101,"deforming":true},"geometry":{"type":"Polygon","coordinates":[[[-0.68,7.64],[-0.81,7.57],[-1.22,7.44],[-1.86,7.24],[-2.46,7.05],[-3.18,6.83],[-3.8,6.63],[-4.31,6.46],[-4.79,6.31],[-5.35,6.13],[-5.98,5.93],[-6.52,6.13],[-7.11,6.25],[-7.43,6.44],[-7.75,6.62],[-8.24,6.82],[-8.67,7.11],[-9.28,7.3],[-9.73,7.26],[-10.4,7.02],[-11.22,6.94],[-11.95,6.81],[-12.5,6.55],[-13.41,6.3],[-13.86,5.98],[-14.65,5.62],[-15.39,5.34],[-15.94,5.44],[-16.1,5.54],[-16.61,5.58],[-17.56,5.65],[-18.09,5.76],[-18.09,5.76],[-18.41,6.18],[-18.73,6.6],[-18.75,6.62],[-18.75,6.62],[-18.74,6.62],[-18.37,6.77],[-17.53,7.05],[-17.11,7.11],[-16.78,7.17],[-16.49,7.23],[-16.28,7.21],[-15.59,7.25],[-15.14,7.25],[-14.83,7.3],[-14.56,7.36],[-14.43,7.41],[-14.04,7.65],[-13.55,8.07],[-12.96,8.33],[-12.49,8.28],[-12.12,8.26],[-11.81,8.19],[-11.37,8.13],[-11,7.98],[-10.79,7.98],[-10.63,8.05],[-10.53,8.05],[-10.16,8.24],[-10.06,8.29],[-10.06,8.29],[-9.83,8.41],[-9.63,8.61],[-9.39,8.84],[-8.67,9.44],[-8.15,9.66],[-7.76,9.92],[-7.26,10.37],[-7.08,10.68],[-6.89,10.93],[-6.89,10.93],[-7.34,10.97],[-8.13,10.74],[-8.91,10.5],[-9.13,10.35],[-9.82,9.67],[-10,9.44],[-10.22,9.26],[-10.52,9.11],[-10.75,8.99],[-10.95,8.87],[-11.39,9.09],[-11.89,9.34],[-12.48,9.63],[-12.98,9.7],[-12.98,9.7],[-13.18,9.73],[-13.73,9.71],[-13.85,9.63],[-14.02,9.58],[-14.15,9.49],[-14.33,9.37],[-14.55,9.15],[-14.82,8.93],[-15.09,8.71],[-15.33,8.56],[-15.68,8.34],[-15.99,8.08],[-16.2,8],[-16.36,8.02],[-16.36,8.02],[-16.57,8.15],[-16.82,8.29],[-17.17,8.46],[-17.86,8.34],[-18.35,8.35],[-18.82,8.36],[-19.31,8.6],[-19.57,8.64],[-19.78,8.59],[-19.78,8.59],[-20.12,9.2],[-20.46,9.82],[-20.99,10.66],[-20.99,10.66],[-20.84,10.77],[-20.37,10.87],[-20,11.17],[-19.76,11.72],[-19.51,11.79],[-19.13,11.63],[-18.6,11.87],[-18.13,11.86],[-17.36,11.88],[-16.56,11.98],[-16.03,12.09],[-15.25,12.19],[-14.72,12.46],[-14,12.81],[-13.4,13.04],[-12.84,13.15],[-12.2,13.24],[-11.86,13.25],[-11.38,13.12],[-10.72,13.02],[-10.14,13.04],[-9.65,13.05],[-9.15,13.03],[-8.63,12.99],[-7.99,12.92],[-7.26,12.72],[-6.59,12.51],[-5.82,12.36],[-5.49,12.24],[-5.33,12.02],[-5.11,11.92],[-4.99,11.77],[-4.88,11.67],[-4.71,11.48],[-4.46,11.28],[-4.53,11.17],[-4.68,11.07],[-5,11.09],[-4.98,10.9],[-4.87,10.67],[-4.54,10.83],[-4.49,10.84],[-4.37,10.79],[-4.39,10.58],[-4.43,10.17],[-4.13,10.06],[-3.75,10.04],[-3.45,10.08],[-3.42,10.16],[-3.42,10.16],[-2.8,9.52],[-2.6,9.32],[-2.18,8.92],[-1.82,8.57],[-1.47,8.22],[-1.21,8.04],[-0.79,7.72],[-0.68,7.64]]]}},{"type":"Feature","properties":{"ma":180,"type":"gpml:TopologicalNetwork","name":"WEC","pid":601,"deforming":true},"geometry":{"type":"Polygon","coordinates":[[[103.89,50.97],[103.37,51.57],[102.82,51.97],[102.26,52.37],[101.21,53.01],[100.49,53.48],[99.76,53.95],[98.99,54.67],[98.67,55.53],[98.61,56.25],[98.58,57.09],[98.6,58],[98.61,58.67],[98.66,59.2],[98.72,59.65],[99,60.02],[99.26,60.35],[99.59,60.77],[99.88,61.3],[100.13,61.76],[100.45,62.3],[100.78,62.84],[101.12,63.37],[101.58,64.03],[102.07,64.69],[102.58,65.35],[103.32,66.22],[103.77,67.01],[104.24,67.8],[104.63,68.63],[104.92,69.23],[105.21,69.81],[105.52,70.38],[105.85,70.74],[105.85,70.74],[107.33,70.98],[109.36,71.29],[111.46,71.58],[114.38,71.92],[117.41,72.22],[119.2,72.37],[121.03,72.51],[123.65,72.67],[126.31,72.8],[128.32,72.87],[130.33,72.92],[132.53,72.96],[134.73,72.97],[137.31,72.95],[139.87,72.9],[142.27,72.82],[144.64,72.72],[147,72.58],[149.75,72.39],[152.44,72.16],[155,71.9],[157.48,71.61],[157.48,71.61],[157.05,71.25],[155.89,70.34],[154.83,69.43],[154.14,68.78],[153.49,68.14],[152.46,67.23],[151.5,66.32],[150.52,65.6],[149.59,64.87],[149.03,64.28],[148.48,63.69],[147.94,63.24],[147.41,62.79],[146.87,62.24],[146.35,61.69],[145.79,61.05],[145.25,60.41],[144.69,59.8],[144.15,59.18],[143.63,58.56],[143.18,58],[142.74,57.44],[142.32,56.87],[141.92,56.29],[141.41,55.67],[140.93,55.05],[140.44,54.51],[139.97,53.97],[139.55,53.47],[139.15,52.97],[138.46,52.17],[137.8,51.42],[137.8,51.42],[136.43,51.79],[135.05,52.13],[133.64,52.46],[132.21,52.78],[130.76,53.07],[129.3,53.35],[127.81,53.61],[126.31,53.85],[125.22,53.5],[124.16,53.14],[123.05,52.99],[121.94,52.83],[120.84,52.66],[120.7,52.16],[120.56,51.67],[119.47,51.71],[118.39,51.75],[117.29,51.77],[116.03,51.96],[114.76,52.14],[113.49,52.3],[112.06,52.31],[110.63,52.3],[109.07,52.05],[107.52,51.77],[106.09,51.43],[104.69,51.08],[103.89,50.97]]]}}]}