{"type":"FeatureCollection","features":[{"type":"Feature","properties":{"ma":200,"type":"gpml:TopologicalClosedPlateBoundary","name":"East Gondwana Plate","pid":801,"deforming":false},"geometry":{"type":"Polygon","coordinates":[[[180,-76.12],[180,-77.11],[180,-78.1],[180,-79.09],[180,-80.09],[180,-81.08],[180,-82.07],[180,-83.06],[180,-84.05],[180,-85.04],[180,-86.03],[180,-87.03],[180,-88.02],[180,-89.01],[180,-90],[-180,-90],[-180,-89.01],[-180,-88.02],[-180,-87.03],[-180,-86.03],[-180,-85.04],[-180,-84.05],[-180,-83.06],[-180,-82.07],[-180,-81.08],[-180,-80.09],[-180,-79.09],[-180,-78.1],[-180,-77.11],[-180,-76.12],[-180,-75.13],[-176.34,-75.19],[-172.68,-75.19],[-169.02,-75.13],[-165.4,-75.02],[-161.85,-74.85],[-158.39,-74.62],[-155.04,-74.35],[-151.81,-74.02],[-148.28,-74.17],[-144.7,-74.25],[-141.09,-74.28],[-137.49,-74.24],[-133.91,-74.15],[-130.62,-74.16],[-127.34,-74.12],[-124.08,-74.02],[-120.87,-73.89],[-117.72,-73.7],[-114.96,-73.49],[-112.27,-73.25],[-109.66,-72.97],[-107.13,-72.66],[-104.68,-72.32],[-102.33,-71.95],[-100.07,-71.55],[-97.91,-71.13],[-95.92,-70.73],[-94.01,-70.31],[-92.19,-69.87],[-90.43,-69.41],[-88.34,-69.05],[-86.32,-68.68],[-84.37,-68.28],[-82.49,-67.85],[-80.34,-67.38],[-78.29,-66.89],[-76.31,-66.36],[-74.42,-65.82],[-72.61,-65.25],[-71.3,-64.51],[-70.06,-63.76],[-70.06,-63.76],[-70.09,-63.74],[-70.09,-63.74],[-68.15,-64.19],[-66.14,-64.62],[-64.06,-65.02],[-61.93,-65.38],[-59.74,-65.72],[-57.97,-65.9],[-56.17,-66.06],[-54.49,-66.16],[-52.79,-66.24],[-51.35,-66.41],[-50.34,-66.46],[-49.32,-66.61],[-47.93,-66.71],[-47.26,-66.71],[-46.73,-66.7],[-45.44,-66.69],[-43.98,-66.66],[-42.52,-66.61],[-41.56,-66.55],[-40.78,-66.5],[-39.36,-66.47],[-37.86,-66.33],[-36.62,-66.23],[-35.48,-66.12],[-34.35,-66],[-33,-65.82],[-32.22,-65.72],[-31.86,-65.67],[-31.72,-65.66],[-31.72,-65.66],[-31.21,-64.79],[-30.74,-63.92],[-30.29,-63.04],[-29.87,-62.17],[-29.48,-61.29],[-28.67,-60.45],[-27.91,-59.6],[-27.75,-58.93],[-27.59,-58.25],[-26.52,-57.85],[-25.47,-57.44],[-24.38,-57.74],[-23.28,-58.02],[-22.19,-57.33],[-21.15,-56.62],[-19.61,-56.63],[-18.07,-56.62],[-16.54,-56.6],[-15.05,-57.05],[-13.53,-57.48],[-11.98,-57.9],[-10.38,-58.29],[-9.2,-57.74],[-8.06,-57.18],[-6.41,-57.09],[-4.77,-56.98],[-3.47,-57.04],[-2.85,-56.59],[-2.24,-56.14],[-2.11,-55.57],[-1.97,-55.01],[-1.14,-54.55],[-0.32,-54.09],[-0.17,-53.31],[-0.03,-52.54],[0.82,-51.96],[1.62,-51.45],[2.4,-50.93],[2.44,-50.27],[2.81,-49.65],[2.51,-48.78],[2.21,-47.91],[1.93,-47.27],[1.65,-46.62],[1.06,-46.24],[0.48,-45.86],[0.51,-45.02],[0.55,-44.19],[1.3,-43.38],[1.36,-42.73],[1.41,-42.07],[1.97,-41.36],[2.51,-40.65],[3.16,-40.36],[3.8,-40.07],[4.54,-39.61],[5.26,-39.15],[6.11,-38.75],[6.95,-38.34],[7.85,-38.12],[8.74,-37.9],[8.68,-37.84],[8.17,-37.45],[7.65,-37.05],[8.11,-36.46],[8.55,-35.87],[9.54,-36.01],[10.39,-35.68],[11.23,-35.34],[12.05,-35.82],[12.89,-36.3],[13.73,-36.77],[14.59,-37.24],[15.45,-37.7],[16.05,-37.4],[16.65,-37.11],[17.41,-37.37],[17.4,-36.81],[17.4,-36.81],[18.43,-36.65],[19.25,-36.27],[20.06,-35.88],[20.87,-35.49],[21.56,-35.2],[22.25,-34.91],[22.25,-34.91],[23.43,-34.93],[24.62,-34.93],[25.83,-34.99],[27.05,-35.04],[28.26,-35.07],[29.47,-35.09],[30.69,-35.1],[31.9,-35.1],[33.11,-35.08],[34.25,-35],[35.38,-34.91],[36.51,-34.81],[37.64,-34.7],[38.76,-34.58],[39.88,-34.45],[40.16,-34.4],[40.16,-34.4],[41.11,-33.82],[42.04,-33.23],[42.95,-32.63],[43.86,-32.03],[44.75,-31.42],[45.64,-30.8],[46.51,-30.18],[47.37,-29.55],[47.43,-29.51],[47.43,-29.51],[48.13,-28.79],[48.82,-28.06],[49.5,-27.33],[50.2,-26.76],[50.9,-26.18],[51.59,-25.6],[52.27,-25.02],[52.95,-24.44],[53.62,-23.85],[54.25,-23.14],[54.89,-22.44],[55.51,-21.73],[56.13,-21.02],[56.74,-20.31],[57.35,-19.59],[57.96,-18.87],[58.55,-18.15],[59.15,-17.43],[59.73,-16.71],[60.25,-15.85],[60.77,-15],[61.28,-14.14],[61.79,-13.28],[62.29,-12.42],[62.79,-11.55],[63.29,-10.69],[63.78,-9.83],[64.16,-9.01],[64.16,-9.01],[64.96,-9.33],[65.77,-9.66],[66.57,-9.98],[67.38,-10.3],[67.07,-11.12],[66.76,-11.94],[66.45,-12.76],[66.13,-13.58],[66.13,-13.58],[67.04,-13.98],[67.95,-14.39],[68.86,-14.79],[69.77,-15.18],[70.69,-15.57],[71.61,-15.96],[72.53,-16.35],[73.46,-16.73],[74.39,-17.11],[75.33,-17.48],[76.27,-17.85],[77.21,-18.21],[78.16,-18.57],[79.11,-18.92],[80.06,-19.27],[79.95,-19.78],[79.83,-20.28],[80.86,-20.45],[81.9,-20.61],[82.94,-20.76],[83.97,-20.91],[85.02,-21.05],[86.06,-21.18],[87.1,-21.31],[88.14,-21.45],[89.18,-21.59],[90.23,-21.72],[91.27,-21.85],[92.32,-21.97],[92.32,-21.97],[92.82,-21.09],[93.32,-20.21],[93.81,-19.32],[94.3,-18.44],[94.78,-17.55],[95.26,-16.67],[95.73,-15.78],[96.6,-16.17],[97.46,-16.56],[98.34,-16.95],[99.21,-17.33],[99.58,-16.59],[99.95,-15.85],[100.32,-15.1],[100.68,-14.36],[101.6,-14.54],[102.52,-14.71],[103.45,-14.88],[104.38,-15.05],[105.31,-15.21],[105.67,-14.39],[106.02,-13.56],[106.38,-12.74],[106.73,-11.91],[107.08,-11.09],[107.42,-10.26],[108.17,-10.46],[108.92,-10.66],[109.67,-10.85],[110.42,-11.05],[110.76,-10.17],[111.1,-9.29],[111.43,-8.41],[111.77,-7.53],[112.1,-6.65],[112.92,-6.82],[113.75,-7],[114.57,-7.17],[114.7,-6.62],[114.7,-6.62],[114.72,-6.63],[115.59,-7.01],[116.46,-7.38],[117.33,-7.75],[118.21,-8.12],[119.08,-8.49],[118.82,-9],[118.56,-9.5],[119.4,-9.85],[120.23,-10.2],[121.07,-10.54],[121.91,-10.89],[122.75,-11.23],[123.59,-11.57],[124.44,-11.9],[124.19,-12.46],[123.93,-13.02],[124.76,-13.36],[125.6,-13.7],[126.44,-14.03],[127.28,-14.37],[128.12,-14.69],[128.96,-15.02],[129.81,-15.34],[130.66,-15.66],[130.37,-16.25],[130.08,-16.83],[130.92,-17.09],[131.75,-17.34],[132.6,-17.59],[133.44,-17.83],[134.28,-18.07],[135.13,-18.31],[135.99,-18.73],[135.99,-18.73],[136.03,-19.54],[136.02,-20.41],[136.01,-21.29],[136,-22.16],[135.99,-23.04],[135.98,-23.91],[135.96,-24.79],[135.95,-25.66],[135.95,-26.6],[135.96,-27.54],[135.96,-28.48],[135.96,-29.43],[135.96,-30.37],[135.96,-31.31],[135.97,-32.25],[135.97,-33.19],[135.99,-34.05],[136,-34.92],[136.02,-35.78],[136.04,-36.64],[136.05,-37.51],[136.73,-38.27],[137.41,-39.03],[138.12,-39.79],[138.84,-40.54],[139.32,-41.19],[139.82,-41.83],[140.28,-42.3],[140.75,-42.76],[141.4,-43.03],[142.06,-43.29],[143.22,-43.7],[144.4,-44.1],[145.46,-44.68],[146.54,-45.24],[147.65,-45.8],[148.77,-46.34],[148.93,-47.08],[149.09,-47.81],[149.25,-48.55],[149.47,-49.35],[149.71,-50.14],[149.95,-50.94],[150.19,-51.74],[150.45,-52.53],[150.62,-53.4],[150.8,-54.27],[150.99,-55.14],[151.18,-56.01],[151.39,-56.88],[152.09,-57.78],[152.82,-58.67],[153.6,-59.55],[154.42,-60.43],[155.28,-61.31],[155.95,-62.07],[156.66,-62.83],[157.41,-63.59],[158.2,-64.34],[158.37,-64.92],[158.55,-65.5],[158.3,-66.07],[158.03,-66.64],[157.22,-67.58],[156.34,-68.52],[155.32,-69.45],[154.2,-70.37],[153.91,-70.89],[155.5,-71.69],[156.19,-72.5],[156.95,-73.31],[157.78,-74.12],[157.78,-74.12],[160.68,-74.35],[163.66,-74.53],[166.69,-74.68],[169.78,-74.78],[172.9,-74.84],[176.42,-75.01],[180,-75.13],[180,-76.12]]]}},{"type":"Feature","properties":{"ma":200,"type":"gpml:TopologicalClosedPlateBoundary","name":"Laurasia Plate","pid":301,"deforming":false},"geometry":{"type":"Polygon","coordinates":[[[22.32,87.38],[37.35,86.96],[48.17,86.38],[55.83,85.71],[61.35,84.99],[62.03,84.07],[62.52,83.14],[62.9,82.22],[63.2,81.3],[63.44,80.38],[63.64,79.45],[63.8,78.53],[63.95,77.61],[64.07,76.69],[65.58,75.96],[66.93,75.23],[68.17,74.49],[69.29,73.74],[67.88,73.05],[66.57,72.35],[65.36,71.64],[65.46,70.94],[65.56,70.25],[65.65,69.55],[66.31,68.71],[66.93,67.87],[67.5,67.03],[68.04,66.18],[67.5,65.43],[66.99,64.67],[66.51,63.91],[66.05,63.15],[66.05,63.15],[65.62,62.37],[65.22,61.59],[64.83,60.81],[64.46,60.03],[65.71,59.59],[66.92,59.13],[68.11,58.67],[69.26,58.19],[70.58,57.86],[71.88,57.52],[73.16,57.17],[74.41,56.81],[74.65,56.24],[74.88,55.67],[74.24,54.96],[73.62,54.24],[72.78,53.61],[71.96,52.97],[71.17,52.33],[70.39,51.68],[69.48,50.9],[68.6,50.12],[67.74,49.32],[67.29,48.71],[66.84,48.08],[66.41,47.46],[66,46.56],[65.61,45.65],[65.23,44.74],[64.86,43.83],[64.5,42.92],[65.03,42.13],[65.55,41.35],[65.99,40.86],[66.44,40.37],[66.44,40.37],[66.37,39.38],[66.31,38.38],[66.25,37.38],[65.78,36.83],[65.31,36.27],[64.84,35.71],[64.22,35.15],[63.6,34.58],[62.99,34.01],[62.32,33.56],[61.66,33.1],[60.95,32.4],[60.24,31.7],[59.42,31.25],[58.6,30.78],[57.52,30.8],[56.44,30.81],[55.73,30.63],[55.02,30.45],[54.65,29.7],[54.29,28.94],[53.82,28.31],[53.35,27.67],[52.89,27.03],[51.93,26.64],[50.97,26.25],[50.01,25.85],[49.19,25.21],[48.37,24.56],[47.67,23.9],[46.98,23.24],[46.29,22.57],[45.87,21.84],[45.45,21.1],[45.11,20.41],[44.76,19.71],[44.58,19.21],[44.4,18.72],[44.05,18.17],[43.7,17.62],[43.02,17.36],[42.33,17.09],[41.65,16.83],[40.71,16.8],[39.76,16.77],[38.82,16.74],[37.86,16.5],[36.9,16.26],[36.21,16.09],[35.53,15.91],[34.84,15.74],[33.92,15.67],[33,15.6],[32.08,15.53],[31.21,15.7],[30.33,15.87],[29.45,16.03],[29.45,16.03],[30.11,16.67],[30.77,17.32],[31.44,17.96],[32.01,18.54],[32.58,19.11],[33.16,19.69],[33.74,20.26],[34.21,20.88],[34.69,21.5],[35.18,22.11],[35.66,22.73],[35.83,23.1],[35.83,23.1],[34.8,23.06],[33.77,23.02],[32.74,22.98],[31.72,22.92],[30.69,22.86],[29.67,22.8],[28.64,22.72],[27.62,22.64],[26.6,22.56],[25.58,22.47],[25.58,22.47],[24.73,21.96],[23.88,21.46],[23.05,20.94],[22.67,20.39],[22.29,19.83],[22.5,19.69],[21.95,18.86],[21.41,18.03],[21.57,17.99],[21.03,17.2],[20.5,16.41],[20.71,16.25],[20.24,15.46],[19.77,14.66],[19.31,13.86],[18.86,13.06],[18.4,12.27],[17.76,11.69],[17.13,11.1],[17.13,11.1],[17.02,11.18],[17.02,11.18],[16.42,10.71],[15.83,10.23],[15.23,9.75],[15.23,9.75],[15.49,9.35],[15.49,9.35],[14.86,8.88],[14.23,8.4],[13.61,7.93],[13.61,7.93],[13.71,7.38],[13.71,7.38],[12.83,7.02],[11.96,6.66],[11.08,6.3],[11.06,5.6],[10.19,5.3],[9.33,4.99],[8.46,4.69],[7.71,4.5],[6.95,4.31],[6.19,4.12],[5.44,3.92],[5.44,3.92],[5.09,4.15],[4.63,4.38],[4.17,4.61],[3.71,4.83],[3.26,5.04],[2.75,5.28],[2.25,5.52],[1.59,5.83],[0.83,6.41],[0.25,6.86],[0.25,6.86],[0.42,7.04],[0.62,7.38],[0.7,7.78],[0.76,8.11],[0.87,8.35],[1.22,8.78],[1.61,9.09],[1.79,9.31],[2.03,9.7],[2.16,9.9],[2.29,10.23],[2.43,10.55],[2.59,10.83],[2.7,11.1],[2.78,11.36],[2.86,11.57],[2.91,11.7],[3.01,11.83],[3.1,12],[3.17,12.22],[3.29,12.37],[3.33,12.42],[3.33,12.42],[3.6,12.51],[4.1,12.6],[4.75,12.72],[5.31,12.85],[5.84,13.24],[6.09,13.42],[6.09,13.42],[6.25,13.72],[6.66,13.98],[7.24,14.28],[7.53,14.59],[7.86,14.8],[8.37,15.21],[8.81,15.61],[9.05,15.9],[9.28,16.13],[9.42,16.36],[9.57,16.59],[9.81,16.79],[10.14,16.9],[10.51,17.06],[10.93,17.13],[11.39,17.12],[11.84,17.03],[12.21,16.94],[12.53,16.77],[13.11,16.66],[13.63,16.58],[14.15,16.6],[14.44,16.61],[14.73,16.68],[15.07,16.84],[15.3,17.28],[15.5,17.61],[15.7,17.92],[15.93,18.3],[16.19,18.74],[16.32,19.07],[16.32,19.07],[16.03,19.17],[15.92,19.2],[15.63,19.36],[15.13,19.53],[14.57,19.78],[14.03,19.97],[13.49,20.19],[13.04,20.37],[12.85,20.54],[12.71,20.64],[12.52,20.85],[12.34,21.23],[12.16,21.53],[12.12,21.91],[12.04,22.46],[11.9,22.86],[11.65,23.36],[11.06,23.77],[10.82,24.03],[10.43,24.14],[10.06,24.07],[9.59,24.21],[9.38,24.34],[9.14,24.59],[9.12,24.79],[9.08,25.01],[8.99,25.25],[8.86,25.55],[8.83,25.79],[8.69,26.24],[8.5,26.81],[8.35,27.25],[8.15,27.72],[8.07,28.18],[8.03,28.29],[8.03,28.29],[8.05,28.37],[8.05,28.48],[8.02,28.64],[8.03,28.79],[8.04,29.02],[8.05,29.24],[8.18,29.55],[8.31,29.7],[8.41,29.94],[8.43,29.98],[8.5,30.09],[8.55,30.15],[8.58,30.3],[8.59,30.36],[8.43,30.51],[8.33,30.62],[8.24,30.88],[8.18,31],[8.1,31.15],[8.27,31.42],[8.34,31.63],[8.29,31.88],[8.14,32.1],[8.02,32.3],[7.85,32.57],[7.62,32.76],[7.47,32.92],[7.37,33.06],[7.37,33.22],[7.5,33.41],[7.54,33.58],[7.68,33.81],[7.72,34.04],[7.9,34.25],[8.05,34.45],[8.24,34.63],[8.31,34.97],[8.2,35.34],[8.14,35.54],[8.09,35.92],[8.07,36.21],[8.16,36.73],[8.18,37],[8.17,37.25],[8.32,37.58],[8.29,37.61],[8.29,37.61],[8.32,37.78],[8.27,38.04],[8.22,38.47],[8.06,38.81],[8.06,38.81],[7.84,38.88],[7.57,39.58],[7.29,40.28],[7.17,40.97],[7.05,41.66],[6.53,42.47],[6,43.28],[5.18,43.6],[4.35,43.9],[3.23,43.68],[2.11,43.45],[1.01,43.67],[-0.09,43.88],[-1.2,44.09],[-2.11,44.35],[-3.04,44.61],[-3.97,44.87],[-3.81,45.85],[-3.64,46.83],[-3.47,47.81],[-3.29,48.8],[-3.57,49.75],[-3.87,50.71],[-4.17,51.67],[-4.49,52.62],[-4.83,53.58],[-4.29,54.16],[-4.6,54.87],[-4.92,55.59],[-5.25,56.3],[-5.51,57.14],[-5.79,57.98],[-6.08,58.82],[-6.39,59.66],[-6.71,60.49],[-6.99,61.29],[-7.29,62.08],[-7.6,62.88],[-7.6,62.88],[-7.64,63.21],[-7.78,63.8],[-7.92,64.38],[-7.98,64.67],[-8.02,64.83],[-8.04,64.94],[-8.13,65.28],[-8.15,65.35],[-8.43,66.24],[-8.72,67.13],[-9.04,68.01],[-9.38,68.9],[-9.99,69.75],[-10.64,70.59],[-11.35,71.44],[-12.12,72.28],[-12.12,72.28],[-14.54,71.93],[-16.87,71.55],[-19.1,71.15],[-21.97,70.83],[-24.75,70.48],[-27.16,70.37],[-29.55,70.24],[-31.89,70.07],[-33.63,69.76],[-35.32,69.44],[-36.95,69.1],[-39.08,68.76],[-41.15,68.41],[-43.14,68.02],[-44.82,67.8],[-46.47,67.57],[-48.08,67.31],[-50.37,66.98],[-52.6,66.61],[-54.14,66.26],[-55.65,65.89],[-57.11,65.51],[-58.69,64.97],[-60.21,64.42],[-60.21,64.42],[-61.65,65.11],[-62.59,65.73],[-63.56,66.34],[-64.59,66.94],[-65.7,67.78],[-66.9,68.62],[-67.71,69.32],[-68.57,70.02],[-69.49,70.71],[-70.18,71.51],[-70.93,72.3],[-71.76,73.1],[-72.66,73.89],[-72.66,73.89],[-71.81,74.45],[-70.89,75.01],[-69.74,75.8],[-68.44,76.59],[-66.99,77.36],[-65.93,77.99],[-64.75,78.62],[-64.5,79.34],[-64.21,80.07],[-64.17,80.78],[-64.12,81.49],[-63.23,82.09],[-62.2,82.7],[-60.74,83.38],[-58.96,84.05],[-56.73,84.72],[-53.78,85.32],[-49.99,85.9],[-41.74,86.52],[-30.23,87.05],[-14.74,87.41],[3.88,87.53],[22.32,87.38]]]}},{"type":"Feature","properties":{"ma":200,"type":"gpml:TopologicalClosedPlateBoundary","name":"Mongol-Okhotsk Ocean","pid":380,"deforming":false},"geometry":{"type":"Polygon","coordinates":[[[-180,76.86],[-180,77.8],[-180,78.74],[-180,79.68],[-180,80.62],[-180,81.56],[-180,82.49],[-180,83.43],[-180,84.37],[-180,85.31],[-180,86.25],[-180,87.19],[-180,88.12],[-180,89.06],[-180,90],[180,90],[180,89.06],[180,88.12],[180,87.19],[180,86.25],[180,85.31],[180,84.37],[180,83.43],[180,82.49],[180,81.56],[180,80.62],[180,79.68],[180,78.74],[180,77.8],[180,76.86],[180,75.93],[178.54,75.45],[176.44,74.68],[174.53,73.89],[172.8,73.09],[171.05,72.26],[170.08,71.76],[169.15,71.26],[167.78,70.61],[166.5,69.95],[165.3,69.28],[163.74,68.6],[162.27,67.9],[160.89,67.19],[159.58,66.47],[158.38,65.73],[157.24,64.99],[156.16,64.24],[155.14,63.48],[154.1,62.77],[153.12,62.05],[152.17,61.32],[151.03,60.59],[149.94,59.85],[149.15,59.18],[148.39,58.51],[147.67,57.84],[146.8,57.15],[145.97,56.46],[145.17,55.77],[144.26,54.96],[143.39,54.15],[142.55,53.29],[141.74,52.43],[140.9,51.61],[140.09,50.79],[139.56,50.15],[139.04,49.51],[138.53,48.87],[137.85,48.11],[137.18,47.36],[136.54,46.59],[135.99,45.8],[135.45,45],[134.93,44.2],[134.41,43.45],[133.91,42.7],[133.42,41.95],[132.93,41.2],[132.46,40.44],[132.01,39.64],[131.56,38.83],[131.13,38.01],[130.7,37.2],[130.29,36.39],[130.29,36.39],[129.77,35.83],[129.26,35.27],[128.75,34.71],[128.25,33.98],[127.75,33.26],[127.26,32.53],[126.78,31.8],[126.18,30.97],[125.6,30.14],[125.02,29.3],[124.48,28.74],[123.95,28.18],[123.42,27.62],[122.4,27.3],[121.38,26.97],[120.5,26.97],[119.61,26.97],[118.88,27.11],[118.14,27.25],[117.41,27.38],[116.53,27.53],[115.64,27.68],[114.75,27.82],[113.8,28.08],[112.84,28.33],[111.87,28.57],[111.13,28.74],[110.39,28.92],[109.65,29.08],[108.97,29.64],[108.28,30.19],[107.58,30.74],[107.06,31.26],[106.54,31.79],[106.01,32.31],[105.18,32.8],[104.34,33.28],[103.5,33.76],[102.55,34.3],[101.58,34.83],[100.61,35.35],[100.26,35.98],[99.9,36.62],[99.54,37.26],[98.91,37.93],[98.27,38.6],[97.65,39.24],[97.01,39.87],[96.36,40.5],[95.86,41.23],[95.35,41.97],[94.83,42.69],[94.44,43.41],[94.04,44.13],[93.63,44.85],[92.86,45.26],[92.07,45.67],[91.27,46.08],[90.19,46.27],[89.09,46.45],[87.99,46.62],[86.88,46.78],[85.7,46.45],[84.54,46.1],[83.39,45.75],[82.26,45.38],[81.22,44.95],[80.21,44.52],[79.2,44.07],[78.22,43.62],[77.24,43.16],[76.04,42.97],[74.84,42.76],[73.65,42.55],[72.47,42.32],[71.23,41.99],[70,41.65],[68.78,41.3],[67.6,40.87],[66.44,40.42],[66.44,40.37],[65.99,40.86],[65.55,41.35],[65.03,42.13],[64.5,42.92],[64.86,43.83],[65.23,44.74],[65.61,45.65],[66,46.56],[66.41,47.46],[66.84,48.08],[67.29,48.71],[67.74,49.32],[68.6,50.12],[69.48,50.9],[70.39,51.68],[71.17,52.33],[71.96,52.97],[72.78,53.61],[73.62,54.24],[74.24,54.96],[74.88,55.67],[74.65,56.24],[74.41,56.81],[73.16,57.17],[71.88,57.52],[70.58,57.86],[69.26,58.19],[68.11,58.67],[66.92,59.13],[65.71,59.59],[64.46,60.03],[64.83,60.81],[65.22,61.59],[65.62,62.37],[66.05,63.15],[66.05,63.15],[66.51,63.91],[66.99,64.67],[67.5,65.43],[68.04,66.18],[67.5,67.03],[66.93,67.87],[66.31,68.71],[65.65,69.55],[65.56,70.25],[65.46,70.94],[65.36,71.64],[66.57,72.35],[67.88,73.05],[69.29,73.74],[68.17,74.49],[66.93,75.23],[65.58,75.96],[64.07,76.69],[63.95,77.61],[63.8,78.53],[63.64,79.45],[63.44,80.38],[63.2,81.3],[62.9,82.22],[62.52,83.14],[62.03,84.07],[61.35,84.99],[55.83,85.71],[48.17,86.38],[37.35,86.96],[22.32,87.38],[3.88,87.53],[-14.74,87.41],[-30.23,87.05],[-41.74,86.52],[-49.99,85.9],[-49.99,85.9],[-53.78,85.32],[-56.73,84.72],[-58.76,84.12],[-58.76,84.12],[-64.24,83.86],[-69.24,83.55],[-75.37,83.08],[-80.68,82.54],[-85.23,81.95],[-89.15,81.31],[-92.52,80.64],[-92.52,80.64],[-97.95,81.12],[-103.94,81.51],[-110.42,81.8],[-116.51,81.88],[-122.66,81.87],[-128.73,81.77],[-135.08,81.59],[-141.09,81.31],[-146.68,80.94],[-151.79,80.5],[-156.41,79.98],[-160.57,79.41],[-164.29,78.79],[-167.61,78.13],[-170.57,77.44],[-174.13,77.5],[-176.24,76.99],[-178.19,76.47],[-180,75.93],[-180,76.86]]]}},{"type":"Feature","properties":{"ma":200,"type":"gpml:TopologicalClosedPlateBoundary","name":"North America","pid":101,"deforming":false},"geometry":{"type":"Polygon","coordinates":[[[-46.13,57.71],[-47.12,58.15],[-48.12,58.58],[-49.15,59.01],[-50.26,59.62],[-51.41,60.23],[-52.6,60.82],[-53.84,61.41],[-55.23,62.07],[-56.69,62.73],[-58.21,63.36],[-59.19,63.89],[-60.21,64.42],[-60.21,64.42],[-58.69,64.97],[-57.11,65.51],[-55.65,65.89],[-54.14,66.26],[-52.6,66.61],[-50.37,66.98],[-48.08,67.31],[-46.47,67.57],[-44.82,67.8],[-43.14,68.02],[-41.15,68.41],[-39.08,68.76],[-36.95,69.1],[-35.32,69.44],[-33.63,69.76],[-31.89,70.07],[-29.55,70.24],[-27.16,70.37],[-24.75,70.48],[-21.97,70.83],[-19.1,71.15],[-16.87,71.55],[-14.54,71.93],[-12.12,72.28],[-12.12,72.28],[-11.35,71.44],[-10.64,70.59],[-9.99,69.75],[-9.38,68.9],[-9.04,68.01],[-8.72,67.13],[-8.43,66.24],[-8.15,65.35],[-8.13,65.28],[-8.04,64.94],[-8.02,64.83],[-7.98,64.67],[-7.92,64.38],[-7.78,63.8],[-7.64,63.21],[-7.6,62.88],[-7.6,62.88],[-7.29,62.08],[-6.99,61.29],[-6.71,60.49],[-6.39,59.66],[-6.08,58.82],[-5.79,57.98],[-5.51,57.14],[-5.25,56.3],[-4.92,55.59],[-4.6,54.87],[-4.29,54.16],[-4.83,53.58],[-4.49,52.62],[-4.17,51.67],[-3.87,50.71],[-3.57,49.75],[-3.29,48.8],[-3.47,47.81],[-3.64,46.83],[-3.81,45.85],[-3.97,44.87],[-3.04,44.61],[-2.11,44.35],[-1.2,44.09],[-0.09,43.88],[1.01,43.67],[2.11,43.45],[3.23,43.68],[4.35,43.9],[5.18,43.6],[6,43.28],[6.53,42.47],[7.05,41.66],[7.17,40.97],[7.29,40.28],[7.57,39.58],[7.84,38.88],[8.06,38.81],[8.06,38.81],[8.22,38.47],[8.27,38.04],[8.32,37.78],[8.32,37.77],[8.32,37.77],[8.25,37.7],[8.02,37.5],[7.81,36.97],[7.65,36.53],[7.54,36.39],[7.47,36.19],[7.48,35.99],[7.51,35.81],[7.49,35.46],[7.43,35.21],[7.28,34.92],[7.14,34.76],[6.73,34.4],[6.52,33.97],[6.36,33.75],[6.24,33.59],[6.18,33.42],[6.23,33.25],[6.27,33.03],[6.26,32.84],[6.23,32.68],[6.2,32.51],[6.23,32.27],[6.33,32.11],[6.66,31.93],[6.86,31.86],[7.07,31.66],[7.03,31.51],[6.99,31.26],[6.97,30.59],[6.99,30.54],[7.3,30.21],[7.33,30.02],[7.07,29.52],[6.81,29.19],[6.4,28.56],[6.05,27.97],[5.84,27.25],[5.73,26.89],[5.4,26.32],[4.76,25.8],[4.36,25.4],[3.79,25.08],[3.34,24.68],[2.67,24.27],[1.95,23.96],[1.6,23.82],[1.47,23.02],[1.82,22.52],[2.17,22.03],[2.33,21.36],[2.14,20.67],[1.95,19.98],[1.62,19.48],[1.28,18.98],[0.85,18.55],[0.32,17.9],[0.06,17.35],[-0.27,16.96],[-0.64,16.24],[-0.83,15.53],[-0.91,15],[-0.91,15],[-0.88,14.88],[-0.81,14.58],[-0.79,14.21],[-0.81,13.83],[-0.85,13.57],[-0.89,13.28],[-0.86,13.07],[-0.81,12.94],[-0.77,12.74],[-0.73,12.61],[-0.73,12.61],[-0.57,12.5],[-0.47,12.41],[-0.4,12.35],[-0.29,12.23],[-0.19,12.14],[-0.1,12],[-0.01,11.85],[0.05,11.71],[0.13,11.53],[0.07,11.29],[-0.07,11.08],[-0.14,10.92],[-0.24,10.76],[-0.36,10.57],[-0.47,10.41],[-0.56,10.27],[-0.67,10.15],[-0.8,10.02],[-0.92,9.92],[-1.01,9.84],[-1.14,9.77],[-1.29,9.69],[-1.45,9.6],[-1.45,9.6],[-1.32,9.58],[-1.09,9.67],[-1,9.7],[-0.92,9.73],[-0.8,9.84],[-0.72,9.93],[-0.63,10.01],[-0.51,10.09],[-0.38,10.18],[-0.3,10.26],[-0.22,10.4],[-0.16,10.53],[-0.08,10.64],[0.04,10.75],[0.16,10.86],[0.29,10.97],[0.36,11.05],[0.42,11.11],[0.48,11.19],[0.53,11.26],[0.6,11.35],[0.69,11.47],[0.7,11.49],[0.7,11.49],[0.72,11.45],[0.75,11.29],[0.77,11.22],[0.78,11.2],[0.78,11.2],[0.69,11.15],[0.6,11.14],[0.54,11.13],[0.5,11.1],[0.44,11.05],[0.4,11],[0.29,10.88],[0.22,10.79],[0.16,10.73],[0.04,10.63],[-0.04,10.57],[-0.08,10.49],[-0.19,10.28],[-0.33,10.14],[-0.45,10.01],[-0.56,9.9],[-0.73,9.75],[-0.96,9.52],[-1.02,9.41],[-1.09,9.25],[-1.09,9.11],[-1.08,8.93],[-1.1,8.79],[-1.13,8.65],[-1.34,8.44],[-1.43,8.35],[-1.43,8.35],[-1.4,8.33],[-1.4,8.33],[-1.56,7.89],[-1.86,7.84],[-2.23,7.84],[-2.54,7.94],[-2.52,8.35],[-2.5,8.57],[-2.62,8.61],[-2.67,8.6],[-2.99,8.42],[-3.11,8.65],[-3.13,8.85],[-2.82,8.83],[-2.67,8.94],[-2.6,9.05],[-2.86,9.24],[-3.04,9.42],[-3.15,9.52],[-3.28,9.66],[-3.5,9.76],[-3.67,9.97],[-4,10.09],[-4.77,10.21],[-5.44,10.4],[-6.16,10.57],[-6.8,10.62],[-7.32,10.65],[-7.82,10.65],[-8.3,10.63],[-8.88,10.59],[-9.53,10.67],[-10.01,10.78],[-10.34,10.76],[-10.98,10.65],[-11.53,10.53],[-12.12,10.29],[-12.82,9.91],[-13.33,9.62],[-14.11,9.51],[-14.63,9.38],[-15.42,9.26],[-16.18,9.23],[-16.65,9.22],[-17.17,8.97],[-17.55,9.12],[-17.8,9.04],[-18.02,8.48],[-18.38,8.18],[-18.85,8.07],[-19.18,7.81],[-19.5,7.56],[-19.68,7.57],[-19.93,7.54],[-20.39,7.42],[-20.67,7.43],[-20.97,7.52],[-21.21,7.55],[-21.34,7.45],[-21.76,7.31],[-21.94,6.87],[-22.23,6.44],[-22.72,5.99],[-23.22,5.54],[-23.57,5.25],[-24.35,4.74],[-24.98,4.45],[-25.17,3.83],[-25.41,3.08],[-25.88,2.65],[-26.45,2.25],[-27.08,2.14],[-27.71,2.02],[-28.23,1.9],[-28.54,1.82],[-28.88,1.74],[-29.01,1.55],[-29.38,1.27],[-29.77,0.97],[-30.18,0.6],[-30.48,0.32],[-30.68,0.2],[-30.68,0.2],[-30.69,0.22],[-31.39,0.89],[-31.89,1.37],[-32.38,1.86],[-33.09,2.32],[-33.81,2.79],[-34.43,3.34],[-35.1,3.72],[-35.58,4.02],[-36.07,4.31],[-36.55,4.56],[-37.03,4.81],[-37.49,5.08],[-37.95,5.36],[-38.75,5.94],[-39.46,6.14],[-40.18,6.34],[-40.69,6.51],[-41.19,6.68],[-42.2,6.68],[-42.72,6.73],[-43.24,6.78],[-43.93,6.39],[-44.63,6],[-45.32,5.6],[-46.05,4.96],[-46.79,4.31],[-47.52,3.66],[-47.79,2.97],[-48.18,2.6],[-48.57,2.23],[-49.22,1.51],[-49.84,1.14],[-50.52,0.64],[-51.19,0.14],[-51.98,-0.01],[-52.77,-0.17],[-53.72,-0.36],[-54.67,-0.56],[-55.43,-0.75],[-56.19,-0.94],[-57.13,-1.12],[-58.08,-1.31],[-58.97,-1.41],[-58.97,-1.41],[-58.9,-0.74],[-58.82,-0.07],[-58.68,0.69],[-58.53,1.44],[-58.39,2.2],[-58.19,3],[-58,3.79],[-57.81,4.59],[-57.55,5.31],[-57.28,6.03],[-57.01,6.75],[-56.61,7.12],[-56.22,7.48],[-55.68,7.94],[-55.13,8.4],[-54.69,8.88],[-54.25,9.36],[-54.21,9.42],[-54.21,9.42],[-54.29,10.27],[-54.37,11.11],[-54.45,11.96],[-54.53,12.8],[-54.61,13.65],[-54.73,14.6],[-54.85,15.54],[-54.97,16.49],[-55.1,17.44],[-55.23,18.39],[-55.35,19.34],[-55.48,20.29],[-55.53,21.06],[-55.57,21.83],[-55.61,22.6],[-55.65,23.37],[-55.25,24.15],[-54.84,24.93],[-54.42,25.71],[-54,26.48],[-53.58,27.25],[-52.92,27.99],[-52.26,28.71],[-51.58,29.44],[-50.9,30.16],[-50.35,30.71],[-49.8,31.26],[-49.24,31.81],[-49.24,31.81],[-48.81,32.69],[-48.38,33.56],[-47.93,34.43],[-47.73,35.42],[-47.53,36.4],[-47.32,37.38],[-47.1,38.37],[-46.88,39.35],[-46.66,40.33],[-46.49,41.24],[-46.33,42.14],[-46.16,43.05],[-45.98,43.95],[-45.8,44.86],[-45.61,45.76],[-45.42,46.66],[-45.64,47.59],[-45.86,48.52],[-46.09,49.45],[-46.34,50.38],[-47.06,51.09],[-47.8,51.79],[-47.55,52.73],[-47.29,53.67],[-47.02,54.61],[-46.73,55.55],[-46.43,56.48],[-46.29,57.1],[-46.13,57.71]]]}},{"type":"Feature","properties":{"ma":200,"type":"gpml:TopologicalClosedPlateBoundary","name":"West Gondwana","pid":701,"deforming":false},"geometry":{"type":"Polygon","coordinates":[[[39.88,-34.45],[38.76,-34.58],[37.64,-34.7],[36.51,-34.81],[35.38,-34.91],[34.25,-35],[33.11,-35.08],[31.9,-35.1],[30.69,-35.1],[29.47,-35.09],[28.26,-35.07],[27.05,-35.04],[25.83,-34.99],[24.62,-34.93],[23.43,-34.93],[22.25,-34.91],[22.25,-34.91],[21.56,-35.2],[20.87,-35.49],[20.06,-35.88],[19.25,-36.27],[18.43,-36.65],[17.4,-36.81],[17.4,-36.81],[17.41,-37.37],[16.65,-37.11],[16.05,-37.4],[15.45,-37.7],[14.59,-37.24],[13.73,-36.77],[12.89,-36.3],[12.05,-35.82],[11.23,-35.34],[10.39,-35.68],[9.54,-36.01],[8.55,-35.87],[8.11,-36.46],[7.65,-37.05],[8.17,-37.45],[8.68,-37.84],[8.74,-37.9],[7.85,-38.12],[6.95,-38.34],[6.11,-38.75],[5.26,-39.15],[4.54,-39.61],[3.8,-40.07],[3.16,-40.36],[2.51,-40.65],[1.97,-41.36],[1.41,-42.07],[1.36,-42.73],[1.3,-43.38],[0.55,-44.19],[0.51,-45.02],[0.48,-45.86],[1.06,-46.24],[1.65,-46.62],[1.93,-47.27],[2.21,-47.91],[2.51,-48.78],[2.81,-49.65],[2.44,-50.27],[2.4,-50.93],[1.62,-51.45],[0.82,-51.96],[-0.03,-52.54],[-0.17,-53.31],[-0.32,-54.09],[-1.14,-54.55],[-1.97,-55.01],[-2.11,-55.57],[-2.24,-56.14],[-2.85,-56.59],[-3.47,-57.04],[-4.77,-56.98],[-6.41,-57.09],[-8.06,-57.18],[-9.2,-57.74],[-10.38,-58.29],[-11.98,-57.9],[-13.53,-57.48],[-15.05,-57.05],[-16.54,-56.6],[-18.07,-56.62],[-19.61,-56.63],[-21.15,-56.62],[-22.19,-57.33],[-23.28,-58.02],[-24.38,-57.74],[-25.47,-57.44],[-26.52,-57.85],[-27.59,-58.25],[-27.75,-58.93],[-27.91,-59.6],[-28.67,-60.45],[-29.48,-61.29],[-29.87,-62.17],[-30.29,-63.04],[-30.74,-63.92],[-31.21,-64.79],[-31.72,-65.66],[-31.72,-65.66],[-31.86,-65.67],[-32.22,-65.72],[-33,-65.82],[-34.35,-66],[-35.48,-66.12],[-36.62,-66.23],[-37.86,-66.33],[-39.36,-66.47],[-40.78,-66.5],[-41.56,-66.55],[-42.52,-66.61],[-43.98,-66.66],[-45.44,-66.69],[-46.73,-66.7],[-47.26,-66.71],[-47.93,-66.71],[-49.32,-66.61],[-50.34,-66.46],[-51.35,-66.41],[-52.79,-66.24],[-54.49,-66.16],[-56.17,-66.06],[-57.97,-65.9],[-59.74,-65.72],[-61.93,-65.38],[-64.06,-65.02],[-66.14,-64.62],[-68.15,-64.19],[-70.09,-63.74],[-70.09,-63.74],[-70.16,-63.67],[-70.36,-63.27],[-70.37,-63.21],[-70.34,-62.83],[-70.25,-62.47],[-70.14,-62.09],[-70.05,-61.77],[-69.99,-61.6],[-69.95,-61.29],[-70.05,-60.88],[-70.11,-60.5],[-70.1,-60.16],[-70.12,-59.86],[-70.06,-59.6],[-70.02,-59.28],[-69.94,-58.92],[-69.69,-58.49],[-69.36,-58.16],[-69.14,-57.96],[-68.89,-57.72],[-68.58,-57.45],[-68.1,-57.02],[-67.65,-56.65],[-67.33,-56.33],[-67.08,-56.01],[-67.01,-55.57],[-66.94,-55.3],[-66.88,-55.07],[-66.85,-54.99],[-66.74,-54.74],[-66.61,-54.44],[-66.44,-54.08],[-66.29,-53.79],[-66.11,-53.47],[-65.92,-53.12],[-65.78,-52.87],[-65.45,-52.24],[-65.23,-51.82],[-65.02,-51.43],[-64.81,-51.07],[-64.52,-50.57],[-64.36,-50.29],[-64.14,-49.84],[-64.02,-49.56],[-63.86,-49.2],[-63.58,-48.93],[-63.21,-48.37],[-63.21,-48.37],[-63.11,-48.04],[-63.11,-48.04],[-63.09,-47.92],[-62.97,-47.66],[-62.44,-46.86],[-61.93,-46.07],[-61.81,-45.33],[-61.69,-44.6],[-61.55,-43.76],[-61.42,-42.92],[-60.9,-42.18],[-60.4,-41.44],[-59.91,-40.7],[-59.43,-39.95],[-58.96,-39.2],[-58.76,-38.44],[-58.56,-37.67],[-58.37,-36.91],[-58.18,-36.14],[-58.03,-35.28],[-57.88,-34.42],[-57.81,-33.99],[-57.73,-33.6],[-57.69,-33.28],[-57.58,-32.71],[-57.49,-32],[-57.32,-31.55],[-57.06,-30.72],[-56.93,-30.23],[-56.93,-29.64],[-56.93,-29.64],[-56.94,-29.35],[-56.97,-28.99],[-56.94,-28.44],[-57.06,-27.69],[-57.13,-27.16],[-57.19,-26.63],[-57.73,-25.84],[-57.89,-25.15],[-58.04,-24.46],[-58.19,-23.77],[-58.38,-22.95],[-58.57,-22.13],[-58.75,-21.31],[-58.82,-20.45],[-58.89,-19.59],[-58.95,-18.73],[-59.02,-17.88],[-59.09,-17.02],[-59.15,-16.16],[-59.19,-15.29],[-59.23,-14.42],[-59.27,-13.55],[-58.9,-12.76],[-58.55,-11.98],[-58.19,-11.19],[-57.83,-10.4],[-57.48,-9.61],[-57.37,-9.35],[-57.27,-9.11],[-57.15,-8.85],[-56.99,-8.51],[-56.89,-8.32],[-56.8,-8.08],[-56.58,-7.74],[-56.39,-7.43],[-56.31,-7.34],[-56.31,-7.34],[-55.91,-8.05],[-55.81,-8.25],[-55.81,-8.25],[-55.59,-8.26],[-55.03,-8.18],[-54.48,-8.1],[-53.89,-8.22],[-53.31,-8.35],[-52.8,-8.57],[-52.29,-8.79],[-51.64,-9.16],[-50.98,-9.53],[-50.12,-9.78],[-49.26,-10.03],[-48.44,-9.88],[-47.62,-9.73],[-46.88,-9.38],[-46.13,-9.03],[-45.48,-8.7],[-44.82,-8.36],[-44.19,-8.15],[-43.56,-7.94],[-43,-7.88],[-42.43,-7.81],[-41.91,-7.7],[-41.39,-7.6],[-40.79,-7.52],[-40.18,-7.45],[-39.55,-6.98],[-38.92,-6.52],[-38.18,-6.4],[-37.43,-6.28],[-36.76,-6.41],[-36.09,-6.54],[-35.42,-6.67],[-34.65,-6.78],[-33.88,-6.89],[-32.99,-7.21],[-32.48,-7.28],[-31.97,-7.35],[-31.39,-7.38],[-30.82,-7.41],[-30.21,-7.23],[-29.6,-7.04],[-28.8,-6.88],[-28,-6.71],[-27.19,-6.55],[-26.73,-5.97],[-26.26,-5.39],[-26.26,-5.39],[-26.21,-5.42],[-25.85,-5.53],[-25.78,-5.57],[-25.78,-5.57],[-25.86,-5.39],[-25.84,-4.8],[-25.59,-3.92],[-25.36,-3.15],[-25.08,-2.79],[-24.68,-2.5],[-24.06,-2.26],[-23.64,-2.29],[-23.2,-2.33],[-22.97,-1.99],[-22.82,-1.74],[-22.61,-1.47],[-22.3,-1.28],[-22.06,-0.92],[-21.82,-0.51],[-21.71,0.27],[-21.62,0.71],[-21.47,1.13],[-21.2,1.36],[-20.99,1.55],[-20.57,2.08],[-20.21,2.6],[-19.95,3.21],[-19.67,3.63],[-19.39,4.06],[-19.03,4.48],[-18.66,4.9],[-18.18,5.09],[-17.69,5.28],[-17.55,5.37],[-16.68,5.17],[-15.73,5.08],[-15.22,5.04],[-15.07,4.94],[-14.52,4.82],[-13.78,5.09],[-12.98,5.44],[-12.52,5.74],[-11.61,5.99],[-11.05,6.24],[-10.32,6.35],[-9.5,6.42],[-8.83,6.64],[-8.51,6.67],[-8.51,6.67],[-8.46,6.64],[-8.21,6.52],[-7.89,6.33],[-7.49,6.1],[-6.93,5.75],[-6.25,5.36],[-5.95,5.22],[-5.45,5.02],[-5.05,4.87],[-4.61,4.69],[-3.87,4.33],[-3.54,4.16],[-2.69,3.73],[-1.97,3.36],[-1.97,3.36],[-1.27,3.32],[-0.62,3.33],[0.02,3.33],[0.77,3.19],[1.65,3.08],[2.03,2.93],[2.03,2.93],[2.48,2.82],[2.91,2.72],[3.19,2.68],[3.59,2.81],[3.97,2.82],[4.86,2.7],[5.61,2.56],[6.34,2.5],[7.17,2.38],[7.89,2.31],[7.89,2.31],[7.28,2.72],[6.47,3.25],[6.47,3.25],[7.36,3.48],[8.26,3.7],[9.15,3.93],[10.05,4.15],[10.85,4.45],[11.66,4.75],[12.47,5.04],[13.28,5.34],[14.08,5.63],[14.08,5.63],[14.02,5.71],[13.88,6.45],[13.74,7.19],[13.61,7.93],[13.61,7.93],[14.23,8.4],[14.86,8.88],[15.49,9.35],[15.49,9.35],[15.23,9.75],[15.23,9.75],[15.83,10.23],[16.42,10.71],[17.02,11.18],[17.02,11.18],[17.34,10.96],[18.13,10.53],[18.93,10.1],[19.72,9.67],[20.51,9.24],[20.51,9.24],[21.19,9.72],[21.87,10.19],[22.55,10.67],[23.21,11.17],[23.87,11.66],[24.53,12.16],[25.19,12.65],[25.86,13.14],[25.86,13.14],[26.49,12.72],[27.11,12.3],[27.74,11.87],[28.29,12.21],[29.09,11.62],[29.89,11.03],[30.68,10.44],[31.47,9.84],[32.25,9.25],[33.04,8.65],[33.82,8.05],[34.6,7.45],[35.3,7.83],[36.01,7.22],[36.71,6.6],[37.41,5.99],[38.12,5.37],[38.82,4.75],[39.51,4.13],[40.21,3.51],[40.91,2.9],[40.91,2.9],[41.41,3.55],[41.9,4.2],[41.9,4.2],[42.76,3.69],[43.61,3.18],[44.46,2.66],[45.31,2.15],[46.16,1.63],[47.01,1.12],[47.86,0.6],[48.71,0.09],[49.56,-0.43],[50.41,-0.94],[50.08,-1.72],[50.9,-2.12],[51.71,-2.52],[52.53,-2.91],[53.35,-3.31],[54.17,-3.71],[54.99,-4.11],[55.81,-4.5],[55.53,-5.39],[56.38,-5.76],[57.24,-6.12],[58.1,-6.49],[58.96,-6.86],[59.83,-7.22],[60.69,-7.58],[61.56,-7.94],[62.42,-8.3],[63.29,-8.66],[64.16,-9.01],[64.16,-9.01],[63.78,-9.83],[63.29,-10.69],[62.79,-11.55],[62.29,-12.42],[61.79,-13.28],[61.28,-14.14],[60.77,-15],[60.25,-15.85],[59.73,-16.71],[59.15,-17.43],[58.55,-18.15],[57.96,-18.87],[57.35,-19.59],[56.74,-20.31],[56.13,-21.02],[55.51,-21.73],[54.89,-22.44],[54.25,-23.14],[53.62,-23.85],[52.95,-24.44],[52.27,-25.02],[51.59,-25.6],[50.9,-26.18],[50.2,-26.76],[49.5,-27.33],[48.82,-28.06],[48.13,-28.79],[47.43,-29.51],[47.43,-29.51],[47.37,-29.55],[46.51,-30.18],[45.64,-30.8],[44.75,-31.42],[43.86,-32.03],[42.95,-32.63],[42.04,-33.23],[41.11,-33.82],[40.16,-34.4],[39.88,-34.45]]]}},{"type":"Feature","properties":{"ma":200,"type":"gpml:TopologicalClosedPlateBoundary","name":"Phoenix Plate","pid":919,"deforming":false},"geometry":{"type":"MultiPolygon","coordinates":[[[[180,-6.61],[180,-7.61],[180,-8.6],[180,-9.59],[180,-10.59],[180,-11.58],[180,-12.57],[180,-13.56],[180,-14.56],[180,-15.55],[180,-16.54],[180,-17.54],[180,-18.53],[180,-19.52],[180,-20.52],[180,-21.51],[180,-22.5],[180,-23.49],[180,-24.49],[180,-25.48],[180,-26.47],[180,-27.47],[180,-28.46],[180,-29.45],[180,-30.45],[180,-31.44],[180,-32.43],[180,-33.42],[180,-34.42],[180,-35.41],[180,-36.4],[180,-37.4],[180,-38.39],[180,-39.38],[180,-40.37],[180,-41.37],[180,-42.36],[180,-43.35],[180,-44.35],[180,-45.34],[180,-46.33],[180,-47.33],[180,-48.32],[180,-49.31],[180,-50.3],[180,-51.3],[180,-52.29],[180,-53.28],[180,-54.28],[180,-55.27],[180,-56.26],[180,-57.26],[180,-58.25],[180,-59.24],[180,-60.23],[180,-61.23],[180,-62.22],[180,-63.21],[180,-64.21],[180,-65.2],[180,-66.19],[180,-67.19],[180,-68.18],[180,-69.17],[180,-70.16],[180,-71.16],[180,-72.15],[180,-73.14],[180,-74.14],[180,-75.13],[176.42,-75.01],[172.9,-74.84],[169.78,-74.78],[166.69,-74.68],[163.66,-74.53],[160.68,-74.35],[157.78,-74.12],[157.78,-74.12],[156.95,-73.31],[156.19,-72.5],[155.5,-71.69],[153.91,-70.89],[154.2,-70.37],[155.32,-69.45],[156.34,-68.52],[157.22,-67.58],[158.03,-66.64],[158.3,-66.07],[158.55,-65.5],[158.37,-64.92],[158.2,-64.34],[157.41,-63.59],[156.66,-62.83],[155.95,-62.07],[155.28,-61.31],[154.42,-60.43],[153.6,-59.55],[152.82,-58.67],[152.09,-57.78],[151.39,-56.88],[151.18,-56.01],[150.99,-55.14],[150.8,-54.27],[150.62,-53.4],[150.45,-52.53],[150.19,-51.74],[149.95,-50.94],[149.71,-50.14],[149.47,-49.35],[149.25,-48.55],[149.09,-47.81],[148.93,-47.08],[148.77,-46.34],[148.77,-46.34],[147.65,-45.8],[146.54,-45.24],[145.46,-44.68],[144.4,-44.1],[143.22,-43.7],[142.06,-43.29],[141.4,-43.03],[140.75,-42.76],[140.28,-42.3],[139.82,-41.83],[139.32,-41.19],[138.84,-40.54],[138.12,-39.79],[137.41,-39.03],[136.73,-38.27],[136.05,-37.51],[136.04,-36.64],[136.02,-35.78],[136,-34.92],[135.99,-34.05],[135.97,-33.19],[135.97,-32.25],[135.96,-31.31],[135.96,-30.37],[135.96,-29.43],[135.96,-28.48],[135.96,-27.54],[135.95,-26.6],[135.95,-25.66],[135.96,-24.79],[135.98,-23.91],[135.99,-23.04],[136,-22.16],[136.01,-21.29],[136.02,-20.41],[136.03,-19.54],[135.98,-18.64],[135.94,-17.75],[135.9,-16.86],[135.85,-15.96],[135.81,-15.07],[135.77,-14.17],[136.63,-13.72],[137.48,-13.27],[138.33,-12.82],[139.18,-12.36],[140.03,-11.9],[140.87,-11.44],[141.71,-10.97],[142.55,-10.5],[143.38,-10.03],[144.21,-9.56],[145.04,-9.09],[145.87,-8.61],[146.7,-8.14],[147.52,-7.66],[147.95,-8.45],[148.38,-9.25],[148.81,-10.04],[149.24,-10.84],[149.68,-11.63],[150.65,-11.37],[151.63,-11.11],[152.6,-10.84],[153.57,-10.57],[154.53,-10.29],[155.5,-10.01],[156.46,-9.73],[157.43,-9.45],[158.39,-9.16],[159.35,-8.88],[160.31,-8.59],[161.26,-8.29],[162.22,-8],[163.17,-7.7],[164.12,-7.4],[164.45,-8.18],[164.77,-8.96],[165.71,-8.62],[166.64,-8.27],[167.58,-7.93],[168.51,-7.58],[169.44,-7.23],[170.37,-6.88],[171.3,-6.52],[172.23,-6.17],[173.15,-5.81],[174.08,-5.45],[175,-5.09],[175.92,-4.73],[176.85,-4.37],[177.77,-4],[178.69,-3.64],[178.99,-4.35],[179.29,-5.07],[179.59,-5.78],[180,-5.62],[180,-6.61]]],[[[-180,-74.14],[-180,-73.14],[-180,-72.15],[-180,-71.16],[-180,-70.16],[-180,-69.17],[-180,-68.18],[-180,-67.19],[-180,-66.19],[-180,-65.2],[-180,-64.21],[-180,-63.21],[-180,-62.22],[-180,-61.23],[-180,-60.23],[-180,-59.24],[-180,-58.25],[-180,-57.26],[-180,-56.26],[-180,-55.27],[-180,-54.28],[-180,-53.28],[-180,-52.29],[-180,-51.3],[-180,-50.3],[-180,-49.31],[-180,-48.32],[-180,-47.33],[-180,-46.33],[-180,-45.34],[-180,-44.35],[-180,-43.35],[-180,-42.36],[-180,-41.37],[-180,-40.37],[-180,-39.38],[-180,-38.39],[-180,-37.4],[-180,-36.4],[-180,-35.41],[-180,-34.42],[-180,-33.42],[-180,-32.43],[-180,-31.44],[-180,-30.45],[-180,-29.45],[-180,-28.46],[-180,-27.47],[-180,-26.47],[-180,-25.48],[-180,-24.49],[-180,-23.49],[-180,-22.5],[-180,-21.51],[-180,-20.52],[-180,-19.52],[-180,-18.53],[-180,-17.54],[-180,-16.54],[-180,-15.55],[-180,-14.56],[-180,-13.56],[-180,-12.57],[-180,-11.58],[-180,-10.59],[-180,-9.59],[-180,-8.6],[-180,-7.61],[-180,-6.61],[-180,-5.62],[-179.12,-5.27],[-178.24,-4.93],[-177.37,-4.58],[-176.49,-4.23],[-175.62,-3.88],[-174.74,-3.52],[-173.87,-3.17],[-173,-2.82],[-172.13,-2.46],[-171.25,-2.11],[-170.92,-2.91],[-170.58,-3.7],[-170.24,-4.5],[-169.34,-4.19],[-168.43,-3.88],[-167.52,-3.57],[-166.62,-3.26],[-165.71,-2.95],[-164.81,-2.63],[-163.9,-2.32],[-163,-2],[-162.09,-1.69],[-161.19,-1.37],[-160.88,-2.24],[-160.57,-3.11],[-160.25,-3.99],[-159.94,-4.86],[-159.04,-4.54],[-158.14,-4.23],[-157.24,-3.91],[-156.35,-3.6],[-155.45,-3.28],[-154.55,-2.96],[-153.66,-2.65],[-152.76,-2.33],[-151.87,-2.01],[-150.97,-1.69],[-150.08,-1.37],[-149.19,-1.05],[-148.29,-0.73],[-147.4,-0.41],[-146.51,-0.08],[-145.61,0.24],[-144.72,0.56],[-143.83,0.88],[-143.83,0.88],[-143.82,0.89],[-143.82,0.89],[-143.07,0.24],[-142.32,-0.41],[-141.56,-1.07],[-140.81,-1.72],[-140.06,-2.37],[-139.3,-3.02],[-138.55,-3.68],[-137.79,-4.33],[-137.03,-4.98],[-136.27,-5.63],[-135.51,-6.28],[-134.75,-6.92],[-133.98,-7.57],[-133.3,-8.14],[-132.63,-8.7],[-131.95,-9.27],[-131.26,-9.83],[-130.58,-10.39],[-129.89,-10.95],[-129.21,-11.51],[-128.51,-12.07],[-127.86,-12.52],[-127.21,-12.97],[-126.56,-13.42],[-125.9,-13.86],[-126.25,-14.55],[-126.6,-15.24],[-126.95,-15.93],[-126.13,-16.5],[-125.3,-17.06],[-124.47,-17.61],[-123.64,-18.17],[-122.79,-18.72],[-121.95,-19.27],[-121.09,-19.81],[-120.24,-20.35],[-119.37,-20.88],[-118.5,-21.41],[-117.62,-21.94],[-116.74,-22.46],[-115.85,-22.98],[-114.95,-23.49],[-114.05,-23.99],[-114.39,-24.62],[-114.73,-25.25],[-113.77,-25.74],[-112.81,-26.22],[-111.83,-26.7],[-110.84,-27.17],[-109.85,-27.64],[-108.85,-28.1],[-107.84,-28.55],[-106.82,-28.99],[-105.79,-29.43],[-104.76,-29.85],[-103.71,-30.27],[-102.66,-30.69],[-101.6,-31.09],[-100.52,-31.48],[-99.44,-31.87],[-98.35,-32.24],[-97.26,-32.61],[-96.15,-32.96],[-95.03,-33.31],[-93.91,-33.65],[-92.77,-33.97],[-91.63,-34.29],[-90.48,-34.59],[-89.32,-34.89],[-88.15,-35.17],[-88.29,-36.07],[-88.44,-36.97],[-87.28,-37.26],[-86.12,-37.54],[-84.95,-37.81],[-83.76,-38.07],[-82.58,-38.32],[-81.38,-38.55],[-80.17,-38.78],[-78.96,-38.99],[-77.74,-39.18],[-76.52,-39.37],[-75.29,-39.54],[-74.05,-39.7],[-72.8,-39.84],[-71.56,-39.97],[-70.3,-40.09],[-69.05,-40.2],[-67.79,-40.29],[-66.52,-40.37],[-65.26,-40.43],[-63.99,-40.48],[-62.94,-40.5],[-61.89,-40.52],[-60.84,-40.52],[-59.8,-40.52],[-59.8,-40.52],[-60.32,-41.32],[-60.86,-42.12],[-61.42,-42.92],[-61.55,-43.76],[-61.69,-44.6],[-61.81,-45.33],[-61.93,-46.07],[-62.44,-46.86],[-62.97,-47.66],[-63.09,-47.92],[-63.11,-48.04],[-63.11,-48.04],[-63.21,-48.37],[-63.21,-48.37],[-63.58,-48.93],[-63.86,-49.2],[-64.02,-49.56],[-64.14,-49.84],[-64.36,-50.29],[-64.52,-50.57],[-64.81,-51.07],[-65.02,-51.43],[-65.23,-51.82],[-65.45,-52.24],[-65.78,-52.87],[-65.92,-53.12],[-66.11,-53.47],[-66.29,-53.79],[-66.44,-54.08],[-66.61,-54.44],[-66.74,-54.74],[-66.85,-54.99],[-66.88,-55.07],[-66.94,-55.3],[-67.01,-55.57],[-67.08,-56.01],[-67.33,-56.33],[-67.65,-56.65],[-68.1,-57.02],[-68.58,-57.45],[-68.89,-57.72],[-69.14,-57.96],[-69.36,-58.16],[-69.69,-58.49],[-69.94,-58.92],[-70.02,-59.28],[-70.06,-59.6],[-70.12,-59.86],[-70.1,-60.16],[-70.11,-60.5],[-70.05,-60.88],[-69.95,-61.29],[-69.99,-61.6],[-70.05,-61.77],[-70.14,-62.09],[-70.25,-62.47],[-70.34,-62.83],[-70.37,-63.21],[-70.36,-63.27],[-70.16,-63.67],[-70.06,-63.76],[-70.06,-63.76],[-71.3,-64.51],[-72.61,-65.25],[-74.42,-65.82],[-76.31,-66.36],[-78.29,-66.89],[-80.34,-67.38],[-82.49,-67.85],[-84.37,-68.28],[-86.32,-68.68],[-88.34,-69.05],[-90.43,-69.41],[-92.19,-69.87],[-94.01,-70.31],[-95.92,-70.73],[-97.91,-71.13],[-100.07,-71.55],[-102.33,-71.95],[-104.68,-72.32],[-107.13,-72.66],[-109.66,-72.97],[-112.27,-73.25],[-114.96,-73.49],[-117.72,-73.7],[-120.87,-73.89],[-124.08,-74.02],[-127.34,-74.12],[-130.62,-74.16],[-133.91,-74.15],[-137.49,-74.24],[-141.09,-74.28],[-144.7,-74.25],[-148.28,-74.17],[-151.81,-74.02],[-155.04,-74.35],[-158.39,-74.62],[-161.85,-74.85],[-165.4,-75.02],[-169.02,-75.13],[-172.68,-75.19],[-176.34,-75.19],[-180,-75.13],[-180,-74.14]]]]}},{"type":"Feature","properties":{"ma":200,"type":"gpml:TopologicalClosedPlateBoundary","name":"Cimmerian-Neotethys Plate","pid":505,"deforming":false},"geometry":{"type":"Polygon","coordinates":[[[30.33,15.87],[31.21,15.7],[32.08,15.53],[33,15.6],[33.92,15.67],[34.84,15.74],[35.53,15.91],[36.21,16.09],[36.9,16.26],[37.86,16.5],[38.82,16.74],[39.76,16.77],[40.71,16.8],[41.65,16.83],[42.33,17.09],[43.02,17.36],[43.7,17.62],[44.05,18.17],[44.4,18.72],[44.58,19.21],[44.76,19.71],[45.11,20.41],[45.45,21.1],[45.87,21.84],[46.29,22.57],[46.98,23.24],[47.67,23.9],[48.37,24.56],[49.19,25.21],[50.01,25.85],[50.97,26.25],[51.93,26.64],[52.89,27.03],[53.35,27.67],[53.82,28.31],[54.29,28.94],[54.65,29.7],[55.02,30.45],[55.73,30.63],[56.44,30.81],[57.52,30.8],[58.6,30.78],[59.42,31.25],[60.24,31.7],[60.95,32.4],[61.66,33.1],[62.32,33.56],[62.99,34.01],[63.6,34.58],[64.22,35.15],[64.84,35.71],[65.31,36.27],[65.78,36.83],[66.25,37.38],[66.3,38.14],[66.35,38.9],[66.39,39.66],[66.44,40.42],[67.6,40.87],[68.78,41.3],[70,41.65],[71.23,41.99],[72.47,42.32],[73.65,42.55],[74.84,42.76],[76.04,42.97],[77.24,43.16],[78.22,43.62],[79.2,44.07],[80.21,44.52],[81.22,44.95],[82.26,45.38],[83.39,45.75],[84.54,46.1],[85.7,46.45],[86.88,46.78],[87.99,46.62],[89.09,46.45],[90.19,46.27],[91.27,46.08],[92.07,45.67],[92.86,45.26],[93.63,44.85],[94.04,44.13],[94.44,43.41],[94.83,42.69],[95.35,41.97],[95.86,41.23],[96.36,40.5],[97.01,39.87],[97.65,39.24],[98.27,38.6],[98.91,37.93],[99.54,37.26],[99.9,36.62],[100.26,35.98],[100.61,35.35],[101.58,34.83],[102.55,34.3],[103.5,33.76],[104.34,33.28],[105.18,32.8],[106.01,32.31],[106.54,31.79],[107.06,31.26],[107.58,30.74],[108.28,30.19],[108.97,29.64],[109.65,29.08],[110.39,28.92],[111.13,28.74],[111.87,28.57],[112.84,28.33],[113.8,28.08],[114.75,27.82],[115.64,27.68],[116.53,27.53],[117.41,27.38],[118.14,27.25],[118.88,27.11],[119.61,26.97],[120.5,26.97],[121.38,26.97],[122.4,27.3],[123.42,27.62],[123.94,28.17],[124.46,28.72],[124.99,29.27],[124.99,29.27],[125.45,28.7],[125.91,28.13],[126.79,27.69],[127.66,27.25],[128.53,26.8],[128.92,26.13],[129.31,25.45],[129.69,24.78],[130.25,23.99],[130.81,23.2],[131.09,22.29],[131.38,21.38],[131.71,20.52],[132.03,19.66],[132.35,18.8],[132.23,17.81],[132.1,16.82],[131.98,15.83],[131.85,14.84],[131.18,14.31],[130.51,13.78],[129.85,13.25],[129.19,12.72],[128.53,12.18],[127.86,11.64],[127.19,11.09],[126.52,10.54],[125.86,10],[125.16,9.53],[124.46,9.07],[123.77,8.6],[123.07,8.14],[122.6,7.56],[122.14,6.98],[121.68,6.41],[121.41,5.47],[121.14,4.53],[120.87,3.59],[120.59,2.64],[120.32,1.69],[120.04,0.74],[119.77,-0.21],[119.49,-1.16],[119.22,-2.11],[118.94,-3.06],[118.67,-4.02],[118.39,-4.97],[118.24,-5.57],[118.1,-6.18],[118.1,-6.18],[117.62,-5.55],[117.15,-4.93],[116.52,-4.45],[115.9,-3.98],[115.27,-3.5],[114.65,-3.02],[114.65,-3.02],[114.51,-3.86],[114.38,-4.69],[114.24,-5.53],[114.11,-6.36],[114.11,-6.36],[114.7,-6.62],[114.7,-6.62],[114.57,-7.17],[113.75,-7],[112.92,-6.82],[112.1,-6.65],[111.77,-7.53],[111.43,-8.41],[111.1,-9.29],[110.76,-10.17],[110.42,-11.05],[109.67,-10.85],[108.92,-10.66],[108.17,-10.46],[107.42,-10.26],[107.08,-11.09],[106.73,-11.91],[106.38,-12.74],[106.02,-13.56],[105.67,-14.39],[105.31,-15.21],[104.38,-15.05],[103.45,-14.88],[102.52,-14.71],[101.6,-14.54],[100.68,-14.36],[100.32,-15.1],[99.95,-15.85],[99.58,-16.59],[99.21,-17.33],[98.34,-16.95],[97.46,-16.56],[96.6,-16.17],[95.73,-15.78],[95.26,-16.67],[94.78,-17.55],[94.3,-18.44],[93.81,-19.32],[93.32,-20.21],[92.82,-21.09],[92.32,-21.97],[92.32,-21.97],[91.27,-21.85],[90.23,-21.72],[89.18,-21.59],[88.14,-21.45],[87.1,-21.31],[86.06,-21.18],[85.02,-21.05],[83.97,-20.91],[82.94,-20.76],[81.9,-20.61],[80.86,-20.45],[79.83,-20.28],[79.95,-19.78],[80.06,-19.27],[79.11,-18.92],[78.16,-18.57],[77.21,-18.21],[76.27,-17.85],[75.33,-17.48],[74.39,-17.11],[73.46,-16.73],[72.53,-16.35],[71.61,-15.96],[70.69,-15.57],[69.77,-15.18],[68.86,-14.79],[67.95,-14.39],[67.04,-13.98],[66.13,-13.58],[66.13,-13.58],[66.45,-12.76],[66.76,-11.94],[67.07,-11.12],[67.38,-10.3],[66.46,-9.93],[65.54,-9.56],[64.62,-9.2],[63.7,-8.82],[62.79,-8.45],[61.87,-8.07],[60.96,-7.69],[60.05,-7.31],[59.15,-6.93],[58.24,-6.55],[57.33,-6.16],[56.43,-5.78],[55.53,-5.39],[55.81,-4.5],[54.99,-4.11],[54.17,-3.71],[53.35,-3.31],[52.53,-2.91],[51.71,-2.52],[50.9,-2.12],[50.08,-1.72],[50.41,-0.94],[49.56,-0.43],[48.71,0.09],[47.86,0.6],[47.01,1.12],[46.16,1.63],[45.31,2.15],[44.46,2.66],[43.61,3.18],[42.76,3.69],[41.9,4.2],[41.9,4.2],[41.41,3.55],[40.91,2.9],[40.91,2.9],[40.21,3.51],[39.51,4.13],[38.82,4.75],[38.12,5.37],[37.41,5.99],[36.71,6.6],[36.01,7.22],[35.3,7.83],[34.6,7.45],[33.82,8.05],[33.04,8.65],[32.25,9.25],[31.47,9.84],[30.68,10.44],[29.89,11.03],[29.09,11.62],[28.29,12.21],[27.74,11.87],[27.11,12.3],[26.49,12.72],[25.86,13.14],[25.86,13.14],[26.35,13.5],[27.03,14.04],[27.71,14.58],[28.39,15.12],[29.07,15.65],[29.45,16.03],[30.33,15.87]]]}},{"type":"Feature","properties":{"ma":200,"type":"gpml:TopologicalClosedPlateBoundary","name":"Moroccan-Plate","pid":706,"deforming":false},"geometry":{"type":"Polygon","coordinates":[[[0.22,6.89],[0.83,6.41],[1.59,5.83],[2.25,5.52],[2.75,5.28],[3.26,5.04],[3.71,4.83],[4.17,4.61],[4.63,4.38],[5.09,4.15],[5.82,3.67],[6.55,3.2],[7.28,2.72],[7.89,2.31],[7.89,2.31],[7.17,2.38],[6.34,2.5],[5.61,2.56],[4.86,2.7],[3.97,2.82],[3.59,2.81],[3.19,2.68],[2.91,2.72],[2.48,2.82],[2.03,2.93],[2.03,2.93],[1.65,3.08],[0.77,3.19],[0.02,3.33],[-0.62,3.33],[-1.27,3.32],[-1.97,3.36],[-1.97,3.36],[-2.69,3.73],[-3.54,4.16],[-3.87,4.33],[-4.61,4.69],[-5.05,4.87],[-5.45,5.02],[-5.95,5.22],[-6.25,5.36],[-6.93,5.75],[-7.49,6.1],[-7.89,6.33],[-8.21,6.52],[-8.46,6.64],[-8.51,6.67],[-8.51,6.67],[-8.38,6.68],[-7.78,6.48],[-7.35,6.18],[-6.86,5.97],[-6.55,5.79],[-6.22,5.6],[-5.64,5.46],[-5.11,5.25],[-4.48,5.45],[-3.91,5.62],[-3.43,5.77],[-2.92,5.92],[-2.29,6.11],[-1.58,6.33],[-0.97,6.51],[-0.33,6.7],[0.08,6.82],[0.22,6.89]]]}},{"type":"Feature","properties":{"ma":200,"type":"gpml:TopologicalClosedPlateBoundary","name":"Izanagi Plate 187_184.1","pid":926,"deforming":false},"geometry":{"type":"MultiPolygon","coordinates":[[[[180,74.93],[180,73.94],[180,72.94],[180,71.95],[180,70.95],[180,69.96],[180,68.97],[180,67.97],[180,66.98],[180,65.98],[180,64.99],[180,63.99],[180,63],[180,62],[180,61.01],[180,60.01],[180,59.02],[180,58.03],[180,57.03],[180,56.04],[180,55.04],[180,54.05],[180,53.05],[180,52.06],[180,51.06],[180,50.07],[180,49.08],[180,48.08],[180,47.09],[180,46.09],[180,45.1],[180,44.1],[180,43.11],[180,42.11],[180,41.12],[180,40.13],[180,39.13],[180,38.14],[180,37.14],[180,36.15],[180,35.15],[180,34.16],[180,33.16],[180,32.17],[180,31.18],[180,30.18],[180,29.19],[180,28.19],[180,27.2],[180,26.2],[180,25.21],[180,24.21],[180,23.22],[180,22.23],[180,21.23],[180,20.24],[180,19.24],[180,18.25],[180,17.25],[180,16.26],[180,15.26],[180,14.27],[180,13.27],[180,12.28],[180,11.29],[180,10.29],[180,9.3],[180,8.3],[180,7.31],[180,6.31],[180,5.32],[180,4.32],[180,3.33],[180,2.34],[180,1.34],[180,0.35],[180,-0.65],[180,-1.64],[180,-2.64],[180,-3.63],[180,-4.63],[180,-5.62],[179.59,-5.78],[179.29,-5.07],[178.99,-4.35],[178.69,-3.64],[177.77,-4],[176.85,-4.37],[175.92,-4.73],[175,-5.09],[174.08,-5.45],[173.15,-5.81],[172.23,-6.17],[171.3,-6.52],[170.37,-6.88],[169.44,-7.23],[168.51,-7.58],[167.58,-7.93],[166.64,-8.27],[165.71,-8.62],[164.77,-8.96],[164.45,-8.18],[164.12,-7.4],[163.17,-7.7],[162.22,-8],[161.26,-8.29],[160.31,-8.59],[159.35,-8.88],[158.39,-9.16],[157.43,-9.45],[156.46,-9.73],[155.5,-10.01],[154.53,-10.29],[153.57,-10.57],[152.6,-10.84],[151.63,-11.11],[150.65,-11.37],[149.68,-11.63],[149.24,-10.84],[148.81,-10.04],[148.38,-9.25],[147.95,-8.45],[147.52,-7.66],[146.7,-8.14],[145.87,-8.61],[145.04,-9.09],[144.21,-9.56],[143.38,-10.03],[142.55,-10.5],[141.71,-10.97],[140.87,-11.44],[140.03,-11.9],[139.18,-12.36],[138.33,-12.82],[137.48,-13.27],[136.63,-13.72],[135.77,-14.17],[135.77,-14.17],[135.81,-14.95],[135.84,-15.74],[135.88,-16.52],[135.92,-17.3],[135.92,-17.3],[135.17,-16.77],[134.42,-16.24],[133.59,-15.82],[132.77,-15.4],[131.95,-14.97],[131.13,-14.53],[130.31,-14.1],[129.5,-13.66],[128.69,-13.22],[127.89,-12.78],[127.03,-12.3],[126.17,-11.82],[125.31,-11.34],[124.46,-10.86],[123.62,-10.37],[122.77,-9.88],[121.93,-9.39],[121.09,-8.9],[120.25,-8.4],[119.41,-7.9],[118.97,-7.33],[118.53,-6.75],[118.1,-6.18],[118.1,-6.18],[118.24,-5.57],[118.39,-4.97],[118.67,-4.02],[118.94,-3.06],[119.22,-2.11],[119.49,-1.16],[119.77,-0.21],[120.04,0.74],[120.32,1.69],[120.59,2.64],[120.87,3.59],[121.14,4.53],[121.41,5.47],[121.68,6.41],[122.14,6.98],[122.6,7.56],[123.07,8.14],[123.77,8.6],[124.46,9.07],[125.16,9.53],[125.86,10],[126.52,10.54],[127.19,11.09],[127.86,11.64],[128.53,12.18],[129.19,12.72],[129.85,13.25],[130.51,13.78],[131.18,14.31],[131.85,14.84],[131.98,15.83],[132.1,16.82],[132.23,17.81],[132.35,18.8],[132.03,19.66],[131.71,20.52],[131.38,21.38],[131.09,22.29],[130.81,23.2],[130.25,23.99],[129.69,24.78],[129.31,25.45],[128.92,26.13],[128.53,26.8],[127.66,27.25],[126.79,27.69],[125.91,28.13],[125.45,28.7],[124.99,29.27],[124.99,29.27],[125.02,29.3],[125.6,30.14],[126.18,30.97],[126.78,31.8],[127.26,32.53],[127.75,33.26],[128.25,33.98],[128.75,34.71],[129.26,35.27],[129.77,35.83],[130.29,36.39],[130.29,36.39],[130.7,37.2],[131.13,38.01],[131.56,38.83],[132.01,39.64],[132.46,40.44],[132.93,41.2],[133.42,41.95],[133.91,42.7],[134.41,43.45],[134.93,44.2],[135.45,45],[135.99,45.8],[136.54,46.59],[137.18,47.36],[137.85,48.11],[138.53,48.87],[139.04,49.51],[139.56,50.15],[140.09,50.79],[140.9,51.61],[141.74,52.43],[142.55,53.29],[143.39,54.15],[144.26,54.96],[145.17,55.77],[145.97,56.46],[146.8,57.15],[147.67,57.84],[148.39,58.51],[149.15,59.18],[149.94,59.85],[151.03,60.59],[152.17,61.32],[153.12,62.05],[154.1,62.77],[155.14,63.48],[156.16,64.24],[157.24,64.99],[158.38,65.73],[159.58,66.47],[160.89,67.19],[162.27,67.9],[163.74,68.6],[165.3,69.28],[166.5,69.95],[167.78,70.61],[169.15,71.26],[170.08,71.76],[171.05,72.26],[172.8,73.09],[174.53,73.89],[176.44,74.68],[178.54,75.45],[180,75.93],[180,74.93]]],[[[-180,-4.63],[-180,-3.63],[-180,-2.64],[-180,-1.64],[-180,-0.65],[-180,0.35],[-180,1.34],[-180,2.34],[-180,3.33],[-180,4.32],[-180,5.32],[-180,6.31],[-180,7.31],[-180,8.3],[-180,9.3],[-180,10.29],[-180,11.29],[-180,12.28],[-180,13.27],[-180,14.27],[-180,15.26],[-180,16.26],[-180,17.25],[-180,18.25],[-180,19.24],[-180,20.24],[-180,21.23],[-180,22.23],[-180,23.22],[-180,24.21],[-180,25.21],[-180,26.2],[-180,27.2],[-180,28.19],[-180,29.19],[-180,30.18],[-180,31.18],[-180,32.17],[-180,33.16],[-180,34.16],[-180,35.15],[-180,36.15],[-180,37.14],[-180,38.14],[-180,39.13],[-180,40.13],[-180,41.12],[-180,42.11],[-180,43.11],[-180,44.1],[-180,45.1],[-180,46.09],[-180,47.09],[-180,48.08],[-180,49.08],[-180,50.07],[-180,51.06],[-180,52.06],[-180,53.05],[-180,54.05],[-180,55.04],[-180,56.04],[-180,57.03],[-180,58.03],[-180,59.02],[-180,60.01],[-180,61.01],[-180,62],[-180,63],[-180,63.99],[-180,64.99],[-180,65.98],[-180,66.98],[-180,67.97],[-180,68.97],[-180,69.96],[-180,70.95],[-180,71.95],[-180,72.94],[-180,73.94],[-180,74.93],[-180,75.93],[-178.19,76.47],[-176.24,76.99],[-174.13,77.5],[-170.57,77.44],[-167.61,78.13],[-164.29,78.79],[-160.57,79.41],[-156.41,79.98],[-151.79,80.5],[-146.68,80.94],[-141.09,81.31],[-135.08,81.59],[-128.73,81.77],[-122.66,81.87],[-116.51,81.88],[-110.42,81.8],[-103.94,81.51],[-97.95,81.12],[-92.52,80.64],[-94.65,80.14],[-96.57,79.63],[-101.13,79.91],[-105.91,80.13],[-107.6,79.2],[-109.03,78.27],[-110.25,77.33],[-111.3,76.38],[-112.22,75.43],[-113.03,74.48],[-113.74,73.52],[-114.38,72.57],[-114.96,71.61],[-115.48,70.65],[-115.95,69.69],[-116.39,68.72],[-116.78,67.76],[-117.15,66.8],[-117.48,65.83],[-119.09,65.92],[-120.71,65.99],[-121.17,65.05],[-121.6,64.1],[-121.99,63.16],[-122.37,62.21],[-122.72,61.26],[-123.05,60.32],[-123.36,59.37],[-123.65,58.42],[-123.93,57.47],[-124.19,56.52],[-124.45,55.57],[-124.69,54.61],[-124.91,53.66],[-125.13,52.71],[-125.34,51.76],[-125.54,50.8],[-127.11,50.9],[-128.68,50.98],[-130.26,51.04],[-131.84,51.08],[-132.04,50.12],[-132.22,49.16],[-132.4,48.2],[-132.57,47.24],[-132.74,46.27],[-132.9,45.31],[-133.05,44.35],[-133.2,43.39],[-133.34,42.43],[-133.48,41.46],[-133.62,40.5],[-133.75,39.54],[-133.88,38.58],[-134.01,37.61],[-134.13,36.65],[-134.25,35.69],[-134.36,34.72],[-134.48,33.76],[-134.59,32.8],[-134.7,31.83],[-134.8,30.87],[-134.91,29.91],[-135.01,28.94],[-136.11,29],[-137.22,29.05],[-138.33,29.09],[-138.4,28.09],[-138.47,27.1],[-138.54,26.1],[-138.6,25.11],[-138.67,24.11],[-138.74,23.11],[-138.8,22.12],[-138.86,21.12],[-138.93,20.12],[-138.99,19.13],[-139.05,18.13],[-139.11,17.14],[-139.17,16.14],[-139.23,15.14],[-139.29,14.15],[-140.21,14.2],[-141.13,14.25],[-142.05,14.3],[-142.97,14.35],[-143.03,13.38],[-143.1,12.42],[-143.16,11.46],[-143.22,10.5],[-143.28,9.54],[-143.34,8.57],[-143.4,7.61],[-143.47,6.65],[-143.53,5.69],[-143.59,4.73],[-143.65,3.76],[-143.71,2.8],[-143.77,1.84],[-143.83,0.88],[-143.83,0.88],[-144.72,0.56],[-145.61,0.24],[-146.51,-0.08],[-147.4,-0.41],[-148.29,-0.73],[-149.19,-1.05],[-150.08,-1.37],[-150.97,-1.69],[-151.87,-2.01],[-152.76,-2.33],[-153.66,-2.65],[-154.55,-2.96],[-155.45,-3.28],[-156.35,-3.6],[-157.24,-3.91],[-158.14,-4.23],[-159.04,-4.54],[-159.94,-4.86],[-160.25,-3.99],[-160.57,-3.11],[-160.88,-2.24],[-161.19,-1.37],[-162.09,-1.69],[-163,-2],[-163.9,-2.32],[-164.81,-2.63],[-165.71,-2.95],[-166.62,-3.26],[-167.52,-3.57],[-168.43,-3.88],[-169.34,-4.19],[-170.24,-4.5],[-170.58,-3.7],[-170.92,-2.91],[-171.25,-2.11],[-172.13,-2.46],[-173,-2.82],[-173.87,-3.17],[-174.74,-3.52],[-175.62,-3.88],[-176.49,-4.23],[-177.37,-4.58],[-178.24,-4.93],[-179.12,-5.27],[-180,-5.62],[-180,-4.63]]]]}},{"type":"Feature","properties":{"ma":200,"type":"gpml:TopologicalClosedPlateBoundary","name":"Junction Plate North","pid":786,"deforming":false},"geometry":{"type":"Polygon","coordinates":[[[114.65,-3.02],[115.27,-3.5],[115.9,-3.98],[116.52,-4.45],[117.15,-4.93],[117.71,-5.67],[118.28,-6.42],[118.84,-7.16],[119.41,-7.9],[120.25,-8.4],[121.09,-8.9],[121.93,-9.39],[122.77,-9.88],[123.62,-10.37],[124.46,-10.86],[125.31,-11.34],[126.17,-11.82],[127.03,-12.3],[127.89,-12.78],[128.69,-13.22],[129.5,-13.66],[130.31,-14.1],[131.13,-14.53],[131.95,-14.97],[132.77,-15.4],[133.59,-15.82],[134.42,-16.24],[135.17,-16.77],[135.92,-17.3],[135.92,-17.3],[135.95,-18.01],[135.99,-18.73],[135.99,-18.73],[135.13,-18.31],[134.28,-18.07],[133.44,-17.83],[132.6,-17.59],[131.75,-17.34],[130.92,-17.09],[130.08,-16.83],[130.37,-16.25],[130.66,-15.66],[129.81,-15.34],[128.96,-15.02],[128.12,-14.69],[127.28,-14.37],[126.44,-14.03],[125.6,-13.7],[124.76,-13.36],[123.93,-13.02],[124.19,-12.46],[124.44,-11.9],[123.59,-11.57],[122.75,-11.23],[121.91,-10.89],[121.07,-10.54],[120.23,-10.2],[119.4,-9.85],[118.56,-9.5],[118.82,-9],[119.08,-8.49],[118.21,-8.12],[117.33,-7.75],[116.46,-7.38],[115.59,-7.01],[114.72,-6.63],[114.11,-6.36],[114.11,-6.36],[114.24,-5.53],[114.38,-4.69],[114.51,-3.86],[114.65,-3.02]]]}},{"type":"Feature","properties":{"ma":200,"type":"gpml:TopologicalClosedPlateBoundary","name":"Cache Creek Ocean GS12","pid":131,"deforming":false},"geometry":{"type":"Polygon","coordinates":[[[-67.16,37.31],[-67.19,37.83],[-67.21,38.36],[-67.47,39.24],[-67.73,40.12],[-68,41],[-68.11,41.96],[-68.22,42.92],[-68.34,43.88],[-68.33,44.61],[-68.33,45.34],[-68.32,46.07],[-68.2,46.87],[-68.08,47.68],[-67.95,48.49],[-67.82,49.29],[-67.81,50.14],[-67.79,50.98],[-67.78,51.83],[-67.75,52.63],[-67.73,53.44],[-67.71,54.24],[-68.09,55.13],[-68.09,55.13],[-66.53,55.54],[-64.94,55.93],[-63.32,56.29],[-61.68,56.64],[-60.28,57],[-58.86,57.35],[-57.41,57.69],[-55.94,58.01],[-54.43,58.31],[-52.91,58.59],[-51.09,58.84],[-49.26,59.07],[-49.26,59.07],[-49.15,59.01],[-48.12,58.58],[-47.12,58.15],[-46.13,57.71],[-46.13,57.71],[-46.29,57.1],[-46.43,56.48],[-46.73,55.55],[-47.02,54.61],[-47.29,53.67],[-47.55,52.73],[-47.8,51.79],[-47.06,51.09],[-46.34,50.38],[-46.09,49.45],[-45.86,48.52],[-45.64,47.59],[-45.42,46.66],[-45.61,45.76],[-45.8,44.86],[-45.98,43.95],[-46.16,43.05],[-46.33,42.14],[-46.49,41.24],[-46.66,40.33],[-46.86,39.44],[-47.06,38.55],[-47.26,37.65],[-47.45,36.76],[-47.45,36.76],[-48.53,37],[-49.62,37.23],[-50.71,37.45],[-51.81,37.66],[-52.91,37.86],[-54.03,38.05],[-55.14,38.23],[-56.26,38.39],[-57.39,38.55],[-58.59,38.48],[-59.78,38.39],[-60.97,38.29],[-62.16,38.18],[-63.34,38.06],[-64.52,37.93],[-65.69,37.78],[-66.43,37.55],[-67.16,37.31]]]}},{"type":"Feature","properties":{"ma":200,"type":"gpml:TopologicalClosedPlateBoundary","name":"Farallon Plate 200-196 GS","pid":902,"deforming":false},"geometry":{"type":"Polygon","coordinates":[[[-59.38,-39.86],[-59.8,-40.52],[-60.84,-40.52],[-61.89,-40.52],[-62.94,-40.5],[-63.99,-40.48],[-65.26,-40.43],[-66.52,-40.37],[-67.79,-40.29],[-69.05,-40.2],[-70.3,-40.09],[-71.56,-39.97],[-72.8,-39.84],[-74.05,-39.7],[-75.29,-39.54],[-76.52,-39.37],[-77.74,-39.18],[-78.96,-38.99],[-80.17,-38.78],[-81.38,-38.55],[-82.58,-38.32],[-83.76,-38.07],[-84.95,-37.81],[-86.12,-37.54],[-87.28,-37.26],[-88.44,-36.97],[-88.29,-36.07],[-88.15,-35.17],[-89.32,-34.89],[-90.48,-34.59],[-91.63,-34.29],[-92.77,-33.97],[-93.91,-33.65],[-95.03,-33.31],[-96.15,-32.96],[-97.26,-32.61],[-98.35,-32.24],[-99.44,-31.87],[-100.52,-31.48],[-101.6,-31.09],[-102.66,-30.69],[-103.71,-30.27],[-104.76,-29.85],[-105.79,-29.43],[-106.82,-28.99],[-107.84,-28.55],[-108.85,-28.1],[-109.85,-27.64],[-110.84,-27.17],[-111.83,-26.7],[-112.81,-26.22],[-113.77,-25.74],[-114.73,-25.25],[-114.39,-24.62],[-114.05,-23.99],[-114.95,-23.49],[-115.85,-22.98],[-116.74,-22.46],[-117.62,-21.94],[-118.5,-21.41],[-119.37,-20.88],[-120.24,-20.35],[-121.09,-19.81],[-121.95,-19.27],[-122.79,-18.72],[-123.64,-18.17],[-124.47,-17.61],[-125.3,-17.06],[-126.13,-16.5],[-126.95,-15.93],[-126.6,-15.24],[-126.25,-14.55],[-125.9,-13.86],[-126.56,-13.42],[-127.21,-12.97],[-127.86,-12.52],[-128.51,-12.07],[-129.21,-11.51],[-129.89,-10.95],[-130.58,-10.39],[-131.26,-9.83],[-131.95,-9.27],[-132.63,-8.7],[-133.3,-8.14],[-133.98,-7.57],[-134.75,-6.92],[-135.51,-6.28],[-136.27,-5.63],[-137.03,-4.98],[-137.79,-4.33],[-138.55,-3.68],[-139.3,-3.02],[-140.06,-2.37],[-140.81,-1.72],[-141.56,-1.07],[-142.32,-0.41],[-143.07,0.24],[-143.82,0.89],[-143.82,0.89],[-143.76,1.86],[-143.71,2.82],[-143.65,3.78],[-143.59,4.74],[-143.53,5.7],[-143.46,6.66],[-143.4,7.62],[-143.34,8.58],[-143.28,9.54],[-143.22,10.5],[-143.16,11.46],[-143.1,12.42],[-143.03,13.39],[-142.97,14.35],[-142.05,14.3],[-141.13,14.25],[-140.21,14.2],[-139.29,14.15],[-139.23,15.14],[-139.17,16.14],[-139.11,17.14],[-139.05,18.13],[-138.99,19.13],[-138.93,20.12],[-138.86,21.12],[-138.8,22.12],[-138.74,23.11],[-138.67,24.11],[-138.6,25.11],[-138.54,26.1],[-138.47,27.1],[-138.4,28.09],[-138.33,29.09],[-137.22,29.05],[-136.11,29],[-135.01,28.94],[-134.91,29.91],[-134.8,30.87],[-134.7,31.83],[-134.59,32.8],[-134.48,33.76],[-134.36,34.72],[-134.25,35.69],[-134.13,36.65],[-134.01,37.61],[-133.88,38.58],[-133.75,39.54],[-133.62,40.5],[-133.48,41.46],[-133.34,42.43],[-133.2,43.39],[-133.05,44.35],[-132.9,45.31],[-132.74,46.27],[-132.57,47.24],[-132.4,48.2],[-132.22,49.16],[-132.04,50.12],[-131.84,51.08],[-130.26,51.04],[-128.68,50.98],[-127.11,50.9],[-125.54,50.8],[-125.34,51.76],[-125.13,52.71],[-124.91,53.66],[-124.69,54.61],[-124.45,55.57],[-124.19,56.52],[-123.93,57.47],[-123.65,58.42],[-123.36,59.37],[-123.05,60.32],[-122.72,61.26],[-122.37,62.21],[-121.99,63.16],[-121.6,64.1],[-121.17,65.05],[-120.71,65.99],[-119.09,65.92],[-117.48,65.83],[-117.15,66.8],[-116.78,67.76],[-116.39,68.72],[-115.95,69.69],[-115.48,70.65],[-114.96,71.61],[-114.38,72.57],[-113.74,73.52],[-113.03,74.48],[-112.22,75.43],[-111.3,76.38],[-110.25,77.33],[-109.03,78.27],[-107.6,79.2],[-105.91,80.13],[-101.13,79.91],[-96.57,79.63],[-93.62,80.39],[-90.17,81.12],[-86.13,81.81],[-81.38,82.46],[-75.78,83.05],[-69.24,83.55],[-64.24,83.86],[-58.76,84.12],[-58.76,84.12],[-60.66,83.41],[-62.2,82.7],[-63.23,82.09],[-64.12,81.49],[-64.17,80.78],[-64.21,80.07],[-64.5,79.34],[-64.75,78.62],[-65.93,77.99],[-66.99,77.36],[-68.44,76.59],[-69.74,75.8],[-70.89,75.01],[-71.81,74.45],[-72.66,73.89],[-72.66,73.89],[-71.76,73.1],[-70.93,72.3],[-70.18,71.51],[-69.49,70.71],[-68.57,70.02],[-67.71,69.32],[-66.9,68.62],[-65.7,67.78],[-64.59,66.94],[-63.56,66.34],[-62.59,65.73],[-61.65,65.11],[-60.46,64.54],[-59.31,63.96],[-58.21,63.36],[-56.69,62.73],[-55.23,62.07],[-53.84,61.41],[-52.63,60.84],[-51.46,60.26],[-50.34,59.67],[-49.26,59.07],[-49.26,59.07],[-51.09,58.84],[-52.91,58.59],[-54.43,58.31],[-55.94,58.01],[-57.41,57.69],[-58.86,57.35],[-60.28,57],[-61.68,56.64],[-63.32,56.29],[-64.94,55.93],[-66.53,55.54],[-68.09,55.13],[-68.09,55.13],[-67.71,54.24],[-67.73,53.44],[-67.75,52.63],[-67.78,51.83],[-67.79,50.98],[-67.81,50.14],[-67.82,49.29],[-67.95,48.49],[-68.08,47.68],[-68.2,46.87],[-68.32,46.07],[-68.33,45.34],[-68.33,44.61],[-68.34,43.88],[-68.22,42.92],[-68.11,41.96],[-68,41],[-67.73,40.12],[-67.47,39.24],[-67.21,38.36],[-67.19,37.83],[-67.16,37.31],[-67.16,37.31],[-66.43,37.55],[-65.69,37.78],[-64.52,37.93],[-63.34,38.06],[-62.16,38.18],[-60.97,38.29],[-59.78,38.39],[-58.59,38.48],[-57.39,38.55],[-56.26,38.39],[-55.14,38.23],[-54.03,38.05],[-52.91,37.86],[-51.81,37.66],[-50.71,37.45],[-49.62,37.23],[-48.53,37],[-47.45,36.76],[-47.45,36.76],[-47.62,35.98],[-47.77,35.21],[-47.93,34.43],[-48.38,33.56],[-48.81,32.69],[-49.24,31.81],[-49.24,31.81],[-49.8,31.26],[-50.35,30.71],[-50.9,30.16],[-51.58,29.44],[-52.26,28.71],[-52.92,27.99],[-53.58,27.25],[-54,26.48],[-54.42,25.71],[-54.84,24.93],[-55.25,24.15],[-55.65,23.37],[-55.61,22.6],[-55.57,21.83],[-55.53,21.06],[-55.48,20.29],[-55.35,19.34],[-55.23,18.39],[-55.1,17.44],[-54.97,16.49],[-54.85,15.54],[-54.73,14.6],[-54.61,13.65],[-54.53,12.8],[-54.45,11.96],[-54.37,11.11],[-54.29,10.27],[-54.21,9.42],[-54.21,9.42],[-54.25,9.36],[-54.69,8.88],[-55.13,8.4],[-55.68,7.94],[-56.22,7.48],[-56.61,7.12],[-57.01,6.75],[-57.28,6.03],[-57.55,5.31],[-57.81,4.59],[-58,3.79],[-58.19,3],[-58.39,2.2],[-58.53,1.44],[-58.68,0.69],[-58.82,-0.07],[-58.9,-0.82],[-58.99,-1.56],[-58.59,-2.19],[-58.19,-2.82],[-57.98,-3.5],[-57.76,-4.19],[-57.55,-4.87],[-57.27,-5.5],[-56.99,-6.14],[-56.65,-6.74],[-56.31,-7.34],[-56.31,-7.34],[-56.39,-7.43],[-56.58,-7.74],[-56.8,-8.08],[-56.89,-8.32],[-56.99,-8.51],[-57.15,-8.85],[-57.27,-9.11],[-57.37,-9.35],[-57.48,-9.61],[-57.83,-10.4],[-58.19,-11.19],[-58.55,-11.98],[-58.9,-12.76],[-59.27,-13.55],[-59.23,-14.42],[-59.19,-15.29],[-59.15,-16.16],[-59.09,-17.02],[-59.02,-17.88],[-58.95,-18.73],[-58.89,-19.59],[-58.82,-20.45],[-58.75,-21.31],[-58.57,-22.13],[-58.38,-22.95],[-58.19,-23.77],[-58.04,-24.46],[-57.89,-25.15],[-57.73,-25.84],[-57.19,-26.63],[-57.13,-27.16],[-57.06,-27.69],[-56.94,-28.44],[-56.97,-28.99],[-56.94,-29.35],[-56.93,-29.64],[-56.93,-29.64],[-56.93,-30.23],[-57.06,-30.72],[-57.32,-31.55],[-57.49,-32],[-57.58,-32.71],[-57.69,-33.28],[-57.73,-33.6],[-57.81,-33.99],[-57.88,-34.42],[-58.03,-35.28],[-58.18,-36.14],[-58.37,-36.91],[-58.56,-37.67],[-58.76,-38.44],[-58.96,-39.2],[-59.38,-39.86]]]}},{"type":"Feature","properties":{"ma":200,"type":"gpml:TopologicalClosedPlateBoundary","name":"AlCaPa-Tisza-Dacia-Moesia","pid":319,"deforming":false},"geometry":{"type":"Polygon","coordinates":[[[35.83,23.1],[35.66,22.73],[35.18,22.11],[34.69,21.5],[34.21,20.88],[33.74,20.26],[33.16,19.69],[32.58,19.11],[32.01,18.54],[31.44,17.96],[30.84,17.39],[30.25,16.81],[29.66,16.23],[29.07,15.65],[28.39,15.12],[27.71,14.58],[27.03,14.04],[26.35,13.5],[25.59,12.94],[24.82,12.38],[24.07,11.81],[23.31,11.24],[22.55,10.67],[21.87,10.19],[21.19,9.72],[20.51,9.24],[20.51,9.24],[19.72,9.67],[18.93,10.1],[18.13,10.53],[17.34,10.96],[17.13,11.1],[17.13,11.1],[17.76,11.69],[18.4,12.27],[18.86,13.06],[19.31,13.86],[19.77,14.66],[20.24,15.46],[20.71,16.25],[20.5,16.41],[21.03,17.2],[21.57,17.99],[21.41,18.03],[21.95,18.86],[22.5,19.69],[22.29,19.83],[22.67,20.39],[23.05,20.94],[23.88,21.46],[24.73,21.96],[25.58,22.47],[25.58,22.47],[26.6,22.56],[27.62,22.64],[28.64,22.72],[29.67,22.8],[30.69,22.86],[31.72,22.92],[32.74,22.98],[33.77,23.02],[34.8,23.06],[35.83,23.1]]]}},{"type":"Feature","properties":{"ma":200,"type":"gpml:TopologicalClosedPlateBoundary","name":"AlKaPeCa","pid":329,"deforming":false},"geometry":{"type":"Polygon","coordinates":[[[14.08,5.63],[13.28,5.34],[12.47,5.04],[11.66,4.75],[10.85,4.45],[10.05,4.15],[9.15,3.93],[8.26,3.7],[7.36,3.48],[6.47,3.25],[6.47,3.25],[5.95,3.59],[5.44,3.92],[5.44,3.92],[6.19,4.12],[6.95,4.31],[7.71,4.5],[8.46,4.69],[9.33,4.99],[10.19,5.3],[11.06,5.6],[11.08,6.3],[11.96,6.66],[12.83,7.02],[13.71,7.38],[13.71,7.38],[13.86,6.54],[14.02,5.71],[14.08,5.63]]]}},{"type":"Feature","properties":{"ma":200,"type":"gpml:TopologicalNetwork","name":"Central_Atlantic_Mesh","pid":101,"deforming":true},"geometry":{"type":"Polygon","coordinates":[[[-1.27,8.19],[-0.92,7.84],[-0.56,7.48],[-0.32,7.29],[0.11,6.97],[0.22,6.89],[0.22,6.89],[0.22,6.89],[0.22,6.89],[0.22,6.89],[0.22,6.89],[0.08,6.82],[-0.33,6.7],[-0.97,6.51],[-1.58,6.33],[-2.29,6.11],[-2.92,5.92],[-3.43,5.77],[-3.91,5.62],[-4.48,5.45],[-5.11,5.25],[-5.64,5.46],[-6.22,5.6],[-6.55,5.79],[-6.86,5.97],[-7.35,6.18],[-7.78,6.48],[-8.38,6.68],[-8.83,6.64],[-9.5,6.42],[-10.32,6.35],[-11.05,6.24],[-11.61,5.99],[-12.52,5.74],[-12.98,5.44],[-13.78,5.09],[-14.52,4.82],[-15.07,4.94],[-15.22,5.04],[-15.73,5.08],[-16.68,5.17],[-17.55,5.37],[-17.69,5.28],[-18.18,5.09],[-18.66,4.9],[-19.03,4.48],[-19.39,4.06],[-19.67,3.63],[-19.95,3.21],[-20.21,2.6],[-20.57,2.08],[-20.99,1.55],[-21.2,1.36],[-21.47,1.13],[-21.62,0.71],[-21.71,0.27],[-21.82,-0.51],[-22.06,-0.92],[-22.3,-1.28],[-22.61,-1.47],[-22.82,-1.74],[-22.97,-1.99],[-23.2,-2.33],[-23.64,-2.29],[-24.06,-2.26],[-24.68,-2.5],[-25.08,-2.79],[-25.36,-3.15],[-25.59,-3.92],[-25.84,-4.8],[-25.86,-5.39],[-25.78,-5.57],[-25.78,-5.57],[-25.85,-5.53],[-26.21,-5.42],[-26.26,-5.39],[-26.26,-5.39],[-26.73,-5.97],[-27.19,-6.55],[-27.3,-6.57],[-27.3,-6.57],[-27.49,-6.43],[-27.64,-6.23],[-27.65,-5.98],[-27.7,-5.69],[-27.64,-5.45],[-27.63,-5.2],[-27.76,-4.9],[-27.76,-4.75],[-27.72,-4.64],[-27.77,-4.45],[-27.86,-4.34],[-27.98,-4.23],[-28.05,-4.08],[-28.24,-3.8],[-28.47,-3.48],[-28.61,-3.24],[-28.56,-2.99],[-28.44,-2.64],[-28.44,-2.46],[-28.64,-2.34],[-28.75,-2.06],[-28.85,-1.92],[-28.98,-1.9],[-29.12,-1.55],[-29.23,-1.2],[-29.38,-0.87],[-29.42,-0.5],[-29.56,-0.12],[-29.69,0.24],[-29.74,0.45],[-29.77,0.7],[-29.81,0.94],[-29.81,0.94],[-29.77,0.97],[-29.38,1.27],[-29.01,1.55],[-28.88,1.74],[-28.54,1.82],[-28.23,1.9],[-27.71,2.02],[-27.08,2.14],[-26.45,2.25],[-25.88,2.65],[-25.41,3.08],[-25.17,3.83],[-24.98,4.45],[-24.35,4.74],[-23.57,5.25],[-23.22,5.54],[-22.72,5.99],[-22.23,6.44],[-21.94,6.87],[-21.76,7.31],[-21.34,7.45],[-21.21,7.55],[-20.97,7.52],[-20.67,7.43],[-20.39,7.42],[-19.93,7.54],[-19.68,7.57],[-19.5,7.56],[-19.18,7.81],[-18.85,8.07],[-18.38,8.18],[-18.02,8.48],[-17.8,9.04],[-17.55,9.12],[-17.17,8.97],[-16.65,9.22],[-16.18,9.23],[-15.42,9.26],[-14.63,9.38],[-14.11,9.51],[-13.33,9.62],[-12.82,9.91],[-12.12,10.29],[-11.53,10.53],[-10.98,10.65],[-10.34,10.76],[-10.01,10.78],[-9.53,10.67],[-8.88,10.59],[-8.3,10.63],[-7.82,10.65],[-7.32,10.65],[-6.8,10.62],[-6.16,10.57],[-5.44,10.4],[-4.77,10.21],[-4,10.09],[-3.67,9.97],[-3.5,9.76],[-3.28,9.66],[-3.15,9.52],[-3.04,9.42],[-2.86,9.24],[-2.6,9.05],[-2.67,8.94],[-2.82,8.83],[-3.13,8.85],[-3.11,8.65],[-2.99,8.42],[-2.67,8.6],[-2.62,8.61],[-2.5,8.57],[-2.52,8.35],[-2.54,7.94],[-2.23,7.84],[-1.86,7.84],[-1.56,7.89],[-1.4,8.33],[-1.27,8.19]]]}},{"type":"Feature","properties":{"ma":200,"type":"gpml:TopologicalNetwork","name":"North_Atlantic_Phase1_Deformation_Mesh","pid":301,"deforming":true},"geometry":{"type":"Polygon","coordinates":[[[8.03,28.29],[8.07,28.18],[8.15,27.72],[8.35,27.25],[8.5,26.81],[8.69,26.24],[8.83,25.79],[8.86,25.55],[8.99,25.25],[9.08,25.01],[9.12,24.79],[9.14,24.59],[9.38,24.34],[9.59,24.21],[10.06,24.07],[10.43,24.14],[10.82,24.03],[11.06,23.77],[11.65,23.36],[11.9,22.86],[12.04,22.46],[12.12,21.91],[12.16,21.53],[12.34,21.23],[12.52,20.85],[12.71,20.64],[12.85,20.54],[13.04,20.37],[13.49,20.19],[14.03,19.97],[14.57,19.78],[15.13,19.53],[15.63,19.36],[15.92,19.2],[16.03,19.17],[16.32,19.07],[16.32,19.07],[16.19,18.74],[15.93,18.3],[15.7,17.92],[15.5,17.61],[15.3,17.28],[15.07,16.84],[14.73,16.68],[14.44,16.61],[14.15,16.6],[13.63,16.58],[13.11,16.66],[12.53,16.77],[12.21,16.94],[11.84,17.03],[11.39,17.12],[10.93,17.13],[10.51,17.06],[10.14,16.9],[9.81,16.79],[9.57,16.59],[9.42,16.36],[9.28,16.13],[9.05,15.9],[8.81,15.61],[8.37,15.21],[7.86,14.8],[7.53,14.59],[7.24,14.28],[6.66,13.98],[6.25,13.72],[6.09,13.42],[6.09,13.42],[5.84,13.24],[5.31,12.85],[4.75,12.72],[4.1,12.6],[3.6,12.51],[3.33,12.42],[3.33,12.42],[3.29,12.37],[3.17,12.22],[3.1,12],[3.01,11.83],[2.91,11.7],[2.86,11.57],[2.78,11.36],[2.7,11.1],[2.59,10.83],[2.43,10.55],[2.29,10.23],[2.16,9.9],[2.03,9.7],[1.79,9.31],[1.61,9.09],[1.22,8.78],[0.87,8.35],[0.76,8.11],[0.7,7.78],[0.62,7.38],[0.42,7.04],[0.25,6.86],[0.25,6.86],[0.11,6.97],[-0.32,7.29],[-0.56,7.48],[-0.92,7.84],[-1.27,8.19],[-1.43,8.35],[-1.43,8.35],[-1.34,8.44],[-1.13,8.65],[-1.1,8.79],[-1.08,8.93],[-1.09,9.11],[-1.09,9.25],[-1.02,9.41],[-0.96,9.52],[-0.73,9.75],[-0.56,9.9],[-0.45,10.01],[-0.33,10.14],[-0.19,10.28],[-0.08,10.49],[-0.04,10.57],[0.04,10.63],[0.16,10.73],[0.22,10.79],[0.29,10.88],[0.4,11],[0.44,11.05],[0.5,11.1],[0.54,11.13],[0.6,11.14],[0.69,11.15],[0.78,11.2],[0.78,11.2],[0.77,11.22],[0.75,11.29],[0.72,11.45],[0.7,11.49],[0.7,11.49],[0.69,11.47],[0.6,11.35],[0.53,11.26],[0.48,11.19],[0.42,11.11],[0.36,11.05],[0.29,10.97],[0.16,10.86],[0.04,10.75],[-0.08,10.64],[-0.16,10.53],[-0.22,10.4],[-0.3,10.26],[-0.38,10.18],[-0.51,10.09],[-0.63,10.01],[-0.72,9.93],[-0.8,9.84],[-0.92,9.73],[-1,9.7],[-1.09,9.67],[-1.32,9.58],[-1.45,9.6],[-1.45,9.6],[-1.29,9.69],[-1.14,9.77],[-1.01,9.84],[-0.92,9.92],[-0.8,10.02],[-0.67,10.15],[-0.56,10.27],[-0.47,10.41],[-0.36,10.57],[-0.24,10.76],[-0.14,10.92],[-0.07,11.08],[0.07,11.29],[0.13,11.53],[0.05,11.71],[-0.01,11.85],[-0.1,12],[-0.19,12.14],[-0.29,12.23],[-0.4,12.35],[-0.47,12.41],[-0.57,12.5],[-0.73,12.61],[-0.73,12.61],[-0.77,12.74],[-0.81,12.94],[-0.86,13.07],[-0.89,13.28],[-0.85,13.57],[-0.81,13.83],[-0.79,14.21],[-0.81,14.58],[-0.88,14.88],[-0.91,15],[-0.91,15],[-0.83,15.53],[-0.64,16.24],[-0.27,16.96],[0.06,17.35],[0.32,17.9],[0.85,18.55],[1.28,18.98],[1.62,19.48],[1.95,19.98],[2.14,20.67],[2.33,21.36],[2.17,22.03],[1.82,22.52],[1.47,23.02],[1.6,23.82],[1.95,23.96],[2.67,24.27],[3.34,24.68],[3.79,25.08],[4.36,25.4],[4.76,25.8],[5.4,26.32],[5.73,26.89],[5.84,27.25],[6.05,27.97],[6.4,28.56],[6.81,29.19],[7.07,29.52],[7.33,30.02],[7.3,30.21],[6.99,30.54],[6.97,30.59],[6.99,31.26],[7.03,31.51],[7.07,31.66],[6.86,31.86],[6.66,31.93],[6.33,32.11],[6.23,32.27],[6.2,32.51],[6.23,32.68],[6.26,32.84],[6.27,33.03],[6.23,33.25],[6.18,33.42],[6.24,33.59],[6.36,33.75],[6.52,33.97],[6.73,34.4],[7.14,34.76],[7.28,34.92],[7.43,35.21],[7.49,35.46],[7.51,35.81],[7.48,35.99],[7.47,36.19],[7.54,36.39],[7.65,36.53],[7.81,36.97],[8.02,37.5],[8.25,37.7],[8.32,37.77],[8.32,37.77],[8.29,37.61],[8.29,37.61],[8.32,37.58],[8.17,37.25],[8.18,37],[8.16,36.73],[8.07,36.21],[8.09,35.92],[8.14,35.54],[8.2,35.34],[8.31,34.97],[8.24,34.63],[8.05,34.45],[7.9,34.25],[7.72,34.04],[7.68,33.81],[7.54,33.58],[7.5,33.41],[7.37,33.22],[7.37,33.06],[7.47,32.92],[7.62,32.76],[7.85,32.57],[8.02,32.3],[8.14,32.1],[8.29,31.88],[8.34,31.63],[8.27,31.42],[8.1,31.15],[8.18,31],[8.24,30.88],[8.33,30.62],[8.43,30.51],[8.59,30.36],[8.58,30.3],[8.55,30.15],[8.5,30.09],[8.43,29.98],[8.41,29.94],[8.31,29.7],[8.18,29.55],[8.05,29.24],[8.04,29.02],[8.03,28.79],[8.02,28.64],[8.05,28.48],[8.05,28.37],[8.03,28.29]]]}},{"type":"Feature","properties":{"ma":200,"type":"gpml:TopologicalNetwork","name":"Proto_Caribbean_Mesh","pid":101,"deforming":true},"geometry":{"type":"Polygon","coordinates":[[[-30.48,0.32],[-30.18,0.6],[-29.81,0.94],[-29.81,0.94],[-29.77,0.7],[-29.74,0.45],[-29.69,0.24],[-29.56,-0.12],[-29.42,-0.5],[-29.38,-0.87],[-29.23,-1.2],[-29.12,-1.55],[-28.98,-1.9],[-28.85,-1.92],[-28.75,-2.06],[-28.64,-2.34],[-28.44,-2.46],[-28.44,-2.64],[-28.56,-2.99],[-28.61,-3.24],[-28.47,-3.48],[-28.24,-3.8],[-28.05,-4.08],[-27.98,-4.23],[-27.86,-4.34],[-27.77,-4.45],[-27.72,-4.64],[-27.76,-4.75],[-27.76,-4.9],[-27.63,-5.2],[-27.64,-5.45],[-27.7,-5.69],[-27.65,-5.98],[-27.64,-6.23],[-27.49,-6.43],[-27.3,-6.57],[-27.3,-6.57],[-28.06,-6.73],[-28.83,-6.89],[-29.6,-7.04],[-30.21,-7.23],[-30.82,-7.41],[-31.39,-7.38],[-31.97,-7.35],[-32.48,-7.28],[-32.99,-7.21],[-33.88,-6.89],[-34.65,-6.78],[-35.42,-6.67],[-36.09,-6.54],[-36.76,-6.41],[-37.43,-6.28],[-38.18,-6.4],[-38.92,-6.52],[-39.55,-6.98],[-40.18,-7.45],[-40.79,-7.52],[-41.39,-7.6],[-41.91,-7.7],[-42.43,-7.81],[-43,-7.88],[-43.56,-7.94],[-44.19,-8.15],[-44.82,-8.36],[-45.48,-8.7],[-46.13,-9.03],[-46.88,-9.38],[-47.62,-9.73],[-48.44,-9.88],[-49.26,-10.03],[-50.12,-9.78],[-50.98,-9.53],[-51.64,-9.16],[-52.29,-8.79],[-52.8,-8.57],[-53.31,-8.35],[-53.89,-8.22],[-54.48,-8.1],[-55.03,-8.18],[-55.59,-8.26],[-55.81,-8.25],[-55.81,-8.25],[-55.91,-8.05],[-56.27,-7.41],[-56.63,-6.78],[-56.99,-6.14],[-57.27,-5.5],[-57.55,-4.87],[-57.76,-4.19],[-57.98,-3.5],[-58.19,-2.82],[-58.59,-2.19],[-58.99,-1.56],[-58.97,-1.41],[-58.97,-1.41],[-58.08,-1.31],[-57.13,-1.12],[-56.19,-0.94],[-55.43,-0.75],[-54.67,-0.56],[-53.72,-0.36],[-52.77,-0.17],[-51.98,-0.01],[-51.19,0.14],[-50.52,0.64],[-49.84,1.14],[-49.22,1.51],[-48.57,2.23],[-48.18,2.6],[-47.79,2.97],[-47.52,3.66],[-46.79,4.31],[-46.05,4.96],[-45.32,5.6],[-44.63,6],[-43.93,6.39],[-43.24,6.78],[-42.72,6.73],[-42.2,6.68],[-41.19,6.68],[-40.69,6.51],[-40.18,6.34],[-39.46,6.14],[-38.75,5.94],[-37.95,5.36],[-37.49,5.08],[-37.03,4.81],[-36.55,4.56],[-36.07,4.31],[-35.58,4.02],[-35.1,3.72],[-34.43,3.34],[-33.81,2.79],[-33.09,2.32],[-32.38,1.86],[-31.89,1.37],[-31.39,0.89],[-30.69,0.22],[-30.68,0.2],[-30.48,0.32]]]}},{"type":"Feature","properties":{"ma":200,"type":"gpml:TopologicalNetwork","name":"WEC","pid":601,"deforming":true},"geometry":{"type":"Polygon","coordinates":[[[105.02,52.44],[104.57,53.08],[104.06,53.52],[103.55,53.95],[102.56,54.64],[101.89,55.15],[101.2,55.66],[100.52,56.42],[100.34,57.29],[100.41,58.01],[100.55,58.85],[100.74,59.75],[100.89,60.42],[101.06,60.95],[101.22,61.39],[101.6,61.73],[101.95,62.05],[102.4,62.45],[102.83,62.97],[103.22,63.41],[103.69,63.93],[104.19,64.44],[104.71,64.95],[105.39,65.58],[106.12,66.21],[106.87,66.83],[107.97,67.65],[108.74,68.4],[109.57,69.15],[110.35,69.95],[110.95,70.53],[111.55,71.08],[112.18,71.63],[112.73,71.96],[112.73,71.96],[114.42,72.11],[116.72,72.29],[119.06,72.44],[122.28,72.61],[125.54,72.71],[127.44,72.75],[129.36,72.77],[132.06,72.77],[134.76,72.73],[136.75,72.68],[138.74,72.61],[140.86,72.51],[142.96,72.39],[145.39,72.22],[147.76,72.03],[149.95,71.81],[152.08,71.58],[154.17,71.31],[156.58,70.97],[158.91,70.6],[161.04,70.22],[163.08,69.82],[165.05,69.4],[165.37,69.32],[165.37,69.32],[165.3,69.28],[163.74,68.6],[162.27,67.9],[160.89,67.19],[159.58,66.47],[158.38,65.73],[157.24,64.99],[156.16,64.24],[155.14,63.48],[154.1,62.77],[153.12,62.05],[152.17,61.32],[151.03,60.59],[149.94,59.85],[149.15,59.18],[148.39,58.51],[147.67,57.84],[146.8,57.15],[145.97,56.46],[145.17,55.77],[144.26,54.96],[143.39,54.15],[142.55,53.29],[141.74,52.43],[140.9,51.61],[140.09,50.79],[139.91,50.57],[139.91,50.57],[138.54,51.05],[137.15,51.52],[135.72,51.97],[134.27,52.41],[132.8,52.82],[131.29,53.22],[129.75,53.6],[128.19,53.96],[127.05,53.68],[125.93,53.38],[124.78,53.3],[123.65,53.21],[122.52,53.1],[122.29,52.62],[122.07,52.14],[120.98,52.25],[119.89,52.35],[118.79,52.44],[117.55,52.71],[116.29,52.96],[115.02,53.2],[113.57,53.29],[112.12,53.37],[110.48,53.21],[108.85,53.03],[107.34,52.78],[105.84,52.51],[105.02,52.44]]]}}]}