{"type":"FeatureCollection","features":[{"type":"Feature","properties":{"ma":235,"type":"gpml:TopologicalClosedPlateBoundary","name":"Izanagi Plate","pid":926,"deforming":false},"geometry":{"type":"MultiPolygon","coordinates":[[[[180,65.45],[180,64.47],[180,63.48],[180,62.49],[180,61.5],[180,60.51],[180,59.52],[180,58.53],[180,57.54],[180,56.55],[180,55.56],[180,54.58],[180,53.59],[180,52.6],[180,51.61],[180,50.62],[180,49.63],[180,48.64],[180,47.65],[180,46.66],[180,45.68],[180,44.69],[180,43.7],[180,42.71],[180,41.72],[180,40.73],[180,39.74],[180,38.75],[180,37.76],[180,36.78],[180,35.79],[180,34.8],[180,33.81],[180,32.82],[180,31.83],[180,30.84],[180,29.85],[180,28.86],[180,27.87],[180,26.89],[180,25.9],[180,24.91],[180,23.92],[180,22.93],[180,21.94],[180,20.95],[180,19.96],[180,18.97],[180,17.99],[180,17],[180,16.01],[180,15.02],[180,14.03],[180,13.04],[180,12.05],[180,11.06],[180,10.07],[180,9.08],[180,8.1],[180,7.11],[180,6.12],[180,5.13],[180,4.14],[180,3.15],[180,2.16],[180,1.17],[180,0.18],[180,-0.8],[180,-1.79],[180,-2.78],[180,-3.77],[180,-4.76],[180,-5.75],[180,-6.74],[180,-7.73],[180,-8.72],[180,-9.71],[180,-10.69],[180,-11.68],[180,-12.67],[180,-13.66],[180,-14.65],[179.24,-14.95],[178.48,-15.26],[177.71,-15.56],[177.33,-14.69],[176.95,-13.83],[176.57,-12.96],[176.19,-12.1],[175.82,-11.23],[174.94,-11.62],[174.05,-12.01],[173.16,-12.39],[172.27,-12.77],[171.38,-13.15],[170.48,-13.52],[169.58,-13.9],[168.68,-14.26],[167.77,-14.63],[166.87,-14.99],[165.96,-15.35],[165.04,-15.7],[164.12,-16.05],[163.2,-16.4],[162.28,-16.74],[161.8,-15.96],[161.33,-15.18],[160.86,-14.4],[160.39,-13.62],[159.48,-14.06],[158.56,-14.5],[157.64,-14.93],[156.72,-15.36],[155.79,-15.79],[154.86,-16.21],[153.93,-16.63],[152.99,-17.04],[152.04,-17.45],[151.1,-17.85],[150.14,-18.25],[149.19,-18.65],[148.23,-19.04],[147.26,-19.42],[146.29,-19.81],[145.32,-20.18],[144.34,-20.55],[143.36,-20.91],[142.37,-21.27],[141.37,-21.63],[140.38,-21.97],[139.37,-22.31],[138.37,-22.65],[137.35,-22.98],[137.35,-22.98],[137.33,-22.03],[137.31,-21.09],[137.29,-20.15],[137.28,-19.2],[137.26,-18.26],[137.24,-17.32],[137.22,-16.37],[137.22,-16.37],[136.32,-15.88],[135.37,-15.63],[134.43,-15.37],[133.48,-15.1],[132.54,-14.83],[131.61,-14.56],[130.67,-14.28],[129.74,-14],[128.8,-13.6],[127.86,-13.19],[126.93,-12.78],[125.99,-12.37],[125.06,-11.95],[124.14,-11.53],[123.22,-11.11],[122.29,-11.01],[121.37,-10.91],[120.45,-10.81],[119.53,-10.71],[118.61,-10.6],[117.69,-10.49],[116.77,-10.37],[115.85,-10.26],[115.85,-10.26],[116.33,-9.54],[116.81,-8.82],[117.45,-8.29],[118.09,-7.75],[118.74,-7.22],[119.38,-6.68],[119.97,-6.06],[120.56,-5.44],[121.14,-4.82],[121.73,-4.2],[122.3,-3.59],[122.87,-2.98],[123.45,-2.37],[124.02,-1.75],[124.59,-1.14],[124.57,-0.14],[124.55,0.85],[124.52,1.85],[124.5,2.85],[124.1,3.62],[123.69,4.4],[123.69,4.4],[123.23,5.27],[122.84,6.14],[122.46,7],[121.84,7.72],[121.22,8.43],[120.79,9.06],[120.35,9.68],[119.91,10.3],[119.08,10.65],[118.24,11],[117.4,11.34],[116.88,11.91],[116.36,12.48],[115.84,13.05],[115.31,13.74],[114.78,14.43],[114.24,15.12],[113.7,15.8],[113.15,16.49],[112.6,17.17],[112.62,17.35],[112.62,17.35],[111.72,16.93],[110.83,16.51],[109.94,16.09],[109.05,15.66],[108.16,15.23],[107.28,14.79],[107.28,14.79],[107.51,15.6],[107.75,16.41],[107.99,17.21],[108.23,18.02],[108.47,18.82],[107.98,19.55],[107.48,20.28],[106.97,21.01],[106.47,21.73],[106.15,22.65],[105.84,23.57],[105.52,24.49],[105.19,25.41],[104.86,26.32],[104.53,27.24],[104.19,28.16],[103.84,29.07],[103.96,29.87],[104.08,30.67],[104.2,31.47],[104.32,32.28],[104.6,33.11],[104.89,33.95],[105.18,34.78],[105.47,35.62],[105.78,36.45],[105.78,36.45],[105.97,36.98],[106.59,37.74],[107.23,38.5],[107.89,39.26],[108.55,40.01],[109.23,40.76],[110.28,41.02],[111.33,41.27],[112.39,41.51],[113.46,41.73],[114.54,41.95],[115.48,42.46],[116.44,42.95],[116.44,42.95],[116.76,42.98],[116.76,42.98],[117.56,42.71],[118.35,42.43],[119.05,42.22],[119.74,42],[120.68,41.84],[121.61,41.67],[122.71,41.51],[123.8,41.33],[124.82,41.67],[125.75,41.58],[126.75,41.37],[127.75,41.14],[128.74,40.91],[129.73,40.67],[129.73,40.67],[130.69,40.95],[131.65,41.22],[132.63,41.39],[133.6,41.55],[134.59,41.71],[135.57,41.85],[136.49,41.93],[137.41,42],[138.34,42.06],[139.3,42.74],[140.28,43.42],[141.29,44.09],[142.31,44.76],[143.37,45.41],[144.44,46.05],[145.54,46.68],[146.67,47.3],[147.83,47.91],[149.01,48.51],[149.84,49.31],[150.7,50.1],[151.59,50.89],[152.51,51.67],[153.46,52.44],[154.45,53.2],[155.47,53.95],[156.53,54.7],[157.63,55.44],[158.77,56.16],[159.95,56.88],[161.18,57.58],[162.46,58.27],[163.78,58.95],[164.94,59.7],[166.15,60.44],[167.42,61.16],[168.75,61.88],[170.14,62.58],[171.59,63.27],[173.12,63.94],[174.72,64.59],[176.4,65.23],[178.16,65.85],[180,66.44],[180,65.45]]],[[[-180,-13.66],[-180,-12.67],[-180,-11.68],[-180,-10.69],[-180,-9.71],[-180,-8.72],[-180,-7.73],[-180,-6.74],[-180,-5.75],[-180,-4.76],[-180,-3.77],[-180,-2.78],[-180,-1.79],[-180,-0.8],[-180,0.18],[-180,1.17],[-180,2.16],[-180,3.15],[-180,4.14],[-180,5.13],[-180,6.12],[-180,7.11],[-180,8.1],[-180,9.08],[-180,10.07],[-180,11.06],[-180,12.05],[-180,13.04],[-180,14.03],[-180,15.02],[-180,16.01],[-180,17],[-180,17.99],[-180,18.97],[-180,19.96],[-180,20.95],[-180,21.94],[-180,22.93],[-180,23.92],[-180,24.91],[-180,25.9],[-180,26.89],[-180,27.87],[-180,28.86],[-180,29.85],[-180,30.84],[-180,31.83],[-180,32.82],[-180,33.81],[-180,34.8],[-180,35.79],[-180,36.78],[-180,37.76],[-180,38.75],[-180,39.74],[-180,40.73],[-180,41.72],[-180,42.71],[-180,43.7],[-180,44.69],[-180,45.68],[-180,46.66],[-180,47.65],[-180,48.64],[-180,49.63],[-180,50.62],[-180,51.61],[-180,52.6],[-180,53.59],[-180,54.58],[-180,55.56],[-180,56.55],[-180,57.54],[-180,58.53],[-180,59.52],[-180,60.51],[-180,61.5],[-180,62.49],[-180,63.48],[-180,64.47],[-180,65.45],[-180,66.44],[-178.23,66.97],[-176.39,67.47],[-174.47,67.96],[-172.46,68.42],[-170.8,69.12],[-169.02,69.81],[-167.13,70.47],[-165.11,71.12],[-162.96,71.74],[-160.67,72.33],[-158.22,72.9],[-155.62,73.44],[-154.05,72.6],[-152.62,71.75],[-151.32,70.89],[-150.12,70.02],[-149.02,69.15],[-148.01,68.27],[-147.07,67.38],[-146.2,66.49],[-145.39,65.6],[-144.63,64.7],[-143.92,63.79],[-143.26,62.89],[-142.63,61.98],[-142.04,61.06],[-141.49,60.15],[-140.96,59.23],[-140.47,58.31],[-141.9,58.1],[-143.31,57.86],[-144.71,57.62],[-144.27,56.66],[-143.85,55.71],[-143.45,54.75],[-143.07,53.79],[-142.7,52.83],[-142.36,51.87],[-142.02,50.91],[-141.7,49.95],[-141.39,48.99],[-141.1,48.02],[-140.81,47.06],[-140.54,46.09],[-140.27,45.13],[-140.02,44.16],[-139.77,43.19],[-141.11,43],[-142.44,42.79],[-143.76,42.57],[-143.47,41.6],[-143.19,40.62],[-142.92,39.65],[-142.65,38.68],[-142.4,37.7],[-142.14,36.73],[-141.9,35.75],[-141.66,34.78],[-141.43,33.8],[-141.2,32.82],[-140.98,31.84],[-140.76,30.87],[-140.55,29.89],[-140.34,28.91],[-140.13,27.93],[-139.93,26.95],[-139.73,25.97],[-139.53,24.99],[-139.34,24.01],[-139.15,23.03],[-140.1,22.89],[-141.04,22.75],[-141.98,22.6],[-141.79,21.62],[-141.61,20.64],[-141.43,19.67],[-141.25,18.69],[-141.08,17.71],[-140.9,16.74],[-140.73,15.76],[-140.56,14.78],[-140.39,13.8],[-140.23,12.83],[-140.06,11.85],[-139.89,10.87],[-139.73,9.89],[-139.57,8.91],[-139.41,7.94],[-140.39,7.75],[-141.37,7.57],[-142.35,7.38],[-142.13,6.47],[-141.92,5.55],[-141.7,4.64],[-141.49,3.73],[-141.28,2.81],[-141.07,1.9],[-140.86,0.98],[-140.64,0.07],[-140.43,-0.85],[-140.22,-1.76],[-140.04,-2.53],[-139.86,-3.29],[-139.68,-4.06],[-139.5,-4.83],[-139.5,-4.83],[-140.07,-4.47],[-140.64,-4.11],[-141.21,-3.76],[-141.21,-3.76],[-142.05,-4.06],[-142.89,-4.37],[-143.77,-4.73],[-144.66,-5.08],[-145.55,-5.44],[-146.44,-5.8],[-147.34,-6.15],[-148.23,-6.5],[-149.12,-6.85],[-150.02,-7.2],[-150.92,-7.55],[-151.82,-7.9],[-152.72,-8.24],[-153.62,-8.58],[-154.52,-8.92],[-155.43,-9.26],[-156.33,-9.6],[-157.24,-9.93],[-157.53,-9.05],[-157.81,-8.17],[-158.09,-7.28],[-158.96,-7.73],[-159.83,-8.17],[-160.7,-8.61],[-161.58,-9.05],[-162.46,-9.48],[-163.34,-9.92],[-164.22,-10.35],[-165.1,-10.78],[-165.99,-11.21],[-166.88,-11.63],[-167.42,-10.98],[-167.97,-10.32],[-168.51,-9.66],[-169.38,-10.06],[-170.25,-10.46],[-171.12,-10.85],[-172,-11.25],[-172.88,-11.64],[-173.76,-12.02],[-174.64,-12.41],[-175.53,-12.79],[-176.42,-13.17],[-177.31,-13.54],[-178.2,-13.91],[-179.1,-14.28],[-180,-14.65],[-180,-13.66]]]]}},{"type":"Feature","properties":{"ma":235,"type":"gpml:TopologicalClosedPlateBoundary","name":"Junction Plate North","pid":498,"deforming":false},"geometry":{"type":"Polygon","coordinates":[[[114.79,-10.12],[115.72,-10.24],[116.66,-10.36],[117.59,-10.47],[118.53,-10.59],[119.46,-10.7],[120.4,-10.8],[121.34,-10.91],[122.28,-11.01],[123.22,-11.11],[124.14,-11.53],[125.06,-11.95],[125.99,-12.37],[126.93,-12.78],[127.86,-13.19],[128.8,-13.6],[129.74,-14],[130.67,-14.28],[131.61,-14.56],[132.54,-14.83],[133.48,-15.1],[134.43,-15.37],[135.37,-15.63],[136.32,-15.88],[137.22,-16.37],[137.22,-16.37],[137.24,-17.34],[137.26,-18.3],[137.28,-19.26],[137.3,-20.22],[137.32,-21.18],[137.34,-22.14],[137.36,-23.1],[137.38,-24.07],[137.38,-24.07],[136.43,-24.19],[135.47,-24.31],[134.52,-24.42],[133.56,-24.53],[132.6,-24.63],[131.64,-24.72],[131.51,-23.81],[131.37,-22.91],[130.39,-22.97],[129.41,-23.03],[128.42,-23.09],[127.43,-23.13],[126.45,-23.17],[125.46,-23.21],[124.47,-23.24],[124.41,-22.39],[124.35,-21.54],[124.28,-20.69],[124.22,-19.84],[124.16,-18.99],[124.1,-18.14],[123.08,-18.16],[122.06,-18.17],[121.04,-18.18],[120.01,-18.18],[118.99,-18.18],[117.97,-18.17],[116.95,-18.15],[115.93,-18.13],[114.9,-18.11],[114.9,-18.11],[114.9,-17.25],[114.9,-16.39],[114.89,-15.53],[114.89,-14.68],[114.88,-13.82],[114.88,-12.96],[114.88,-12.1],[114.83,-11.11],[114.79,-10.12]]]}},{"type":"Feature","properties":{"ma":235,"type":"gpml:TopologicalClosedPlateBoundary","name":"Phoenix Plate","pid":919,"deforming":false},"geometry":{"type":"MultiPolygon","coordinates":[[[[180,-15.64],[180,-16.62],[180,-17.61],[180,-18.59],[180,-19.58],[180,-20.57],[180,-21.55],[180,-22.54],[180,-23.52],[180,-24.51],[180,-25.5],[180,-26.48],[180,-27.47],[180,-28.45],[180,-29.44],[180,-30.43],[180,-31.41],[180,-32.4],[180,-33.38],[180,-34.37],[180,-35.36],[180,-36.34],[180,-37.33],[180,-38.31],[180,-39.3],[180,-40.29],[180,-41.27],[180,-42.26],[180,-43.24],[180,-44.23],[180,-45.22],[180,-46.2],[180,-47.19],[180,-48.17],[180,-49.16],[180,-50.15],[180,-51.13],[180,-52.12],[180,-53.11],[180,-54.09],[180,-55.08],[180,-56.06],[180,-57.05],[180,-58.04],[180,-59.02],[180,-60.01],[180,-60.99],[180,-61.98],[180,-62.97],[180,-63.95],[180,-64.94],[180,-65.92],[180,-66.91],[180,-67.9],[177.46,-67.75],[174.95,-67.56],[172.48,-67.34],[170.07,-67.08],[167.7,-66.78],[165.4,-66.45],[163.16,-66.08],[161.22,-65.88],[159.3,-65.65],[157.42,-65.4],[155.58,-65.12],[153.77,-64.82],[153.77,-64.82],[153.38,-64],[153.01,-63.18],[152.67,-62.35],[151.68,-61.52],[151.94,-61.01],[152.82,-60.11],[153.66,-59.2],[154.4,-58.29],[155.11,-57.37],[155.38,-56.81],[155.63,-56.25],[155.57,-55.66],[155.51,-55.08],[154.99,-54.31],[154.49,-53.53],[154.01,-52.76],[153.54,-51.98],[152.93,-51.09],[152.34,-50.19],[151.78,-49.29],[151.23,-48.39],[150.7,-47.48],[150.57,-46.61],[150.44,-45.74],[150.31,-44.87],[150.19,-44],[150.07,-43.12],[149.88,-42.32],[149.69,-41.53],[149.51,-40.73],[149.33,-39.93],[149.15,-39.13],[149.03,-38.39],[148.9,-37.65],[148.78,-36.92],[148.78,-36.92],[147.82,-36.36],[146.86,-35.8],[145.92,-35.24],[145,-34.66],[143.97,-34.27],[142.94,-33.87],[142.36,-33.61],[141.78,-33.35],[141.36,-32.89],[140.94,-32.43],[140.49,-31.79],[140.05,-31.16],[139.39,-30.42],[138.74,-29.67],[138.1,-28.93],[137.47,-28.18],[137.45,-27.31],[137.43,-26.44],[137.41,-25.58],[137.39,-24.71],[137.37,-23.84],[137.35,-22.98],[137.35,-22.98],[138.37,-22.65],[139.37,-22.31],[140.38,-21.97],[141.37,-21.63],[142.37,-21.27],[143.36,-20.91],[144.34,-20.55],[145.32,-20.18],[146.29,-19.81],[147.26,-19.42],[148.23,-19.04],[149.19,-18.65],[150.14,-18.25],[151.1,-17.85],[152.04,-17.45],[152.99,-17.04],[153.93,-16.63],[154.86,-16.21],[155.79,-15.79],[156.72,-15.36],[157.64,-14.93],[158.56,-14.5],[159.48,-14.06],[160.39,-13.62],[160.86,-14.4],[161.33,-15.18],[161.8,-15.96],[162.28,-16.74],[163.2,-16.4],[164.12,-16.05],[165.04,-15.7],[165.96,-15.35],[166.87,-14.99],[167.77,-14.63],[168.68,-14.26],[169.58,-13.9],[170.48,-13.52],[171.38,-13.15],[172.27,-12.77],[173.16,-12.39],[174.05,-12.01],[174.94,-11.62],[175.82,-11.23],[176.19,-12.1],[176.57,-12.96],[176.95,-13.83],[177.33,-14.69],[177.71,-15.56],[178.48,-15.26],[179.24,-14.95],[180,-14.65],[180,-15.64]]],[[[-180,-66.91],[-180,-65.92],[-180,-64.94],[-180,-63.95],[-180,-62.97],[-180,-61.98],[-180,-60.99],[-180,-60.01],[-180,-59.02],[-180,-58.04],[-180,-57.05],[-180,-56.06],[-180,-55.08],[-180,-54.09],[-180,-53.11],[-180,-52.12],[-180,-51.13],[-180,-50.15],[-180,-49.16],[-180,-48.17],[-180,-47.19],[-180,-46.2],[-180,-45.22],[-180,-44.23],[-180,-43.24],[-180,-42.26],[-180,-41.27],[-180,-40.29],[-180,-39.3],[-180,-38.31],[-180,-37.33],[-180,-36.34],[-180,-35.36],[-180,-34.37],[-180,-33.38],[-180,-32.4],[-180,-31.41],[-180,-30.43],[-180,-29.44],[-180,-28.45],[-180,-27.47],[-180,-26.48],[-180,-25.5],[-180,-24.51],[-180,-23.52],[-180,-22.54],[-180,-21.55],[-180,-20.57],[-180,-19.58],[-180,-18.59],[-180,-17.61],[-180,-16.62],[-180,-15.64],[-180,-14.65],[-179.1,-14.28],[-178.2,-13.91],[-177.31,-13.54],[-176.42,-13.17],[-175.53,-12.79],[-174.64,-12.41],[-173.76,-12.02],[-172.88,-11.64],[-172,-11.25],[-171.12,-10.85],[-170.25,-10.46],[-169.38,-10.06],[-168.51,-9.66],[-167.97,-10.32],[-167.42,-10.98],[-166.88,-11.63],[-165.99,-11.21],[-165.1,-10.78],[-164.22,-10.35],[-163.34,-9.92],[-162.46,-9.48],[-161.58,-9.05],[-160.7,-8.61],[-159.83,-8.17],[-158.96,-7.73],[-158.09,-7.28],[-157.81,-8.17],[-157.53,-9.05],[-157.24,-9.93],[-156.33,-9.6],[-155.43,-9.26],[-154.52,-8.92],[-153.62,-8.58],[-152.72,-8.24],[-151.82,-7.9],[-150.92,-7.55],[-150.02,-7.2],[-149.12,-6.85],[-148.23,-6.5],[-147.34,-6.15],[-146.44,-5.8],[-145.55,-5.44],[-144.66,-5.08],[-143.77,-4.73],[-142.89,-4.37],[-142.05,-4.06],[-141.21,-3.76],[-141.21,-3.76],[-140.38,-4.27],[-139.55,-4.79],[-138.72,-5.31],[-137.89,-5.83],[-137.06,-6.34],[-136.19,-6.83],[-135.32,-7.32],[-134.44,-7.81],[-133.57,-8.3],[-132.69,-8.78],[-131.81,-9.26],[-130.93,-9.74],[-130.04,-10.22],[-129.15,-10.69],[-128.26,-11.17],[-127.37,-11.63],[-126.47,-12.1],[-125.57,-12.57],[-124.67,-13.03],[-123.76,-13.49],[-122.85,-13.94],[-121.94,-14.39],[-121.02,-14.84],[-120.1,-15.28],[-119.18,-15.72],[-119.48,-16.36],[-119.78,-17],[-120.08,-17.63],[-119.21,-18.02],[-118.33,-18.4],[-117.46,-18.78],[-116.57,-19.16],[-115.69,-19.53],[-114.8,-19.89],[-113.9,-20.26],[-113.01,-20.61],[-112.1,-20.97],[-111.2,-21.31],[-110.29,-21.66],[-110.66,-22.56],[-111.03,-23.47],[-110.09,-23.81],[-109.15,-24.14],[-108.21,-24.46],[-107.25,-24.78],[-106.3,-25.09],[-105.34,-25.4],[-104.37,-25.7],[-103.4,-26],[-102.43,-26.28],[-101.45,-26.56],[-100.46,-26.84],[-100.75,-27.62],[-101.04,-28.39],[-100.03,-28.7],[-99.01,-29],[-97.99,-29.29],[-96.96,-29.57],[-95.93,-29.85],[-94.89,-30.11],[-93.84,-30.37],[-92.79,-30.62],[-91.74,-30.87],[-90.68,-31.1],[-89.61,-31.32],[-88.54,-31.54],[-87.46,-31.75],[-86.38,-31.94],[-85.3,-32.13],[-84.21,-32.31],[-84.16,-32.98],[-84.11,-33.65],[-84.06,-34.33],[-82.87,-34.48],[-81.68,-34.62],[-80.49,-34.75],[-79.29,-34.86],[-78.09,-34.97],[-76.88,-35.06],[-75.68,-35.14],[-74.47,-35.21],[-73.26,-35.27],[-72.05,-35.32],[-70.83,-35.35],[-69.62,-35.37],[-68.4,-35.38],[-67.19,-35.38],[-65.97,-35.36],[-64.76,-35.34],[-63.55,-35.3],[-62.34,-35.24],[-61.13,-35.18],[-59.92,-35.11],[-59.03,-35.2],[-59.03,-35.2],[-58.98,-35.29],[-58.96,-35.82],[-58.94,-36.35],[-58.88,-37.1],[-58.97,-37.65],[-58.97,-38.01],[-58.99,-38.3],[-58.99,-38.3],[-59.05,-38.9],[-59.24,-39.37],[-59.61,-40.18],[-59.86,-40.62],[-60.03,-41.32],[-60.22,-41.88],[-60.3,-42.19],[-60.44,-42.57],[-60.57,-43],[-60.84,-43.85],[-61.12,-44.69],[-61.44,-45.44],[-61.76,-46.19],[-62.1,-46.93],[-62.44,-47.68],[-63.09,-48.39],[-63.76,-49.09],[-64.45,-49.79],[-65.16,-50.49],[-65.89,-51.18],[-66.21,-52],[-66.54,-52.81],[-66.83,-53.53],[-67.13,-54.25],[-67.91,-55],[-68.72,-55.73],[-68.93,-55.98],[-68.99,-56.1],[-69.19,-56.42],[-69.19,-56.42],[-69.78,-56.94],[-70.18,-57.18],[-70.47,-57.51],[-70.7,-57.78],[-71.09,-58.2],[-71.36,-58.46],[-71.86,-58.93],[-72.23,-59.27],[-72.61,-59.63],[-73.01,-60.02],[-73.63,-60.61],[-73.89,-60.84],[-74.25,-61.17],[-74.58,-61.46],[-74.88,-61.73],[-75.22,-62.06],[-75.5,-62.34],[-75.74,-62.58],[-75.8,-62.65],[-75.97,-62.87],[-76.18,-63.13],[-76.45,-63.56],[-76.9,-63.84],[-77.44,-64.11],[-78.17,-64.43],[-78.99,-64.79],[-79.5,-65.02],[-79.94,-65.23],[-80.32,-65.39],[-80.9,-65.68],[-81.46,-66.07],[-81.76,-66.41],[-82.01,-66.72],[-82.23,-66.95],[-82.41,-67.25],[-82.63,-67.58],[-82.81,-67.96],[-82.97,-68.36],[-83.24,-68.66],[-83.43,-68.81],[-83.78,-69.12],[-84.21,-69.46],[-84.61,-69.8],[-84.95,-70.16],[-85,-70.22],[-85.09,-70.63],[-85.03,-70.73],[-85.03,-70.73],[-87.3,-71.28],[-89.7,-71.81],[-92.59,-72.1],[-95.57,-72.34],[-98.62,-72.54],[-101.73,-72.69],[-104.89,-72.79],[-107.65,-72.88],[-110.44,-72.93],[-113.24,-72.95],[-116.03,-72.92],[-118.61,-73.04],[-121.21,-73.13],[-123.84,-73.19],[-126.48,-73.21],[-129.29,-73.22],[-132.09,-73.19],[-134.88,-73.12],[-137.65,-73.02],[-140.36,-72.88],[-143.02,-72.7],[-145.63,-72.49],[-148.18,-72.25],[-150.92,-71.94],[-153.57,-71.6],[-156.12,-71.21],[-158.57,-70.8],[-160.91,-70.35],[-163.57,-69.97],[-166.13,-69.55],[-168.58,-69.1],[-170.93,-68.61],[-173.18,-68.09],[-175.46,-68.06],[-177.74,-67.99],[-180,-67.9],[-180,-66.91]]]]}},{"type":"Feature","properties":{"ma":235,"type":"gpml:TopologicalClosedPlateBoundary","name":"Sukhothai island arc","pid":60301,"deforming":false},"geometry":{"type":"Polygon","coordinates":[[[72.47,19.77],[73.28,19.19],[74.16,18.75],[75.03,18.3],[75.9,17.85],[76.77,17.39],[77.63,16.93],[78.49,16.47],[79.34,16.01],[80.19,15.54],[81.09,15.25],[81.99,14.96],[82.86,14.81],[83.73,14.65],[84.6,14.49],[85.09,14.08],[85.57,13.68],[86.17,13.12],[86.76,12.57],[87.35,12.01],[88,11.71],[88.65,11.4],[89.29,11.1],[89.99,10.66],[90.51,10.19],[91.04,9.72],[91.56,9.25],[91.56,9.25],[90.78,8.84],[90.01,8.43],[89.24,8.02],[88.47,7.61],[87.71,7.19],[86.94,6.78],[86.94,6.78],[86.52,6.86],[85.78,7.23],[85.05,7.6],[84.31,7.97],[83.57,8.33],[82.83,8.69],[82.14,9.08],[81.45,9.47],[80.76,9.86],[80.07,10.24],[79.41,10.76],[78.75,11.28],[78.08,11.8],[77.47,12.33],[76.86,12.86],[76.24,13.39],[75.62,13.92],[74.87,14.47],[74.12,15.01],[73.36,15.56],[72.6,16.1],[71.83,16.63],[71.06,17.17],[70.29,17.7],[69.51,18.23],[69.51,18.23],[70.22,18.93],[70.93,19.64],[71.66,20.34],[72.47,19.77]]]}},{"type":"Feature","properties":{"ma":235,"type":"gpml:TopologicalClosedPlateBoundary","name":"South China plate","pid":602,"deforming":false},"geometry":{"type":"Polygon","coordinates":[[[70.8,19.81],[71.32,20.62],[71.85,21.42],[72.38,22.23],[72.92,23.03],[73.47,23.84],[74.02,24.64],[74.58,25.43],[75.08,26.28],[75.58,27.12],[76.09,27.96],[76.61,28.79],[77.14,29.63],[77.68,30.46],[78.22,31.29],[78.78,32.12],[79.34,32.94],[79.61,33.86],[79.87,34.78],[80.15,35.69],[80.43,36.6],[80.71,37.52],[81.01,38.43],[81.31,39.34],[81.62,40.25],[81.94,41.16],[82.26,42.07],[82.6,42.98],[82.95,43.89],[83.3,44.8],[83.67,45.7],[84.05,46.61],[84.44,47.51],[85.03,48.13],[85.62,48.75],[85.62,48.75],[86.92,48.44],[88.2,48.11],[89.54,47.8],[90.85,47.47],[92.16,47.36],[93.45,47.24],[94.81,47.32],[96.17,47.38],[97.47,47.5],[98.77,47.61],[99.56,47.53],[100.35,47.44],[101.58,47.01],[102.38,46.91],[103.18,46.81],[104.29,46.28],[105.38,45.74],[106.24,45.21],[107.09,44.67],[107.92,44.13],[108.74,43.58],[109.69,43.08],[110.59,42.89],[111.57,43.44],[111.98,43.35],[112.74,43.15],[113.49,42.94],[114.79,42.81],[115.61,42.88],[116.44,42.95],[116.44,42.95],[115.48,42.46],[114.54,41.95],[113.46,41.73],[112.39,41.51],[111.33,41.27],[110.28,41.02],[109.23,40.76],[108.55,40.01],[107.89,39.26],[107.23,38.5],[106.59,37.74],[105.97,36.98],[105.78,36.45],[105.78,36.45],[105.47,35.62],[105.18,34.78],[104.89,33.95],[104.6,33.11],[104.32,32.28],[104.2,31.47],[104.08,30.67],[103.96,29.87],[103.84,29.07],[104.19,28.16],[104.53,27.24],[104.86,26.32],[105.19,25.41],[105.52,24.49],[105.84,23.57],[106.15,22.65],[106.47,21.73],[106.97,21.01],[107.48,20.28],[107.98,19.55],[108.47,18.82],[108.23,18.02],[107.99,17.21],[107.75,16.41],[107.51,15.6],[107.28,14.79],[107.28,14.79],[107.18,14.74],[106.31,14.24],[105.46,13.74],[104.6,13.23],[103.75,12.72],[102.9,12.21],[102.03,11.96],[101.17,11.71],[100.31,11.45],[99.44,11.19],[98.58,10.93],[97.73,10.72],[96.88,10.52],[96.03,10.31],[95.18,10.1],[94.33,9.89],[93.34,9.83],[92.36,9.78],[92.36,9.78],[91.78,9.37],[91.56,9.25],[91.56,9.25],[91.04,9.72],[90.51,10.19],[89.99,10.66],[89.29,11.1],[88.65,11.4],[88,11.71],[87.35,12.01],[86.76,12.57],[86.17,13.12],[85.57,13.68],[85.09,14.08],[84.6,14.49],[83.73,14.65],[82.86,14.81],[81.99,14.96],[81.09,15.25],[80.19,15.54],[79.34,16.01],[78.49,16.47],[77.63,16.93],[76.77,17.39],[75.9,17.85],[75.03,18.3],[74.16,18.75],[73.28,19.19],[72.47,19.77],[71.66,20.34],[71.66,20.34],[70.97,19.67],[70.28,19],[70.8,19.81]]]}},{"type":"Feature","properties":{"ma":235,"type":"gpml:TopologicalClosedPlateBoundary","name":"Farallon Plate","pid":902,"deforming":false},"geometry":{"type":"Polygon","coordinates":[[[-137.87,-5.84],[-138.69,-5.33],[-139.5,-4.83],[-139.68,-4.06],[-139.86,-3.29],[-140.04,-2.53],[-140.22,-1.76],[-140.43,-0.85],[-140.64,0.07],[-140.86,0.98],[-141.07,1.9],[-141.28,2.81],[-141.49,3.73],[-141.7,4.64],[-141.92,5.55],[-142.13,6.47],[-142.35,7.38],[-141.37,7.57],[-140.39,7.75],[-139.41,7.94],[-139.57,8.91],[-139.73,9.89],[-139.89,10.87],[-140.06,11.85],[-140.23,12.83],[-140.39,13.8],[-140.56,14.78],[-140.73,15.76],[-140.9,16.74],[-141.08,17.71],[-141.25,18.69],[-141.43,19.67],[-141.61,20.64],[-141.79,21.62],[-141.98,22.6],[-141.04,22.75],[-140.1,22.89],[-139.15,23.03],[-139.34,24.01],[-139.53,24.99],[-139.73,25.97],[-139.93,26.95],[-140.13,27.93],[-140.34,28.91],[-140.55,29.89],[-140.76,30.87],[-140.98,31.84],[-141.2,32.82],[-141.43,33.8],[-141.66,34.78],[-141.9,35.75],[-142.14,36.73],[-142.4,37.7],[-142.65,38.68],[-142.92,39.65],[-143.19,40.62],[-143.47,41.6],[-143.76,42.57],[-142.44,42.79],[-141.11,43],[-139.77,43.19],[-140.02,44.16],[-140.27,45.13],[-140.54,46.09],[-140.81,47.06],[-141.1,48.02],[-141.39,48.99],[-141.7,49.95],[-142.02,50.91],[-142.36,51.87],[-142.7,52.83],[-143.07,53.79],[-143.45,54.75],[-143.85,55.71],[-144.27,56.66],[-144.71,57.62],[-143.31,57.86],[-141.9,58.1],[-140.47,58.31],[-140.96,59.23],[-141.49,60.15],[-142.04,61.06],[-142.63,61.98],[-143.26,62.89],[-143.92,63.79],[-144.63,64.7],[-145.39,65.6],[-146.2,66.49],[-147.07,67.38],[-148.01,68.27],[-149.02,69.15],[-150.12,70.02],[-151.32,70.89],[-152.62,71.75],[-154.05,72.6],[-155.62,73.44],[-155.62,73.44],[-152.91,73.93],[-150.04,74.38],[-147.01,74.8],[-143.83,75.17],[-143.83,75.17],[-140.52,75.58],[-137.04,75.94],[-133.4,76.24],[-129.73,76.68],[-125.84,77.07],[-121.74,77.39],[-117.44,77.65],[-112.99,77.83],[-108.43,77.95],[-103.81,77.99],[-99.2,77.95],[-94.63,77.84],[-90.18,77.65],[-85.88,77.4],[-81.77,77.07],[-77.99,76.87],[-74.34,76.62],[-70.84,76.31],[-67.49,75.96],[-64.32,75.57],[-61.32,75.13],[-61.32,75.13],[-62.56,74.43],[-63.7,73.72],[-64.74,73.01],[-65.71,72.29],[-65.97,71.61],[-66.21,70.92],[-66.43,70.24],[-65.93,69.36],[-65.47,68.49],[-65.05,67.61],[-64.65,66.73],[-64.28,65.85],[-63.94,64.97],[-63.62,64.08],[-62.88,63.39],[-62.17,62.7],[-61.5,62.01],[-60.85,61.31],[-60.73,61.17],[-60.73,61.17],[-62.62,61.23],[-64.51,61.26],[-66.4,61.26],[-68.29,61.24],[-70.18,61.19],[-72.06,61.12],[-73.93,61.02],[-75.78,60.89],[-77.62,60.74],[-79.45,60.57],[-81.25,60.37],[-82.97,60.09],[-84.66,59.8],[-86.32,59.48],[-87.96,59.15],[-87.96,59.15],[-89.67,58.87],[-91.35,58.57],[-93,58.25],[-94.63,57.91],[-96.22,57.55],[-97.78,57.17],[-99.31,56.77],[-100.8,56.35],[-101.91,55.77],[-102.99,55.19],[-104.04,54.6],[-105.06,54],[-106.04,53.39],[-107,52.77],[-107.8,51.96],[-108.57,51.14],[-109.32,50.32],[-110.03,49.5],[-110.73,48.67],[-111.4,47.84],[-112.05,47],[-112.16,46.05],[-112.27,45.11],[-112.38,44.16],[-111.98,43.37],[-111.6,42.57],[-111.22,41.77],[-110.85,40.98],[-110.29,40.27],[-109.73,39.57],[-109.19,38.87],[-108.65,38.16],[-108.13,37.45],[-107.27,36.73],[-106.42,36],[-105.59,35.27],[-104.77,34.53],[-103.97,33.79],[-103.14,33.1],[-102.32,32.41],[-101.52,31.72],[-100.73,31.01],[-99.95,30.31],[-99.19,29.6],[-98.43,28.88],[-97.68,28.16],[-97.31,27.87],[-97.31,27.87],[-96.72,28.64],[-96.11,29.42],[-95.5,30.19],[-94.88,30.96],[-94.25,31.72],[-93.61,32.49],[-92.78,33.11],[-91.93,33.73],[-91.07,34.34],[-90.2,34.95],[-89.31,35.55],[-88.42,36.14],[-87.51,36.72],[-86.45,37.1],[-85.37,37.48],[-84.29,37.84],[-83.2,38.19],[-82.1,38.53],[-80.99,38.86],[-79.86,39.18],[-78.73,39.49],[-77.59,39.78],[-76.45,40.09],[-75.3,40.38],[-74.15,40.66],[-72.98,40.93],[-71.81,41.18],[-70.62,41.43],[-69.43,41.66],[-68.14,41.92],[-66.84,42.17],[-65.53,42.4],[-64.21,42.62],[-62.88,42.82],[-61.55,43.01],[-60.36,43.12],[-59.17,43.22],[-57.97,43.3],[-56.77,43.38],[-55.57,43.44],[-54.36,43.48],[-53.03,43.46],[-51.7,43.42],[-50.37,43.36],[-49.04,43.29],[-47.71,43.21],[-46.39,43.11],[-46.39,43.11],[-45.96,42.43],[-45.54,41.75],[-45.12,41.07],[-45.12,41.07],[-45.09,40.29],[-45.07,39.52],[-45.04,38.74],[-45.24,37.98],[-45.44,37.23],[-45.64,36.48],[-45.83,35.72],[-45.96,34.84],[-46.1,33.96],[-46.22,33.08],[-46.35,32.2],[-46.47,31.32],[-46.59,30.44],[-46.7,29.58],[-46.81,28.71],[-46.91,27.85],[-47.01,26.99],[-47.11,26.12],[-47.21,25.26],[-46.93,24.43],[-46.65,23.6],[-46.37,22.76],[-46.1,21.93],[-46.24,21.43],[-46.37,20.93],[-47.1,20.48],[-47.83,20.03],[-48.6,20.09],[-49.36,20.14],[-49.36,20.14],[-49.7,19.64],[-50.04,19.15],[-50.62,18.46],[-51.2,17.77],[-51.78,17.08],[-52.35,16.39],[-52.77,15.6],[-53.18,14.82],[-53.59,14.03],[-53.65,13.11],[-53.71,12.2],[-53.78,11.29],[-53.84,10.38],[-53.66,9.49],[-53.48,8.61],[-53.3,7.73],[-53.12,6.84],[-52.93,6.03],[-52.74,5.21],[-52.56,4.4],[-52.37,3.58],[-52.37,3.58],[-52.49,3.48],[-52.77,2.6],[-53.05,1.72],[-53.33,0.84],[-53.61,-0.04],[-53.89,-0.92],[-53.89,-0.92],[-54.22,-1.25],[-54.78,-1.68],[-55.34,-2.12],[-55.75,-2.46],[-56.16,-2.8],[-56.47,-3.5],[-56.77,-4.21],[-57.08,-4.92],[-57.32,-5.7],[-57.56,-6.49],[-57.79,-7.27],[-57.99,-8.02],[-58.18,-8.76],[-58.37,-9.51],[-58.5,-10.25],[-58.63,-10.99],[-58.26,-11.64],[-57.9,-12.29],[-57.72,-12.99],[-57.54,-13.68],[-57.36,-14.37],[-57.12,-15.02],[-56.87,-15.67],[-56.62,-16.16],[-56.62,-16.16],[-56.65,-16.19],[-56.86,-16.48],[-57.12,-16.81],[-57.23,-17.04],[-57.34,-17.22],[-57.52,-17.55],[-57.67,-17.8],[-57.79,-18.03],[-57.92,-18.29],[-58.34,-19.05],[-58.77,-19.82],[-59.2,-20.58],[-59.64,-21.34],[-60.08,-22.1],[-60.11,-22.97],[-60.14,-23.84],[-60.17,-24.7],[-60.17,-25.57],[-60.17,-26.43],[-60.18,-27.29],[-60.18,-28.15],[-60.18,-29.01],[-60.18,-29.87],[-60.06,-30.7],[-59.93,-31.53],[-59.8,-32.36],[-59.7,-33.06],[-59.6,-33.76],[-59.49,-34.46],[-59.03,-35.2],[-59.03,-35.2],[-59.92,-35.11],[-61.13,-35.18],[-62.34,-35.24],[-63.55,-35.3],[-64.76,-35.34],[-65.97,-35.36],[-67.19,-35.38],[-68.4,-35.38],[-69.62,-35.37],[-70.83,-35.35],[-72.05,-35.32],[-73.26,-35.27],[-74.47,-35.21],[-75.68,-35.14],[-76.88,-35.06],[-78.09,-34.97],[-79.29,-34.86],[-80.49,-34.75],[-81.68,-34.62],[-82.87,-34.48],[-84.06,-34.33],[-84.11,-33.65],[-84.16,-32.98],[-84.21,-32.31],[-85.3,-32.13],[-86.38,-31.94],[-87.46,-31.75],[-88.54,-31.54],[-89.61,-31.32],[-90.68,-31.1],[-91.74,-30.87],[-92.79,-30.62],[-93.84,-30.37],[-94.89,-30.11],[-95.93,-29.85],[-96.96,-29.57],[-97.99,-29.29],[-99.01,-29],[-100.03,-28.7],[-101.04,-28.39],[-100.75,-27.62],[-100.46,-26.84],[-101.45,-26.56],[-102.43,-26.28],[-103.4,-26],[-104.37,-25.7],[-105.34,-25.4],[-106.3,-25.09],[-107.25,-24.78],[-108.21,-24.46],[-109.15,-24.14],[-110.09,-23.81],[-111.03,-23.47],[-110.66,-22.56],[-110.29,-21.66],[-111.2,-21.31],[-112.1,-20.97],[-113.01,-20.61],[-113.9,-20.26],[-114.8,-19.89],[-115.69,-19.53],[-116.57,-19.16],[-117.46,-18.78],[-118.33,-18.4],[-119.21,-18.02],[-120.08,-17.63],[-119.78,-17],[-119.48,-16.36],[-119.18,-15.72],[-120.1,-15.28],[-121.02,-14.84],[-121.94,-14.39],[-122.85,-13.94],[-123.76,-13.49],[-124.67,-13.03],[-125.57,-12.57],[-126.47,-12.1],[-127.37,-11.63],[-128.26,-11.17],[-129.15,-10.69],[-130.04,-10.22],[-130.93,-9.74],[-131.81,-9.26],[-132.69,-8.78],[-133.57,-8.3],[-134.44,-7.81],[-135.32,-7.32],[-136.19,-6.83],[-137.06,-6.34],[-137.87,-5.84]]]}},{"type":"Feature","properties":{"ma":235,"type":"gpml:TopologicalClosedPlateBoundary","name":"Mongol-Okhotsk Ocean Plate","pid":380,"deforming":false},"geometry":{"type":"Polygon","coordinates":[[[-180,67.42],[-180,68.41],[-180,69.39],[-180,70.37],[-180,71.35],[-180,72.33],[-180,73.31],[-180,74.3],[-180,75.28],[-180,76.26],[-180,77.24],[-180,78.22],[-180,79.2],[-180,80.18],[-180,81.17],[-180,82.15],[-180,83.13],[-180,84.11],[-180,85.09],[-180,86.07],[-180,87.06],[-180,88.04],[-180,89.02],[-180,90],[180,90],[180,89.02],[180,88.04],[180,87.06],[180,86.07],[180,85.09],[180,84.11],[180,83.13],[180,82.15],[180,81.17],[180,80.18],[180,79.2],[180,78.22],[180,77.24],[180,76.26],[180,75.28],[180,74.3],[180,73.31],[180,72.33],[180,71.35],[180,70.37],[180,69.39],[180,68.41],[180,67.42],[180,66.44],[178.16,65.85],[176.4,65.23],[174.72,64.59],[173.12,63.94],[171.59,63.27],[170.14,62.58],[168.75,61.88],[167.42,61.16],[166.15,60.44],[164.94,59.7],[163.78,58.95],[162.46,58.27],[161.18,57.58],[159.95,56.88],[158.77,56.16],[157.63,55.44],[156.53,54.7],[155.47,53.95],[154.45,53.2],[153.46,52.44],[152.51,51.67],[151.59,50.89],[150.7,50.1],[149.84,49.31],[149.01,48.51],[147.83,47.91],[146.67,47.3],[145.54,46.68],[144.44,46.05],[143.37,45.41],[142.31,44.76],[141.29,44.09],[140.28,43.42],[139.3,42.74],[138.34,42.06],[137.41,42],[136.49,41.93],[135.57,41.85],[134.59,41.71],[133.6,41.55],[132.63,41.39],[131.65,41.22],[130.69,40.95],[129.73,40.67],[129.73,40.67],[128.74,40.91],[127.75,41.14],[126.75,41.37],[125.75,41.58],[124.82,41.67],[123.8,41.33],[122.71,41.51],[121.61,41.67],[120.68,41.84],[119.74,42],[119.05,42.22],[118.35,42.43],[117.56,42.71],[116.76,42.98],[116.76,42.98],[115.78,42.9],[114.79,42.81],[113.49,42.94],[112.74,43.15],[111.98,43.35],[111.57,43.44],[110.59,42.89],[109.69,43.08],[108.74,43.58],[107.92,44.13],[107.09,44.67],[106.24,45.21],[105.38,45.74],[104.29,46.28],[103.18,46.81],[102.38,46.91],[101.58,47.01],[100.35,47.44],[99.56,47.53],[98.77,47.61],[97.47,47.5],[96.17,47.38],[94.81,47.32],[93.45,47.24],[92.16,47.36],[90.85,47.47],[89.54,47.8],[88.2,48.11],[87.05,48.41],[85.88,48.69],[84.7,48.96],[83.47,49.27],[82.23,49.56],[80.97,49.84],[79.69,50.1],[78.46,50.19],[77.22,50.26],[75.98,50.32],[75.14,50.27],[74.3,50.21],[74.3,50.21],[73.92,49.47],[73.55,48.73],[73.19,47.99],[71.97,47.52],[70.76,47.04],[69.58,46.54],[68.41,46.03],[67.27,45.51],[66.28,45.08],[65.31,44.64],[64.34,44.2],[63.4,43.74],[63.4,43.74],[63.84,44.35],[64.29,44.96],[64.74,45.57],[65.36,46.3],[66,47.03],[66.66,47.75],[67.33,48.47],[68.02,49.18],[68.73,49.89],[69.3,50.63],[69.88,51.37],[70.48,52.1],[71.1,52.83],[71.74,53.56],[72.76,54.21],[73.81,54.85],[74.9,55.48],[76.02,56.1],[77.18,56.71],[78.38,57.31],[79.61,57.9],[80.89,58.48],[81.66,59.35],[82.46,60.22],[83.32,61.09],[84.22,61.95],[85.17,62.8],[86.18,63.65],[87.25,64.49],[88.38,65.32],[89.59,66.14],[90.89,66.95],[90.89,66.95],[88.77,67.27],[86.6,67.55],[84.38,67.81],[82.11,68.03],[79.8,68.23],[77.45,68.39],[75.29,68.94],[73.02,69.45],[70.65,69.94],[68.16,70.39],[65.57,70.81],[62.87,71.19],[60.07,71.53],[57.17,71.83],[54.56,71.84],[51.95,71.83],[49.35,71.78],[46.76,71.69],[44.21,71.57],[44.21,71.57],[42.54,72.25],[40.75,72.92],[38.82,73.57],[36.73,74.2],[35.34,74.78],[33.84,75.34],[32.22,75.9],[29.72,76.59],[26.95,77.26],[23.9,77.89],[20.52,78.48],[16.8,79.03],[12.71,79.53],[8.23,79.98],[3.38,80.36],[-1.7,80.66],[-7.06,80.88],[-12.63,81.02],[-18.33,81.08],[-24.04,81.04],[-29.66,80.92],[-35.08,80.72],[-40.07,80.19],[-44.53,79.6],[-48.49,78.95],[-52,78.25],[-55.11,77.52],[-57.88,76.75],[-59.69,75.95],[-61.32,75.13],[-61.32,75.13],[-64.32,75.57],[-67.49,75.96],[-70.84,76.31],[-74.34,76.62],[-77.99,76.87],[-81.77,77.07],[-85.88,77.4],[-90.18,77.65],[-94.63,77.84],[-99.2,77.95],[-103.81,77.99],[-108.43,77.95],[-112.99,77.83],[-117.44,77.65],[-121.74,77.39],[-125.84,77.07],[-129.73,76.68],[-133.4,76.24],[-137.04,75.94],[-140.52,75.58],[-143.83,75.17],[-143.83,75.17],[-147.06,74.79],[-150.12,74.37],[-153.03,73.91],[-155.77,73.41],[-158.34,72.87],[-160.77,72.31],[-163.04,71.72],[-165.17,71.1],[-167.17,70.46],[-169.05,69.8],[-170.81,69.12],[-172.46,68.42],[-174.47,67.96],[-176.39,67.47],[-178.23,66.97],[-180,66.44],[-180,67.42]]]}},{"type":"Feature","properties":{"ma":235,"type":"gpml:TopologicalClosedPlateBoundary","name":"Laurasia Plate","pid":101,"deforming":false},"geometry":{"type":"Polygon","coordinates":[[[51.13,31.21],[50.47,30.91],[49.82,30.61],[49.63,29.81],[49.45,29],[49.13,28.3],[48.82,27.59],[48.51,26.89],[47.65,26.34],[46.79,25.79],[45.95,25.23],[45.05,25.16],[44.16,25.08],[43.26,25],[42.34,24.8],[42.34,24.8],[41.88,25.02],[41.88,25.02],[41.2,24.26],[40.52,23.51],[39.85,22.74],[39.19,21.98],[38.53,21.21],[37.78,20.67],[37.02,20.11],[36.28,19.56],[35.53,19],[34.81,18.5],[34.09,17.99],[33.38,17.48],[32.67,16.97],[31.97,16.46],[31.06,16.16],[30.16,15.86],[29.27,15.55],[28.37,15.24],[27.48,14.92],[26.59,14.6],[25.7,14.28],[24.92,14.12],[24.13,13.95],[23.35,13.78],[22.57,13.61],[22.57,13.61],[22.06,12.9],[21.55,12.19],[21.05,11.47],[20.55,10.76],[20.28,9.94],[20.02,9.11],[19.75,8.29],[19.49,7.47],[19.23,6.64],[18.97,5.82],[18.71,5],[17.88,4.43],[17.05,3.87],[16.22,3.31],[15.39,2.75],[14.57,2.19],[13.74,1.62],[13.95,0.85],[14.16,0.08],[14.37,-0.69],[13.64,-1.03],[12.91,-1.37],[12.18,-1.72],[11.45,-2.06],[10.71,-2.4],[9.9,-2.72],[9.09,-3.03],[8.28,-3.35],[7.47,-3.66],[6.66,-3.97],[5.8,-3.56],[4.95,-3.14],[4.09,-2.72],[3.2,-2.31],[2.3,-1.9],[1.41,-1.49],[0.55,-1.21],[-0.31,-0.93],[-1.16,-0.64],[-2.02,-0.36],[-2.86,-0.03],[-3.7,0.3],[-4.54,0.63],[-5.11,1.11],[-5.69,1.59],[-6.27,2.07],[-6.27,2.07],[-6.65,2.07],[-7.16,2.05],[-7.65,2.01],[-8.12,1.94],[-8.68,1.85],[-9.33,1.88],[-9.81,1.95],[-10.13,1.9],[-10.74,1.74],[-11.27,1.58],[-11.84,1.29],[-12.49,0.86],[-12.98,0.54],[-13.73,0.37],[-14.23,0.2],[-15,0.03],[-15.75,-0.06],[-16.21,-0.1],[-16.71,-0.38],[-17.09,-0.25],[-17.33,-0.35],[-17.51,-0.92],[-17.85,-1.24],[-18.31,-1.38],[-18.62,-1.66],[-18.92,-1.93],[-19.1,-1.93],[-19.34,-1.97],[-19.79,-2.12],[-20.08,-2.12],[-20.37,-2.05],[-20.61,-2.03],[-20.74,-2.14],[-21.14,-2.3],[-21.31,-2.74],[-21.57,-3.19],[-22.03,-3.67],[-22.51,-4.14],[-22.85,-4.45],[-23.6,-4.99],[-24.22,-5.31],[-24.39,-5.93],[-24.59,-6.69],[-25.05,-7.14],[-25.6,-7.56],[-26.24,-7.7],[-26.87,-7.83],[-27.39,-7.98],[-27.7,-8.06],[-28.04,-8.15],[-28.16,-8.35],[-28.54,-8.64],[-28.92,-8.95],[-29.33,-9.33],[-29.62,-9.62],[-29.82,-9.74],[-29.82,-9.74],[-29.83,-9.73],[-30.56,-9.08],[-31.07,-8.6],[-31.58,-8.12],[-32.3,-7.67],[-33.03,-7.22],[-33.67,-6.68],[-34.34,-6.31],[-34.83,-6.02],[-35.33,-5.73],[-35.81,-5.48],[-36.29,-5.24],[-36.75,-4.96],[-37.21,-4.69],[-38.01,-4.11],[-38.72,-3.91],[-39.43,-3.71],[-39.94,-3.53],[-40.44,-3.36],[-41.44,-3.35],[-41.96,-3.3],[-42.48,-3.24],[-43.17,-3.62],[-43.87,-4],[-44.57,-4.38],[-45.31,-5.01],[-46.06,-5.64],[-46.81,-6.27],[-47.1,-6.96],[-47.51,-7.31],[-47.91,-7.67],[-48.59,-8.37],[-49.22,-8.73],[-49.93,-9.2],[-50.63,-9.67],[-51.44,-9.8],[-52.24,-9.92],[-53.21,-10.07],[-54.19,-10.23],[-54.97,-10.37],[-55.75,-10.52],[-56.72,-10.66],[-57.69,-10.79],[-58.6,-10.83],[-58.6,-10.83],[-58.49,-10.17],[-58.37,-9.51],[-58.18,-8.76],[-57.99,-8.02],[-57.79,-7.27],[-57.56,-6.49],[-57.32,-5.7],[-57.08,-4.92],[-56.77,-4.21],[-56.47,-3.5],[-56.16,-2.8],[-55.75,-2.46],[-55.34,-2.12],[-54.78,-1.68],[-54.22,-1.25],[-53.89,-0.92],[-53.89,-0.92],[-53.61,-0.04],[-53.33,0.84],[-53.05,1.72],[-52.77,2.6],[-52.49,3.48],[-52.37,3.58],[-52.37,3.58],[-52.56,4.4],[-52.74,5.21],[-52.93,6.03],[-53.12,6.84],[-53.3,7.73],[-53.48,8.61],[-53.66,9.49],[-53.84,10.38],[-53.78,11.29],[-53.71,12.2],[-53.65,13.11],[-53.59,14.03],[-53.18,14.82],[-52.77,15.6],[-52.35,16.39],[-51.78,17.08],[-51.2,17.77],[-50.62,18.46],[-50.04,19.15],[-49.65,19.72],[-49.65,19.72],[-48.84,19.48],[-48.03,19.25],[-47.23,19],[-46.34,19.07],[-45.46,19.13],[-44.87,19.67],[-44.27,20.22],[-43.86,20.84],[-43.45,21.46],[-43.03,22.08],[-42.83,22.82],[-42.62,23.55],[-42.62,23.55],[-42.57,24.22],[-42.47,24.97],[-42.37,25.73],[-42.26,26.64],[-42.25,26.71],[-42.25,26.71],[-42.18,27.47],[-42.11,28.23],[-41.91,29.13],[-41.71,30.04],[-41.51,30.94],[-41.3,31.84],[-41.28,32.82],[-41.25,33.8],[-41.23,34.77],[-41.2,35.75],[-41.18,36.38],[-41.16,37],[-41.16,37],[-41.19,37.03],[-41.92,37.8],[-42.66,38.57],[-43.42,39.33],[-44.19,40.09],[-44.98,40.84],[-45.43,41.58],[-45.89,42.32],[-46.35,43.05],[-46.83,43.78],[-47.32,44.51],[-47.87,45.33],[-48.44,46.14],[-49.02,46.95],[-49.62,47.76],[-50.24,48.56],[-50.88,49.37],[-51.31,50.17],[-51.75,50.98],[-52.21,51.78],[-52.21,51.78],[-52.83,52.6],[-53.47,53.42],[-54.14,54.24],[-54.83,55.05],[-55.56,55.86],[-56.34,56.65],[-57.15,57.43],[-58,58.2],[-58.89,58.97],[-59.51,59.75],[-60.17,60.53],[-60.85,61.31],[-61.5,62.01],[-62.17,62.7],[-62.88,63.39],[-63.62,64.08],[-63.94,64.97],[-64.28,65.85],[-64.65,66.73],[-65.05,67.61],[-65.47,68.49],[-65.93,69.36],[-66.43,70.24],[-66.21,70.92],[-65.97,71.61],[-65.71,72.29],[-64.47,73.2],[-63.09,74.11],[-61.56,75],[-59.83,75.88],[-57.88,76.75],[-55.11,77.52],[-52,78.25],[-48.49,78.95],[-44.53,79.6],[-40.07,80.19],[-35.08,80.72],[-29.66,80.92],[-24.04,81.04],[-18.33,81.08],[-12.63,81.02],[-7.06,80.88],[-1.7,80.66],[3.38,80.36],[8.23,79.98],[12.71,79.53],[16.8,79.03],[20.52,78.48],[23.9,77.89],[26.95,77.26],[29.72,76.59],[32.22,75.9],[33.84,75.34],[35.34,74.78],[36.73,74.2],[36.73,74.2],[38.82,73.57],[40.75,72.92],[42.54,72.25],[44.21,71.57],[44.21,71.57],[46.76,71.69],[49.35,71.78],[51.95,71.83],[54.56,71.84],[57.17,71.83],[60.07,71.53],[62.87,71.19],[65.57,70.81],[68.16,70.39],[70.65,69.94],[73.02,69.45],[75.29,68.94],[77.45,68.39],[79.8,68.23],[82.11,68.03],[84.38,67.81],[86.6,67.55],[88.77,67.27],[90.89,66.95],[90.89,66.95],[89.59,66.14],[88.38,65.32],[87.25,64.49],[86.18,63.65],[85.17,62.8],[84.22,61.95],[83.32,61.09],[82.46,60.22],[81.66,59.35],[80.89,58.48],[79.61,57.9],[78.38,57.31],[77.18,56.71],[76.02,56.1],[74.9,55.48],[73.81,54.85],[72.76,54.21],[71.74,53.56],[71.1,52.83],[70.48,52.1],[69.88,51.37],[69.3,50.63],[68.73,49.89],[68.02,49.18],[67.33,48.47],[66.66,47.75],[66,47.03],[65.36,46.3],[64.74,45.57],[64.15,44.78],[63.57,43.99],[63.01,43.19],[62.46,42.39],[61.93,41.59],[61.41,40.78],[60.9,39.98],[60.4,39.17],[59.92,38.36],[59.19,37.67],[58.47,36.98],[57.77,36.28],[57.08,35.58],[56.4,34.88],[55.74,34.17],[55.08,33.46],[54.43,32.75],[53.8,32.03],[53.29,31.29],[52.8,30.54],[51.97,30.87],[51.13,31.21]]]}},{"type":"Feature","properties":{"ma":235,"type":"gpml:TopologicalClosedPlateBoundary","name":"Cimmerian-Neotethys Plate","pid":505,"deforming":false},"geometry":{"type":"Polygon","coordinates":[[[42.34,24.8],[43.26,25],[44.16,25.08],[45.05,25.16],[45.95,25.23],[46.79,25.79],[47.65,26.34],[48.51,26.89],[48.82,27.59],[49.13,28.3],[49.45,29],[49.63,29.81],[49.82,30.61],[50.47,30.91],[51.13,31.21],[51.97,30.87],[52.8,30.54],[52.8,30.54],[53.29,31.29],[53.8,32.03],[54.43,32.75],[55.08,33.46],[55.74,34.17],[56.4,34.88],[57.08,35.58],[57.77,36.28],[58.47,36.98],[59.19,37.67],[59.92,38.36],[60.46,39.26],[61.02,40.16],[61.59,41.06],[62.17,41.96],[62.78,42.85],[63.4,43.74],[63.4,43.74],[64.34,44.2],[65.31,44.64],[66.28,45.08],[67.27,45.51],[68.41,46.03],[69.58,46.54],[70.76,47.04],[71.97,47.52],[73.19,47.99],[73.55,48.73],[73.92,49.47],[74.3,50.21],[74.3,50.21],[75.14,50.27],[75.98,50.32],[77.22,50.26],[78.46,50.19],[79.69,50.1],[80.97,49.84],[82.23,49.56],[83.47,49.27],[84.7,48.96],[85.62,48.75],[85.62,48.75],[85.03,48.13],[84.44,47.51],[84.05,46.61],[83.67,45.7],[83.3,44.8],[82.95,43.89],[82.6,42.98],[82.26,42.07],[81.94,41.16],[81.62,40.25],[81.31,39.34],[81.01,38.43],[80.71,37.52],[80.43,36.6],[80.15,35.69],[79.87,34.78],[79.61,33.86],[79.34,32.94],[78.78,32.12],[78.22,31.29],[77.68,30.46],[77.14,29.63],[76.61,28.79],[76.09,27.96],[75.58,27.12],[75.08,26.28],[74.58,25.43],[74.02,24.64],[73.47,23.84],[72.92,23.03],[72.38,22.23],[71.85,21.42],[71.32,20.62],[70.8,19.81],[70.28,19],[70.28,19],[69.9,18.61],[69.51,18.23],[69.51,18.23],[70.29,17.7],[71.06,17.17],[71.83,16.63],[72.6,16.1],[73.36,15.56],[74.12,15.01],[74.87,14.47],[75.62,13.92],[76.24,13.39],[76.86,12.86],[77.47,12.33],[78.08,11.8],[78.75,11.28],[79.41,10.76],[80.07,10.24],[80.76,9.86],[81.45,9.47],[82.14,9.08],[82.83,8.69],[83.57,8.33],[84.31,7.97],[85.05,7.6],[85.78,7.23],[86.52,6.86],[86.94,6.78],[86.94,6.78],[87.74,7.21],[88.55,7.65],[89.35,8.08],[90.16,8.51],[90.97,8.94],[91.78,9.37],[92.36,9.78],[92.36,9.78],[93.34,9.83],[94.33,9.89],[95.18,10.1],[96.03,10.31],[96.88,10.52],[97.73,10.72],[98.58,10.93],[99.44,11.19],[100.31,11.45],[101.17,11.71],[102.03,11.96],[102.9,12.21],[103.75,12.72],[104.6,13.23],[105.46,13.74],[106.31,14.24],[107.18,14.74],[108.07,15.19],[108.98,15.63],[109.88,16.06],[110.79,16.49],[111.71,16.92],[112.62,17.35],[112.62,17.35],[112.6,17.17],[113.15,16.49],[113.7,15.8],[114.24,15.12],[114.78,14.43],[115.31,13.74],[115.84,13.05],[116.36,12.48],[116.88,11.91],[117.4,11.34],[118.24,11],[119.08,10.65],[119.91,10.3],[120.35,9.68],[120.79,9.06],[121.22,8.43],[121.84,7.72],[122.46,7],[122.84,6.14],[123.23,5.27],[123.69,4.4],[123.69,4.4],[124.1,3.62],[124.5,2.85],[124.52,1.85],[124.55,0.85],[124.57,-0.14],[124.59,-1.14],[124.02,-1.75],[123.45,-2.37],[122.87,-2.98],[122.3,-3.59],[121.73,-4.2],[121.14,-4.82],[120.56,-5.44],[119.97,-6.06],[119.38,-6.68],[118.74,-7.22],[118.09,-7.75],[117.45,-8.29],[116.81,-8.82],[116.33,-9.54],[115.85,-10.26],[115.85,-10.26],[115.32,-10.19],[114.79,-10.12],[114.79,-10.12],[114.82,-10.95],[114.86,-11.78],[114.86,-11.78],[114.69,-12.53],[114.51,-13.27],[114.33,-14.01],[114.15,-14.76],[113.21,-14.75],[112.27,-14.75],[112.18,-15.57],[112.09,-16.39],[112.01,-17.2],[111.13,-17.14],[110.26,-17.06],[109.39,-16.99],[109.16,-17.9],[108.92,-18.81],[108.69,-19.73],[108.45,-20.64],[108.2,-21.55],[107.39,-21.45],[106.58,-21.34],[105.77,-21.22],[104.97,-21.11],[104.7,-21.96],[104.42,-22.82],[104.14,-23.68],[103.86,-24.53],[103.58,-25.39],[103.29,-26.24],[102.28,-26.17],[101.27,-26.1],[100.26,-26.01],[99.25,-25.92],[98.24,-25.82],[97.92,-26.59],[97.6,-27.36],[97.27,-28.13],[96.94,-28.89],[95.96,-28.58],[94.97,-28.26],[94,-27.93],[93.03,-27.6],[92.58,-28.52],[92.13,-29.43],[91.67,-30.34],[91.19,-31.25],[90.71,-32.16],[90.22,-33.07],[89.72,-33.97],[89.72,-33.97],[88.55,-33.91],[87.37,-33.83],[86.2,-33.74],[85.03,-33.64],[83.86,-33.53],[82.69,-33.44],[81.52,-33.33],[80.36,-33.21],[79.2,-33.08],[78.04,-32.94],[76.88,-32.79],[75.73,-32.62],[75.86,-32.12],[75.98,-31.61],[74.93,-31.26],[73.88,-30.91],[72.84,-30.54],[71.8,-30.17],[70.78,-29.78],[69.76,-29.39],[68.75,-28.99],[67.75,-28.59],[66.75,-28.17],[65.76,-27.75],[64.78,-27.33],[63.81,-26.89],[62.85,-26.45],[61.89,-26.01],[60.94,-25.55],[60.94,-25.55],[61.33,-24.75],[61.71,-23.95],[62.09,-23.15],[62.46,-22.34],[61.5,-21.93],[60.55,-21.52],[59.6,-21.09],[58.66,-20.67],[57.72,-20.24],[56.79,-19.8],[55.86,-19.36],[54.94,-18.91],[54.02,-18.46],[53.11,-18.01],[52.2,-17.55],[51.3,-17.08],[50.4,-16.62],[50.77,-15.76],[49.96,-15.29],[49.16,-14.82],[48.36,-14.35],[47.56,-13.87],[46.77,-13.39],[45.97,-12.91],[45.19,-12.42],[45.61,-11.69],[44.81,-11.09],[44.02,-10.49],[43.22,-9.88],[42.43,-9.28],[41.64,-8.67],[40.86,-8.06],[40.08,-7.45],[39.3,-6.84],[38.52,-6.23],[37.74,-5.61],[36.97,-5],[36.97,-5],[37.48,-4.29],[38,-3.58],[38.51,-2.87],[39.02,-2.16],[39.54,-1.45],[40.05,-0.75],[40.56,-0.04],[39.71,0.44],[38.87,0.92],[38.02,1.4],[37.17,1.88],[36.33,2.36],[35.57,2.83],[34.82,3.3],[34.06,3.77],[33.31,4.24],[32.55,4.71],[32.15,4.11],[31.76,3.52],[31.01,3.9],[30.25,4.28],[29.5,4.67],[29.19,4.18],[28.88,3.7],[28.02,4.22],[27.17,4.73],[26.31,5.24],[25.46,5.75],[24.6,6.26],[23.74,6.77],[22.87,7.28],[22.01,7.78],[21.34,8.2],[20.66,8.61],[19.99,9.02],[19.99,9.02],[20.27,9.89],[20.55,10.76],[21.05,11.47],[21.55,12.19],[22.06,12.9],[22.57,13.61],[22.57,13.61],[23.35,13.78],[24.13,13.95],[24.92,14.12],[25.7,14.28],[26.59,14.6],[27.48,14.92],[28.37,15.24],[29.27,15.55],[30.16,15.86],[31.06,16.16],[31.97,16.46],[32.67,16.97],[33.38,17.48],[34.09,17.99],[34.81,18.5],[35.53,19],[36.28,19.56],[37.02,20.11],[37.78,20.67],[38.53,21.21],[39.19,21.98],[39.85,22.74],[40.52,23.51],[41.2,24.26],[41.88,25.02],[41.88,25.02],[42.34,24.8]]]}},{"type":"Feature","properties":{"ma":235,"type":"gpml:TopologicalClosedPlateBoundary","name":"Gondwana Plate","pid":701,"deforming":false},"geometry":{"type":"Polygon","coordinates":[[[180,-68.86],[180,-69.82],[180,-70.78],[180,-71.74],[180,-72.7],[180,-73.66],[180,-74.62],[180,-75.58],[180,-76.55],[180,-77.51],[180,-78.47],[180,-79.43],[180,-80.39],[180,-81.35],[180,-82.31],[180,-83.27],[180,-84.23],[180,-85.19],[180,-86.16],[180,-87.12],[180,-88.08],[180,-89.04],[180,-90],[-180,-90],[-180,-89.04],[-180,-88.08],[-180,-87.12],[-180,-86.16],[-180,-85.19],[-180,-84.23],[-180,-83.27],[-180,-82.31],[-180,-81.35],[-180,-80.39],[-180,-79.43],[-180,-78.47],[-180,-77.51],[-180,-76.55],[-180,-75.58],[-180,-74.62],[-180,-73.66],[-180,-72.7],[-180,-71.74],[-180,-70.78],[-180,-69.82],[-180,-68.86],[-180,-67.9],[-177.74,-67.99],[-175.46,-68.06],[-173.18,-68.09],[-170.93,-68.61],[-168.58,-69.1],[-166.13,-69.55],[-163.57,-69.97],[-160.91,-70.35],[-158.57,-70.8],[-156.12,-71.21],[-153.57,-71.6],[-150.92,-71.94],[-148.18,-72.25],[-145.63,-72.49],[-143.02,-72.7],[-140.36,-72.88],[-137.65,-73.02],[-134.88,-73.12],[-132.09,-73.19],[-129.29,-73.22],[-126.48,-73.21],[-123.84,-73.19],[-121.21,-73.13],[-118.61,-73.04],[-116.03,-72.92],[-113.24,-72.95],[-110.44,-72.93],[-107.65,-72.88],[-104.89,-72.79],[-101.73,-72.69],[-98.62,-72.54],[-95.57,-72.34],[-92.59,-72.1],[-89.7,-71.81],[-87.3,-71.28],[-85.03,-70.73],[-85.09,-70.63],[-85,-70.22],[-84.95,-70.16],[-84.61,-69.8],[-84.21,-69.46],[-83.78,-69.12],[-83.43,-68.81],[-83.24,-68.66],[-82.97,-68.36],[-82.81,-67.96],[-82.63,-67.58],[-82.41,-67.25],[-82.23,-66.95],[-82.01,-66.72],[-81.76,-66.41],[-81.46,-66.07],[-80.9,-65.68],[-80.32,-65.39],[-79.94,-65.23],[-79.5,-65.02],[-78.99,-64.79],[-78.17,-64.43],[-77.44,-64.11],[-76.9,-63.84],[-76.45,-63.56],[-76.18,-63.13],[-75.97,-62.87],[-75.8,-62.65],[-75.74,-62.58],[-75.5,-62.34],[-75.22,-62.06],[-74.88,-61.73],[-74.58,-61.46],[-74.25,-61.17],[-73.89,-60.84],[-73.63,-60.61],[-73.01,-60.02],[-72.61,-59.63],[-72.23,-59.27],[-71.86,-58.93],[-71.36,-58.46],[-71.09,-58.2],[-70.7,-57.78],[-70.47,-57.51],[-70.18,-57.18],[-69.78,-56.94],[-69.19,-56.42],[-69.19,-56.42],[-68.99,-56.1],[-68.99,-56.1],[-68.93,-55.98],[-68.72,-55.73],[-67.91,-55],[-67.13,-54.25],[-66.83,-53.53],[-66.54,-52.81],[-66.21,-52],[-65.89,-51.18],[-65.16,-50.49],[-64.45,-49.79],[-63.76,-49.09],[-63.09,-48.39],[-62.44,-47.68],[-62.1,-46.93],[-61.76,-46.19],[-61.44,-45.44],[-61.12,-44.69],[-60.84,-43.85],[-60.57,-43],[-60.44,-42.57],[-60.3,-42.19],[-60.22,-41.88],[-60.03,-41.32],[-59.86,-40.62],[-59.61,-40.18],[-59.24,-39.37],[-59.05,-38.9],[-58.99,-38.3],[-58.99,-38.3],[-58.97,-38.01],[-58.97,-37.65],[-58.88,-37.1],[-58.94,-36.35],[-58.96,-35.82],[-58.98,-35.29],[-59.49,-34.46],[-59.6,-33.76],[-59.7,-33.06],[-59.8,-32.36],[-59.93,-31.53],[-60.06,-30.7],[-60.18,-29.87],[-60.18,-29.01],[-60.18,-28.15],[-60.18,-27.29],[-60.17,-26.43],[-60.17,-25.57],[-60.17,-24.7],[-60.14,-23.84],[-60.11,-22.97],[-60.08,-22.1],[-59.64,-21.34],[-59.2,-20.58],[-58.77,-19.82],[-58.34,-19.05],[-57.92,-18.29],[-57.79,-18.03],[-57.67,-17.8],[-57.52,-17.55],[-57.34,-17.22],[-57.23,-17.04],[-57.12,-16.81],[-56.86,-16.48],[-56.65,-16.19],[-56.62,-16.16],[-56.62,-16.16],[-56.18,-17.02],[-56.18,-17.02],[-55.88,-17.06],[-55.3,-17.02],[-54.71,-16.97],[-54.12,-17.12],[-53.52,-17.28],[-53.01,-17.53],[-52.5,-17.78],[-51.83,-18.18],[-51.17,-18.58],[-50.29,-18.87],[-49.41,-19.16],[-48.55,-19.04],[-47.69,-18.93],[-46.9,-18.61],[-46.11,-18.28],[-45.42,-17.96],[-44.73,-17.65],[-44.07,-17.46],[-43.41,-17.27],[-42.82,-17.22],[-42.23,-17.16],[-41.69,-17.07],[-41.15,-16.97],[-40.52,-16.91],[-39.89,-16.84],[-39.24,-16.39],[-38.58,-15.93],[-37.8,-15.82],[-37.03,-15.71],[-36.34,-15.84],[-35.65,-15.98],[-34.96,-16.11],[-34.16,-16.22],[-33.36,-16.33],[-32.45,-16.65],[-31.92,-16.71],[-31.39,-16.78],[-30.79,-16.8],[-30.2,-16.83],[-29.57,-16.64],[-28.94,-16.45],[-28.11,-16.27],[-27.28,-16.09],[-26.46,-15.9],[-26.06,-15.4],[-25.67,-14.9],[-25.67,-14.9],[-25.55,-14.93],[-25.06,-15.22],[-24.84,-15.28],[-24.84,-15.28],[-25.12,-14.71],[-25.11,-14.12],[-24.88,-13.24],[-24.66,-12.46],[-24.38,-12.1],[-23.99,-11.8],[-23.36,-11.54],[-22.93,-11.55],[-22.48,-11.58],[-22.26,-11.23],[-22.11,-10.98],[-21.91,-10.7],[-21.6,-10.49],[-21.38,-10.13],[-21.14,-9.71],[-21.07,-8.92],[-20.99,-8.48],[-20.86,-8.06],[-20.59,-7.82],[-20.38,-7.62],[-19.99,-7.07],[-19.64,-6.54],[-19.41,-5.92],[-19.15,-5.49],[-18.89,-5.05],[-18.54,-4.61],[-18.19,-4.17],[-17.72,-3.96],[-17.24,-3.75],[-17.11,-3.66],[-16.23,-3.81],[-15.28,-3.85],[-14.77,-3.87],[-14.61,-3.96],[-14.06,-4.05],[-13.33,-3.73],[-12.56,-3.33],[-12.12,-3],[-11.23,-2.7],[-10.7,-2.42],[-9.98,-2.26],[-9.16,-2.13],[-8.51,-1.86],[-8.07,-1.79],[-7.46,-1.95],[-7.02,-2.21],[-6.52,-2.38],[-6.19,-2.54],[-5.85,-2.71],[-5.26,-2.8],[-4.72,-2.96],[-4.11,-2.72],[-3.56,-2.5],[-3.1,-2.31],[-2.6,-2.12],[-1.99,-1.87],[-1.31,-1.59],[-0.72,-1.36],[-0.11,-1.11],[0.06,-1.05],[0.06,-1.05],[0.73,-1.27],[1.41,-1.49],[2.3,-1.9],[3.2,-2.31],[4.09,-2.72],[4.95,-3.14],[5.8,-3.56],[6.66,-3.97],[7.47,-3.66],[8.28,-3.35],[9.09,-3.03],[9.9,-2.72],[10.71,-2.4],[11.45,-2.06],[12.18,-1.72],[12.91,-1.37],[13.64,-1.03],[14.37,-0.69],[14.16,0.08],[13.95,0.85],[13.74,1.62],[14.57,2.19],[15.39,2.75],[16.22,3.31],[17.05,3.87],[17.88,4.43],[18.71,5],[18.96,5.8],[19.22,6.61],[19.47,7.41],[19.73,8.22],[19.99,9.02],[19.99,9.02],[20.66,8.61],[21.34,8.2],[22.01,7.78],[22.87,7.28],[23.74,6.77],[24.6,6.26],[25.46,5.75],[26.31,5.24],[27.17,4.73],[28.02,4.22],[28.88,3.7],[29.19,4.18],[29.5,4.67],[30.25,4.28],[31.01,3.9],[31.76,3.52],[32.15,4.11],[32.55,4.71],[33.31,4.24],[34.06,3.77],[34.82,3.3],[35.57,2.83],[36.33,2.36],[37.17,1.88],[38.02,1.4],[38.87,0.92],[39.71,0.44],[40.56,-0.04],[40.05,-0.75],[39.54,-1.45],[39.02,-2.16],[38.51,-2.87],[38,-3.58],[37.48,-4.29],[36.97,-5],[36.97,-5],[37.74,-5.61],[38.52,-6.23],[39.3,-6.84],[40.08,-7.45],[40.86,-8.06],[41.64,-8.67],[42.43,-9.28],[43.22,-9.88],[44.02,-10.49],[44.81,-11.09],[45.61,-11.69],[45.19,-12.42],[45.97,-12.91],[46.77,-13.39],[47.56,-13.87],[48.36,-14.35],[49.16,-14.82],[49.96,-15.29],[50.77,-15.76],[50.4,-16.62],[51.3,-17.08],[52.2,-17.55],[53.11,-18.01],[54.02,-18.46],[54.94,-18.91],[55.86,-19.36],[56.79,-19.8],[57.72,-20.24],[58.66,-20.67],[59.6,-21.09],[60.55,-21.52],[61.5,-21.93],[62.46,-22.34],[62.09,-23.15],[61.71,-23.95],[61.33,-24.75],[60.94,-25.55],[60.94,-25.55],[61.89,-26.01],[62.85,-26.45],[63.81,-26.89],[64.78,-27.33],[65.76,-27.75],[66.75,-28.17],[67.75,-28.59],[68.75,-28.99],[69.76,-29.39],[70.78,-29.78],[71.8,-30.17],[72.84,-30.54],[73.88,-30.91],[74.93,-31.26],[75.98,-31.61],[75.86,-32.12],[75.73,-32.62],[76.88,-32.79],[78.04,-32.94],[79.2,-33.08],[80.36,-33.21],[81.52,-33.33],[82.69,-33.44],[83.86,-33.53],[85.03,-33.64],[86.2,-33.74],[87.37,-33.83],[88.55,-33.91],[89.72,-33.97],[89.72,-33.97],[90.22,-33.07],[90.71,-32.16],[91.19,-31.25],[91.67,-30.34],[92.13,-29.43],[92.58,-28.52],[93.03,-27.6],[94,-27.93],[94.97,-28.26],[95.96,-28.58],[96.94,-28.89],[97.27,-28.13],[97.6,-27.36],[97.92,-26.59],[98.24,-25.82],[99.25,-25.92],[100.26,-26.01],[101.27,-26.1],[102.28,-26.17],[103.29,-26.24],[103.58,-25.39],[103.86,-24.53],[104.14,-23.68],[104.42,-22.82],[104.7,-21.96],[104.97,-21.11],[105.77,-21.22],[106.58,-21.34],[107.39,-21.45],[108.2,-21.55],[108.45,-20.64],[108.69,-19.73],[108.92,-18.81],[109.16,-17.9],[109.39,-16.99],[110.26,-17.06],[111.13,-17.14],[112.01,-17.2],[112.09,-16.39],[112.18,-15.57],[112.27,-14.75],[113.21,-14.75],[114.15,-14.76],[114.33,-14.01],[114.51,-13.27],[114.69,-12.53],[114.86,-11.78],[114.86,-11.78],[114.88,-12.1],[114.88,-12.96],[114.88,-13.82],[114.89,-14.68],[114.89,-15.53],[114.9,-16.39],[114.9,-17.25],[114.9,-18.11],[114.9,-18.11],[115.93,-18.13],[116.95,-18.15],[117.97,-18.17],[118.99,-18.18],[120.01,-18.18],[121.04,-18.18],[122.06,-18.17],[123.08,-18.16],[124.1,-18.14],[124.16,-18.99],[124.22,-19.84],[124.28,-20.69],[124.35,-21.54],[124.41,-22.39],[124.47,-23.24],[125.46,-23.21],[126.45,-23.17],[127.43,-23.13],[128.42,-23.09],[129.41,-23.03],[130.39,-22.97],[131.37,-22.91],[131.51,-23.81],[131.64,-24.72],[132.6,-24.63],[133.56,-24.53],[134.52,-24.42],[135.47,-24.31],[136.43,-24.19],[137.38,-24.07],[137.38,-24.07],[137.4,-24.89],[137.41,-25.71],[137.43,-26.53],[137.45,-27.35],[137.47,-28.18],[138.1,-28.93],[138.74,-29.67],[139.39,-30.42],[140.05,-31.16],[140.49,-31.79],[140.94,-32.43],[141.36,-32.89],[141.78,-33.35],[142.36,-33.61],[142.94,-33.87],[143.97,-34.27],[145,-34.66],[145.92,-35.24],[146.86,-35.8],[147.82,-36.36],[148.78,-36.92],[148.78,-36.92],[148.9,-37.65],[149.03,-38.39],[149.15,-39.13],[149.33,-39.93],[149.51,-40.73],[149.69,-41.53],[149.88,-42.32],[150.07,-43.12],[150.19,-44],[150.31,-44.87],[150.44,-45.74],[150.57,-46.61],[150.7,-47.48],[151.23,-48.39],[151.78,-49.29],[152.34,-50.19],[152.93,-51.09],[153.54,-51.98],[154.01,-52.76],[154.49,-53.53],[154.99,-54.31],[155.51,-55.08],[155.57,-55.66],[155.63,-56.25],[155.38,-56.81],[155.11,-57.37],[154.4,-58.29],[153.66,-59.2],[152.82,-60.11],[151.94,-61.01],[151.68,-61.52],[152.67,-62.35],[153.01,-63.18],[153.38,-64],[153.77,-64.82],[153.77,-64.82],[155.58,-65.12],[157.42,-65.4],[159.3,-65.65],[161.22,-65.88],[163.16,-66.08],[165.4,-66.45],[167.7,-66.78],[170.07,-67.08],[172.48,-67.34],[174.95,-67.56],[177.46,-67.75],[180,-67.9],[180,-68.86]]]}},{"type":"Feature","properties":{"ma":235,"type":"gpml:TopologicalClosedPlateBoundary","name":"Alexander Plate","pid":16111,"deforming":false},"geometry":{"type":"Polygon","coordinates":[[[-60.09,60.44],[-59.48,59.7],[-58.89,58.97],[-58,58.2],[-57.15,57.43],[-56.34,56.65],[-55.56,55.86],[-54.83,55.05],[-54.14,54.24],[-53.47,53.42],[-52.83,52.6],[-52.21,51.78],[-52.21,51.78],[-51.75,50.98],[-51.31,50.17],[-50.88,49.37],[-50.24,48.56],[-49.62,47.76],[-49.02,46.95],[-48.44,46.14],[-47.87,45.33],[-47.32,44.51],[-46.85,43.81],[-46.39,43.11],[-46.39,43.11],[-47.71,43.21],[-49.04,43.29],[-50.37,43.36],[-51.7,43.42],[-53.03,43.46],[-54.36,43.48],[-55.57,43.44],[-56.77,43.38],[-57.97,43.3],[-59.17,43.22],[-60.36,43.12],[-61.55,43.01],[-62.88,42.82],[-64.21,42.62],[-65.53,42.4],[-66.84,42.17],[-68.14,41.92],[-69.43,41.66],[-70.62,41.43],[-71.81,41.18],[-72.98,40.93],[-74.15,40.66],[-75.3,40.38],[-76.45,40.09],[-77.59,39.78],[-78.73,39.49],[-79.86,39.18],[-80.99,38.86],[-82.1,38.53],[-83.2,38.19],[-84.29,37.84],[-85.37,37.48],[-86.45,37.1],[-87.51,36.72],[-88.42,36.14],[-89.31,35.55],[-90.2,34.95],[-91.07,34.34],[-91.93,33.73],[-92.78,33.11],[-93.61,32.49],[-94.25,31.72],[-94.88,30.96],[-95.5,30.19],[-96.11,29.42],[-96.72,28.64],[-97.31,27.87],[-97.31,27.87],[-97.68,28.16],[-98.43,28.88],[-99.19,29.6],[-99.95,30.31],[-100.73,31.01],[-101.52,31.72],[-102.32,32.41],[-103.14,33.1],[-103.97,33.79],[-104.77,34.53],[-105.59,35.27],[-106.42,36],[-107.27,36.73],[-108.13,37.45],[-108.65,38.16],[-109.19,38.87],[-109.73,39.57],[-110.29,40.27],[-110.85,40.98],[-111.22,41.77],[-111.6,42.57],[-111.98,43.37],[-112.38,44.16],[-112.27,45.11],[-112.16,46.05],[-112.05,47],[-111.4,47.84],[-110.73,48.67],[-110.03,49.5],[-109.32,50.32],[-108.57,51.14],[-107.8,51.96],[-107,52.77],[-106.04,53.39],[-105.06,54],[-104.04,54.6],[-102.99,55.19],[-101.91,55.77],[-100.8,56.35],[-99.31,56.77],[-97.78,57.17],[-96.22,57.55],[-94.63,57.91],[-93,58.25],[-91.35,58.57],[-89.67,58.87],[-87.96,59.15],[-87.96,59.15],[-86.32,59.48],[-84.66,59.8],[-82.97,60.09],[-81.25,60.37],[-79.45,60.57],[-77.62,60.74],[-75.78,60.89],[-73.93,61.02],[-72.06,61.12],[-70.18,61.19],[-68.29,61.24],[-66.4,61.26],[-64.51,61.26],[-62.62,61.23],[-60.73,61.17],[-60.09,60.44]]]}},{"type":"Feature","properties":{"ma":235,"type":"gpml:TopologicalClosedPlateBoundary","name":"Yukon-Tanana Plate","pid":16104,"deforming":false},"geometry":{"type":"Polygon","coordinates":[[[-44.98,40.84],[-44.19,40.09],[-43.42,39.33],[-42.66,38.57],[-41.92,37.8],[-41.19,37.03],[-41.16,37],[-41.16,37],[-41.18,36.38],[-41.2,35.75],[-41.23,34.77],[-41.25,33.8],[-41.28,32.82],[-41.3,31.84],[-41.51,30.94],[-41.71,30.04],[-41.91,29.13],[-42.11,28.23],[-42.18,27.47],[-42.25,26.71],[-42.25,26.71],[-42.26,26.64],[-42.37,25.73],[-42.47,24.97],[-42.57,24.22],[-42.62,23.55],[-42.62,23.55],[-42.83,22.82],[-43.03,22.08],[-43.45,21.46],[-43.86,20.84],[-44.27,20.22],[-44.87,19.67],[-45.46,19.13],[-46.34,19.07],[-47.23,19],[-48.03,19.25],[-48.84,19.48],[-49.65,19.72],[-49.65,19.72],[-49.36,20.14],[-49.36,20.14],[-48.6,20.09],[-47.83,20.03],[-47.1,20.48],[-46.37,20.93],[-46.24,21.43],[-46.1,21.93],[-46.37,22.76],[-46.65,23.6],[-46.93,24.43],[-47.21,25.26],[-47.11,26.12],[-47.01,26.99],[-46.91,27.85],[-46.81,28.71],[-46.7,29.58],[-46.59,30.44],[-46.47,31.32],[-46.35,32.2],[-46.22,33.08],[-46.1,33.96],[-45.96,34.84],[-45.83,35.72],[-45.64,36.48],[-45.44,37.23],[-45.24,37.98],[-45.04,38.74],[-45.07,39.52],[-45.09,40.29],[-45.12,41.07],[-44.98,40.84]]]}},{"type":"Feature","properties":{"ma":235,"type":"gpml:TopologicalNetwork","name":"Central_Atlantic_Mesh","pid":101,"deforming":true},"geometry":{"type":"Polygon","coordinates":[[[-0.11,-1.11],[-0.72,-1.36],[-1.31,-1.59],[-1.99,-1.87],[-2.6,-2.12],[-3.1,-2.31],[-3.56,-2.5],[-4.11,-2.72],[-4.72,-2.96],[-5.26,-2.8],[-5.85,-2.71],[-6.19,-2.54],[-6.52,-2.38],[-7.02,-2.21],[-7.46,-1.95],[-8.07,-1.79],[-8.51,-1.86],[-9.16,-2.13],[-9.98,-2.26],[-10.7,-2.42],[-11.23,-2.7],[-12.12,-3],[-12.56,-3.33],[-13.33,-3.73],[-14.06,-4.05],[-14.61,-3.96],[-14.77,-3.87],[-15.28,-3.85],[-16.23,-3.81],[-17.11,-3.66],[-17.24,-3.75],[-17.72,-3.96],[-18.19,-4.17],[-18.54,-4.61],[-18.89,-5.05],[-19.15,-5.49],[-19.41,-5.92],[-19.64,-6.54],[-19.99,-7.07],[-20.38,-7.62],[-20.59,-7.82],[-20.86,-8.06],[-20.99,-8.48],[-21.07,-8.92],[-21.14,-9.71],[-21.38,-10.13],[-21.6,-10.49],[-21.91,-10.7],[-22.11,-10.98],[-22.26,-11.23],[-22.48,-11.58],[-22.93,-11.55],[-23.36,-11.54],[-23.99,-11.8],[-24.38,-12.1],[-24.66,-12.46],[-24.88,-13.24],[-25.11,-14.12],[-25.12,-14.71],[-24.84,-15.28],[-24.84,-15.28],[-25.06,-15.22],[-25.55,-14.93],[-25.67,-14.9],[-25.67,-14.9],[-26.06,-15.4],[-26.46,-15.9],[-26.52,-15.92],[-26.52,-15.92],[-26.53,-15.83],[-26.59,-15.55],[-26.53,-15.3],[-26.54,-15.05],[-26.68,-14.76],[-26.69,-14.6],[-26.65,-14.5],[-26.7,-14.31],[-26.8,-14.2],[-26.92,-14.09],[-27,-13.94],[-27.21,-13.68],[-27.46,-13.36],[-27.6,-13.13],[-27.56,-12.88],[-27.46,-12.52],[-27.46,-12.34],[-27.67,-12.23],[-27.79,-11.96],[-27.9,-11.82],[-28.03,-11.8],[-28.18,-11.45],[-28.3,-11.11],[-28.46,-10.78],[-28.52,-10.41],[-28.67,-10.04],[-28.81,-9.68],[-28.87,-9.47],[-28.91,-9.22],[-28.96,-8.99],[-28.96,-8.99],[-28.92,-8.95],[-28.54,-8.64],[-28.16,-8.35],[-28.04,-8.15],[-27.7,-8.06],[-27.39,-7.98],[-26.87,-7.83],[-26.24,-7.7],[-25.6,-7.56],[-25.05,-7.14],[-24.59,-6.69],[-24.39,-5.93],[-24.22,-5.31],[-23.6,-4.99],[-22.85,-4.45],[-22.51,-4.14],[-22.03,-3.67],[-21.57,-3.19],[-21.31,-2.74],[-21.14,-2.3],[-20.74,-2.14],[-20.61,-2.03],[-20.37,-2.05],[-20.08,-2.12],[-19.79,-2.12],[-19.34,-1.97],[-19.1,-1.93],[-18.92,-1.93],[-18.62,-1.66],[-18.31,-1.38],[-17.85,-1.24],[-17.51,-0.92],[-17.33,-0.35],[-17.09,-0.25],[-16.71,-0.38],[-16.21,-0.1],[-15.75,-0.06],[-15,0.03],[-14.23,0.2],[-13.73,0.37],[-12.98,0.54],[-12.49,0.86],[-11.84,1.29],[-11.27,1.58],[-10.74,1.74],[-10.13,1.9],[-9.81,1.95],[-9.33,1.88],[-8.68,1.85],[-8.12,1.94],[-7.65,2.01],[-7.16,2.05],[-6.65,2.07],[-6.27,2.07],[-6.27,2.07],[-5.69,1.59],[-5.11,1.11],[-4.54,0.63],[-3.7,0.3],[-2.86,-0.03],[-2.02,-0.36],[-1.33,-0.59],[-0.63,-0.82],[0.06,-1.05],[-0.11,-1.11]]]}},{"type":"Feature","properties":{"ma":235,"type":"gpml:TopologicalNetwork","name":"Proto_Caribbean_Mesh","pid":101,"deforming":true},"geometry":{"type":"Polygon","coordinates":[[[-29.62,-9.62],[-29.33,-9.33],[-28.96,-8.99],[-28.96,-8.99],[-28.91,-9.22],[-28.87,-9.47],[-28.81,-9.68],[-28.67,-10.04],[-28.52,-10.41],[-28.46,-10.78],[-28.3,-11.11],[-28.18,-11.45],[-28.03,-11.8],[-27.9,-11.82],[-27.79,-11.96],[-27.67,-12.23],[-27.46,-12.34],[-27.46,-12.52],[-27.56,-12.88],[-27.6,-13.13],[-27.46,-13.36],[-27.21,-13.68],[-27,-13.94],[-26.92,-14.09],[-26.8,-14.2],[-26.7,-14.31],[-26.65,-14.5],[-26.69,-14.6],[-26.68,-14.76],[-26.54,-15.05],[-26.53,-15.3],[-26.59,-15.55],[-26.53,-15.83],[-26.52,-15.92],[-26.52,-15.92],[-27.32,-16.1],[-28.13,-16.27],[-28.94,-16.45],[-29.57,-16.64],[-30.2,-16.83],[-30.79,-16.8],[-31.39,-16.78],[-31.92,-16.71],[-32.45,-16.65],[-33.36,-16.33],[-34.16,-16.22],[-34.96,-16.11],[-35.65,-15.98],[-36.34,-15.84],[-37.03,-15.71],[-37.8,-15.82],[-38.58,-15.93],[-39.24,-16.39],[-39.89,-16.84],[-40.52,-16.91],[-41.15,-16.97],[-41.69,-17.07],[-42.23,-17.16],[-42.82,-17.22],[-43.41,-17.27],[-44.07,-17.46],[-44.73,-17.65],[-45.42,-17.96],[-46.11,-18.28],[-46.9,-18.61],[-47.69,-18.93],[-48.55,-19.04],[-49.41,-19.16],[-50.29,-18.87],[-51.17,-18.58],[-51.83,-18.18],[-52.5,-17.78],[-53.01,-17.53],[-53.52,-17.28],[-54.12,-17.12],[-54.71,-16.97],[-55.3,-17.02],[-55.88,-17.06],[-56.18,-17.02],[-56.18,-17.02],[-56.52,-16.35],[-56.87,-15.67],[-57.12,-15.02],[-57.36,-14.37],[-57.54,-13.68],[-57.72,-12.99],[-57.9,-12.29],[-58.26,-11.64],[-58.63,-10.99],[-58.6,-10.83],[-58.6,-10.83],[-57.69,-10.79],[-56.72,-10.66],[-55.75,-10.52],[-54.97,-10.37],[-54.19,-10.23],[-53.21,-10.07],[-52.24,-9.92],[-51.44,-9.8],[-50.63,-9.67],[-49.93,-9.2],[-49.22,-8.73],[-48.59,-8.37],[-47.91,-7.67],[-47.51,-7.31],[-47.1,-6.96],[-46.81,-6.27],[-46.06,-5.64],[-45.31,-5.01],[-44.57,-4.38],[-43.87,-4],[-43.17,-3.62],[-42.48,-3.24],[-41.96,-3.3],[-41.44,-3.35],[-40.44,-3.36],[-39.94,-3.53],[-39.43,-3.71],[-38.72,-3.91],[-38.01,-4.11],[-37.21,-4.69],[-36.75,-4.96],[-36.29,-5.24],[-35.81,-5.48],[-35.33,-5.73],[-34.83,-6.02],[-34.34,-6.31],[-33.67,-6.68],[-33.03,-7.22],[-32.3,-7.67],[-31.58,-8.12],[-31.07,-8.6],[-30.56,-9.08],[-29.83,-9.73],[-29.82,-9.74],[-29.62,-9.62]]]}}]}