{"type":"FeatureCollection","features":[{"type":"Feature","properties":{"ma":225,"type":"gpml:TopologicalClosedPlateBoundary","name":"Eurasia","pid":301,"deforming":false},"geometry":{"type":"Polygon","coordinates":[[[-18.35,61.95],[-19.08,62.75],[-19.84,63.55],[-20.65,64.35],[-22.23,63.91],[-23.77,63.45],[-25.25,62.98],[-27.23,62.58],[-29.16,62.16],[-30.87,62.02],[-32.56,61.85],[-34.24,61.66],[-35.48,61.34],[-36.69,61.01],[-37.88,60.67],[-39.44,60.34],[-40.97,60],[-42.47,59.64],[-43.73,59.45],[-44.97,59.24],[-46.2,59.02],[-47.96,58.74],[-49.7,58.44],[-50.92,58.14],[-52.13,57.83],[-53.31,57.51],[-54.64,57.04],[-55.92,56.56],[-55.92,56.56],[-56.9,57.32],[-57.48,57.97],[-58.08,58.63],[-58.71,59.28],[-59.32,60.18],[-59.96,61.07],[-60.32,61.81],[-60.7,62.54],[-61.11,63.28],[-61.27,64.11],[-61.45,64.93],[-61.64,65.76],[-61.84,66.58],[-61.84,66.58],[-60.95,67.08],[-60.02,67.58],[-58.8,68.29],[-57.51,68.99],[-56.12,69.67],[-55.08,70.24],[-53.98,70.8],[-53.35,71.49],[-52.67,72.19],[-52.11,72.88],[-51.49,73.56],[-50.52,74.12],[-49.48,74.68],[-48.18,75.29],[-46.78,75.9],[-45.25,76.5],[-43.1,77.19],[-40.7,77.85],[-37.66,78.5],[-34.26,79.12],[-32.48,79.65],[-30.51,80.18],[-30.51,80.18],[-26.84,80.5],[-21.42,80.64],[-15.89,80.69],[-10.36,80.66],[-4.9,80.54],[0.38,80.35],[5.4,80.07],[10.13,79.73],[14.52,79.32],[18.58,78.85],[22.57,78.34],[26.21,77.78],[29.53,77.17],[32.54,76.53],[35.28,75.85],[37.77,75.15],[40.03,74.42],[42.1,73.67],[43.98,72.9],[45.71,72.12],[47.29,71.32],[47.29,71.32],[49.84,71.37],[52.39,71.38],[54.93,71.36],[57.47,71.3],[59.99,71.21],[62.71,70.84],[65.31,70.43],[67.81,69.98],[70.21,69.5],[72.49,68.99],[74.67,68.45],[76.74,67.89],[78.71,67.29],[80.92,67.08],[83.09,66.84],[85.21,66.57],[87.29,66.27],[89.31,65.95],[91.28,65.6],[91.28,65.6],[89.97,64.81],[88.74,64.01],[87.58,63.2],[86.48,62.38],[85.44,61.55],[84.45,60.72],[83.51,59.88],[82.62,59.03],[81.78,58.18],[80.97,57.32],[79.69,56.77],[78.45,56.21],[77.24,55.64],[76.07,55.05],[74.94,54.46],[73.84,53.85],[72.77,53.23],[71.73,52.61],[71.05,51.9],[70.4,51.18],[69.76,50.46],[69.15,49.74],[68.55,49.02],[67.81,48.33],[67.09,47.63],[66.39,46.93],[65.7,46.22],[65.04,45.52],[64.39,44.8],[63.76,44.03],[63.15,43.25],[62.56,42.47],[61.98,41.68],[61.41,40.9],[60.86,40.1],[60.32,39.31],[59.79,38.52],[59.28,37.72],[58.53,37.05],[57.79,36.38],[57.06,35.7],[56.35,35.02],[55.64,34.34],[54.95,33.65],[54.27,32.96],[53.6,32.26],[52.94,31.57],[52.41,30.83],[51.89,30.1],[51.89,30.1],[51.07,30.46],[50.25,30.82],[49.59,30.54],[48.93,30.25],[48.71,29.46],[48.5,28.66],[48.16,27.97],[47.82,27.27],[47.49,26.57],[46.61,26.05],[45.73,25.52],[44.87,24.99],[44.18,24.23],[43.49,23.48],[42.92,22.72],[42.35,21.97],[41.79,21.22],[41.5,20.43],[41.22,19.64],[40.99,18.9],[40.76,18.17],[40.67,17.65],[40.57,17.13],[40.31,16.54],[40.05,15.95],[39.42,15.59],[38.8,15.23],[38.17,14.87],[37.25,14.71],[36.33,14.55],[35.41,14.38],[34.51,14.01],[33.61,13.64],[32.96,13.38],[32.32,13.11],[31.67,12.84],[30.78,12.65],[29.89,12.46],[29.01,12.26],[28.11,12.32],[27.22,12.37],[26.32,12.41],[25.53,12.54],[24.74,12.68],[23.95,12.8],[23.16,12.93],[22.3,13.19],[21.44,13.44],[20.58,13.69],[19.72,13.94],[19.72,13.94],[19.31,13.23],[18.91,12.52],[18.51,11.81],[18.11,11.1],[17.71,10.39],[17.24,9.56],[16.78,8.72],[16.32,7.88],[15.86,7.05],[15.4,6.21],[14.82,5.58],[14.24,4.95],[13.67,4.32],[13.1,3.68],[12.53,3.05],[11.95,2.42],[12.16,1.69],[12.36,0.97],[12.57,0.24],[11.78,-0.16],[10.98,-0.56],[10.19,-0.97],[9.4,-1.37],[8.61,-1.77],[7.75,-2.08],[6.9,-2.39],[6.04,-2.7],[5.18,-3.01],[5.18,-3.01],[4.43,-2.61],[3.67,-2.21],[3.19,-2.02],[2.72,-1.82],[2.25,-1.65],[1.77,-1.47],[1.25,-1.27],[0.73,-1.07],[0.05,-0.82],[-0.74,-0.29],[-1.5,0.21],[-1.94,0.5],[-2.2,0.67],[-2.58,1],[-2.95,1.32],[-3.38,1.7],[-3.59,1.89],[-3.65,1.94],[-3.65,1.94],[-2.97,2.57],[-2.28,3.2],[-1.6,3.82],[-0.91,4.45],[-0.24,5.14],[0.44,5.84],[1.11,6.54],[1.48,7.21],[1.85,7.89],[2.22,8.56],[1.6,9.24],[0.99,9.91],[0.37,10.59],[-0.25,11.26],[-0.81,10.84],[-1.35,11.57],[-1.89,12.29],[-2.44,13.01],[-2.23,13.4],[-2.04,14.19],[-1.7,15.06],[-1.36,15.93],[-1.01,16.79],[-0.7,17.6],[-0.37,18.4],[-0.05,19.21],[0.28,20.01],[1.1,20.54],[1.93,21.07],[2.41,21.68],[2.9,22.29],[3.23,23.04],[3.56,23.79],[3.82,24.36],[4.08,24.93],[4.14,25.59],[4.2,26.26],[4.06,26.78],[3.92,27.31],[3.6,27.87],[3.28,28.42],[2.72,29],[2.51,29.75],[2.29,30.5],[2.16,31.45],[2.04,32.41],[1.79,33.15],[1.55,33.89],[1.52,34.59],[1.5,35.28],[0.91,36.04],[0.31,36.8],[-0.48,37.04],[-1.27,37.28],[-2.25,36.96],[-3.23,36.63],[-4.24,36.76],[-5.26,36.89],[-6.28,37.01],[-7.13,37.2],[-7.99,37.4],[-8.85,37.58],[-8.83,38.57],[-8.81,39.56],[-8.79,40.55],[-8.77,41.54],[-9.16,42.47],[-9.55,43.4],[-9.96,44.33],[-10.38,45.26],[-10.82,46.19],[-10.46,46.8],[-10.84,47.49],[-11.22,48.18],[-11.62,48.87],[-11.99,49.68],[-12.38,50.5],[-12.77,51.31],[-13.19,52.13],[-13.61,52.94],[-14,53.71],[-14.4,54.48],[-14.81,55.25],[-14.81,55.25],[-14.92,55.58],[-15.16,56.16],[-15.4,56.73],[-15.52,57.01],[-15.59,57.17],[-15.63,57.28],[-15.78,57.62],[-15.81,57.68],[-16.24,58.55],[-16.69,59.41],[-17.17,60.27],[-17.67,61.14],[-18.35,61.95]]]}},{"type":"Feature","properties":{"ma":225,"type":"gpml:TopologicalClosedPlateBoundary","name":"Gondwana Plate","pid":701,"deforming":false},"geometry":{"type":"Polygon","coordinates":[[[180,-69.82],[180,-70.78],[180,-71.74],[180,-72.7],[180,-73.66],[180,-74.62],[180,-75.58],[180,-76.54],[180,-77.5],[180,-78.47],[180,-79.43],[180,-80.39],[180,-81.35],[180,-82.31],[180,-83.27],[180,-84.23],[180,-85.19],[180,-86.16],[180,-87.12],[180,-88.08],[180,-89.04],[180,-90],[-180,-90],[-180,-89.04],[-180,-88.08],[-180,-87.12],[-180,-86.16],[-180,-85.19],[-180,-84.23],[-180,-83.27],[-180,-82.31],[-180,-81.35],[-180,-80.39],[-180,-79.43],[-180,-78.47],[-180,-77.5],[-180,-76.54],[-180,-75.58],[-180,-74.62],[-180,-73.66],[-180,-72.7],[-180,-71.74],[-180,-70.78],[-180,-69.82],[-180,-68.85],[-177.32,-68.93],[-174.64,-68.95],[-171.95,-68.94],[-169.53,-69.41],[-167.02,-69.85],[-164.4,-70.25],[-161.68,-70.6],[-158.87,-70.92],[-156.37,-71.31],[-153.77,-71.66],[-151.08,-71.98],[-148.29,-72.26],[-145.43,-72.5],[-142.8,-72.68],[-140.12,-72.82],[-137.4,-72.92],[-134.65,-72.99],[-131.88,-73.03],[-129.1,-73.02],[-126.33,-72.98],[-123.58,-72.9],[-121,-72.82],[-118.46,-72.7],[-115.96,-72.55],[-113.5,-72.37],[-110.79,-72.33],[-108.11,-72.25],[-105.45,-72.14],[-102.83,-71.99],[-99.84,-71.82],[-96.92,-71.61],[-94.06,-71.36],[-91.29,-71.06],[-88.6,-70.72],[-86.42,-70.16],[-84.35,-69.57],[-84.35,-69.57],[-84.42,-69.47],[-84.39,-69.06],[-84.35,-69],[-84.08,-68.63],[-83.74,-68.29],[-83.36,-67.94],[-83.07,-67.63],[-82.9,-67.48],[-82.68,-67.17],[-82.56,-66.77],[-82.43,-66.39],[-82.25,-66.05],[-82.11,-65.76],[-81.92,-65.52],[-81.71,-65.2],[-81.44,-64.86],[-80.94,-64.47],[-80.41,-64.17],[-80.06,-64],[-79.66,-63.79],[-79.18,-63.55],[-78.43,-63.17],[-77.75,-62.85],[-77.25,-62.57],[-76.83,-62.28],[-76.6,-61.86],[-76.42,-61.59],[-76.27,-61.37],[-76.21,-61.3],[-75.99,-61.06],[-75.74,-60.78],[-75.43,-60.44],[-75.15,-60.17],[-74.85,-59.87],[-74.52,-59.54],[-74.28,-59.3],[-73.71,-58.7],[-73.34,-58.32],[-72.99,-57.95],[-72.65,-57.61],[-72.19,-57.13],[-71.93,-56.87],[-71.57,-56.44],[-71.36,-56.18],[-71.09,-55.84],[-70.71,-55.59],[-70.16,-55.07],[-70.16,-55.07],[-69.98,-54.75],[-69.98,-54.75],[-69.92,-54.63],[-69.73,-54.38],[-68.97,-53.63],[-68.23,-52.88],[-67.96,-52.16],[-67.69,-51.44],[-67.39,-50.62],[-67.1,-49.8],[-66.4,-49.1],[-65.73,-48.4],[-65.07,-47.69],[-64.43,-46.98],[-63.8,-46.27],[-63.48,-45.52],[-63.17,-44.78],[-62.86,-44.03],[-62.56,-43.28],[-62.3,-42.43],[-62.04,-41.58],[-61.91,-41.16],[-61.78,-40.77],[-61.71,-40.45],[-61.53,-39.9],[-61.37,-39.2],[-61.13,-38.75],[-60.78,-37.94],[-60.59,-37.47],[-60.54,-36.87],[-60.54,-36.87],[-60.52,-36.59],[-60.52,-36.22],[-60.44,-35.68],[-60.51,-34.92],[-60.53,-34.39],[-60.55,-33.86],[-61.07,-33.04],[-61.18,-32.34],[-61.28,-31.64],[-61.39,-30.94],[-61.52,-30.11],[-61.65,-29.28],[-61.78,-28.45],[-61.79,-27.59],[-61.79,-26.73],[-61.8,-25.87],[-61.8,-25.01],[-61.8,-24.14],[-61.81,-23.28],[-61.78,-22.41],[-61.76,-21.55],[-61.74,-20.68],[-61.31,-19.92],[-60.88,-19.15],[-60.46,-18.39],[-60.04,-17.62],[-59.62,-16.86],[-59.49,-16.6],[-59.38,-16.37],[-59.23,-16.12],[-59.05,-15.78],[-58.94,-15.6],[-58.83,-15.37],[-58.58,-15.04],[-58.37,-14.75],[-58.33,-14.7],[-58.33,-14.7],[-57.88,-15.58],[-57.88,-15.58],[-57.6,-15.62],[-57.02,-15.57],[-56.45,-15.52],[-55.86,-15.68],[-55.26,-15.83],[-54.75,-16.08],[-54.24,-16.32],[-53.59,-16.72],[-52.93,-17.12],[-52.05,-17.41],[-51.18,-17.7],[-50.32,-17.58],[-49.47,-17.46],[-48.69,-17.14],[-47.91,-16.82],[-47.22,-16.5],[-46.54,-16.18],[-45.88,-16],[-45.23,-15.81],[-44.64,-15.75],[-44.06,-15.7],[-43.52,-15.61],[-42.99,-15.52],[-42.36,-15.45],[-41.74,-15.39],[-41.08,-14.94],[-40.43,-14.48],[-39.66,-14.37],[-38.89,-14.26],[-38.21,-14.4],[-37.52,-14.54],[-36.84,-14.68],[-36.04,-14.79],[-35.25,-14.9],[-34.34,-15.23],[-33.82,-15.3],[-33.29,-15.36],[-32.7,-15.39],[-32.11,-15.43],[-31.48,-15.24],[-30.86,-15.05],[-30.03,-14.88],[-29.21,-14.7],[-28.39,-14.53],[-27.96,-13.99],[-27.54,-13.46],[-27.54,-13.46],[-27.11,-13.72],[-26.83,-13.8],[-26.83,-13.8],[-27.04,-13.35],[-27.03,-12.76],[-26.79,-11.88],[-26.57,-11.1],[-26.29,-10.74],[-25.89,-10.44],[-25.27,-10.19],[-24.84,-10.2],[-24.39,-10.24],[-24.17,-9.89],[-24.02,-9.64],[-23.82,-9.37],[-23.5,-9.16],[-23.27,-8.8],[-23.04,-8.38],[-22.95,-7.6],[-22.87,-7.16],[-22.73,-6.74],[-22.47,-6.5],[-22.25,-6.31],[-21.86,-5.76],[-21.51,-5.23],[-21.26,-4.62],[-21,-4.18],[-20.74,-3.75],[-20.38,-3.31],[-20.03,-2.88],[-19.56,-2.67],[-19.08,-2.47],[-18.95,-2.38],[-18.06,-2.54],[-17.12,-2.59],[-16.61,-2.62],[-16.45,-2.71],[-15.9,-2.81],[-15.17,-2.5],[-14.39,-2.12],[-13.95,-1.79],[-13.06,-1.5],[-12.52,-1.23],[-11.8,-1.08],[-10.99,-0.96],[-10.33,-0.7],[-9.88,-0.64],[-9.28,-0.8],[-8.84,-1.08],[-8.34,-1.26],[-8.02,-1.42],[-7.69,-1.6],[-7.1,-1.69],[-6.56,-1.87],[-5.94,-1.63],[-5.66,-1.53],[-5.66,-1.53],[-5.88,-1.34],[-5.39,-0.91],[-4.9,-0.48],[-4.68,0.04],[-4.46,0.55],[-4.1,1.2],[-3.74,1.85],[-3.65,1.94],[-3.65,1.94],[-3.59,1.89],[-3.38,1.7],[-2.95,1.32],[-2.58,1],[-2.2,0.67],[-1.94,0.5],[-1.5,0.21],[-0.74,-0.29],[0.05,-0.82],[0.73,-1.07],[1.25,-1.27],[1.77,-1.47],[2.25,-1.65],[2.72,-1.82],[3.19,-2.02],[3.67,-2.21],[4.43,-2.61],[5.18,-3.01],[6.04,-2.7],[6.9,-2.39],[7.75,-2.08],[8.61,-1.77],[9.39,-1.37],[10.18,-0.97],[10.18,-0.97],[10.47,-1.72],[10.69,-2.5],[10.92,-3.27],[11.15,-4.04],[11.38,-4.82],[11.61,-5.59],[12.48,-5.4],[12.79,-6.13],[13.11,-6.87],[13.42,-7.6],[13.73,-8.33],[14.46,-8.18],[15.18,-8.03],[15.91,-7.87],[16.28,-8.69],[16.64,-9.5],[17.01,-10.32],[17.39,-11.13],[17.76,-11.95],[18.49,-11.6],[19.21,-11.25],[19.93,-10.89],[20.83,-10.48],[21.73,-10.06],[22.14,-10.61],[22.55,-11.15],[22.97,-11.7],[23.65,-11.38],[24.33,-11.07],[25,-10.75],[25.55,-11.47],[26.1,-12.19],[26.92,-11.79],[27.73,-11.38],[28.26,-11.93],[28.79,-12.49],[29.49,-11.98],[30.18,-11.46],[30.87,-10.95],[31.69,-11.54],[32.3,-11.13],[32.3,-11.13],[32.16,-10.82],[31.84,-10.41],[31.52,-10],[31.52,-10],[32.14,-9.29],[32.76,-8.59],[33.37,-7.88],[33.99,-7.17],[34.47,-6.45],[34.95,-5.74],[35.43,-5.02],[35.9,-4.31],[36.38,-3.59],[36.86,-2.87],[36.86,-2.87],[37.65,-3.42],[38.44,-3.96],[39.23,-4.51],[40.02,-5.05],[40.82,-5.6],[41.62,-6.14],[42.41,-6.68],[43.21,-7.22],[44.02,-7.76],[44.82,-8.29],[45.63,-8.83],[45.25,-9.59],[46.06,-10.02],[46.87,-10.46],[47.69,-10.89],[48.5,-11.32],[49.32,-11.75],[50.14,-12.17],[50.96,-12.59],[50.65,-13.47],[51.56,-13.89],[52.47,-14.3],[53.39,-14.71],[54.31,-15.12],[55.24,-15.52],[56.17,-15.92],[57.1,-16.31],[58.04,-16.7],[58.98,-17.09],[59.92,-17.47],[60.87,-17.85],[61.82,-18.22],[62.78,-18.59],[62.45,-19.41],[62.13,-20.23],[61.79,-21.05],[61.46,-21.87],[61.46,-21.87],[62.41,-22.28],[63.36,-22.68],[64.31,-23.08],[65.27,-23.48],[66.24,-23.86],[67.22,-24.25],[68.19,-24.62],[69.18,-24.99],[70.17,-25.36],[71.17,-25.71],[72.17,-26.06],[73.18,-26.4],[74.19,-26.74],[75.21,-27.07],[76.24,-27.39],[76.14,-27.9],[76.03,-28.41],[77.14,-28.54],[78.25,-28.66],[79.36,-28.77],[80.48,-28.88],[81.59,-28.97],[82.71,-29.06],[83.83,-29.14],[84.95,-29.23],[86.06,-29.31],[87.18,-29.39],[88.3,-29.45],[89.43,-29.5],[89.43,-29.5],[89.89,-28.6],[90.35,-27.68],[90.8,-26.77],[91.25,-25.86],[91.69,-24.94],[92.12,-24.03],[92.54,-23.11],[93.48,-23.44],[94.42,-23.77],[95.36,-24.09],[96.31,-24.4],[96.63,-23.63],[96.95,-22.86],[97.26,-22.09],[97.57,-21.33],[98.54,-21.43],[99.51,-21.52],[100.49,-21.61],[101.46,-21.7],[102.44,-21.78],[102.73,-20.93],[103.02,-20.07],[103.3,-19.22],[103.58,-18.37],[103.85,-17.51],[104.13,-16.66],[104.91,-16.78],[105.7,-16.91],[106.48,-17.03],[107.27,-17.15],[107.52,-16.24],[107.78,-15.33],[108.02,-14.42],[108.27,-13.51],[108.52,-12.6],[109.37,-12.69],[110.22,-12.78],[111.07,-12.87],[111.18,-12.05],[111.28,-11.23],[111.38,-10.42],[112.16,-10.44],[112.95,-10.46],[112.95,-10.46],[112.98,-11.39],[113.02,-12.32],[113.05,-13.25],[113.09,-14.18],[113.06,-15.08],[113.04,-15.99],[113.02,-16.89],[112.99,-17.79],[112.99,-17.79],[114.01,-17.83],[115.02,-17.86],[116.04,-17.89],[117.05,-17.91],[118.06,-17.93],[119.08,-17.94],[120.09,-17.94],[121.11,-17.94],[122.12,-17.94],[122.17,-18.79],[122.22,-19.64],[122.27,-20.49],[122.32,-21.34],[122.37,-22.19],[122.42,-23.03],[123.4,-23.02],[124.39,-23],[125.38,-22.97],[126.36,-22.93],[127.35,-22.89],[128.33,-22.85],[129.32,-22.79],[129.43,-23.7],[129.56,-24.61],[130.56,-24.53],[131.57,-24.43],[132.58,-24.33],[133.58,-24.23],[134.59,-24.11],[135.59,-23.99],[135.59,-23.99],[135.61,-24.93],[135.63,-25.88],[135.65,-26.82],[135.68,-27.76],[135.7,-28.7],[135.72,-29.64],[136.37,-30.38],[137.02,-31.13],[137.68,-31.87],[138.35,-32.61],[138.8,-33.25],[139.27,-33.88],[139.69,-34.34],[140.13,-34.8],[140.72,-35.05],[141.31,-35.31],[142.35,-35.71],[143.4,-36.1],[144.35,-36.67],[145.31,-37.23],[146.29,-37.78],[147.28,-38.33],[147.28,-38.33],[147.41,-39.07],[147.55,-39.8],[147.68,-40.54],[147.87,-41.34],[148.06,-42.13],[148.26,-42.93],[148.47,-43.73],[148.68,-44.53],[148.81,-45.4],[148.95,-46.27],[149.09,-47.14],[149.24,-48.01],[149.39,-48.88],[149.95,-49.78],[150.52,-50.68],[151.13,-51.58],[151.75,-52.47],[152.41,-53.35],[152.9,-54.13],[153.42,-54.9],[153.96,-55.67],[154.52,-56.43],[154.6,-57.02],[154.69,-57.6],[154.44,-58.17],[154.18,-58.73],[153.48,-59.65],[152.73,-60.57],[151.9,-61.49],[151.01,-62.39],[150.76,-62.91],[151.82,-63.73],[152.22,-64.55],[152.65,-65.37],[153.1,-66.19],[153.1,-66.19],[155.02,-66.47],[156.98,-66.73],[158.98,-66.96],[161.01,-67.17],[163.08,-67.35],[165.35,-67.67],[167.67,-67.95],[170.05,-68.2],[172.48,-68.42],[174.95,-68.6],[177.46,-68.75],[180,-68.85],[180,-69.82]]]}},{"type":"Feature","properties":{"ma":225,"type":"gpml:TopologicalClosedPlateBoundary","name":"Izanagi Plate","pid":926,"deforming":false},"geometry":{"type":"MultiPolygon","coordinates":[[[[180,74.11],[180,73.11],[180,72.12],[180,71.12],[180,70.13],[180,69.13],[180,68.14],[180,67.14],[180,66.15],[180,65.15],[180,64.16],[180,63.16],[180,62.17],[180,61.17],[180,60.17],[180,59.18],[180,58.18],[180,57.19],[180,56.19],[180,55.2],[180,54.2],[180,53.21],[180,52.21],[180,51.22],[180,50.22],[180,49.23],[180,48.23],[180,47.23],[180,46.24],[180,45.24],[180,44.25],[180,43.25],[180,42.26],[180,41.26],[180,40.27],[180,39.27],[180,38.28],[180,37.28],[180,36.29],[180,35.29],[180,34.3],[180,33.3],[180,32.3],[180,31.31],[180,30.31],[180,29.32],[180,28.32],[180,27.33],[180,26.33],[180,25.34],[180,24.34],[180,23.35],[180,22.35],[180,21.36],[180,20.36],[180,19.36],[180,18.37],[180,17.37],[180,16.38],[180,15.38],[180,14.39],[180,13.39],[180,12.4],[180,11.4],[180,10.41],[180,9.41],[180,8.42],[180,7.42],[180,6.43],[180,5.43],[180,4.43],[180,3.44],[180,2.44],[180,1.45],[180,0.45],[180,-0.54],[180,-1.54],[180,-2.53],[180,-3.53],[180,-4.52],[180,-5.52],[180,-6.51],[180,-7.51],[180,-8.51],[180,-9.5],[180,-10.5],[180,-11.49],[180,-12.49],[180,-13.48],[180,-14.48],[180,-15.47],[179.22,-15.83],[178.44,-16.18],[177.66,-16.53],[176.87,-16.87],[176.08,-17.22],[175.65,-16.37],[175.22,-15.52],[174.79,-14.67],[174.37,-13.82],[173.95,-12.96],[173.08,-13.39],[172.21,-13.81],[171.34,-14.23],[170.46,-14.65],[169.58,-15.07],[168.69,-15.48],[167.81,-15.88],[166.91,-16.29],[166.02,-16.69],[165.12,-17.08],[164.22,-17.47],[163.31,-17.86],[162.4,-18.25],[161.48,-18.62],[160.56,-19],[160.06,-18.24],[159.55,-17.48],[159.05,-16.72],[158.56,-15.96],[157.65,-16.42],[156.75,-16.87],[155.84,-17.32],[154.92,-17.76],[154,-18.2],[153.08,-18.63],[152.15,-19.06],[151.21,-19.48],[150.28,-19.9],[149.33,-20.32],[148.38,-20.73],[147.43,-21.13],[146.47,-21.53],[145.51,-21.94],[144.55,-22.34],[143.58,-22.73],[142.61,-23.12],[141.63,-23.51],[140.64,-23.89],[139.65,-24.26],[138.65,-24.62],[137.65,-24.98],[136.64,-25.33],[135.63,-25.68],[135.6,-24.7],[135.58,-23.73],[135.56,-22.76],[135.54,-21.78],[135.51,-20.81],[135.49,-19.83],[135.47,-18.86],[135.45,-17.89],[135.43,-16.91],[135.41,-15.94],[135.17,-15.35],[134.94,-14.75],[134.94,-14.75],[134.2,-14.32],[133.27,-14.04],[132.34,-13.75],[131.41,-13.46],[130.49,-13.17],[129.56,-12.87],[128.64,-12.57],[127.72,-12.27],[126.8,-11.85],[125.88,-11.42],[124.96,-10.99],[124.04,-10.55],[123.13,-10.12],[122.22,-9.68],[121.31,-9.24],[120.38,-9.12],[119.46,-9],[118.53,-8.88],[117.61,-8.76],[116.68,-8.63],[115.76,-8.5],[114.84,-8.37],[113.92,-8.24],[112.99,-8.11],[112.99,-8.11],[113.27,-7.28],[113.54,-6.45],[113.81,-5.62],[114.29,-5.06],[114.77,-4.5],[115.25,-3.93],[115.95,-3.49],[116.65,-3.04],[117.35,-2.59],[118.05,-2.14],[118.72,-1.6],[119.38,-1.07],[120.04,-0.53],[120.7,0.01],[121.35,0.54],[122,1.07],[122.65,1.6],[123.29,2.13],[123.94,2.66],[124.06,3.65],[124.17,4.64],[124.29,5.63],[124.41,6.62],[124.1,7.48],[123.78,8.34],[123.47,9.2],[123.2,10.11],[122.94,11.02],[122.42,11.81],[121.89,12.6],[121.54,13.28],[121.19,13.95],[120.84,14.63],[120.04,15.08],[119.24,15.53],[118.44,15.99],[118,16.62],[117.55,17.25],[117.1,17.88],[116.96,18.76],[116.83,19.64],[116.69,20.52],[116.55,21.4],[116.41,22.28],[116.41,22.28],[115.39,22.01],[114.37,21.73],[113.35,21.45],[112.34,21.16],[111.33,20.87],[110.32,20.57],[109.32,20.26],[108.32,19.95],[108.32,19.95],[108.69,20.71],[109.06,21.47],[109.43,22.24],[109.81,23],[110.2,23.76],[109.81,24.55],[109.43,25.34],[109.04,26.13],[108.64,26.92],[108.48,27.87],[108.32,28.83],[108.15,29.78],[107.98,30.73],[107.81,31.69],[107.64,32.64],[107.46,33.59],[107.28,34.54],[107.56,35.32],[107.85,36.09],[108.14,36.86],[108.45,37.64],[108.92,38.42],[109.41,39.2],[109.91,39.98],[110.42,40.76],[110.94,41.53],[110.94,41.53],[111.27,42.02],[112.13,42.68],[113,43.33],[113.89,43.97],[114.81,44.6],[115.74,45.23],[116.91,45.32],[118.09,45.4],[119.27,45.47],[120.45,45.53],[121.64,45.57],[122.95,45.96],[124.28,46.34],[125.63,46.7],[127,47.04],[128.38,47.37],[129.78,47.68],[131.2,47.97],[131.2,47.97],[132.33,48.4],[133.47,48.82],[134.77,49.09],[136.08,49.33],[137.4,49.57],[138.73,49.78],[140.08,49.99],[141.02,50.58],[141.98,51.16],[142.96,51.74],[143.97,52.3],[145.01,52.86],[146.06,53.47],[147.13,54.07],[148.24,54.66],[149.38,55.24],[150.56,55.8],[151.77,56.36],[153.01,56.9],[153.7,57.79],[154.42,58.67],[155.19,59.55],[155.99,60.42],[156.84,61.29],[157.73,62.15],[158.68,63.01],[159.68,63.86],[160.75,64.7],[161.89,65.53],[163.09,66.36],[164.39,67.17],[165.77,67.98],[166.88,68.81],[168.09,69.64],[169.39,70.46],[170.8,71.27],[172.33,72.07],[174,72.85],[175.82,73.62],[177.81,74.37],[180,75.11],[180,74.11]]],[[[-180,-14.48],[-180,-13.48],[-180,-12.49],[-180,-11.49],[-180,-10.5],[-180,-9.5],[-180,-8.51],[-180,-7.51],[-180,-6.51],[-180,-5.52],[-180,-4.52],[-180,-3.53],[-180,-2.53],[-180,-1.54],[-180,-0.54],[-180,0.45],[-180,1.45],[-180,2.44],[-180,3.44],[-180,4.43],[-180,5.43],[-180,6.43],[-180,7.42],[-180,8.42],[-180,9.41],[-180,10.41],[-180,11.4],[-180,12.4],[-180,13.39],[-180,14.39],[-180,15.38],[-180,16.38],[-180,17.37],[-180,18.37],[-180,19.36],[-180,20.36],[-180,21.36],[-180,22.35],[-180,23.35],[-180,24.34],[-180,25.34],[-180,26.33],[-180,27.33],[-180,28.32],[-180,29.32],[-180,30.31],[-180,31.31],[-180,32.3],[-180,33.3],[-180,34.3],[-180,35.29],[-180,36.29],[-180,37.28],[-180,38.28],[-180,39.27],[-180,40.27],[-180,41.26],[-180,42.26],[-180,43.25],[-180,44.25],[-180,45.24],[-180,46.24],[-180,47.23],[-180,48.23],[-180,49.23],[-180,50.22],[-180,51.22],[-180,52.21],[-180,53.21],[-180,54.2],[-180,55.2],[-180,56.19],[-180,57.19],[-180,58.18],[-180,59.18],[-180,60.17],[-180,61.17],[-180,62.17],[-180,63.16],[-180,64.16],[-180,65.15],[-180,66.15],[-180,67.14],[-180,68.14],[-180,69.13],[-180,70.13],[-180,71.12],[-180,72.12],[-180,73.11],[-180,74.11],[-180,75.11],[-177.82,75.75],[-175.44,76.38],[-172.84,76.98],[-169.99,77.55],[-166.89,78.09],[-166.89,78.09],[-163.81,77.37],[-161.07,76.61],[-158.62,75.83],[-156.43,75.03],[-154.45,74.2],[-152.67,73.37],[-151.06,72.51],[-149.59,71.65],[-148.25,70.77],[-147.03,69.89],[-145.9,69],[-144.86,68.1],[-143.9,67.19],[-143.01,66.28],[-142.19,65.37],[-141.41,64.45],[-143.12,64.18],[-144.79,63.89],[-146.42,63.59],[-145.73,62.66],[-145.07,61.72],[-144.46,60.78],[-143.88,59.84],[-143.33,58.9],[-142.81,57.95],[-142.32,57.01],[-141.85,56.06],[-141.4,55.11],[-140.98,54.16],[-140.57,53.2],[-140.18,52.25],[-139.81,51.29],[-139.46,50.33],[-139.11,49.37],[-140.6,49.14],[-142.07,48.88],[-143.52,48.61],[-143.13,47.65],[-142.75,46.69],[-142.38,45.73],[-142.02,44.77],[-141.68,43.8],[-141.34,42.84],[-141.02,41.87],[-140.71,40.9],[-140.4,39.94],[-140.11,38.97],[-139.82,38],[-139.54,37.03],[-139.27,36.06],[-139,35.08],[-138.74,34.11],[-138.48,33.14],[-138.24,32.17],[-137.99,31.19],[-137.75,30.22],[-137.52,29.24],[-138.51,29.08],[-139.5,28.9],[-140.48,28.72],[-140.25,27.75],[-140.02,26.78],[-139.79,25.81],[-139.57,24.84],[-139.35,23.87],[-139.14,22.9],[-138.92,21.93],[-138.72,20.96],[-138.51,19.98],[-138.31,19.01],[-138.1,18.04],[-137.91,17.07],[-137.71,16.09],[-137.51,15.12],[-137.32,14.15],[-138.31,13.94],[-139.31,13.72],[-140.3,13.51],[-140.05,12.6],[-139.8,11.69],[-139.56,10.78],[-139.31,9.88],[-139.07,8.97],[-138.83,8.06],[-138.59,7.15],[-138.35,6.25],[-138.11,5.34],[-137.87,4.43],[-137.65,3.61],[-137.43,2.78],[-137.22,1.96],[-137,1.14],[-136.78,0.31],[-136.57,-0.51],[-136.57,-0.51],[-137.46,-0.9],[-138.36,-1.29],[-139.26,-1.68],[-140.16,-2.07],[-141.06,-2.45],[-141.96,-2.84],[-142.86,-3.23],[-143.76,-3.61],[-144.67,-4],[-145.55,-4.41],[-146.44,-4.82],[-147.33,-5.23],[-148.22,-5.64],[-149.11,-6.05],[-150.01,-6.45],[-150.9,-6.86],[-151.8,-7.26],[-152.69,-7.66],[-153.59,-8.06],[-154.49,-8.46],[-155.4,-8.85],[-156.3,-9.24],[-157.21,-9.63],[-158.12,-10.02],[-159.03,-10.41],[-159.39,-9.56],[-159.75,-8.71],[-160.1,-7.86],[-160.95,-8.34],[-161.8,-8.83],[-162.66,-9.32],[-163.51,-9.8],[-164.37,-10.28],[-165.23,-10.76],[-166.1,-11.24],[-166.96,-11.71],[-167.83,-12.19],[-168.71,-12.65],[-169.22,-12.01],[-169.73,-11.36],[-170.24,-10.71],[-171.11,-11.16],[-171.99,-11.6],[-172.86,-12.05],[-173.75,-12.48],[-174.63,-12.92],[-175.52,-13.35],[-176.41,-13.79],[-177.3,-14.21],[-178.2,-14.64],[-179.1,-15.06],[-180,-15.47],[-180,-14.48]]]]}},{"type":"Feature","properties":{"ma":225,"type":"gpml:TopologicalClosedPlateBoundary","name":"Mongol-Okhotsk Ocean","pid":380,"deforming":false},"geometry":{"type":"Polygon","coordinates":[[[-180,76.1],[-180,77.09],[-180,78.08],[-180,79.08],[-180,80.07],[-180,81.06],[-180,82.06],[-180,83.05],[-180,84.04],[-180,85.03],[-180,86.03],[-180,87.02],[-180,88.01],[-180,89.01],[-180,90],[180,90],[180,89.01],[180,88.01],[180,87.02],[180,86.03],[180,85.03],[180,84.04],[180,83.05],[180,82.06],[180,81.06],[180,80.07],[180,79.08],[180,78.08],[180,77.09],[180,76.1],[180,75.11],[177.81,74.37],[175.82,73.62],[174,72.85],[172.33,72.07],[170.8,71.27],[169.39,70.46],[168.09,69.64],[166.88,68.81],[165.77,67.98],[164.39,67.17],[163.09,66.36],[161.89,65.53],[160.75,64.7],[159.68,63.86],[158.68,63.01],[157.73,62.15],[156.84,61.29],[155.99,60.42],[155.19,59.55],[154.42,58.67],[153.7,57.79],[153.01,56.9],[151.77,56.36],[150.56,55.8],[149.38,55.24],[148.24,54.66],[147.13,54.07],[146.06,53.47],[145.01,52.86],[143.97,52.3],[142.96,51.74],[141.98,51.16],[141.02,50.58],[140.08,49.99],[138.73,49.78],[137.4,49.57],[136.08,49.33],[134.77,49.09],[133.47,48.82],[132.56,48.49],[131.65,48.15],[130.76,47.8],[130.76,47.8],[129.33,47.99],[127.9,48.16],[126.45,48.32],[125.4,48.33],[124.33,47.89],[123.08,47.97],[121.83,48.02],[120.77,48.09],[119.7,48.16],[118.89,48.3],[118.08,48.44],[117.15,48.63],[116.21,48.81],[116.21,48.81],[115.14,48.62],[114.09,48.43],[112.64,48.41],[111.77,48.53],[110.9,48.64],[110.43,48.68],[109.5,48.02],[108.49,48.1],[107.33,48.49],[106.31,48.93],[105.27,49.36],[104.22,49.78],[103.14,50.19],[101.82,50.58],[100.47,50.96],[99.59,50.95],[98.72,50.94],[97.27,51.21],[96.41,51.19],[95.56,51.16],[94.22,50.88],[92.9,50.58],[91.5,50.33],[90.12,50.07],[88.74,50],[87.37,49.92],[85.91,50.06],[84.44,50.18],[83.17,50.3],[81.89,50.41],[80.61,50.51],[79.27,50.63],[77.92,50.73],[76.57,50.82],[75.21,50.9],[75.03,50.89],[75.03,50.89],[74.56,50.11],[74.1,49.34],[73.66,48.57],[73.24,47.79],[72.82,47.01],[71.6,46.57],[70.39,46.12],[69.2,45.65],[68.03,45.17],[66.88,44.68],[65.88,44.27],[64.89,43.86],[63.92,43.44],[62.97,43.01],[62.97,43.01],[63.43,43.61],[63.91,44.21],[64.39,44.8],[65.04,45.52],[65.7,46.22],[66.39,46.93],[67.09,47.63],[67.81,48.33],[68.55,49.02],[69.15,49.74],[69.76,50.46],[70.4,51.18],[71.05,51.9],[71.73,52.61],[72.77,53.23],[73.84,53.85],[74.94,54.46],[76.07,55.05],[77.24,55.64],[78.45,56.21],[79.69,56.77],[80.97,57.32],[81.78,58.18],[82.62,59.03],[83.51,59.88],[84.45,60.72],[85.44,61.55],[86.48,62.38],[87.58,63.2],[88.74,64.01],[89.97,64.81],[91.28,65.6],[91.28,65.6],[89.31,65.95],[87.29,66.27],[85.21,66.57],[83.09,66.84],[80.92,67.08],[78.71,67.29],[76.74,67.89],[74.67,68.45],[72.49,68.99],[70.21,69.5],[67.81,69.98],[65.31,70.43],[62.71,70.84],[59.99,71.21],[57.47,71.3],[54.93,71.36],[52.39,71.38],[49.84,71.37],[47.29,71.32],[47.29,71.32],[45.71,72.12],[43.98,72.9],[42.1,73.67],[40.03,74.42],[37.77,75.15],[35.28,75.85],[32.54,76.53],[29.53,77.17],[26.21,77.78],[22.57,78.34],[18.58,78.85],[14.52,79.32],[10.13,79.73],[5.4,80.07],[0.38,80.35],[-4.9,80.54],[-10.36,80.66],[-15.89,80.69],[-21.42,80.64],[-26.84,80.5],[-30.51,80.18],[-32.48,79.65],[-34.26,79.12],[-37.66,78.5],[-40.7,77.85],[-43.1,77.19],[-45.25,76.5],[-46.78,75.9],[-48.18,75.29],[-49.48,74.68],[-50.52,74.12],[-51.49,73.56],[-52.18,72.79],[-52.18,72.79],[-54.41,73.43],[-56.81,74.04],[-59.39,74.62],[-61.75,75.38],[-64.37,76.11],[-67.26,76.81],[-70.45,77.47],[-73.99,78.09],[-77.9,78.67],[-82.19,79.18],[-86.89,79.63],[-91.96,80.01],[-97.39,80.31],[-102.57,80.66],[-108.11,80.93],[-113.93,81.11],[-119.92,81.2],[-125.97,81.19],[-131.95,81.09],[-137.73,80.89],[-143.22,80.61],[-148.35,80.25],[-153.08,79.82],[-157.4,79.32],[-161.6,78.85],[-165.43,78.32],[-168.93,77.75],[-172.11,77.13],[-175,76.49],[-177.62,75.81],[-180,75.11],[-180,76.1]]]}},{"type":"Feature","properties":{"ma":225,"type":"gpml:TopologicalClosedPlateBoundary","name":"North America","pid":101,"deforming":false},"geometry":{"type":"Polygon","coordinates":[[[-4.06,1.28],[-4.06,1.31],[-4.06,1.53],[-4.19,1.56],[-4.23,1.54],[-4.53,1.35],[-4.67,1.56],[-4.71,1.76],[-4.4,1.77],[-4.26,1.88],[-4.2,2],[-4.47,2.17],[-4.66,2.34],[-4.78,2.43],[-4.91,2.56],[-5.14,2.64],[-5.32,2.84],[-5.65,2.92],[-6.42,2.99],[-7.1,3.13],[-7.82,3.24],[-8.45,3.25],[-8.96,3.24],[-9.45,3.21],[-9.92,3.15],[-10.48,3.07],[-11.13,3.11],[-11.61,3.19],[-11.94,3.16],[-12.55,3],[-13.09,2.85],[-13.65,2.57],[-14.32,2.15],[-14.81,1.84],[-15.57,1.69],[-16.07,1.53],[-16.84,1.37],[-17.59,1.3],[-18.06,1.27],[-18.56,0.99],[-18.94,1.12],[-19.18,1.04],[-19.37,0.47],[-19.71,0.15],[-20.17,0.01],[-20.49,-0.26],[-20.8,-0.52],[-20.97,-0.52],[-21.22,-0.56],[-21.67,-0.7],[-21.95,-0.69],[-22.25,-0.62],[-22.49,-0.6],[-22.62,-0.7],[-23.02,-0.86],[-23.19,-1.3],[-23.46,-1.74],[-23.93,-2.21],[-24.41,-2.68],[-24.75,-2.98],[-25.52,-3.52],[-26.14,-3.83],[-26.31,-4.44],[-26.53,-5.2],[-26.99,-5.64],[-27.55,-6.06],[-28.18,-6.19],[-28.81,-6.31],[-29.33,-6.45],[-29.65,-6.53],[-29.99,-6.62],[-30.11,-6.81],[-30.48,-7.1],[-30.87,-7.4],[-31.28,-7.78],[-31.58,-8.07],[-31.77,-8.19],[-31.77,-8.19],[-31.78,-8.18],[-32.5,-7.52],[-33,-7.03],[-33.51,-6.55],[-34.23,-6.09],[-34.95,-5.64],[-35.58,-5.09],[-36.24,-4.71],[-36.73,-4.41],[-37.22,-4.12],[-37.7,-3.87],[-38.18,-3.62],[-38.64,-3.34],[-39.1,-3.07],[-39.89,-2.48],[-40.6,-2.27],[-41.31,-2.07],[-41.81,-1.89],[-42.31,-1.72],[-43.31,-1.7],[-43.82,-1.64],[-44.34,-1.59],[-45.04,-1.97],[-45.74,-2.34],[-46.43,-2.72],[-47.18,-3.35],[-47.93,-3.97],[-48.68,-4.6],[-48.97,-5.29],[-49.37,-5.64],[-49.78,-6],[-50.46,-6.7],[-51.09,-7.05],[-51.79,-7.52],[-52.49,-8],[-53.29,-8.12],[-54.09,-8.24],[-55.06,-8.4],[-56.03,-8.55],[-56.81,-8.7],[-57.59,-8.85],[-58.55,-8.98],[-59.52,-9.12],[-60.42,-9.17],[-60.42,-9.17],[-60.31,-8.51],[-60.2,-7.84],[-60.01,-7.1],[-59.82,-6.35],[-59.63,-5.6],[-59.39,-4.82],[-59.16,-4.03],[-58.92,-3.25],[-58.62,-2.54],[-58.31,-1.83],[-58.01,-1.13],[-57.6,-0.78],[-57.19,-0.44],[-56.63,-0.01],[-56.07,0.42],[-55.61,0.88],[-55.15,1.34],[-55.11,1.4],[-55.11,1.4],[-55.15,2.25],[-55.19,3.1],[-55.23,3.95],[-55.27,4.79],[-55.3,5.64],[-55.38,6.59],[-55.45,7.55],[-55.53,8.5],[-55.6,9.45],[-55.68,10.41],[-55.75,11.36],[-55.83,12.31],[-55.83,13.09],[-55.83,13.86],[-55.83,14.63],[-55.83,15.4],[-55.41,16.16],[-54.98,16.92],[-54.54,17.68],[-54.11,18.43],[-53.67,19.19],[-53.02,19.89],[-52.36,20.6],[-51.7,21.3],[-51.03,21.99],[-50.5,22.53],[-49.96,23.06],[-49.42,23.58],[-49.42,23.58],[-48.99,24.45],[-48.55,25.31],[-48.11,26.17],[-47.89,27.15],[-47.67,28.12],[-47.44,29.1],[-47.21,30.08],[-46.97,31.05],[-46.73,32.03],[-46.55,32.93],[-46.37,33.83],[-46.19,34.73],[-46,35.63],[-45.8,36.53],[-45.6,37.43],[-45.4,38.33],[-45.55,39.27],[-45.71,40.2],[-45.87,41.13],[-46.03,42.06],[-46.62,42.79],[-47.22,43.51],[-46.95,44.44],[-46.67,45.37],[-46.39,46.3],[-46.1,47.24],[-45.79,48.17],[-45.64,48.78],[-45.47,49.39],[-45.47,49.39],[-46.25,49.85],[-47.04,50.3],[-47.84,50.75],[-48.69,51.4],[-49.56,52.04],[-50.45,52.67],[-51.37,53.3],[-52.4,54.01],[-53.46,54.72],[-54.55,55.42],[-55.23,55.99],[-55.92,56.56],[-55.92,56.56],[-54.64,57.04],[-53.31,57.51],[-52.13,57.83],[-50.92,58.14],[-49.7,58.44],[-47.96,58.74],[-46.2,59.02],[-44.97,59.24],[-43.73,59.45],[-42.47,59.64],[-40.97,60],[-39.44,60.34],[-37.88,60.67],[-36.69,61.01],[-35.48,61.34],[-34.24,61.66],[-32.56,61.85],[-30.87,62.02],[-29.16,62.16],[-27.23,62.58],[-25.25,62.98],[-23.77,63.45],[-22.23,63.91],[-20.65,64.35],[-20.65,64.35],[-19.84,63.55],[-19.08,62.75],[-18.35,61.95],[-17.67,61.14],[-17.17,60.27],[-16.69,59.41],[-16.24,58.55],[-15.81,57.68],[-15.78,57.62],[-15.63,57.28],[-15.59,57.17],[-15.52,57.01],[-15.4,56.73],[-15.16,56.16],[-14.92,55.58],[-14.81,55.25],[-14.81,55.25],[-14.4,54.48],[-14,53.71],[-13.61,52.94],[-13.19,52.13],[-12.77,51.31],[-12.38,50.5],[-11.99,49.68],[-11.62,48.87],[-11.22,48.18],[-10.84,47.49],[-10.46,46.8],[-10.82,46.19],[-10.38,45.26],[-9.96,44.33],[-9.55,43.4],[-9.16,42.47],[-8.77,41.54],[-8.79,40.55],[-8.81,39.56],[-8.83,38.57],[-8.85,37.58],[-7.99,37.4],[-7.13,37.2],[-6.28,37.01],[-5.26,36.89],[-4.24,36.76],[-3.23,36.63],[-2.25,36.96],[-1.27,37.28],[-0.48,37.04],[0.31,36.8],[0.91,36.04],[1.5,35.28],[1.52,34.59],[1.55,33.89],[1.79,33.15],[2.04,32.41],[2.16,31.45],[2.29,30.5],[2.51,29.75],[2.72,29],[3.28,28.42],[3.6,27.87],[3.92,27.31],[4.06,26.78],[4.2,26.26],[4.14,25.59],[4.08,24.93],[3.82,24.36],[3.56,23.79],[3.23,23.04],[2.9,22.29],[2.41,21.68],[1.93,21.07],[1.1,20.54],[0.28,20.01],[-0.05,19.21],[-0.37,18.4],[-0.7,17.6],[-1.01,16.79],[-1.36,15.93],[-1.7,15.06],[-2.04,14.19],[-2.23,13.4],[-2.44,13.01],[-1.89,12.29],[-1.35,11.57],[-0.81,10.84],[-0.25,11.26],[0.37,10.59],[0.99,9.91],[1.6,9.24],[2.22,8.56],[1.85,7.89],[1.48,7.21],[1.11,6.54],[0.44,5.84],[-0.24,5.14],[-0.91,4.45],[-1.62,3.8],[-2.33,3.15],[-3.04,2.5],[-3.74,1.85],[-4.06,1.28]]]}},{"type":"Feature","properties":{"ma":225,"type":"gpml:TopologicalClosedPlateBoundary","name":"Phoenix Plate","pid":919,"deforming":false},"geometry":{"type":"MultiPolygon","coordinates":[[[[180,-16.46],[180,-17.45],[180,-18.44],[180,-19.43],[180,-20.42],[180,-21.4],[180,-22.39],[180,-23.38],[180,-24.37],[180,-25.36],[180,-26.35],[180,-27.34],[180,-28.32],[180,-29.31],[180,-30.3],[180,-31.29],[180,-32.28],[180,-33.27],[180,-34.26],[180,-35.24],[180,-36.23],[180,-37.22],[180,-38.21],[180,-39.2],[180,-40.19],[180,-41.17],[180,-42.16],[180,-43.15],[180,-44.14],[180,-45.13],[180,-46.12],[180,-47.11],[180,-48.09],[180,-49.08],[180,-50.07],[180,-51.06],[180,-52.05],[180,-53.04],[180,-54.03],[180,-55.01],[180,-56],[180,-56.99],[180,-57.98],[180,-58.97],[180,-59.96],[180,-60.95],[180,-61.93],[180,-62.92],[180,-63.91],[180,-64.9],[180,-65.89],[180,-66.88],[180,-67.87],[180,-68.85],[177.46,-68.75],[174.95,-68.6],[172.48,-68.42],[170.05,-68.2],[167.67,-67.95],[165.35,-67.67],[163.08,-67.35],[161.01,-67.17],[158.98,-66.96],[156.98,-66.73],[155.02,-66.47],[153.1,-66.19],[153.1,-66.19],[152.65,-65.37],[152.22,-64.55],[151.82,-63.73],[150.76,-62.91],[151.01,-62.39],[151.9,-61.49],[152.73,-60.57],[153.48,-59.65],[154.18,-58.73],[154.44,-58.17],[154.69,-57.6],[154.6,-57.02],[154.52,-56.43],[153.96,-55.67],[153.42,-54.9],[152.9,-54.13],[152.41,-53.35],[151.75,-52.47],[151.13,-51.58],[150.52,-50.68],[149.95,-49.78],[149.39,-48.88],[149.24,-48.01],[149.09,-47.14],[148.95,-46.27],[148.81,-45.4],[148.68,-44.53],[148.47,-43.73],[148.26,-42.93],[148.06,-42.13],[147.87,-41.34],[147.68,-40.54],[147.55,-39.8],[147.41,-39.07],[147.28,-38.33],[147.28,-38.33],[146.29,-37.78],[145.31,-37.23],[144.35,-36.67],[143.4,-36.1],[142.35,-35.71],[141.31,-35.31],[140.72,-35.05],[140.13,-34.8],[139.69,-34.34],[139.27,-33.88],[138.8,-33.25],[138.35,-32.61],[137.68,-31.87],[137.02,-31.13],[136.37,-30.38],[135.72,-29.64],[135.7,-28.65],[135.67,-27.66],[135.65,-26.67],[135.63,-25.68],[135.63,-25.68],[136.64,-25.33],[137.65,-24.98],[138.65,-24.62],[139.65,-24.26],[140.64,-23.89],[141.63,-23.51],[142.61,-23.12],[143.58,-22.73],[144.55,-22.34],[145.51,-21.94],[146.47,-21.53],[147.43,-21.13],[148.38,-20.73],[149.33,-20.32],[150.28,-19.9],[151.21,-19.48],[152.15,-19.06],[153.08,-18.63],[154,-18.2],[154.92,-17.76],[155.84,-17.32],[156.75,-16.87],[157.65,-16.42],[158.56,-15.96],[159.05,-16.72],[159.55,-17.48],[160.06,-18.24],[160.56,-19],[161.48,-18.62],[162.4,-18.25],[163.31,-17.86],[164.22,-17.47],[165.12,-17.08],[166.02,-16.69],[166.91,-16.29],[167.81,-15.88],[168.69,-15.48],[169.58,-15.07],[170.46,-14.65],[171.34,-14.23],[172.21,-13.81],[173.08,-13.39],[173.95,-12.96],[174.37,-13.82],[174.79,-14.67],[175.22,-15.52],[175.65,-16.37],[176.08,-17.22],[176.87,-16.87],[177.66,-16.53],[178.44,-16.18],[179.22,-15.83],[180,-15.47],[180,-16.46]]],[[[-180,-67.87],[-180,-66.88],[-180,-65.89],[-180,-64.9],[-180,-63.91],[-180,-62.92],[-180,-61.93],[-180,-60.95],[-180,-59.96],[-180,-58.97],[-180,-57.98],[-180,-56.99],[-180,-56],[-180,-55.01],[-180,-54.03],[-180,-53.04],[-180,-52.05],[-180,-51.06],[-180,-50.07],[-180,-49.08],[-180,-48.09],[-180,-47.11],[-180,-46.12],[-180,-45.13],[-180,-44.14],[-180,-43.15],[-180,-42.16],[-180,-41.17],[-180,-40.19],[-180,-39.2],[-180,-38.21],[-180,-37.22],[-180,-36.23],[-180,-35.24],[-180,-34.26],[-180,-33.27],[-180,-32.28],[-180,-31.29],[-180,-30.3],[-180,-29.31],[-180,-28.32],[-180,-27.34],[-180,-26.35],[-180,-25.36],[-180,-24.37],[-180,-23.38],[-180,-22.39],[-180,-21.4],[-180,-20.42],[-180,-19.43],[-180,-18.44],[-180,-17.45],[-180,-16.46],[-180,-15.47],[-179.1,-15.06],[-178.2,-14.64],[-177.3,-14.21],[-176.41,-13.79],[-175.52,-13.35],[-174.63,-12.92],[-173.75,-12.48],[-172.86,-12.05],[-171.99,-11.6],[-171.11,-11.16],[-170.24,-10.71],[-169.73,-11.36],[-169.22,-12.01],[-168.71,-12.65],[-167.83,-12.19],[-166.96,-11.71],[-166.1,-11.24],[-165.23,-10.76],[-164.37,-10.28],[-163.51,-9.8],[-162.66,-9.32],[-161.8,-8.83],[-160.95,-8.34],[-160.1,-7.86],[-159.75,-8.71],[-159.39,-9.56],[-159.03,-10.41],[-158.12,-10.02],[-157.21,-9.63],[-156.3,-9.24],[-155.4,-8.85],[-154.49,-8.46],[-153.59,-8.06],[-152.69,-7.66],[-151.8,-7.26],[-150.9,-6.86],[-150.01,-6.45],[-149.11,-6.05],[-148.22,-5.64],[-147.33,-5.23],[-146.44,-4.82],[-145.55,-4.41],[-144.67,-4],[-143.76,-3.61],[-142.86,-3.23],[-141.96,-2.84],[-141.06,-2.45],[-140.16,-2.07],[-139.26,-1.68],[-138.36,-1.29],[-137.46,-0.9],[-136.57,-0.51],[-136.57,-0.51],[-136.34,-1.36],[-136.12,-2.21],[-135.89,-3.06],[-135.67,-3.91],[-135.44,-4.76],[-134.72,-5.18],[-133.99,-5.59],[-133.11,-6.04],[-132.22,-6.49],[-131.34,-6.94],[-130.45,-7.38],[-129.55,-7.83],[-128.66,-8.27],[-127.77,-8.71],[-126.87,-9.15],[-125.97,-9.58],[-125.07,-10.02],[-124.16,-10.45],[-123.26,-10.88],[-122.35,-11.3],[-121.43,-11.73],[-120.52,-12.15],[-119.6,-12.57],[-118.68,-12.98],[-117.76,-13.39],[-116.83,-13.8],[-115.9,-14.2],[-116.12,-14.86],[-116.34,-15.51],[-116.56,-16.16],[-115.69,-16.52],[-114.81,-16.88],[-113.93,-17.23],[-113.05,-17.58],[-112.17,-17.93],[-111.28,-18.27],[-110.39,-18.61],[-109.49,-18.94],[-108.59,-19.27],[-107.69,-19.59],[-106.78,-19.91],[-107.11,-20.81],[-107.44,-21.71],[-106.51,-22.03],[-105.57,-22.33],[-104.64,-22.63],[-103.69,-22.93],[-102.75,-23.22],[-101.8,-23.51],[-100.84,-23.79],[-99.88,-24.06],[-98.92,-24.33],[-97.96,-24.59],[-96.99,-24.84],[-97.22,-25.63],[-97.45,-26.42],[-96.45,-26.7],[-95.44,-26.98],[-94.43,-27.25],[-93.41,-27.51],[-92.39,-27.76],[-91.37,-28.01],[-90.34,-28.25],[-89.3,-28.48],[-88.27,-28.7],[-87.22,-28.91],[-86.18,-29.12],[-85.12,-29.32],[-84.07,-29.51],[-83.01,-29.69],[-81.95,-29.86],[-80.88,-30.03],[-80.8,-31.01],[-80.72,-31.99],[-79.58,-32.12],[-78.44,-32.25],[-77.3,-32.36],[-76.15,-32.47],[-75,-32.56],[-73.85,-32.65],[-72.69,-32.72],[-71.54,-32.78],[-70.38,-32.83],[-69.22,-32.87],[-68.06,-32.9],[-66.9,-32.92],[-65.74,-32.93],[-64.58,-32.93],[-63.42,-32.92],[-62.25,-32.9],[-61.1,-32.86],[-61.1,-32.86],[-61.07,-33.04],[-60.55,-33.86],[-60.53,-34.39],[-60.51,-34.92],[-60.44,-35.68],[-60.52,-36.22],[-60.52,-36.59],[-60.54,-36.87],[-60.54,-36.87],[-60.59,-37.47],[-60.78,-37.94],[-61.13,-38.75],[-61.37,-39.2],[-61.53,-39.9],[-61.71,-40.45],[-61.78,-40.77],[-61.91,-41.16],[-62.04,-41.58],[-62.3,-42.43],[-62.56,-43.28],[-62.86,-44.03],[-63.17,-44.78],[-63.48,-45.52],[-63.8,-46.27],[-64.43,-46.98],[-65.07,-47.69],[-65.73,-48.4],[-66.4,-49.1],[-67.1,-49.8],[-67.39,-50.62],[-67.69,-51.44],[-67.96,-52.16],[-68.23,-52.88],[-68.97,-53.63],[-69.73,-54.38],[-69.92,-54.63],[-69.98,-54.75],[-69.98,-54.75],[-70.16,-55.07],[-70.16,-55.07],[-70.71,-55.59],[-71.09,-55.84],[-71.36,-56.18],[-71.57,-56.44],[-71.93,-56.87],[-72.19,-57.13],[-72.65,-57.61],[-72.99,-57.95],[-73.34,-58.32],[-73.71,-58.7],[-74.28,-59.3],[-74.52,-59.54],[-74.85,-59.87],[-75.15,-60.17],[-75.43,-60.44],[-75.74,-60.78],[-75.99,-61.06],[-76.21,-61.3],[-76.27,-61.37],[-76.42,-61.59],[-76.6,-61.86],[-76.83,-62.28],[-77.25,-62.57],[-77.75,-62.85],[-78.43,-63.17],[-79.18,-63.55],[-79.66,-63.79],[-80.06,-64],[-80.41,-64.17],[-80.94,-64.47],[-81.44,-64.86],[-81.71,-65.2],[-81.92,-65.52],[-82.11,-65.76],[-82.25,-66.05],[-82.43,-66.39],[-82.56,-66.77],[-82.68,-67.17],[-82.9,-67.48],[-83.07,-67.63],[-83.36,-67.94],[-83.74,-68.29],[-84.08,-68.63],[-84.35,-69],[-84.39,-69.06],[-84.42,-69.47],[-84.35,-69.57],[-84.35,-69.57],[-86.42,-70.16],[-88.6,-70.72],[-91.29,-71.06],[-94.06,-71.36],[-96.92,-71.61],[-99.84,-71.82],[-102.83,-71.99],[-105.45,-72.14],[-108.11,-72.25],[-110.79,-72.33],[-113.5,-72.37],[-115.96,-72.55],[-118.46,-72.7],[-121,-72.82],[-123.58,-72.9],[-126.33,-72.98],[-129.1,-73.02],[-131.88,-73.03],[-134.65,-72.99],[-137.4,-72.92],[-140.12,-72.82],[-142.8,-72.68],[-145.43,-72.5],[-148.29,-72.26],[-151.08,-71.98],[-153.77,-71.66],[-156.37,-71.31],[-158.87,-70.92],[-161.68,-70.6],[-164.4,-70.25],[-167.02,-69.85],[-169.53,-69.41],[-171.95,-68.94],[-174.64,-68.95],[-177.32,-68.93],[-180,-68.85],[-180,-67.87]]]]}},{"type":"Feature","properties":{"ma":225,"type":"gpml:TopologicalClosedPlateBoundary","name":"Farallon Plate","pid":902,"deforming":false},"geometry":{"type":"Polygon","coordinates":[[[-134.72,-5.18],[-135.44,-4.76],[-135.68,-3.85],[-135.93,-2.93],[-136.17,-2.01],[-136.41,-1.09],[-136.66,-0.17],[-136.9,0.75],[-137.14,1.67],[-137.38,2.59],[-137.63,3.51],[-137.87,4.43],[-138.11,5.34],[-138.35,6.25],[-138.59,7.15],[-138.83,8.06],[-139.07,8.97],[-139.31,9.88],[-139.56,10.78],[-139.8,11.69],[-140.05,12.6],[-140.3,13.51],[-139.31,13.72],[-138.31,13.94],[-137.32,14.15],[-137.51,15.12],[-137.71,16.09],[-137.91,17.07],[-138.1,18.04],[-138.31,19.01],[-138.51,19.98],[-138.72,20.96],[-138.92,21.93],[-139.14,22.9],[-139.35,23.87],[-139.57,24.84],[-139.79,25.81],[-140.02,26.78],[-140.25,27.75],[-140.48,28.72],[-139.5,28.9],[-138.51,29.08],[-137.52,29.24],[-137.75,30.22],[-137.99,31.19],[-138.24,32.17],[-138.48,33.14],[-138.74,34.11],[-139,35.08],[-139.27,36.06],[-139.54,37.03],[-139.82,38],[-140.11,38.97],[-140.4,39.94],[-140.71,40.9],[-141.02,41.87],[-141.34,42.84],[-141.68,43.8],[-142.02,44.77],[-142.38,45.73],[-142.75,46.69],[-143.13,47.65],[-143.52,48.61],[-142.07,48.88],[-140.6,49.14],[-139.11,49.37],[-139.46,50.33],[-139.81,51.29],[-140.18,52.25],[-140.57,53.2],[-140.98,54.16],[-141.4,55.11],[-141.85,56.06],[-142.32,57.01],[-142.81,57.95],[-143.33,58.9],[-143.88,59.84],[-144.46,60.78],[-145.07,61.72],[-145.73,62.66],[-146.42,63.59],[-144.79,63.89],[-143.12,64.18],[-141.41,64.45],[-142.19,65.37],[-143.01,66.28],[-143.9,67.19],[-144.86,68.1],[-145.9,69],[-147.03,69.89],[-148.25,70.77],[-149.59,71.65],[-151.06,72.51],[-152.67,73.37],[-154.45,74.2],[-156.43,75.03],[-158.62,75.83],[-161.07,76.61],[-163.81,77.37],[-166.89,78.09],[-166.89,78.09],[-163.95,78.54],[-160.79,78.95],[-157.4,79.32],[-153.08,79.82],[-148.35,80.25],[-143.22,80.61],[-137.73,80.89],[-131.95,81.09],[-125.97,81.19],[-119.92,81.2],[-113.93,81.11],[-108.11,80.93],[-102.57,80.66],[-97.39,80.31],[-91.96,80.01],[-86.89,79.63],[-82.19,79.18],[-77.9,78.67],[-73.99,78.09],[-70.45,77.47],[-67.26,76.81],[-64.37,76.11],[-61.75,75.38],[-59.39,74.62],[-56.81,74.04],[-54.41,73.43],[-52.18,72.79],[-52.18,72.79],[-52.67,72.19],[-53.35,71.49],[-53.98,70.8],[-55.08,70.24],[-56.12,69.67],[-57.51,68.99],[-58.8,68.29],[-60.02,67.58],[-60.95,67.08],[-61.84,66.58],[-61.84,66.58],[-61.64,65.76],[-61.45,64.93],[-61.27,64.11],[-61.11,63.28],[-60.81,62.74],[-60.52,62.19],[-60.52,62.19],[-62.58,62.08],[-64.62,61.93],[-66.64,61.75],[-68.63,61.54],[-70.6,61.31],[-72.53,61.04],[-74.43,60.75],[-76.3,60.43],[-78.12,60.09],[-79.94,59.81],[-81.73,59.51],[-83.49,59.19],[-85.21,58.84],[-86.9,58.47],[-88.55,58.08],[-90.16,57.67],[-91.74,57.24],[-93.28,56.71],[-94.77,56.16],[-96.23,55.6],[-97.64,55.02],[-98.51,54.41],[-99.36,53.78],[-100.18,53.16],[-100.98,52.52],[-101.46,51.83],[-101.94,51.14],[-102.4,50.44],[-102.85,49.74],[-102.85,49.74],[-102.25,49.34],[-101.66,48.63],[-101.09,47.93],[-100.53,47.22],[-99.95,46.47],[-99.39,45.72],[-98.84,44.97],[-98.43,44.21],[-98.02,43.45],[-97.63,42.7],[-97.25,41.94],[-96.83,41.28],[-96.42,40.62],[-96.01,39.96],[-95.39,39.13],[-94.77,38.29],[-94.18,37.45],[-93.49,36.73],[-92.82,36.01],[-92.16,35.28],[-91.88,34.81],[-91.6,34.33],[-91.6,34.33],[-91.07,34.78],[-90.53,35.23],[-89.56,35.74],[-88.58,36.23],[-87.58,36.72],[-86.57,37.21],[-85.55,37.68],[-84.52,38.14],[-83.47,38.6],[-82.32,38.83],[-81.15,39.05],[-79.99,39.25],[-78.81,39.45],[-77.63,39.63],[-76.44,39.81],[-75.25,39.97],[-74.05,40.11],[-72.85,40.25],[-71.65,40.39],[-70.45,40.52],[-69.25,40.63],[-68.04,40.74],[-66.83,40.83],[-65.61,40.91],[-64.39,40.97],[-63.08,41.06],[-61.76,41.12],[-60.44,41.18],[-59.11,41.21],[-57.79,41.23],[-56.46,41.24],[-55.3,41.19],[-54.14,41.13],[-52.98,41.06],[-51.83,40.98],[-50.68,40.88],[-49.53,40.78],[-48.24,40.58],[-46.97,40.37],[-45.7,40.14],[-45.7,40.14],[-45.55,39.24],[-45.4,38.33],[-45.6,37.43],[-45.8,36.53],[-46,35.63],[-46.19,34.73],[-46.37,33.83],[-46.55,32.93],[-46.73,32.03],[-46.97,31.05],[-47.21,30.08],[-47.44,29.1],[-47.67,28.12],[-47.89,27.15],[-48.11,26.17],[-48.55,25.31],[-48.99,24.45],[-49.42,23.58],[-49.42,23.58],[-49.96,23.06],[-50.5,22.53],[-51.03,21.99],[-51.7,21.3],[-52.36,20.6],[-53.02,19.89],[-53.67,19.19],[-54.11,18.43],[-54.54,17.68],[-54.98,16.92],[-55.41,16.16],[-55.83,15.4],[-55.83,14.63],[-55.83,13.86],[-55.83,13.09],[-55.83,12.31],[-55.75,11.36],[-55.68,10.41],[-55.6,9.45],[-55.53,8.5],[-55.45,7.55],[-55.38,6.59],[-55.3,5.64],[-55.27,4.79],[-55.23,3.95],[-55.19,3.1],[-55.15,2.25],[-55.11,1.4],[-55.11,1.4],[-55.15,1.34],[-55.61,0.88],[-56.07,0.42],[-56.63,-0.01],[-57.19,-0.44],[-57.6,-0.78],[-58.01,-1.13],[-58.31,-1.83],[-58.62,-2.54],[-58.92,-3.25],[-59.16,-4.03],[-59.39,-4.82],[-59.63,-5.6],[-59.82,-6.35],[-60.01,-7.1],[-60.2,-7.84],[-60.32,-8.58],[-60.45,-9.32],[-60.08,-9.97],[-59.71,-10.62],[-59.54,-11.32],[-59.36,-12.01],[-59.18,-12.7],[-58.93,-13.35],[-58.68,-14],[-58.33,-14.7],[-58.33,-14.7],[-58.37,-14.75],[-58.58,-15.04],[-58.83,-15.37],[-58.94,-15.6],[-59.05,-15.78],[-59.23,-16.12],[-59.38,-16.37],[-59.49,-16.6],[-59.62,-16.86],[-60.04,-17.62],[-60.46,-18.39],[-60.88,-19.15],[-61.31,-19.92],[-61.74,-20.68],[-61.76,-21.55],[-61.78,-22.41],[-61.81,-23.28],[-61.8,-24.14],[-61.8,-25.01],[-61.8,-25.87],[-61.79,-26.73],[-61.79,-27.59],[-61.78,-28.45],[-61.65,-29.28],[-61.52,-30.11],[-61.39,-30.94],[-61.24,-31.9],[-61.1,-32.86],[-61.1,-32.86],[-62.25,-32.9],[-63.42,-32.92],[-64.58,-32.93],[-65.74,-32.93],[-66.9,-32.92],[-68.06,-32.9],[-69.22,-32.87],[-70.38,-32.83],[-71.54,-32.78],[-72.69,-32.72],[-73.85,-32.65],[-75,-32.56],[-76.15,-32.47],[-77.3,-32.36],[-78.44,-32.25],[-79.58,-32.12],[-80.72,-31.99],[-80.8,-31.01],[-80.88,-30.03],[-81.95,-29.86],[-83.01,-29.69],[-84.07,-29.51],[-85.12,-29.32],[-86.18,-29.12],[-87.22,-28.91],[-88.27,-28.7],[-89.3,-28.48],[-90.34,-28.25],[-91.37,-28.01],[-92.39,-27.76],[-93.41,-27.51],[-94.43,-27.25],[-95.44,-26.98],[-96.45,-26.7],[-97.45,-26.42],[-97.22,-25.63],[-96.99,-24.84],[-97.96,-24.59],[-98.92,-24.33],[-99.88,-24.06],[-100.84,-23.79],[-101.8,-23.51],[-102.75,-23.22],[-103.69,-22.93],[-104.64,-22.63],[-105.57,-22.33],[-106.51,-22.03],[-107.44,-21.71],[-107.11,-20.81],[-106.78,-19.91],[-107.69,-19.59],[-108.59,-19.27],[-109.49,-18.94],[-110.39,-18.61],[-111.28,-18.27],[-112.17,-17.93],[-113.05,-17.58],[-113.93,-17.23],[-114.81,-16.88],[-115.69,-16.52],[-116.56,-16.16],[-116.34,-15.51],[-116.12,-14.86],[-115.9,-14.2],[-116.83,-13.8],[-117.76,-13.39],[-118.68,-12.98],[-119.6,-12.57],[-120.52,-12.15],[-121.43,-11.73],[-122.35,-11.3],[-123.26,-10.88],[-124.16,-10.45],[-125.07,-10.02],[-125.97,-9.58],[-126.87,-9.15],[-127.77,-8.71],[-128.66,-8.27],[-129.55,-7.83],[-130.45,-7.38],[-131.34,-6.94],[-132.22,-6.49],[-133.11,-6.04],[-133.99,-5.59],[-134.72,-5.18]]]}},{"type":"Feature","properties":{"ma":225,"type":"gpml:TopologicalClosedPlateBoundary","name":"Junction Plate North","pid":498,"deforming":false},"geometry":{"type":"Polygon","coordinates":[[[112.99,-17.79],[113.02,-16.89],[113.04,-15.99],[113.06,-15.08],[113.09,-14.18],[113.05,-13.31],[113.02,-12.44],[112.99,-11.57],[112.95,-10.7],[112.92,-9.83],[112.89,-8.96],[112.86,-8.09],[112.86,-8.09],[113.79,-8.22],[114.73,-8.36],[115.67,-8.49],[116.61,-8.62],[117.55,-8.75],[118.49,-8.88],[119.43,-9],[120.37,-9.12],[121.31,-9.24],[122.22,-9.68],[123.13,-10.12],[124.04,-10.55],[124.96,-10.99],[125.88,-11.42],[126.8,-11.85],[127.72,-12.27],[128.64,-12.57],[129.56,-12.87],[130.49,-13.17],[131.41,-13.46],[132.34,-13.75],[133.27,-14.04],[134.2,-14.32],[134.94,-14.75],[134.94,-14.75],[135.17,-15.35],[135.41,-15.94],[135.43,-16.83],[135.45,-17.73],[135.47,-18.62],[135.49,-19.52],[135.51,-20.41],[135.53,-21.31],[135.55,-22.2],[135.57,-23.1],[135.59,-23.99],[135.59,-23.99],[134.59,-24.11],[133.58,-24.23],[132.58,-24.33],[131.57,-24.43],[130.56,-24.53],[129.56,-24.61],[129.43,-23.7],[129.32,-22.79],[128.33,-22.85],[127.35,-22.89],[126.36,-22.93],[125.38,-22.97],[124.39,-23],[123.4,-23.02],[122.42,-23.03],[122.37,-22.19],[122.32,-21.34],[122.27,-20.49],[122.22,-19.64],[122.17,-18.79],[122.12,-17.94],[121.11,-17.94],[120.09,-17.94],[119.08,-17.94],[118.06,-17.93],[117.05,-17.91],[116.04,-17.89],[115.02,-17.86],[114.01,-17.83],[112.99,-17.79]]]}},{"type":"Feature","properties":{"ma":225,"type":"gpml:TopologicalClosedPlateBoundary","name":"Cimmerian-Neotethys Plate","pid":505,"deforming":false},"geometry":{"type":"Polygon","coordinates":[[[116.41,22.28],[116.55,21.4],[116.69,20.52],[116.83,19.64],[116.96,18.76],[117.1,17.88],[117.55,17.25],[118,16.62],[118.44,15.99],[119.24,15.53],[120.04,15.08],[120.84,14.63],[121.19,13.95],[121.54,13.28],[121.89,12.6],[122.42,11.81],[122.94,11.02],[123.2,10.11],[123.47,9.2],[123.78,8.34],[124.1,7.48],[124.41,6.62],[124.29,5.63],[124.17,4.64],[124.06,3.65],[123.94,2.66],[123.29,2.13],[122.65,1.6],[122,1.07],[121.35,0.54],[120.7,0.01],[120.04,-0.53],[119.38,-1.07],[118.72,-1.6],[118.05,-2.14],[117.35,-2.59],[116.65,-3.04],[115.95,-3.49],[115.25,-3.93],[114.77,-4.5],[114.29,-5.06],[113.81,-5.62],[113.54,-6.45],[113.27,-7.28],[112.99,-8.11],[112.99,-8.11],[112.86,-8.09],[112.86,-8.09],[112.89,-8.88],[112.92,-9.67],[112.95,-10.46],[112.95,-10.46],[112.16,-10.44],[111.38,-10.42],[111.28,-11.23],[111.18,-12.05],[111.07,-12.87],[110.22,-12.78],[109.37,-12.69],[108.52,-12.6],[108.27,-13.51],[108.02,-14.42],[107.78,-15.33],[107.52,-16.24],[107.27,-17.15],[106.48,-17.03],[105.7,-16.91],[104.91,-16.78],[104.13,-16.66],[103.85,-17.51],[103.58,-18.37],[103.3,-19.22],[103.02,-20.07],[102.73,-20.93],[102.44,-21.78],[101.46,-21.7],[100.49,-21.61],[99.51,-21.52],[98.54,-21.43],[97.57,-21.33],[97.26,-22.09],[96.95,-22.86],[96.63,-23.63],[96.31,-24.4],[95.36,-24.09],[94.42,-23.77],[93.48,-23.44],[92.54,-23.11],[92.12,-24.03],[91.69,-24.94],[91.25,-25.86],[90.8,-26.77],[90.35,-27.68],[89.89,-28.6],[89.43,-29.5],[89.43,-29.5],[88.3,-29.45],[87.18,-29.39],[86.06,-29.31],[84.95,-29.23],[83.83,-29.14],[82.71,-29.06],[81.59,-28.97],[80.48,-28.88],[79.36,-28.77],[78.25,-28.66],[77.14,-28.54],[76.03,-28.41],[76.14,-27.9],[76.24,-27.39],[75.21,-27.07],[74.19,-26.74],[73.18,-26.4],[72.17,-26.06],[71.17,-25.71],[70.17,-25.36],[69.18,-24.99],[68.19,-24.62],[67.22,-24.25],[66.24,-23.86],[65.27,-23.48],[64.31,-23.08],[63.36,-22.68],[62.41,-22.28],[61.46,-21.87],[61.46,-21.87],[61.79,-21.05],[62.13,-20.23],[62.45,-19.41],[62.78,-18.59],[61.82,-18.22],[60.87,-17.85],[59.92,-17.47],[58.98,-17.09],[58.04,-16.7],[57.1,-16.31],[56.17,-15.92],[55.24,-15.52],[54.31,-15.12],[53.39,-14.71],[52.47,-14.3],[51.56,-13.89],[50.65,-13.47],[50.96,-12.59],[50.14,-12.17],[49.32,-11.75],[48.5,-11.32],[47.69,-10.89],[46.87,-10.46],[46.06,-10.02],[45.25,-9.59],[45.63,-8.83],[44.82,-8.29],[44.02,-7.76],[43.21,-7.22],[42.41,-6.68],[41.62,-6.14],[40.82,-5.6],[40.02,-5.05],[39.23,-4.51],[38.44,-3.96],[37.65,-3.42],[36.86,-2.87],[36.86,-2.87],[36.38,-3.59],[35.9,-4.31],[35.43,-5.02],[34.95,-5.74],[34.47,-6.45],[33.99,-7.17],[33.37,-7.88],[32.76,-8.59],[32.14,-9.29],[31.52,-10],[31.52,-10],[30.93,-9.23],[30.34,-8.46],[30.88,-7.91],[31.41,-7.37],[31.94,-6.82],[31.94,-6.82],[31.33,-6.19],[30.72,-5.55],[30.12,-4.92],[29.52,-4.28],[28.95,-4.74],[28.39,-5.19],[27.67,-4.5],[26.95,-3.81],[26.23,-3.12],[25.51,-2.42],[24.8,-1.73],[24.08,-1.04],[23.36,-0.34],[22.75,-0.77],[22.14,-1.2],[21.41,-0.52],[20.68,0.15],[19.94,0.83],[19.21,1.51],[18.48,2.18],[17.74,2.86],[17.01,3.53],[16.27,4.21],[15.54,4.88],[14.8,5.55],[14.8,5.55],[15.4,6.21],[15.86,7.05],[16.32,7.88],[16.78,8.72],[17.24,9.56],[17.71,10.39],[18.11,11.1],[18.51,11.81],[18.91,12.52],[19.31,13.23],[19.72,13.94],[19.72,13.94],[20.58,13.69],[21.44,13.44],[22.3,13.19],[23.16,12.93],[23.95,12.8],[24.74,12.68],[25.53,12.54],[26.32,12.41],[27.22,12.37],[28.11,12.32],[29.01,12.26],[29.89,12.46],[30.78,12.65],[31.67,12.84],[32.32,13.11],[32.96,13.38],[33.61,13.64],[34.51,14.01],[35.41,14.38],[36.33,14.55],[37.25,14.71],[38.17,14.87],[38.8,15.23],[39.42,15.59],[40.05,15.95],[40.31,16.54],[40.57,17.13],[40.67,17.65],[40.76,18.17],[40.99,18.9],[41.22,19.64],[41.5,20.43],[41.79,21.22],[42.35,21.97],[42.92,22.72],[43.49,23.48],[44.18,24.23],[44.87,24.99],[45.73,25.52],[46.61,26.05],[47.49,26.57],[47.82,27.27],[48.16,27.97],[48.5,28.66],[48.71,29.46],[48.93,30.25],[49.59,30.54],[50.25,30.82],[51.07,30.46],[51.89,30.1],[51.89,30.1],[52.41,30.83],[52.94,31.57],[53.6,32.26],[54.27,32.96],[54.95,33.65],[55.64,34.34],[56.35,35.02],[57.06,35.7],[57.79,36.38],[58.53,37.05],[59.28,37.72],[59.85,38.61],[60.44,39.49],[61.05,40.38],[61.67,41.26],[62.31,42.13],[62.97,43.01],[62.97,43.01],[63.92,43.44],[64.89,43.86],[65.88,44.27],[66.88,44.68],[68.03,45.17],[69.2,45.65],[70.39,46.12],[71.6,46.57],[72.82,47.01],[73.24,47.79],[73.66,48.57],[74.1,49.34],[74.56,50.11],[75.03,50.89],[75.03,50.89],[75.21,50.9],[76.57,50.82],[77.92,50.73],[79.27,50.63],[80.61,50.51],[81.89,50.41],[83.17,50.3],[84.44,50.18],[85.91,50.06],[87.37,49.92],[88.74,50],[90.12,50.07],[91.5,50.33],[92.9,50.58],[94.22,50.88],[95.56,51.16],[96.03,51.18],[96.03,51.18],[94.95,50.62],[93.9,50.06],[92.88,49.49],[91.87,48.91],[90.81,48.26],[89.78,47.59],[88.77,46.93],[87.79,46.25],[86.83,45.56],[85.9,44.87],[84.98,44.16],[84.09,43.45],[83.22,42.74],[82.37,42.02],[81.54,41.29],[80.8,40.52],[80.07,39.74],[79.37,38.96],[78.67,38.18],[77.99,37.39],[77.33,36.6],[76.68,35.8],[76.04,35.01],[75.41,34.2],[74.77,33.49],[74.13,32.78],[73.5,32.07],[72.89,31.35],[72.28,30.63],[71.69,29.91],[71.1,29.18],[70.52,28.45],[70.52,28.45],[71.11,27.62],[71.69,26.78],[72.26,25.94],[72.82,25.1],[73.5,24.49],[74.17,23.88],[74.84,23.26],[75.5,22.64],[76.15,22.02],[77.06,21.57],[77.96,21.12],[78.85,20.66],[79.74,20.2],[80.62,19.73],[81.41,19.32],[82.19,18.91],[82.97,18.49],[83.75,18.07],[84.77,17.89],[85.79,17.71],[86.82,17.52],[87.83,17.33],[87.83,17.33],[88.75,17.25],[89.67,17.16],[90.58,17.07],[91.49,16.97],[92.46,16.92],[93.44,16.86],[94.41,16.8],[95.3,16.91],[96.2,17.02],[97.09,17.12],[97.99,17.22],[98.89,17.31],[99.8,17.46],[100.72,17.6],[101.63,17.74],[102.55,17.88],[103.47,18.01],[104.41,18.4],[105.35,18.78],[106.3,19.16],[107.25,19.54],[108.21,19.91],[109.11,20.19],[110.01,20.47],[110.91,20.74],[111.82,21.01],[112.73,21.27],[113.65,21.53],[114.57,21.79],[115.49,22.03],[116.41,22.28]]]}},{"type":"Feature","properties":{"ma":225,"type":"gpml:TopologicalClosedPlateBoundary","name":"Cache Creek/Mezcalear Ocean","pid":131,"deforming":false},"geometry":{"type":"Polygon","coordinates":[[[-91.6,34.33],[-91.88,34.81],[-92.16,35.28],[-92.82,36.01],[-93.49,36.73],[-94.18,37.45],[-94.77,38.29],[-95.39,39.13],[-96.01,39.96],[-96.42,40.62],[-96.83,41.28],[-97.25,41.94],[-97.63,42.7],[-98.02,43.45],[-98.43,44.21],[-98.84,44.97],[-99.39,45.72],[-99.95,46.47],[-100.53,47.22],[-101.09,47.93],[-101.66,48.63],[-102.25,49.34],[-102.85,49.74],[-102.85,49.74],[-102.4,50.44],[-101.94,51.14],[-101.46,51.83],[-100.98,52.52],[-100.18,53.16],[-99.36,53.78],[-98.51,54.41],[-97.64,55.02],[-96.23,55.6],[-94.77,56.16],[-93.28,56.71],[-91.74,57.24],[-90.16,57.67],[-88.55,58.08],[-86.9,58.47],[-85.21,58.84],[-83.49,59.19],[-81.73,59.51],[-79.94,59.81],[-78.12,60.09],[-76.3,60.43],[-74.43,60.75],[-72.53,61.04],[-70.6,61.31],[-68.63,61.54],[-66.64,61.75],[-64.62,61.93],[-62.58,62.08],[-60.52,62.19],[-60.52,62.19],[-60.23,61.63],[-59.96,61.07],[-59.32,60.18],[-58.71,59.28],[-58.08,58.63],[-57.48,57.97],[-56.9,57.32],[-56.09,56.69],[-55.31,56.06],[-54.55,55.42],[-53.46,54.72],[-52.4,54.01],[-51.37,53.3],[-50.45,52.67],[-49.56,52.04],[-48.69,51.4],[-47.84,50.75],[-47.04,50.3],[-46.25,49.85],[-45.47,49.39],[-45.47,49.39],[-45.64,48.78],[-45.79,48.17],[-46.1,47.24],[-46.39,46.3],[-46.67,45.37],[-46.95,44.44],[-47.22,43.51],[-46.62,42.79],[-46.03,42.06],[-45.86,41.1],[-45.7,40.14],[-45.7,40.14],[-46.97,40.37],[-48.24,40.58],[-49.53,40.78],[-50.68,40.88],[-51.83,40.98],[-52.98,41.06],[-54.14,41.13],[-55.3,41.19],[-56.46,41.24],[-57.79,41.23],[-59.11,41.21],[-60.44,41.18],[-61.76,41.12],[-63.08,41.06],[-64.39,40.97],[-65.61,40.91],[-66.83,40.83],[-68.04,40.74],[-69.25,40.63],[-70.45,40.52],[-71.65,40.39],[-72.85,40.25],[-74.05,40.11],[-75.25,39.97],[-76.44,39.81],[-77.63,39.63],[-78.81,39.45],[-79.99,39.25],[-81.15,39.05],[-82.32,38.83],[-83.47,38.6],[-84.52,38.14],[-85.55,37.68],[-86.57,37.21],[-87.58,36.72],[-88.58,36.23],[-89.56,35.74],[-90.53,35.23],[-91.07,34.78],[-91.6,34.33]]]}},{"type":"Feature","properties":{"ma":225,"type":"gpml:TopologicalClosedPlateBoundary","name":"Adria","pid":307,"deforming":false},"geometry":{"type":"Polygon","coordinates":[[[32.3,-11.13],[31.69,-11.54],[30.87,-10.95],[30.18,-11.46],[29.49,-11.98],[28.79,-12.49],[28.26,-11.93],[27.73,-11.38],[26.92,-11.79],[26.1,-12.19],[25.55,-11.47],[25,-10.75],[24.33,-11.07],[23.65,-11.38],[22.97,-11.7],[22.55,-11.15],[22.14,-10.61],[21.73,-10.06],[20.83,-10.48],[19.93,-10.89],[19.21,-11.25],[18.49,-11.6],[17.76,-11.95],[17.39,-11.13],[17.01,-10.32],[16.64,-9.5],[16.28,-8.69],[15.91,-7.87],[15.18,-8.03],[14.46,-8.18],[13.73,-8.33],[13.42,-7.6],[13.11,-6.87],[12.79,-6.13],[12.48,-5.4],[11.61,-5.59],[11.38,-4.82],[11.15,-4.04],[10.92,-3.27],[10.69,-2.5],[10.47,-1.72],[10.18,-0.97],[10.18,-0.97],[10.97,-0.57],[11.77,-0.16],[12.57,0.24],[12.36,0.97],[12.16,1.69],[11.95,2.42],[12.52,3.05],[13.09,3.67],[13.66,4.3],[14.23,4.93],[14.8,5.55],[14.8,5.55],[15.54,4.88],[16.27,4.21],[17.01,3.53],[17.74,2.86],[18.48,2.18],[19.21,1.51],[19.94,0.83],[20.68,0.15],[21.41,-0.52],[22.14,-1.2],[22.75,-0.77],[23.36,-0.34],[24.08,-1.04],[24.8,-1.73],[25.51,-2.42],[26.23,-3.12],[26.95,-3.81],[27.67,-4.5],[28.39,-5.19],[28.95,-4.74],[29.52,-4.28],[30.12,-4.92],[30.72,-5.55],[31.33,-6.19],[31.94,-6.82],[31.94,-6.82],[31.41,-7.37],[30.88,-7.91],[30.34,-8.46],[30.95,-9.25],[31.55,-10.04],[32.16,-10.82],[32.3,-11.13]]]}},{"type":"Feature","properties":{"ma":225,"type":"gpml:TopologicalClosedPlateBoundary","name":"South China plate","pid":602,"deforming":false},"geometry":{"type":"Polygon","coordinates":[[[108.21,19.91],[107.25,19.54],[106.3,19.16],[105.35,18.78],[104.41,18.4],[103.47,18.01],[102.55,17.88],[101.63,17.74],[100.72,17.6],[99.8,17.46],[98.89,17.31],[97.99,17.22],[97.09,17.12],[96.2,17.02],[95.3,16.91],[94.41,16.8],[93.44,16.86],[92.46,16.92],[91.49,16.97],[90.58,17.07],[89.67,17.16],[88.75,17.25],[87.83,17.33],[87.83,17.33],[86.82,17.52],[85.79,17.71],[84.77,17.89],[83.75,18.07],[82.97,18.49],[82.19,18.91],[81.41,19.32],[80.62,19.73],[79.74,20.2],[78.85,20.66],[77.96,21.12],[77.06,21.57],[76.15,22.02],[75.5,22.64],[74.84,23.26],[74.17,23.88],[73.5,24.49],[72.82,25.1],[72.26,25.94],[71.69,26.78],[71.11,27.62],[70.52,28.45],[70.52,28.45],[71.1,29.18],[71.69,29.91],[72.28,30.63],[72.89,31.35],[73.5,32.07],[74.13,32.78],[74.77,33.49],[75.41,34.2],[76.04,35.01],[76.68,35.8],[77.33,36.6],[77.99,37.39],[78.67,38.18],[79.37,38.96],[80.07,39.74],[80.8,40.52],[81.54,41.29],[82.37,42.02],[83.22,42.74],[84.09,43.45],[84.98,44.16],[85.9,44.87],[86.83,45.56],[87.79,46.25],[88.77,46.93],[89.78,47.59],[90.81,48.26],[91.87,48.91],[92.88,49.49],[93.9,50.06],[94.95,50.62],[96.03,51.18],[96.03,51.18],[97.27,51.21],[98.72,50.94],[99.59,50.95],[100.47,50.96],[101.82,50.58],[103.14,50.19],[104.22,49.78],[105.27,49.36],[106.31,48.93],[107.33,48.49],[108.49,48.1],[109.5,48.02],[110.43,48.68],[110.9,48.64],[111.77,48.53],[112.64,48.41],[114.09,48.43],[115.14,48.62],[116.21,48.81],[116.21,48.81],[117.15,48.63],[118.08,48.44],[118.89,48.3],[119.7,48.16],[120.77,48.09],[121.83,48.02],[123.08,47.97],[124.33,47.89],[125.4,48.33],[126.45,48.32],[127.81,48.17],[129.17,48.01],[130.51,47.83],[130.51,47.83],[129.2,47.55],[127.9,47.26],[126.62,46.95],[125.35,46.62],[124.1,46.29],[122.86,45.93],[121.64,45.57],[120.45,45.53],[119.27,45.47],[118.09,45.4],[116.91,45.32],[115.74,45.23],[114.81,44.6],[113.89,43.97],[113,43.33],[112.13,42.68],[111.27,42.02],[110.94,41.53],[110.94,41.53],[110.42,40.76],[109.91,39.98],[109.41,39.2],[108.92,38.42],[108.45,37.64],[108.14,36.86],[107.85,36.09],[107.56,35.32],[107.28,34.54],[107.46,33.59],[107.64,32.64],[107.81,31.69],[107.98,30.73],[108.15,29.78],[108.32,28.83],[108.48,27.87],[108.64,26.92],[109.04,26.13],[109.43,25.34],[109.81,24.55],[110.2,23.76],[109.81,23],[109.43,22.24],[109.06,21.47],[108.69,20.71],[108.32,19.95],[108.21,19.91]]]}},{"type":"Feature","properties":{"ma":225,"type":"gpml:TopologicalNetwork","name":"Central_Atlantic_Mesh","pid":101,"deforming":true},"geometry":{"type":"Polygon","coordinates":[[[-4.46,0.55],[-4.68,0.04],[-4.9,-0.48],[-5.39,-0.91],[-5.88,-1.34],[-5.66,-1.53],[-5.66,-1.53],[-5.94,-1.63],[-6.56,-1.87],[-7.1,-1.69],[-7.69,-1.6],[-8.02,-1.42],[-8.34,-1.26],[-8.84,-1.08],[-9.28,-0.8],[-9.88,-0.64],[-10.33,-0.7],[-10.99,-0.96],[-11.8,-1.08],[-12.52,-1.23],[-13.06,-1.5],[-13.95,-1.79],[-14.39,-2.12],[-15.17,-2.5],[-15.9,-2.81],[-16.45,-2.71],[-16.61,-2.62],[-17.12,-2.59],[-18.06,-2.54],[-18.95,-2.38],[-19.08,-2.47],[-19.56,-2.67],[-20.03,-2.88],[-20.38,-3.31],[-20.74,-3.75],[-21,-4.18],[-21.26,-4.62],[-21.51,-5.23],[-21.86,-5.76],[-22.25,-6.31],[-22.47,-6.5],[-22.73,-6.74],[-22.87,-7.16],[-22.95,-7.6],[-23.04,-8.38],[-23.27,-8.8],[-23.5,-9.16],[-23.82,-9.37],[-24.02,-9.64],[-24.17,-9.89],[-24.39,-10.24],[-24.84,-10.2],[-25.27,-10.19],[-25.89,-10.44],[-26.29,-10.74],[-26.57,-11.1],[-26.79,-11.88],[-27.03,-12.76],[-27.04,-13.35],[-26.83,-13.8],[-26.83,-13.8],[-27.11,-13.72],[-27.11,-13.72],[-27.54,-13.46],[-27.54,-13.46],[-27.96,-13.99],[-28.39,-14.53],[-28.55,-14.56],[-28.55,-14.56],[-28.57,-14.31],[-28.63,-14.03],[-28.57,-13.78],[-28.57,-13.53],[-28.71,-13.24],[-28.72,-13.08],[-28.68,-12.98],[-28.73,-12.79],[-28.82,-12.68],[-28.94,-12.57],[-29.02,-12.42],[-29.22,-12.15],[-29.47,-11.83],[-29.61,-11.6],[-29.56,-11.35],[-29.45,-11],[-29.46,-10.82],[-29.66,-10.7],[-29.78,-10.42],[-29.88,-10.28],[-30.01,-10.26],[-30.16,-9.91],[-30.28,-9.57],[-30.44,-9.24],[-30.49,-8.87],[-30.64,-8.5],[-30.77,-8.13],[-30.83,-7.92],[-30.86,-7.67],[-30.91,-7.44],[-30.91,-7.44],[-30.87,-7.4],[-30.48,-7.1],[-30.11,-6.81],[-29.99,-6.62],[-29.65,-6.53],[-29.33,-6.45],[-28.81,-6.31],[-28.18,-6.19],[-27.55,-6.06],[-26.99,-5.64],[-26.53,-5.2],[-26.31,-4.44],[-26.14,-3.83],[-25.52,-3.52],[-24.75,-2.98],[-24.41,-2.68],[-23.93,-2.21],[-23.46,-1.74],[-23.19,-1.3],[-23.02,-0.86],[-22.62,-0.7],[-22.49,-0.6],[-22.25,-0.62],[-21.95,-0.69],[-21.67,-0.7],[-21.22,-0.56],[-20.97,-0.52],[-20.8,-0.52],[-20.49,-0.26],[-20.17,0.01],[-19.71,0.15],[-19.37,0.47],[-19.18,1.04],[-18.94,1.12],[-18.56,0.99],[-18.06,1.27],[-17.59,1.3],[-16.84,1.37],[-16.07,1.53],[-15.57,1.69],[-14.81,1.84],[-14.32,2.15],[-13.65,2.57],[-13.09,2.85],[-12.55,3],[-11.94,3.16],[-11.61,3.19],[-11.13,3.11],[-10.48,3.07],[-9.92,3.15],[-9.45,3.21],[-8.96,3.24],[-8.45,3.25],[-7.82,3.24],[-7.1,3.13],[-6.42,2.99],[-5.65,2.92],[-5.32,2.84],[-5.14,2.64],[-4.91,2.56],[-4.78,2.43],[-4.66,2.34],[-4.47,2.17],[-4.2,2],[-4.26,1.88],[-4.4,1.77],[-4.71,1.76],[-4.67,1.56],[-4.53,1.35],[-4.23,1.54],[-4.19,1.56],[-4.06,1.53],[-4.06,1.31],[-4.06,1.28],[-4.46,0.55]]]}},{"type":"Feature","properties":{"ma":225,"type":"gpml:TopologicalNetwork","name":"Proto_Caribbean_Mesh","pid":101,"deforming":true},"geometry":{"type":"Polygon","coordinates":[[[-31.58,-8.07],[-31.28,-7.78],[-30.91,-7.44],[-30.91,-7.44],[-30.86,-7.67],[-30.83,-7.92],[-30.77,-8.13],[-30.64,-8.5],[-30.49,-8.87],[-30.44,-9.24],[-30.28,-9.57],[-30.16,-9.91],[-30.01,-10.26],[-29.88,-10.28],[-29.78,-10.42],[-29.66,-10.7],[-29.46,-10.82],[-29.45,-11],[-29.56,-11.35],[-29.61,-11.6],[-29.47,-11.83],[-29.22,-12.15],[-29.02,-12.42],[-28.94,-12.57],[-28.82,-12.68],[-28.73,-12.79],[-28.68,-12.98],[-28.72,-13.08],[-28.71,-13.24],[-28.57,-13.53],[-28.57,-13.78],[-28.63,-14.03],[-28.57,-14.31],[-28.55,-14.56],[-28.55,-14.56],[-29.32,-14.73],[-30.09,-14.89],[-30.86,-15.05],[-31.48,-15.24],[-32.11,-15.43],[-32.7,-15.39],[-33.29,-15.36],[-33.82,-15.3],[-34.34,-15.23],[-35.25,-14.9],[-36.04,-14.79],[-36.84,-14.68],[-37.52,-14.54],[-38.21,-14.4],[-38.89,-14.26],[-39.66,-14.37],[-40.43,-14.48],[-41.08,-14.94],[-41.74,-15.39],[-42.36,-15.45],[-42.99,-15.52],[-43.52,-15.61],[-44.06,-15.7],[-44.64,-15.75],[-45.23,-15.81],[-45.88,-16],[-46.54,-16.18],[-47.22,-16.5],[-47.91,-16.82],[-48.69,-17.14],[-49.47,-17.46],[-50.32,-17.58],[-51.18,-17.7],[-52.05,-17.41],[-52.93,-17.12],[-53.59,-16.72],[-54.24,-16.32],[-54.75,-16.08],[-55.26,-15.83],[-55.86,-15.68],[-56.45,-15.52],[-57.02,-15.57],[-57.6,-15.62],[-57.88,-15.58],[-57.88,-15.58],[-58.28,-14.79],[-58.68,-14],[-58.93,-13.35],[-59.18,-12.7],[-59.36,-12.01],[-59.54,-11.32],[-59.71,-10.62],[-60.08,-9.97],[-60.45,-9.32],[-60.42,-9.17],[-60.42,-9.17],[-59.52,-9.12],[-58.55,-8.98],[-57.59,-8.85],[-56.81,-8.7],[-56.03,-8.55],[-55.06,-8.4],[-54.09,-8.24],[-53.29,-8.12],[-52.49,-8],[-51.79,-7.52],[-51.09,-7.05],[-50.46,-6.7],[-49.78,-6],[-49.37,-5.64],[-48.97,-5.29],[-48.68,-4.6],[-47.93,-3.97],[-47.18,-3.35],[-46.43,-2.72],[-45.74,-2.34],[-45.04,-1.97],[-44.34,-1.59],[-43.82,-1.64],[-43.31,-1.7],[-42.31,-1.72],[-41.81,-1.89],[-41.31,-2.07],[-40.6,-2.27],[-39.89,-2.48],[-39.1,-3.07],[-38.64,-3.34],[-38.18,-3.62],[-37.7,-3.87],[-37.22,-4.12],[-36.73,-4.41],[-36.24,-4.71],[-35.58,-5.09],[-34.95,-5.64],[-34.23,-6.09],[-33.51,-6.55],[-33,-7.03],[-32.5,-7.52],[-31.78,-8.18],[-31.77,-8.19],[-31.58,-8.07]]]}}]}