{"type":"FeatureCollection","features":[{"type":"Feature","properties":{"ma":250,"type":"gpml:TopologicalClosedPlateBoundary","name":"Pangea Plate","pid":701,"deforming":false},"geometry":{"type":"Polygon","coordinates":[[[180,-70.07],[180,-71.06],[180,-72.06],[180,-73.06],[180,-74.05],[180,-75.05],[180,-76.05],[180,-77.04],[180,-78.04],[180,-79.04],[180,-80.03],[180,-81.03],[180,-82.03],[180,-83.02],[180,-84.02],[180,-85.02],[180,-86.01],[180,-87.01],[180,-88.01],[180,-89],[180,-90],[-180,-90],[-180,-89],[-180,-88.01],[-180,-87.01],[-180,-86.01],[-180,-85.02],[-180,-84.02],[-180,-83.02],[-180,-82.03],[-180,-81.03],[-180,-80.03],[-180,-79.04],[-180,-78.04],[-180,-77.04],[-180,-76.05],[-180,-75.05],[-180,-74.05],[-180,-73.06],[-180,-72.06],[-180,-71.06],[-180,-70.07],[-180,-69.07],[-177.86,-69.24],[-175.69,-69.37],[-173.5,-69.48],[-171.28,-69.57],[-168.98,-70.14],[-166.55,-70.68],[-163.99,-71.19],[-161.3,-71.66],[-158.47,-72.09],[-155.99,-72.58],[-153.37,-73.04],[-150.61,-73.46],[-147.73,-73.84],[-144.71,-74.18],[-141.89,-74.45],[-138.99,-74.68],[-136,-74.88],[-132.94,-75.03],[-129.82,-75.14],[-126.66,-75.21],[-123.48,-75.24],[-120.3,-75.22],[-117.31,-75.19],[-114.35,-75.12],[-111.42,-75.01],[-108.54,-74.86],[-105.39,-74.86],[-102.26,-74.8],[-99.16,-74.71],[-96.11,-74.57],[-92.64,-74.41],[-89.25,-74.2],[-85.95,-73.93],[-82.78,-73.62],[-79.72,-73.26],[-77.29,-72.67],[-75.01,-72.06],[-75.01,-72.06],[-75.1,-71.96],[-75.11,-71.55],[-75.08,-71.49],[-74.81,-71.12],[-74.46,-70.77],[-74.09,-70.42],[-73.79,-70.1],[-73.61,-69.95],[-73.4,-69.64],[-73.32,-69.23],[-73.21,-68.85],[-73.04,-68.52],[-72.91,-68.22],[-72.73,-67.97],[-72.52,-67.66],[-72.27,-67.31],[-71.75,-66.91],[-71.19,-66.61],[-70.82,-66.43],[-70.4,-66.21],[-69.91,-65.96],[-69.12,-65.58],[-68.41,-65.24],[-67.89,-64.95],[-67.47,-64.66],[-67.25,-64.23],[-67.08,-63.96],[-66.94,-63.73],[-66.88,-63.66],[-66.67,-63.42],[-66.42,-63.13],[-66.12,-62.79],[-65.84,-62.51],[-65.54,-62.21],[-65.21,-61.87],[-64.98,-61.63],[-64.42,-61.02],[-64.06,-60.63],[-63.71,-60.25],[-63.37,-59.9],[-62.92,-59.42],[-62.67,-59.15],[-62.32,-58.72],[-62.11,-58.44],[-61.85,-58.1],[-61.47,-57.85],[-60.92,-57.31],[-60.92,-57.31],[-60.75,-56.99],[-60.75,-56.99],[-60.7,-56.87],[-60.52,-56.61],[-59.77,-55.85],[-59.05,-55.08],[-58.81,-54.35],[-58.57,-53.62],[-58.31,-52.8],[-58.06,-51.97],[-57.38,-51.25],[-56.71,-50.54],[-56.07,-49.81],[-55.45,-49.09],[-54.84,-48.36],[-54.55,-47.6],[-54.26,-46.85],[-53.99,-46.09],[-53.72,-45.33],[-53.49,-44.48],[-53.27,-43.62],[-53.17,-43.19],[-53.05,-42.81],[-52.99,-42.49],[-52.84,-41.93],[-52.7,-41.22],[-52.48,-40.77],[-52.16,-39.95],[-51.98,-39.47],[-51.96,-38.87],[-51.96,-38.87],[-51.96,-38.59],[-51.97,-38.22],[-51.91,-37.68],[-52.02,-36.92],[-52.06,-36.4],[-52.11,-35.87],[-52.67,-35.06],[-52.81,-34.36],[-52.95,-33.67],[-53.08,-32.97],[-53.25,-32.14],[-53.42,-31.32],[-53.58,-30.5],[-53.62,-29.63],[-53.65,-28.77],[-53.69,-27.91],[-53.72,-27.05],[-53.76,-26.19],[-53.79,-25.33],[-53.79,-24.46],[-53.8,-23.59],[-53.8,-22.72],[-53.39,-21.95],[-52.98,-21.17],[-52.58,-20.4],[-52.18,-19.62],[-51.79,-18.84],[-51.66,-18.58],[-51.56,-18.35],[-51.42,-18.09],[-51.24,-17.75],[-51.14,-17.57],[-51.03,-17.34],[-50.79,-17],[-50.59,-16.7],[-50.57,-16.68],[-50.57,-16.68],[-50.77,-16.31],[-51.05,-15.67],[-51.32,-15.03],[-51.53,-14.34],[-51.73,-13.66],[-51.93,-12.97],[-52.33,-12.33],[-52.72,-11.69],[-52.61,-10.95],[-52.51,-10.21],[-52.34,-9.45],[-52.18,-8.7],[-52.01,-7.95],[-51.8,-7.16],[-51.59,-6.36],[-51.38,-5.57],[-51.1,-4.86],[-50.82,-4.14],[-50.54,-3.42],[-50.14,-3.07],[-49.74,-2.71],[-49.19,-2.26],[-48.65,-1.81],[-48.34,-1.47],[-48.34,-1.47],[-48.09,-0.58],[-47.84,0.31],[-47.59,1.21],[-47.35,2.1],[-47.1,2.99],[-46.98,3.1],[-46.98,3.1],[-47.2,3.9],[-47.41,4.71],[-47.63,5.52],[-47.84,6.33],[-48.05,7.21],[-48.27,8.08],[-48.48,8.96],[-48.69,9.83],[-48.66,10.75],[-48.64,11.66],[-48.61,12.58],[-48.58,13.49],[-48.2,14.29],[-47.82,15.09],[-47.44,15.9],[-46.89,16.62],[-46.33,17.34],[-45.77,18.06],[-45.77,18.06],[-45.01,18.16],[-44.25,18.26],[-43.49,18.36],[-42.72,18.78],[-41.95,19.19],[-41.67,19.92],[-41.38,20.65],[-41.3,21.33],[-41.23,22.01],[-41.15,22.69],[-41.15,22.69],[-41.46,23.57],[-41.77,24.46],[-42.09,25.31],[-42.4,26.16],[-42.72,27.01],[-43.05,27.86],[-43.38,28.71],[-43.68,29.59],[-43.99,30.46],[-44.3,31.34],[-44.62,32.22],[-44.95,33.01],[-45.28,33.79],[-45.63,34.58],[-45.97,35.36],[-46.33,36.15],[-46.69,36.97],[-47.05,37.8],[-47.43,38.62],[-47.81,39.44],[-48.2,40.27],[-48.75,40.98],[-49.32,41.69],[-49.89,42.4],[-50.48,43.1],[-51.09,43.8],[-51.52,44.6],[-51.96,45.41],[-52.42,46.2],[-52.89,47],[-53.37,47.79],[-53.87,48.59],[-54.47,49.17],[-55.09,49.75],[-55.72,50.33],[-55.72,50.33],[-55.33,50.43],[-53.87,50.7],[-52.39,50.96],[-50.89,51.19],[-49.39,51.41],[-49.39,51.41],[-49.28,51.25],[-49.28,51.25],[-49.92,51.96],[-50.58,52.66],[-51.26,53.35],[-51.96,54.04],[-52.69,54.73],[-53.56,55.48],[-54.46,56.21],[-55.4,56.95],[-56.37,57.67],[-57.1,58.42],[-57.86,59.17],[-58.66,59.91],[-59.4,60.58],[-60.17,61.25],[-60.98,61.91],[-61.83,62.56],[-62.32,63.42],[-62.84,64.29],[-63.4,65.15],[-64,66.01],[-64.63,66.86],[-65.31,67.71],[-66.05,68.56],[-66.07,69.25],[-66.1,69.94],[-66.12,70.63],[-65.38,71.58],[-64.56,72.53],[-63.65,73.48],[-62.63,74.42],[-61.49,75.36],[-59.63,76.23],[-57.52,77.08],[-55.13,77.92],[-52.39,78.73],[-49.25,79.51],[-45.61,80.26],[-41.01,80.72],[-35.97,81.11],[-30.51,81.43],[-24.69,81.67],[-18.59,81.82],[-12.34,81.87],[-6.08,81.83],[0.21,81.69],[6.22,81.46],[11.85,81.13],[17.05,80.73],[21.78,80.26],[26.06,79.73],[29.91,79.15],[33.35,78.53],[36.12,77.88],[38.61,77.2],[40.84,76.5],[42.86,75.79],[44.69,75.05],[44.69,75.05],[46.88,74.37],[48.89,73.67],[48.89,73.67],[51.76,73.8],[54.67,73.89],[57.6,73.94],[60.55,73.96],[63.49,73.93],[66.73,73.62],[69.84,73.26],[72.81,72.85],[75.65,72.4],[78.34,71.92],[80.9,71.4],[83.31,70.85],[85.59,70.26],[88.12,70.06],[90.59,69.82],[93.01,69.54],[95.36,69.24],[97.64,68.9],[99.84,68.53],[99.84,68.53],[98.33,67.75],[96.91,66.96],[95.58,66.16],[94.34,65.35],[93.17,64.53],[92.07,63.69],[91.03,62.85],[90.05,62.01],[89.12,61.15],[88.24,60.29],[86.85,59.74],[85.51,59.18],[84.22,58.6],[82.96,58.01],[81.75,57.41],[80.57,56.79],[79.44,56.17],[78.34,55.53],[77.64,54.81],[76.96,54.09],[76.3,53.36],[75.67,52.63],[75.06,51.9],[74.3,51.2],[73.56,50.49],[72.84,49.78],[72.14,49.07],[71.46,48.35],[70.8,47.63],[70.17,46.84],[69.56,46.05],[68.96,45.26],[68.39,44.46],[67.82,43.67],[67.27,42.87],[66.74,42.06],[66.22,41.26],[65.71,40.45],[64.95,39.76],[64.21,39.08],[63.48,38.39],[62.77,37.69],[62.06,36.99],[61.38,36.28],[60.7,35.58],[60.03,34.86],[59.38,34.15],[58.86,33.4],[58.35,32.65],[57.5,32.99],[56.65,33.32],[55.97,33.03],[55.31,32.72],[55.12,31.92],[54.93,31.12],[54.61,30.42],[54.29,29.71],[53.98,29],[53.1,28.45],[52.23,27.9],[51.37,27.34],[50.45,27.26],[49.54,27.18],[48.63,27.09],[47.63,26.88],[46.63,26.66],[45.63,26.43],[45.14,25.87],[44.64,25.3],[44.15,24.73],[43.5,24.09],[42.85,23.46],[42.85,23.46],[43.53,22.8],[44.21,22.15],[44.88,21.49],[45.54,20.83],[46.2,20.16],[46.85,19.5],[47.5,18.83],[48.13,18.12],[48.76,17.41],[48.76,17.41],[47.85,16.95],[46.95,16.49],[46.06,16.02],[45.16,15.55],[44.28,15.08],[43.38,14.84],[42.49,14.61],[41.6,14.37],[40.71,14.12],[39.86,13.92],[39.01,13.72],[38.16,13.52],[37.32,13.31],[36.47,13.1],[35.52,12.99],[34.57,12.89],[33.61,12.78],[32.66,12.66],[31.71,12.54],[30.76,12.42],[29.81,12.3],[28.84,12.4],[27.86,12.49],[26.89,12.58],[25.91,12.66],[25.91,12.66],[25.84,12.55],[25.55,11.6],[25.26,10.66],[24.97,9.71],[24.97,9.71],[25.68,9.07],[26.44,8.41],[27.19,7.76],[27.94,7.1],[28.69,6.44],[29.44,5.78],[30.19,5.11],[30.93,4.45],[31.67,3.79],[32.07,4.2],[32.46,4.62],[33.13,4.1],[33.8,3.59],[34.46,3.07],[34.97,3.58],[35.47,4.09],[36.12,3.49],[36.78,2.89],[37.43,2.29],[38.08,1.69],[38.74,1.08],[39.48,0.46],[40.23,-0.17],[40.97,-0.79],[41.71,-1.42],[42.46,-2.05],[41.84,-2.64],[41.22,-3.23],[40.6,-3.82],[39.97,-4.41],[39.35,-5],[38.72,-5.59],[38.72,-5.59],[39.4,-6.32],[40.08,-7.05],[40.76,-7.78],[41.44,-8.51],[42.13,-9.24],[42.82,-9.97],[43.51,-10.69],[44.21,-11.41],[44.9,-12.14],[45.61,-12.86],[46.31,-13.58],[47.02,-14.29],[46.48,-14.96],[47.2,-15.55],[47.91,-16.15],[48.63,-16.74],[49.36,-17.32],[50.09,-17.91],[50.82,-18.49],[51.56,-19.07],[51.05,-19.86],[51.88,-20.46],[52.72,-21.04],[53.56,-21.63],[54.41,-22.2],[55.27,-22.78],[56.13,-23.35],[57.01,-23.91],[57.89,-24.47],[58.78,-25.03],[59.67,-25.58],[60.58,-26.12],[61.49,-26.66],[62.41,-27.19],[61.9,-27.94],[61.38,-28.68],[60.85,-29.43],[60.31,-30.17],[60.31,-30.17],[61.22,-30.74],[62.13,-31.31],[63.05,-31.87],[63.99,-32.43],[64.94,-32.98],[65.9,-33.52],[66.87,-34.05],[67.85,-34.58],[68.85,-35.09],[69.86,-35.6],[70.88,-36.1],[71.91,-36.59],[72.96,-37.08],[74.02,-37.55],[75.1,-38.02],[74.88,-38.5],[74.66,-38.99],[75.87,-39.28],[77.09,-39.55],[78.32,-39.81],[79.56,-40.06],[80.8,-40.29],[82.06,-40.52],[83.32,-40.72],[84.58,-40.94],[85.85,-41.14],[87.13,-41.33],[88.41,-41.51],[89.7,-41.67],[89.7,-41.67],[90.37,-40.81],[91.02,-39.94],[91.65,-39.07],[92.27,-38.2],[92.87,-37.33],[93.46,-36.45],[94.04,-35.57],[95.06,-35.97],[96.09,-36.36],[97.13,-36.74],[98.19,-37.11],[98.61,-36.36],[99.03,-35.62],[99.44,-34.87],[99.85,-34.12],[100.93,-34.27],[102.02,-34.41],[103.12,-34.55],[104.21,-34.67],[105.31,-34.78],[105.67,-33.94],[106.03,-33.1],[106.38,-32.25],[106.72,-31.41],[107.05,-30.56],[107.38,-29.71],[108.24,-29.86],[109.11,-30],[109.98,-30.13],[110.84,-30.26],[111.14,-29.36],[111.42,-28.45],[111.7,-27.54],[111.98,-26.64],[112.25,-25.73],[113.17,-25.82],[114.1,-25.91],[115.02,-26],[115.13,-25.18],[115.24,-24.36],[115.34,-23.54],[116.33,-23.56],[117.33,-23.58],[117.55,-22.74],[117.77,-21.9],[117.99,-21.06],[118.2,-20.22],[118.95,-20.23],[119.69,-20.25],[119.69,-20.25],[119.7,-19.81],[119.7,-19.81],[120.74,-19.86],[121.77,-19.91],[122.8,-19.95],[123.84,-19.98],[124.87,-20.01],[125.91,-20.04],[126.94,-20.05],[127.98,-20.06],[129.01,-20.07],[129.05,-20.92],[129.09,-21.77],[129.13,-22.62],[129.18,-23.47],[129.22,-24.32],[129.26,-25.17],[130.26,-25.16],[131.27,-25.15],[132.27,-25.12],[133.27,-25.1],[134.27,-25.06],[135.28,-25.02],[136.28,-24.97],[136.39,-25.88],[136.51,-26.79],[137.59,-26.7],[138.68,-26.61],[139.75,-26.51],[140.83,-26.39],[141.91,-26.28],[141.91,-26.28],[141.89,-27.2],[141.87,-28.13],[142.46,-28.9],[143.07,-29.67],[143.68,-30.43],[144.3,-31.2],[144.72,-31.85],[145.14,-32.5],[145.53,-32.98],[145.93,-33.45],[146.5,-33.73],[147.07,-34.01],[148.07,-34.44],[149.08,-34.87],[149.98,-35.48],[150.89,-36.08],[151.81,-36.67],[152.75,-37.26],[152.75,-37.26],[152.84,-38],[152.92,-38.74],[153,-39.48],[153.13,-40.29],[153.26,-41.09],[153.4,-41.9],[153.54,-42.7],[153.68,-43.5],[153.74,-44.38],[153.8,-45.26],[153.87,-46.13],[153.93,-47.01],[154,-47.88],[154.46,-48.8],[154.94,-49.72],[155.44,-50.64],[155.95,-51.56],[156.49,-52.47],[156.89,-53.26],[157.3,-54.05],[157.72,-54.84],[158.17,-55.63],[158.17,-56.22],[158.17,-56.8],[157.84,-57.35],[157.51,-57.9],[156.68,-58.79],[155.8,-59.68],[154.84,-60.55],[153.81,-61.42],[153.47,-61.92],[154.34,-62.79],[154.55,-63.62],[154.78,-64.46],[155.02,-65.29],[155.02,-65.29],[156.79,-65.65],[158.61,-65.99],[160.48,-66.31],[162.4,-66.6],[164.35,-66.87],[166.4,-67.27],[168.51,-67.64],[170.69,-67.99],[172.93,-68.31],[175.23,-68.6],[177.59,-68.85],[180,-69.07],[180,-70.07]]]}},{"type":"Feature","properties":{"ma":250,"type":"gpml:TopologicalClosedPlateBoundary","name":"Izanagi Plate","pid":926,"deforming":false},"geometry":{"type":"MultiPolygon","coordinates":[[[[180,62.89],[180,61.9],[180,60.91],[180,59.92],[180,58.93],[180,57.94],[180,56.95],[180,55.96],[180,54.98],[180,53.99],[180,53],[180,52.01],[180,51.02],[180,50.03],[180,49.04],[180,48.05],[180,47.06],[180,46.08],[180,45.09],[180,44.1],[180,43.11],[180,42.12],[180,41.13],[180,40.14],[180,39.15],[180,38.16],[180,37.18],[180,36.19],[180,35.2],[180,34.21],[180,33.22],[180,32.23],[180,31.24],[180,30.25],[180,29.27],[180,28.28],[180,27.29],[180,26.3],[180,25.31],[180,24.32],[180,23.33],[180,22.34],[180,21.35],[180,20.37],[180,19.38],[180,18.39],[180,17.4],[180,16.41],[180,15.42],[180,14.43],[180,13.44],[180,12.45],[180,11.47],[180,10.48],[180,9.49],[180,8.5],[180,7.51],[180,6.52],[180,5.53],[180,4.54],[180,3.55],[180,2.57],[180,1.58],[180,0.59],[180,-0.4],[180,-1.39],[180,-2.38],[180,-3.37],[180,-4.36],[180,-5.34],[180,-6.33],[180,-7.32],[180,-8.31],[180,-9.3],[180,-10.29],[179.07,-10.49],[178.14,-10.68],[177.2,-10.88],[176.27,-11.07],[175.33,-11.25],[174.39,-11.44],[173.46,-11.62],[172.52,-11.8],[171.57,-11.97],[170.63,-12.14],[169.69,-12.31],[168.74,-12.48],[167.8,-12.64],[167.69,-11.67],[167.58,-10.71],[167.47,-9.74],[167.36,-8.77],[166.41,-9.08],[165.46,-9.39],[164.51,-9.7],[163.56,-10],[162.61,-10.3],[161.65,-10.6],[160.7,-10.89],[159.74,-11.18],[158.77,-11.47],[157.81,-11.76],[156.85,-12.04],[155.88,-12.32],[154.91,-12.59],[153.94,-12.87],[152.96,-13.13],[151.99,-13.4],[151.01,-13.66],[150.03,-13.92],[149.05,-14.17],[148.07,-14.42],[147.08,-14.66],[146.09,-14.9],[145.1,-15.14],[144.11,-15.37],[143.11,-15.6],[142.11,-15.82],[142.11,-15.82],[142.1,-16.75],[142.08,-17.67],[142.06,-18.59],[142.04,-19.52],[142.03,-20.44],[142.03,-20.44],[141.66,-20.25],[140.68,-19.99],[139.71,-19.74],[138.75,-19.48],[137.78,-19.21],[136.82,-18.94],[135.87,-18.66],[134.91,-18.38],[133.95,-17.98],[133,-17.57],[132.04,-17.16],[131.09,-16.74],[130.15,-16.31],[129.21,-15.89],[128.28,-15.46],[127.48,-15.37],[126.69,-15.27],[125.89,-15.18],[125.1,-15.08],[125.1,-15.08],[125.59,-14.49],[126.08,-13.89],[126.57,-13.3],[127.03,-12.58],[127.49,-11.86],[127.96,-11.13],[128.41,-10.41],[128.86,-9.7],[129.3,-8.98],[129.74,-8.27],[130.18,-7.55],[130.62,-6.84],[130.4,-5.86],[130.17,-4.89],[129.95,-3.92],[129.73,-2.95],[129.18,-2.27],[128.62,-1.59],[128.62,-1.59],[128,-0.82],[127.45,-0.05],[126.91,0.72],[126.16,1.3],[125.42,1.88],[124.88,2.41],[124.34,2.94],[123.79,3.46],[122.92,3.65],[122.04,3.83],[121.17,4.02],[120.56,4.48],[119.95,4.95],[119.35,5.41],[118.71,6],[118.07,6.58],[117.43,7.16],[116.78,7.74],[116.14,8.32],[115.49,8.9],[115.48,9.08],[115.48,9.08],[114.7,8.52],[113.92,7.95],[113.14,7.39],[112.37,6.82],[111.59,6.25],[110.82,5.69],[110.82,5.69],[110.91,6.52],[111,7.35],[111.1,8.18],[111.19,9.02],[111.28,9.85],[110.69,10.49],[110.1,11.13],[109.5,11.77],[108.9,12.4],[108.45,13.26],[108,14.12],[107.55,14.98],[107.09,15.84],[106.63,16.69],[106.17,17.55],[105.7,18.41],[105.23,19.26],[105.2,20.07],[105.16,20.87],[105.13,21.68],[105.1,22.49],[105.2,23.35],[105.3,24.22],[105.4,25.08],[105.51,25.95],[105.61,26.81],[105.61,26.81],[105.68,27.35],[106.08,28.19],[106.48,29.03],[106.89,29.87],[107.31,30.71],[107.73,31.54],[108.58,31.95],[109.44,32.36],[110.3,32.76],[111.18,33.15],[112.06,33.54],[112.77,34.2],[113.49,34.86],[114.22,35.51],[114.97,36.16],[115.73,36.81],[116.5,37.45],[117.28,38.09],[117.28,38.09],[118.01,37.83],[119.21,37.65],[120.12,37.7],[121.04,37.74],[121.04,37.74],[121.76,37.45],[122.48,37.15],[123.11,36.91],[123.74,36.67],[124.6,36.48],[125.46,36.29],[126.47,36.09],[127.47,35.89],[128.43,36.2],[129.28,36.09],[130.2,35.86],[131.11,35.62],[132.02,35.37],[132.92,35.11],[132.92,35.11],[133.84,35.39],[134.77,35.65],[135.67,35.81],[136.58,35.96],[137.49,36.11],[138.4,36.25],[139.25,36.32],[140.1,36.38],[140.95,36.44],[141.84,37.12],[142.74,37.8],[143.66,38.48],[144.6,39.14],[145.56,39.8],[146.53,40.45],[147.53,41.09],[148.54,41.72],[149.57,42.35],[150.63,42.96],[151.35,43.77],[152.1,44.58],[152.87,45.38],[153.66,46.17],[154.48,46.96],[155.32,47.75],[156.18,48.52],[157.07,49.29],[157.99,50.06],[158.94,50.81],[159.92,51.56],[160.93,52.3],[161.98,53.03],[163.06,53.75],[163.97,54.54],[164.92,55.32],[165.91,56.09],[166.94,56.85],[168,57.61],[169.12,58.35],[170.28,59.09],[171.49,59.81],[172.76,60.52],[174.08,61.22],[175.46,61.91],[176.91,62.58],[178.42,63.24],[180,63.87],[180,62.89]]],[[[-180,-9.3],[-180,-8.31],[-180,-7.32],[-180,-6.33],[-180,-5.34],[-180,-4.36],[-180,-3.37],[-180,-2.38],[-180,-1.39],[-180,-0.4],[-180,0.59],[-180,1.58],[-180,2.57],[-180,3.55],[-180,4.54],[-180,5.53],[-180,6.52],[-180,7.51],[-180,8.5],[-180,9.49],[-180,10.48],[-180,11.47],[-180,12.45],[-180,13.44],[-180,14.43],[-180,15.42],[-180,16.41],[-180,17.4],[-180,18.39],[-180,19.38],[-180,20.37],[-180,21.35],[-180,22.34],[-180,23.33],[-180,24.32],[-180,25.31],[-180,26.3],[-180,27.29],[-180,28.28],[-180,29.27],[-180,30.25],[-180,31.24],[-180,32.23],[-180,33.22],[-180,34.21],[-180,35.2],[-180,36.19],[-180,37.18],[-180,38.16],[-180,39.15],[-180,40.14],[-180,41.13],[-180,42.12],[-180,43.11],[-180,44.1],[-180,45.09],[-180,46.08],[-180,47.06],[-180,48.05],[-180,49.04],[-180,50.03],[-180,51.02],[-180,52.01],[-180,53],[-180,53.99],[-180,54.98],[-180,55.96],[-180,56.95],[-180,57.94],[-180,58.93],[-180,59.92],[-180,60.91],[-180,61.9],[-180,62.89],[-180,63.87],[-178.81,64.33],[-177.71,65.12],[-176.54,65.9],[-175.3,66.67],[-173.98,67.43],[-172.58,68.18],[-171.08,68.92],[-169.47,69.64],[-167.76,70.35],[-165.93,71.04],[-163.96,71.71],[-161.85,72.36],[-159.59,72.98],[-159.59,72.98],[-157.33,73.65],[-154.88,74.28],[-152.24,74.89],[-150.22,75.5],[-148.04,76.1],[-147.06,75.16],[-146.19,74.22],[-145.42,73.28],[-144.72,72.34],[-144.1,71.39],[-143.53,70.44],[-143.02,69.49],[-142.55,68.54],[-142.11,67.59],[-141.71,66.63],[-141.34,65.68],[-141,64.72],[-140.68,63.77],[-140.38,62.81],[-140.1,61.85],[-139.84,60.89],[-139.59,59.94],[-139.35,58.98],[-139.13,58.02],[-138.92,57.06],[-140.35,56.95],[-141.78,56.83],[-143.19,56.69],[-144.59,56.54],[-144.38,55.59],[-144.17,54.65],[-143.98,53.7],[-143.79,52.75],[-143.61,51.81],[-143.44,50.86],[-143.27,49.91],[-143.11,48.96],[-142.96,48.01],[-142.81,47.06],[-142.67,46.11],[-142.53,45.16],[-142.4,44.22],[-142.27,43.27],[-142.15,42.32],[-142.03,41.37],[-141.91,40.42],[-141.8,39.47],[-141.68,38.52],[-141.58,37.57],[-141.47,36.62],[-142.57,36.53],[-143.67,36.43],[-144.77,36.33],[-145.87,36.21],[-145.75,35.22],[-145.63,34.22],[-145.51,33.23],[-145.4,32.24],[-145.29,31.24],[-145.19,30.25],[-145.08,29.25],[-144.98,28.26],[-144.88,27.26],[-144.78,26.27],[-144.68,25.27],[-144.58,24.28],[-144.49,23.28],[-144.39,22.29],[-144.3,21.29],[-144.21,20.3],[-144.12,19.3],[-144.03,18.3],[-143.95,17.31],[-143.86,16.31],[-144.89,16.29],[-145.92,16.26],[-146.95,16.23],[-146.9,15.27],[-146.85,14.32],[-146.8,13.36],[-146.76,12.4],[-146.71,11.44],[-146.67,10.48],[-146.62,9.52],[-146.58,8.57],[-145.88,8.6],[-145.19,8.62],[-144.5,8.65],[-144.63,7.69],[-144.76,6.73],[-144.89,5.77],[-145.03,4.81],[-145.16,3.85],[-145.29,2.89],[-145.42,1.93],[-145.55,0.97],[-145.68,0.01],[-145.8,-0.95],[-145.93,-1.91],[-145.93,-1.91],[-145.94,-1.91],[-146.86,-2.24],[-147.77,-2.57],[-148.68,-2.9],[-149.6,-3.23],[-150.51,-3.56],[-151.43,-3.89],[-152.34,-4.22],[-153.26,-4.54],[-154.18,-4.87],[-155.1,-5.19],[-156.02,-5.51],[-156.94,-5.83],[-157.86,-6.15],[-158.78,-6.47],[-159.71,-6.79],[-160.63,-7.1],[-161.56,-7.42],[-162.49,-7.73],[-163.42,-8.03],[-164.35,-8.34],[-165.28,-8.65],[-166.21,-8.95],[-167.15,-9.25],[-168.08,-9.54],[-168.16,-8.55],[-168.24,-7.55],[-169.21,-7.79],[-170.19,-8.03],[-171.16,-8.27],[-172.14,-8.51],[-173.12,-8.74],[-174.1,-8.97],[-175.08,-9.19],[-176.06,-9.42],[-177.04,-9.64],[-178.03,-9.86],[-179.01,-10.08],[-180,-10.29],[-180,-9.3]]]]}},{"type":"Feature","properties":{"ma":250,"type":"gpml:TopologicalClosedPlateBoundary","name":"Junction Plate North","pid":498,"deforming":false},"geometry":{"type":"Polygon","coordinates":[[[119.72,-14.34],[120.67,-14.48],[121.61,-14.61],[122.56,-14.74],[123.51,-14.87],[124.46,-15],[125.41,-15.12],[126.37,-15.24],[127.32,-15.35],[128.28,-15.46],[129.21,-15.89],[130.15,-16.31],[131.09,-16.74],[132.04,-17.16],[133,-17.57],[133.95,-17.98],[134.91,-18.38],[135.87,-18.66],[136.82,-18.94],[137.78,-19.21],[138.75,-19.48],[139.71,-19.74],[140.68,-19.99],[141.66,-20.25],[142.03,-20.44],[142.03,-20.44],[142.01,-21.41],[141.99,-22.38],[141.97,-23.36],[141.95,-24.33],[141.93,-25.3],[141.91,-26.28],[141.91,-26.28],[140.83,-26.39],[139.75,-26.51],[138.68,-26.61],[137.59,-26.7],[136.51,-26.79],[136.39,-25.88],[136.28,-24.97],[135.28,-25.02],[134.27,-25.06],[133.27,-25.1],[132.27,-25.12],[131.27,-25.15],[130.26,-25.16],[129.26,-25.17],[129.22,-24.32],[129.18,-23.47],[129.13,-22.62],[129.09,-21.77],[129.05,-20.92],[129.01,-20.07],[127.98,-20.06],[126.94,-20.05],[125.91,-20.04],[124.87,-20.01],[123.84,-19.98],[122.8,-19.95],[121.77,-19.91],[120.74,-19.86],[119.7,-19.81],[119.7,-19.81],[119.72,-18.94],[119.73,-18.07],[119.75,-17.19],[119.77,-16.32],[119.74,-15.33],[119.72,-14.34]]]}},{"type":"Feature","properties":{"ma":250,"type":"gpml:TopologicalClosedPlateBoundary","name":"Phoenix Plate","pid":919,"deforming":false},"geometry":{"type":"MultiPolygon","coordinates":[[[[180,-11.29],[180,-12.28],[180,-13.28],[180,-14.27],[180,-15.27],[180,-16.27],[180,-17.26],[180,-18.26],[180,-19.26],[180,-20.25],[180,-21.25],[180,-22.24],[180,-23.24],[180,-24.24],[180,-25.23],[180,-26.23],[180,-27.23],[180,-28.22],[180,-29.22],[180,-30.22],[180,-31.21],[180,-32.21],[180,-33.2],[180,-34.2],[180,-35.2],[180,-36.19],[180,-37.19],[180,-38.19],[180,-39.18],[180,-40.18],[180,-41.17],[180,-42.17],[180,-43.17],[180,-44.16],[180,-45.16],[180,-46.16],[180,-47.15],[180,-48.15],[180,-49.15],[180,-50.14],[180,-51.14],[180,-52.13],[180,-53.13],[180,-54.13],[180,-55.12],[180,-56.12],[180,-57.12],[180,-58.11],[180,-59.11],[180,-60.1],[180,-61.1],[180,-62.1],[180,-63.09],[180,-64.09],[180,-65.09],[180,-66.08],[180,-67.08],[180,-68.08],[180,-69.07],[177.59,-68.85],[175.23,-68.6],[172.93,-68.31],[170.69,-67.99],[168.51,-67.64],[166.4,-67.27],[164.35,-66.87],[162.4,-66.6],[160.48,-66.31],[158.61,-65.99],[156.79,-65.65],[155.02,-65.29],[155.02,-65.29],[154.78,-64.46],[154.55,-63.62],[154.34,-62.79],[153.47,-61.92],[153.81,-61.42],[154.84,-60.55],[155.8,-59.68],[156.68,-58.79],[157.51,-57.9],[157.84,-57.35],[158.17,-56.8],[158.17,-56.22],[158.17,-55.63],[157.72,-54.84],[157.3,-54.05],[156.89,-53.26],[156.49,-52.47],[155.95,-51.56],[155.44,-50.64],[154.94,-49.72],[154.46,-48.8],[154,-47.88],[153.93,-47.01],[153.87,-46.13],[153.8,-45.26],[153.74,-44.38],[153.68,-43.5],[153.54,-42.7],[153.4,-41.9],[153.26,-41.09],[153.13,-40.29],[153,-39.48],[152.92,-38.74],[152.84,-38],[152.75,-37.26],[152.75,-37.26],[151.81,-36.67],[150.89,-36.08],[149.98,-35.48],[149.08,-34.87],[148.07,-34.44],[147.07,-34.01],[146.5,-33.73],[145.93,-33.45],[145.53,-32.98],[145.14,-32.5],[144.72,-31.85],[144.3,-31.2],[143.68,-30.43],[143.07,-29.67],[142.46,-28.9],[141.87,-28.13],[141.89,-27.18],[141.91,-26.24],[141.93,-25.29],[141.95,-24.34],[141.97,-23.4],[141.99,-22.45],[142.01,-21.5],[142.02,-20.56],[142.04,-19.61],[142.06,-18.66],[142.08,-17.72],[142.1,-16.77],[142.11,-15.82],[143.11,-15.6],[144.11,-15.37],[145.1,-15.14],[146.09,-14.9],[147.08,-14.66],[148.07,-14.42],[149.05,-14.17],[150.03,-13.92],[151.01,-13.66],[151.99,-13.4],[152.96,-13.13],[153.94,-12.87],[154.91,-12.59],[155.88,-12.32],[156.85,-12.04],[157.81,-11.76],[158.77,-11.47],[159.74,-11.18],[160.7,-10.89],[161.65,-10.6],[162.61,-10.3],[163.56,-10],[164.51,-9.7],[165.46,-9.39],[166.41,-9.08],[167.36,-8.77],[167.47,-9.74],[167.58,-10.71],[167.69,-11.67],[167.8,-12.64],[168.74,-12.48],[169.69,-12.31],[170.63,-12.14],[171.57,-11.97],[172.52,-11.8],[173.46,-11.62],[174.39,-11.44],[175.33,-11.25],[176.27,-11.07],[177.2,-10.88],[178.14,-10.68],[179.07,-10.49],[180,-10.29],[180,-11.29]]],[[[-180,-68.08],[-180,-67.08],[-180,-66.08],[-180,-65.09],[-180,-64.09],[-180,-63.09],[-180,-62.1],[-180,-61.1],[-180,-60.1],[-180,-59.11],[-180,-58.11],[-180,-57.12],[-180,-56.12],[-180,-55.12],[-180,-54.13],[-180,-53.13],[-180,-52.13],[-180,-51.14],[-180,-50.14],[-180,-49.15],[-180,-48.15],[-180,-47.15],[-180,-46.16],[-180,-45.16],[-180,-44.16],[-180,-43.17],[-180,-42.17],[-180,-41.17],[-180,-40.18],[-180,-39.18],[-180,-38.19],[-180,-37.19],[-180,-36.19],[-180,-35.2],[-180,-34.2],[-180,-33.2],[-180,-32.21],[-180,-31.21],[-180,-30.22],[-180,-29.22],[-180,-28.22],[-180,-27.23],[-180,-26.23],[-180,-25.23],[-180,-24.24],[-180,-23.24],[-180,-22.24],[-180,-21.25],[-180,-20.25],[-180,-19.26],[-180,-18.26],[-180,-17.26],[-180,-16.27],[-180,-15.27],[-180,-14.27],[-180,-13.28],[-180,-12.28],[-180,-11.29],[-180,-10.29],[-179.01,-10.08],[-178.03,-9.86],[-177.04,-9.64],[-176.06,-9.42],[-175.08,-9.19],[-174.1,-8.97],[-173.12,-8.74],[-172.14,-8.51],[-171.16,-8.27],[-170.19,-8.03],[-169.21,-7.79],[-168.24,-7.55],[-168.16,-8.55],[-168.08,-9.54],[-167.15,-9.25],[-166.21,-8.95],[-165.28,-8.65],[-164.35,-8.34],[-163.42,-8.03],[-162.49,-7.73],[-161.56,-7.42],[-160.63,-7.1],[-159.71,-6.79],[-158.78,-6.47],[-157.86,-6.15],[-156.94,-5.83],[-156.02,-5.51],[-155.1,-5.19],[-154.18,-4.87],[-153.26,-4.54],[-152.34,-4.22],[-151.43,-3.89],[-150.51,-3.56],[-149.6,-3.23],[-148.68,-2.9],[-147.77,-2.57],[-146.86,-2.24],[-145.94,-1.91],[-145.93,-1.91],[-145.93,-1.91],[-145.89,-1.61],[-145.89,-1.61],[-145.06,-2.13],[-144.22,-2.65],[-143.38,-3.17],[-142.54,-3.69],[-141.7,-4.21],[-140.86,-4.72],[-140.02,-5.24],[-139.17,-5.75],[-138.33,-6.27],[-137.49,-6.77],[-136.65,-7.27],[-135.81,-7.77],[-134.96,-8.27],[-134.11,-8.77],[-133.27,-9.26],[-132.41,-9.75],[-131.56,-10.24],[-130.7,-10.73],[-129.84,-11.22],[-128.98,-11.7],[-128.12,-12.18],[-127.25,-12.66],[-126.38,-13.14],[-125.5,-13.61],[-124.62,-14.08],[-123.74,-14.55],[-122.86,-15.01],[-121.97,-15.47],[-121.07,-15.92],[-120.18,-16.38],[-119.27,-16.82],[-118.37,-17.27],[-117.46,-17.71],[-116.54,-18.15],[-115.62,-18.58],[-116.04,-19.34],[-116.46,-20.1],[-116.89,-20.86],[-117.32,-21.61],[-117.76,-22.37],[-118.2,-23.13],[-118.64,-23.88],[-117.74,-24.28],[-116.83,-24.68],[-115.91,-25.07],[-114.99,-25.45],[-114.06,-25.83],[-113.13,-26.21],[-112.19,-26.57],[-111.24,-26.94],[-110.29,-27.29],[-109.28,-27.66],[-108.26,-28.02],[-107.23,-28.37],[-106.2,-28.72],[-105.16,-29.06],[-104.11,-29.39],[-103.06,-29.71],[-102,-30.02],[-100.93,-30.33],[-99.85,-30.63],[-98.77,-30.91],[-97.69,-31.19],[-97.95,-32.15],[-98.22,-33.1],[-98.49,-34.05],[-98.77,-35.01],[-99.06,-35.96],[-99.35,-36.91],[-98.15,-37.13],[-96.95,-37.34],[-95.74,-37.53],[-94.52,-37.72],[-93.3,-37.89],[-92.07,-38.05],[-90.84,-38.19],[-89.6,-38.32],[-88.36,-38.44],[-87.11,-38.55],[-85.86,-38.64],[-84.61,-38.72],[-83.36,-38.79],[-82.1,-38.84],[-80.84,-38.88],[-80.7,-39.84],[-80.56,-40.8],[-80.42,-41.76],[-80.27,-42.72],[-80.12,-43.68],[-78.74,-43.67],[-77.37,-43.65],[-76,-43.62],[-74.63,-43.56],[-73.26,-43.49],[-71.9,-43.41],[-70.54,-43.3],[-69.18,-43.19],[-67.83,-43.05],[-66.49,-42.9],[-65.15,-42.74],[-63.82,-42.56],[-62.5,-42.36],[-61.19,-42.15],[-59.89,-41.92],[-58.59,-41.68],[-57.31,-41.43],[-56.04,-41.16],[-54.77,-40.88],[-53.52,-40.58],[-52.28,-40.27],[-52.28,-40.27],[-52.48,-40.77],[-52.7,-41.22],[-52.84,-41.93],[-52.99,-42.49],[-53.05,-42.81],[-53.17,-43.19],[-53.27,-43.62],[-53.49,-44.48],[-53.72,-45.33],[-53.99,-46.09],[-54.26,-46.85],[-54.55,-47.6],[-54.84,-48.36],[-55.45,-49.09],[-56.07,-49.81],[-56.71,-50.54],[-57.38,-51.25],[-58.06,-51.97],[-58.31,-52.8],[-58.57,-53.62],[-58.81,-54.35],[-59.05,-55.08],[-59.77,-55.85],[-60.52,-56.61],[-60.7,-56.87],[-60.75,-56.99],[-60.75,-56.99],[-60.92,-57.31],[-60.92,-57.31],[-61.47,-57.85],[-61.85,-58.1],[-62.11,-58.44],[-62.32,-58.72],[-62.67,-59.15],[-62.92,-59.42],[-63.37,-59.9],[-63.71,-60.25],[-64.06,-60.63],[-64.42,-61.02],[-64.98,-61.63],[-65.21,-61.87],[-65.54,-62.21],[-65.84,-62.51],[-66.12,-62.79],[-66.42,-63.13],[-66.67,-63.42],[-66.88,-63.66],[-66.94,-63.73],[-67.08,-63.96],[-67.25,-64.23],[-67.47,-64.66],[-67.89,-64.95],[-68.41,-65.24],[-69.12,-65.58],[-69.91,-65.96],[-70.4,-66.21],[-70.82,-66.43],[-71.19,-66.61],[-71.75,-66.91],[-72.27,-67.31],[-72.52,-67.66],[-72.73,-67.97],[-72.91,-68.22],[-73.04,-68.52],[-73.21,-68.85],[-73.32,-69.23],[-73.4,-69.64],[-73.61,-69.95],[-73.79,-70.1],[-74.09,-70.42],[-74.46,-70.77],[-74.81,-71.12],[-75.08,-71.49],[-75.11,-71.55],[-75.1,-71.96],[-75.01,-72.06],[-75.01,-72.06],[-77.29,-72.67],[-79.72,-73.26],[-82.78,-73.62],[-85.95,-73.93],[-89.25,-74.2],[-92.64,-74.41],[-96.11,-74.57],[-99.16,-74.71],[-102.26,-74.8],[-105.39,-74.86],[-108.54,-74.86],[-111.42,-75.01],[-114.35,-75.12],[-117.31,-75.19],[-120.3,-75.22],[-123.48,-75.24],[-126.66,-75.21],[-129.82,-75.14],[-132.94,-75.03],[-136,-74.88],[-138.99,-74.68],[-141.89,-74.45],[-144.71,-74.18],[-147.73,-73.84],[-150.61,-73.46],[-153.37,-73.04],[-155.99,-72.58],[-158.47,-72.09],[-161.3,-71.66],[-163.99,-71.19],[-166.55,-70.68],[-168.98,-70.14],[-171.28,-69.57],[-173.5,-69.48],[-175.69,-69.37],[-177.86,-69.24],[-180,-69.07],[-180,-68.08]]]]}},{"type":"Feature","properties":{"ma":250,"type":"gpml:TopologicalClosedPlateBoundary","name":"Sukhothai island arc","pid":60301,"deforming":false},"geometry":{"type":"Polygon","coordinates":[[[76.17,6.38],[76.64,5.85],[77.12,5.31],[77.85,4.72],[78.58,4.12],[79.31,3.53],[80.04,2.93],[80.77,2.33],[81.5,1.73],[82.23,1.13],[82.95,0.53],[83.76,0.11],[84.57,-0.31],[85.38,-0.6],[86.19,-0.88],[87,-1.16],[87.41,-1.63],[87.82,-2.1],[88.32,-2.73],[88.81,-3.36],[89.31,-3.99],[89.9,-4.37],[90.49,-4.75],[91.08,-5.13],[91.37,-5.36],[91.37,-5.36],[90.55,-5.92],[89.74,-6.47],[88.92,-7.02],[88.1,-7.56],[87.49,-7.95],[86.87,-8.34],[86.87,-8.34],[86.05,-7.77],[85.23,-7.2],[84.41,-6.63],[83.8,-6.14],[83.19,-5.65],[82.57,-5.16],[81.96,-4.67],[81.41,-4.05],[80.86,-3.43],[80.3,-2.81],[79.81,-2.18],[79.31,-1.55],[78.82,-0.91],[78.32,-0.28],[77.67,0.43],[77.02,1.15],[76.36,1.87],[75.71,2.59],[75.05,3.31],[74.4,4.02],[73.74,4.74],[73.74,4.74],[74.39,5.47],[75.04,6.19],[75.69,6.92],[76.17,6.38]]]}},{"type":"Feature","properties":{"ma":250,"type":"gpml:TopologicalClosedPlateBoundary","name":"Mongol-Okhotsk Ocean Plate","pid":380,"deforming":false},"geometry":{"type":"Polygon","coordinates":[[[-180,64.84],[-180,65.81],[-180,66.78],[-180,67.75],[-180,68.71],[-180,69.68],[-180,70.65],[-180,71.62],[-180,72.58],[-180,73.55],[-180,74.52],[-180,75.49],[-180,76.45],[-180,77.42],[-180,78.39],[-180,79.36],[-180,80.32],[-180,81.29],[-180,82.26],[-180,83.23],[-180,84.19],[-180,85.16],[-180,86.13],[-180,87.1],[-180,88.06],[-180,89.03],[-180,90],[180,90],[180,89.03],[180,88.06],[180,87.1],[180,86.13],[180,85.16],[180,84.19],[180,83.23],[180,82.26],[180,81.29],[180,80.32],[180,79.36],[180,78.39],[180,77.42],[180,76.45],[180,75.49],[180,74.52],[180,73.55],[180,72.58],[180,71.62],[180,70.65],[180,69.68],[180,68.71],[180,67.75],[180,66.78],[180,65.81],[180,64.84],[180,63.87],[178.42,63.24],[176.91,62.58],[175.46,61.91],[174.08,61.22],[172.76,60.52],[171.49,59.81],[170.28,59.09],[169.12,58.35],[168,57.61],[166.94,56.85],[165.91,56.09],[164.92,55.32],[163.97,54.54],[163.06,53.75],[161.98,53.03],[160.93,52.3],[159.92,51.56],[158.94,50.81],[157.99,50.06],[157.07,49.29],[156.18,48.52],[155.32,47.75],[154.48,46.96],[153.66,46.17],[152.87,45.38],[152.1,44.58],[151.35,43.77],[150.63,42.96],[149.57,42.35],[148.54,41.72],[147.53,41.09],[146.53,40.45],[145.56,39.8],[144.6,39.14],[143.66,38.48],[142.74,37.8],[141.84,37.12],[140.95,36.44],[140.1,36.38],[139.25,36.32],[138.4,36.25],[137.49,36.11],[136.58,35.96],[135.67,35.81],[134.77,35.65],[133.84,35.39],[132.92,35.11],[132.92,35.11],[132.02,35.37],[131.11,35.62],[130.2,35.86],[129.28,36.09],[128.43,36.2],[127.47,35.89],[126.47,36.09],[125.46,36.29],[124.6,36.48],[123.74,36.67],[123.11,36.91],[122.48,37.15],[121.76,37.45],[121.04,37.74],[121.04,37.74],[120.12,37.7],[119.21,37.65],[118.01,37.83],[117.33,38.07],[116.65,38.31],[116.27,38.41],[115.32,37.91],[114.51,38.14],[113.66,38.68],[112.95,39.27],[112.23,39.85],[111.5,40.43],[110.75,41],[109.8,41.59],[108.83,42.18],[108.11,42.33],[107.38,42.47],[106.3,42.97],[105.58,43.1],[104.87,43.23],[103.65,43.2],[102.44,43.16],[101.17,43.19],[99.9,43.2],[98.72,43.41],[97.52,43.6],[96.35,44.02],[95.15,44.43],[94.13,44.81],[93.09,45.17],[92.03,45.53],[90.94,45.93],[89.83,46.32],[88.7,46.69],[87.56,47.06],[86.42,47.24],[85.28,47.41],[84.13,47.57],[82.67,47.6],[81.21,47.61],[79.75,47.6],[78.29,47.58],[77.04,47.73],[75.78,47.88],[74.52,48],[74.52,48],[73.43,47.54],[72.39,47.12],[71.37,46.69],[70.36,46.25],[69.37,45.81],[69.37,45.81],[69.84,46.42],[70.32,47.02],[70.8,47.63],[71.46,48.35],[72.14,49.07],[72.84,49.78],[73.56,50.49],[74.3,51.2],[75.06,51.9],[75.67,52.63],[76.3,53.36],[76.96,54.09],[77.64,54.81],[78.34,55.53],[79.44,56.17],[80.57,56.79],[81.75,57.41],[82.96,58.01],[84.22,58.6],[85.51,59.18],[86.85,59.74],[88.24,60.29],[89.12,61.15],[90.05,62.01],[91.03,62.85],[92.07,63.69],[93.17,64.53],[94.34,65.35],[95.58,66.16],[96.91,66.96],[98.33,67.75],[99.84,68.53],[99.84,68.53],[97.64,68.9],[95.36,69.24],[93.01,69.54],[90.59,69.82],[88.12,70.06],[85.59,70.26],[83.31,70.85],[80.9,71.4],[78.34,71.92],[75.65,72.4],[72.81,72.85],[69.84,73.26],[66.73,73.62],[63.49,73.93],[60.55,73.96],[57.6,73.94],[54.67,73.89],[51.76,73.8],[48.89,73.67],[48.89,73.67],[46.88,74.37],[44.69,75.05],[42.86,75.79],[40.84,76.5],[38.61,77.2],[36.12,77.88],[33.35,78.53],[29.91,79.15],[26.06,79.73],[21.78,80.26],[17.05,80.73],[11.85,81.13],[6.22,81.46],[0.21,81.69],[-6.08,81.83],[-12.34,81.87],[-18.59,81.82],[-24.69,81.67],[-30.51,81.43],[-35.97,81.11],[-41.01,80.72],[-45.61,80.26],[-48.44,79.69],[-50.98,79.1],[-53.25,78.49],[-53.25,78.49],[-57.41,79.04],[-61.98,79.53],[-66.96,79.95],[-72.32,80.29],[-78.01,80.54],[-83.95,80.69],[-90.02,80.74],[-96.1,80.69],[-102.04,80.54],[-107.86,80.47],[-113.54,80.3],[-118.97,80.03],[-124.08,79.69],[-128.83,79.27],[-133.2,78.78],[-137.2,78.24],[-140.83,77.65],[-144.12,77.01],[-147.09,76.33],[-149.79,75.63],[-152.24,74.89],[-154.88,74.28],[-157.33,73.65],[-159.59,72.98],[-159.59,72.98],[-161.85,72.36],[-163.96,71.71],[-165.93,71.04],[-167.76,70.35],[-169.47,69.64],[-171.08,68.92],[-172.58,68.18],[-173.98,67.43],[-175.3,66.67],[-176.54,65.9],[-177.71,65.12],[-178.81,64.33],[-180,63.87],[-180,64.84]]]}},{"type":"Feature","properties":{"ma":250,"type":"gpml:TopologicalClosedPlateBoundary","name":"Cimmerian-Neotethys Plate","pid":505,"deforming":false},"geometry":{"type":"Polygon","coordinates":[[[42.85,23.46],[43.5,24.09],[44.15,24.73],[44.64,25.3],[45.14,25.87],[45.63,26.43],[46.63,26.66],[47.63,26.88],[48.63,27.09],[49.54,27.18],[50.45,27.26],[51.37,27.34],[52.23,27.9],[53.1,28.45],[53.98,29],[54.29,29.71],[54.61,30.42],[54.93,31.12],[55.12,31.92],[55.31,32.72],[55.97,33.03],[56.65,33.32],[57.5,32.99],[58.35,32.65],[58.35,32.65],[58.86,33.4],[59.38,34.15],[60.03,34.86],[60.7,35.58],[61.38,36.28],[62.06,36.99],[62.77,37.69],[63.48,38.39],[64.21,39.08],[64.95,39.76],[65.71,40.45],[66.28,41.35],[66.86,42.25],[67.46,43.14],[68.08,44.03],[68.72,44.92],[69.37,45.81],[69.37,45.81],[70.36,46.25],[71.37,46.69],[72.39,47.12],[73.43,47.54],[74.52,48],[74.52,48],[75.78,47.88],[77.04,47.73],[78.29,47.58],[79.75,47.6],[81.21,47.61],[82.67,47.6],[84.13,47.57],[85.28,47.41],[86.42,47.24],[87.56,47.06],[88.7,46.69],[89.83,46.32],[90.94,45.93],[92.03,45.53],[92.38,45.42],[92.38,45.42],[91.72,44.6],[91.07,43.78],[90.45,42.96],[89.84,42.13],[89.24,41.3],[88.66,40.47],[88.1,39.64],[87.55,38.8],[87.01,37.96],[86.48,37.12],[85.97,36.27],[85.47,35.42],[85.26,34.5],[85.06,33.57],[84.86,32.64],[84.67,31.72],[84.48,30.79],[84.29,29.86],[84.11,28.93],[83.93,28],[83.76,27.08],[83.58,26.15],[83.41,25.22],[83.25,24.29],[83.08,23.36],[82.92,22.43],[82.76,21.5],[82.6,20.57],[82.16,19.71],[81.72,18.85],[81.29,17.99],[80.86,17.13],[80.44,16.27],[80.02,15.4],[79.6,14.54],[79.19,13.67],[78.78,12.81],[78.3,11.98],[77.83,11.16],[77.36,10.33],[76.89,9.51],[76.42,8.68],[75.96,7.85],[75.5,7.03],[75.04,6.2],[75.04,6.2],[74.39,5.47],[73.74,4.74],[73.74,4.74],[74.4,4.02],[75.05,3.31],[75.71,2.59],[76.36,1.87],[77.02,1.15],[77.67,0.43],[78.32,-0.28],[78.82,-0.91],[79.31,-1.55],[79.81,-2.18],[80.3,-2.81],[80.86,-3.43],[81.41,-4.05],[81.96,-4.67],[82.57,-5.16],[83.19,-5.65],[83.8,-6.14],[84.41,-6.63],[85.23,-7.2],[86.05,-7.77],[86.87,-8.34],[86.87,-8.34],[87.49,-7.95],[88.1,-7.56],[88.88,-7.04],[89.65,-6.52],[90.42,-6],[91.2,-5.48],[91.96,-4.96],[92.73,-4.43],[93.5,-3.91],[94.27,-3.38],[95.03,-2.85],[95.8,-2.33],[96.56,-1.8],[97.08,-1.33],[97.08,-1.33],[98.03,-1.16],[98.99,-0.99],[99.79,-0.67],[100.6,-0.36],[101.4,-0.04],[102.2,0.28],[103.01,0.59],[103.81,0.97],[104.61,1.34],[105.41,1.72],[106.21,2.09],[107.01,2.47],[107.75,3.1],[108.49,3.73],[109.24,4.36],[109.98,4.99],[110.73,5.62],[111.52,6.2],[112.31,6.78],[113.1,7.35],[113.89,7.93],[114.69,8.5],[115.48,9.08],[115.48,9.08],[115.49,8.9],[116.14,8.32],[116.78,7.74],[117.43,7.16],[118.07,6.58],[118.71,6],[119.35,5.41],[119.95,4.95],[120.56,4.48],[121.17,4.02],[122.04,3.83],[122.92,3.65],[123.79,3.46],[124.34,2.94],[124.88,2.41],[125.42,1.88],[126.16,1.3],[126.91,0.72],[127.45,-0.05],[128,-0.82],[128.62,-1.59],[128.62,-1.59],[129.18,-2.27],[129.73,-2.95],[129.95,-3.92],[130.17,-4.89],[130.4,-5.86],[130.62,-6.84],[130.18,-7.55],[129.74,-8.27],[129.3,-8.98],[128.86,-9.7],[128.41,-10.41],[127.96,-11.13],[127.49,-11.86],[127.03,-12.58],[126.57,-13.3],[126.08,-13.89],[125.59,-14.49],[125.1,-15.08],[125.1,-15.08],[124.2,-14.96],[123.3,-14.85],[122.4,-14.72],[121.51,-14.6],[120.61,-14.47],[119.72,-14.34],[119.72,-14.34],[119.74,-15.33],[119.77,-16.32],[119.75,-17.3],[119.73,-18.29],[119.71,-19.27],[119.69,-20.25],[119.69,-20.25],[118.95,-20.23],[118.2,-20.22],[117.99,-21.06],[117.77,-21.9],[117.55,-22.74],[117.33,-23.58],[116.33,-23.56],[115.34,-23.54],[115.24,-24.36],[115.13,-25.18],[115.02,-26],[114.1,-25.91],[113.17,-25.82],[112.25,-25.73],[111.98,-26.64],[111.7,-27.54],[111.42,-28.45],[111.14,-29.36],[110.84,-30.26],[109.98,-30.13],[109.11,-30],[108.24,-29.86],[107.38,-29.71],[107.05,-30.56],[106.72,-31.41],[106.38,-32.25],[106.03,-33.1],[105.67,-33.94],[105.31,-34.78],[104.21,-34.67],[103.12,-34.55],[102.02,-34.41],[100.93,-34.27],[99.85,-34.12],[99.44,-34.87],[99.03,-35.62],[98.61,-36.36],[98.19,-37.11],[97.13,-36.74],[96.09,-36.36],[95.06,-35.97],[94.04,-35.57],[93.46,-36.45],[92.87,-37.33],[92.27,-38.2],[91.65,-39.07],[91.02,-39.94],[90.37,-40.81],[89.7,-41.67],[89.7,-41.67],[88.41,-41.51],[87.13,-41.33],[85.85,-41.14],[84.58,-40.94],[83.32,-40.72],[82.06,-40.52],[80.8,-40.29],[79.56,-40.06],[78.32,-39.81],[77.09,-39.55],[75.87,-39.28],[74.66,-38.99],[74.88,-38.5],[75.1,-38.02],[74.02,-37.55],[72.96,-37.08],[71.91,-36.59],[70.88,-36.1],[69.86,-35.6],[68.85,-35.09],[67.85,-34.58],[66.87,-34.05],[65.9,-33.52],[64.94,-32.98],[63.99,-32.43],[63.05,-31.87],[62.13,-31.31],[61.22,-30.74],[60.31,-30.17],[60.31,-30.17],[60.85,-29.43],[61.38,-28.68],[61.9,-27.94],[62.41,-27.19],[61.49,-26.66],[60.58,-26.12],[59.67,-25.58],[58.78,-25.03],[57.89,-24.47],[57.01,-23.91],[56.13,-23.35],[55.27,-22.78],[54.41,-22.2],[53.56,-21.63],[52.72,-21.04],[51.88,-20.46],[51.05,-19.86],[51.56,-19.07],[50.82,-18.49],[50.09,-17.91],[49.36,-17.32],[48.63,-16.74],[47.91,-16.15],[47.2,-15.55],[46.48,-14.96],[47.02,-14.29],[46.31,-13.58],[45.61,-12.86],[44.9,-12.14],[44.21,-11.41],[43.51,-10.69],[42.82,-9.97],[42.13,-9.24],[41.44,-8.51],[40.76,-7.78],[40.08,-7.05],[39.4,-6.32],[38.72,-5.59],[38.72,-5.59],[39.35,-5],[39.97,-4.41],[40.6,-3.82],[41.22,-3.23],[41.84,-2.64],[42.46,-2.05],[41.71,-1.42],[40.97,-0.79],[40.23,-0.17],[39.48,0.46],[38.74,1.08],[38.08,1.69],[37.43,2.29],[36.78,2.89],[36.12,3.49],[35.47,4.09],[34.97,3.58],[34.46,3.07],[33.8,3.59],[33.13,4.1],[32.46,4.62],[32.07,4.2],[31.67,3.79],[30.93,4.45],[30.19,5.11],[29.44,5.78],[28.69,6.44],[27.94,7.1],[27.19,7.76],[26.44,8.41],[25.68,9.07],[24.97,9.71],[24.97,9.71],[25.26,10.66],[25.55,11.6],[25.84,12.55],[25.91,12.66],[25.91,12.66],[26.89,12.58],[27.86,12.49],[28.84,12.4],[29.81,12.3],[30.76,12.42],[31.71,12.54],[32.66,12.66],[33.61,12.78],[34.57,12.89],[35.52,12.99],[36.47,13.1],[37.32,13.31],[38.16,13.52],[39.01,13.72],[39.86,13.92],[40.71,14.12],[41.6,14.37],[42.49,14.61],[43.38,14.84],[44.28,15.08],[45.16,15.55],[46.06,16.02],[46.95,16.49],[47.85,16.95],[48.76,17.41],[48.76,17.41],[48.13,18.12],[47.5,18.83],[46.85,19.5],[46.2,20.16],[45.54,20.83],[44.88,21.49],[44.21,22.15],[43.53,22.8],[42.85,23.46]]]}},{"type":"Feature","properties":{"ma":250,"type":"gpml:TopologicalClosedPlateBoundary","name":"Farallon Plate","pid":902,"deforming":false},"geometry":{"type":"Polygon","coordinates":[[[-80.12,-43.68],[-80.27,-42.72],[-80.42,-41.76],[-80.56,-40.8],[-80.7,-39.84],[-80.84,-38.88],[-82.1,-38.84],[-83.36,-38.79],[-84.61,-38.72],[-85.86,-38.64],[-87.11,-38.55],[-88.36,-38.44],[-89.6,-38.32],[-90.84,-38.19],[-92.07,-38.05],[-93.3,-37.89],[-94.52,-37.72],[-95.74,-37.53],[-96.95,-37.34],[-98.15,-37.13],[-99.35,-36.91],[-99.06,-35.96],[-98.77,-35.01],[-98.49,-34.05],[-98.22,-33.1],[-97.95,-32.15],[-97.69,-31.19],[-98.77,-30.91],[-99.85,-30.63],[-100.93,-30.33],[-102,-30.02],[-103.06,-29.71],[-104.11,-29.39],[-105.16,-29.06],[-106.2,-28.72],[-107.23,-28.37],[-108.26,-28.02],[-109.28,-27.66],[-110.29,-27.29],[-111.24,-26.94],[-112.19,-26.57],[-113.13,-26.21],[-114.06,-25.83],[-114.99,-25.45],[-115.91,-25.07],[-116.83,-24.68],[-117.74,-24.28],[-118.64,-23.88],[-118.2,-23.13],[-117.76,-22.37],[-117.32,-21.61],[-116.89,-20.86],[-116.46,-20.1],[-116.04,-19.34],[-115.62,-18.58],[-116.54,-18.15],[-117.46,-17.71],[-118.37,-17.27],[-119.27,-16.82],[-120.18,-16.38],[-121.07,-15.92],[-121.97,-15.47],[-122.86,-15.01],[-123.74,-14.55],[-124.62,-14.08],[-125.5,-13.61],[-126.38,-13.14],[-127.25,-12.66],[-128.12,-12.18],[-128.98,-11.7],[-129.84,-11.22],[-130.7,-10.73],[-131.56,-10.24],[-132.41,-9.75],[-133.27,-9.26],[-134.11,-8.77],[-134.96,-8.27],[-135.81,-7.77],[-136.65,-7.27],[-137.49,-6.77],[-138.33,-6.27],[-139.17,-5.75],[-140.02,-5.24],[-140.86,-4.72],[-141.7,-4.21],[-142.54,-3.69],[-143.38,-3.17],[-144.22,-2.65],[-145.06,-2.13],[-145.89,-1.61],[-145.89,-1.61],[-145.77,-0.68],[-145.64,0.25],[-145.52,1.19],[-145.39,2.12],[-145.26,3.05],[-145.14,3.98],[-145.01,4.92],[-144.88,5.85],[-144.76,6.78],[-144.63,7.72],[-144.5,8.65],[-145.19,8.62],[-145.88,8.6],[-146.58,8.57],[-146.62,9.52],[-146.67,10.48],[-146.71,11.44],[-146.76,12.4],[-146.8,13.36],[-146.85,14.32],[-146.9,15.27],[-146.95,16.23],[-145.92,16.26],[-144.89,16.29],[-143.86,16.31],[-143.95,17.31],[-144.03,18.3],[-144.12,19.3],[-144.21,20.3],[-144.3,21.29],[-144.39,22.29],[-144.49,23.28],[-144.58,24.28],[-144.68,25.27],[-144.78,26.27],[-144.88,27.26],[-144.98,28.26],[-145.08,29.25],[-145.19,30.25],[-145.29,31.24],[-145.4,32.24],[-145.51,33.23],[-145.63,34.22],[-145.75,35.22],[-145.87,36.21],[-144.77,36.33],[-143.67,36.43],[-142.57,36.53],[-141.47,36.62],[-141.58,37.57],[-141.68,38.52],[-141.8,39.47],[-141.91,40.42],[-142.03,41.37],[-142.15,42.32],[-142.27,43.27],[-142.4,44.22],[-142.53,45.16],[-142.67,46.11],[-142.81,47.06],[-142.96,48.01],[-143.11,48.96],[-143.27,49.91],[-143.44,50.86],[-143.61,51.81],[-143.79,52.75],[-143.98,53.7],[-144.17,54.65],[-144.38,55.59],[-144.59,56.54],[-143.19,56.69],[-141.78,56.83],[-140.35,56.95],[-138.92,57.06],[-139.13,58.02],[-139.35,58.98],[-139.59,59.94],[-139.84,60.89],[-140.1,61.85],[-140.38,62.81],[-140.68,63.77],[-141,64.72],[-141.34,65.68],[-141.71,66.63],[-142.11,67.59],[-142.55,68.54],[-143.02,69.49],[-143.53,70.44],[-144.1,71.39],[-144.72,72.34],[-145.42,73.28],[-146.19,74.22],[-147.06,75.16],[-148.04,76.1],[-148.04,76.1],[-145.06,76.81],[-141.75,77.48],[-138.09,78.1],[-134.05,78.68],[-129.6,79.19],[-124.75,79.64],[-119.5,80],[-113.91,80.28],[-108.06,80.46],[-102.04,80.54],[-96.1,80.69],[-90.02,80.74],[-83.95,80.69],[-78.01,80.54],[-72.32,80.29],[-66.96,79.95],[-61.98,79.53],[-57.41,79.04],[-53.25,78.49],[-53.25,78.49],[-55.69,77.73],[-57.85,76.96],[-59.77,76.16],[-61.49,75.36],[-62.63,74.42],[-63.65,73.48],[-64.56,72.53],[-65.38,71.58],[-66.12,70.63],[-66.1,69.94],[-66.07,69.25],[-66.05,68.56],[-65.26,67.65],[-64.53,66.72],[-64.53,66.72],[-66.79,66.44],[-68.99,66.12],[-71.14,65.76],[-73.23,65.38],[-75.26,64.98],[-77.22,64.54],[-79.12,64.08],[-80.96,63.6],[-82.73,63.09],[-84.44,62.56],[-86.1,62.01],[-87.69,61.44],[-89.22,60.86],[-90.7,60.26],[-92.12,59.64],[-93.49,59],[-93.49,59],[-93.91,58.91],[-95.3,58.3],[-96.64,57.67],[-97.94,57.04],[-99.2,56.39],[-100.41,55.73],[-101.58,55.05],[-102.71,54.37],[-103.81,53.67],[-104.87,52.97],[-105.89,52.25],[-106.88,51.53],[-107.45,50.77],[-108,50],[-108.53,49.23],[-109.05,48.45],[-109.55,47.68],[-110.03,46.9],[-110.3,45.97],[-110.57,45.04],[-110.82,44.11],[-111.07,43.19],[-111.3,42.26],[-111.54,41.33],[-111.76,40.4],[-111.5,39.47],[-111.24,38.54],[-110.99,37.62],[-110.36,36.93],[-109.74,36.25],[-109.14,35.56],[-108.54,34.87],[-107.8,34.32],[-107.08,33.76],[-106.36,33.19],[-105.65,32.63],[-104.95,32.06],[-103.94,31.55],[-102.94,31.04],[-101.95,30.52],[-100.97,29.99],[-100,29.46],[-99.03,28.98],[-98.06,28.5],[-97.11,28.02],[-96.16,27.52],[-95.22,27.02],[-94.29,26.51],[-93.36,26],[-92.45,25.48],[-92.01,25.29],[-92.01,25.29],[-91.68,26.17],[-91.35,27.06],[-91.01,27.95],[-90.67,28.83],[-90.32,29.72],[-89.96,30.6],[-89.38,31.4],[-88.79,32.19],[-88.19,32.98],[-87.58,33.77],[-86.96,34.56],[-86.33,35.34],[-85.68,36.12],[-84.82,36.74],[-83.94,37.35],[-83.05,37.95],[-82.14,38.55],[-81.22,39.14],[-80.29,39.72],[-79.34,40.3],[-78.37,40.87],[-77.38,41.43],[-76.4,41.99],[-75.41,42.54],[-74.39,43.09],[-73.36,43.63],[-72.31,44.15],[-71.24,44.67],[-70.15,45.18],[-69.1,45.68],[-68.04,46.16],[-66.95,46.64],[-65.85,47.11],[-64.72,47.56],[-64.72,47.56],[-63.72,46.96],[-62.75,46.34],[-61.79,45.72],[-60.86,45.09],[-59.95,44.45],[-59.06,43.81],[-58.18,43.16],[-57.33,42.5],[-56.57,41.81],[-55.83,41.12],[-55.11,40.42],[-54.4,39.72],[-53.77,38.98],[-53.15,38.23],[-52.55,37.48],[-51.96,36.73],[-51.66,36],[-51.36,35.27],[-51.07,34.54],[-50.79,33.8],[-50.39,32.98],[-50,32.16],[-49.61,31.34],[-49.23,30.51],[-48.86,29.68],[-48.5,28.86],[-48.14,28.05],[-47.78,27.24],[-47.43,26.43],[-47.09,25.62],[-46.75,24.8],[-46.41,23.99],[-45.75,23.36],[-45.11,22.73],[-44.46,22.09],[-43.83,21.46],[-43.71,20.95],[-43.6,20.44],[-44.05,19.74],[-44.5,19.04],[-45.21,18.78],[-45.21,18.78],[-45.24,18.74],[-45.79,18.03],[-46.35,17.32],[-46.89,16.61],[-47.44,15.9],[-47.82,15.09],[-48.2,14.29],[-48.58,13.49],[-48.61,12.58],[-48.64,11.66],[-48.66,10.75],[-48.69,9.83],[-48.48,8.96],[-48.27,8.08],[-48.05,7.21],[-47.84,6.33],[-47.63,5.52],[-47.41,4.71],[-47.2,3.9],[-46.98,3.1],[-46.98,3.1],[-47.1,2.99],[-47.35,2.1],[-47.59,1.21],[-47.84,0.31],[-48.09,-0.58],[-48.34,-1.47],[-48.34,-1.47],[-48.65,-1.81],[-49.19,-2.26],[-49.74,-2.71],[-50.14,-3.07],[-50.54,-3.42],[-50.82,-4.14],[-51.1,-4.86],[-51.38,-5.57],[-51.59,-6.36],[-51.8,-7.16],[-52.01,-7.95],[-52.18,-8.7],[-52.34,-9.45],[-52.51,-10.21],[-52.61,-10.95],[-52.72,-11.69],[-52.33,-12.33],[-51.93,-12.97],[-51.73,-13.66],[-51.53,-14.34],[-51.32,-15.03],[-51.05,-15.67],[-50.77,-16.31],[-50.57,-16.68],[-50.57,-16.68],[-50.59,-16.7],[-50.79,-17],[-51.03,-17.34],[-51.14,-17.57],[-51.24,-17.75],[-51.42,-18.09],[-51.56,-18.35],[-51.66,-18.58],[-51.79,-18.84],[-52.18,-19.62],[-52.58,-20.4],[-52.98,-21.17],[-53.39,-21.95],[-53.8,-22.72],[-53.8,-23.59],[-53.79,-24.46],[-53.79,-25.33],[-53.76,-26.19],[-53.72,-27.05],[-53.69,-27.91],[-53.65,-28.77],[-53.62,-29.63],[-53.58,-30.5],[-53.42,-31.32],[-53.25,-32.14],[-53.08,-32.97],[-52.95,-33.67],[-52.81,-34.36],[-52.67,-35.06],[-52.11,-35.87],[-52.06,-36.4],[-52.02,-36.92],[-51.91,-37.68],[-51.97,-38.22],[-51.96,-38.59],[-51.96,-38.87],[-51.96,-38.87],[-51.98,-39.47],[-52.16,-39.95],[-52.28,-40.27],[-53.52,-40.58],[-54.77,-40.88],[-56.04,-41.16],[-57.31,-41.43],[-58.59,-41.68],[-59.89,-41.92],[-61.19,-42.15],[-62.5,-42.36],[-63.82,-42.56],[-65.15,-42.74],[-66.49,-42.9],[-67.83,-43.05],[-69.18,-43.19],[-70.54,-43.3],[-71.9,-43.41],[-73.26,-43.49],[-74.63,-43.56],[-76,-43.62],[-77.37,-43.65],[-78.74,-43.67],[-80.12,-43.68]]]}},{"type":"Feature","properties":{"ma":250,"type":"gpml:TopologicalClosedPlateBoundary","name":"South China plate","pid":602,"deforming":false},"geometry":{"type":"Polygon","coordinates":[[[75.5,7.03],[75.96,7.85],[76.42,8.68],[76.89,9.51],[77.36,10.33],[77.83,11.16],[78.3,11.98],[78.78,12.81],[79.19,13.67],[79.6,14.54],[80.02,15.4],[80.44,16.27],[80.86,17.13],[81.29,17.99],[81.72,18.85],[82.16,19.71],[82.6,20.57],[82.76,21.5],[82.92,22.43],[83.08,23.36],[83.25,24.29],[83.41,25.22],[83.58,26.15],[83.76,27.08],[83.93,28],[84.11,28.93],[84.29,29.86],[84.48,30.79],[84.67,31.72],[84.86,32.64],[85.06,33.57],[85.26,34.5],[85.47,35.42],[85.97,36.27],[86.48,37.12],[87.01,37.96],[87.55,38.8],[88.1,39.64],[88.66,40.47],[89.24,41.3],[89.84,42.13],[90.45,42.96],[91.07,43.78],[91.72,44.6],[92.38,45.42],[92.38,45.42],[93.31,45.09],[94.24,44.77],[95.15,44.43],[96.35,44.02],[97.52,43.6],[98.72,43.41],[99.9,43.2],[101.17,43.19],[102.44,43.16],[103.65,43.2],[104.87,43.23],[105.58,43.1],[106.3,42.97],[107.38,42.47],[108.11,42.33],[108.83,42.18],[109.8,41.59],[110.75,41],[111.5,40.43],[112.23,39.85],[112.95,39.27],[113.66,38.68],[114.51,38.14],[115.32,37.91],[116.27,38.41],[116.65,38.31],[117.28,38.09],[117.28,38.09],[116.5,37.45],[115.73,36.81],[114.97,36.16],[114.22,35.51],[113.49,34.86],[112.77,34.2],[112.06,33.54],[111.18,33.15],[110.3,32.76],[109.44,32.36],[108.58,31.95],[107.73,31.54],[107.31,30.71],[106.89,29.87],[106.48,29.03],[106.08,28.19],[105.68,27.35],[105.61,26.81],[105.61,26.81],[105.51,25.95],[105.4,25.08],[105.3,24.22],[105.2,23.35],[105.1,22.49],[105.13,21.68],[105.16,20.87],[105.2,20.07],[105.23,19.26],[105.7,18.41],[106.17,17.55],[106.63,16.69],[107.09,15.84],[107.55,14.98],[108,14.12],[108.45,13.26],[108.9,12.4],[109.5,11.77],[110.1,11.13],[110.69,10.49],[111.28,9.85],[111.19,9.02],[111.1,8.18],[111,7.35],[110.91,6.52],[110.82,5.69],[110.82,5.69],[110.73,5.62],[109.98,4.99],[109.24,4.36],[108.49,3.73],[107.75,3.1],[107.01,2.47],[106.21,2.09],[105.41,1.72],[104.61,1.34],[103.81,0.97],[103.01,0.59],[102.2,0.28],[101.4,-0.04],[100.6,-0.36],[99.79,-0.67],[98.99,-0.99],[98.03,-1.16],[97.08,-1.33],[97.08,-1.33],[96.56,-1.8],[95.82,-2.31],[95.08,-2.82],[94.34,-3.33],[93.6,-3.84],[92.85,-4.35],[92.11,-4.86],[91.37,-5.36],[91.37,-5.36],[91.08,-5.13],[90.49,-4.75],[89.9,-4.37],[89.31,-3.99],[88.81,-3.36],[88.32,-2.73],[87.82,-2.1],[87.41,-1.63],[87,-1.16],[86.19,-0.88],[85.38,-0.6],[84.57,-0.31],[83.76,0.11],[82.95,0.53],[82.23,1.13],[81.5,1.73],[80.77,2.33],[80.04,2.93],[79.31,3.53],[78.58,4.12],[77.85,4.72],[77.12,5.31],[76.64,5.85],[76.17,6.38],[75.69,6.92],[75.69,6.92],[75.04,6.2],[75.5,7.03]]]}},{"type":"Feature","properties":{"ma":250,"type":"gpml:TopologicalClosedPlateBoundary","name":"Yukon-Tanana Plate","pid":16104,"deforming":false},"geometry":{"type":"Polygon","coordinates":[[[-45.21,18.78],[-44.5,19.04],[-44.05,19.74],[-43.6,20.44],[-43.71,20.95],[-43.83,21.46],[-44.46,22.09],[-45.11,22.73],[-45.75,23.36],[-46.41,23.99],[-46.75,24.8],[-47.09,25.62],[-47.43,26.43],[-47.78,27.24],[-48.14,28.05],[-48.5,28.86],[-48.86,29.68],[-49.23,30.51],[-49.61,31.34],[-50,32.16],[-50.39,32.98],[-50.79,33.8],[-51.07,34.54],[-51.36,35.27],[-51.66,36],[-51.96,36.73],[-52.55,37.48],[-53.15,38.23],[-53.77,38.98],[-54.4,39.72],[-55.11,40.42],[-55.83,41.12],[-56.57,41.81],[-57.33,42.5],[-58.18,43.16],[-59.06,43.81],[-59.95,44.45],[-60.86,45.09],[-61.79,45.72],[-62.75,46.34],[-63.72,46.96],[-64.72,47.56],[-64.72,47.56],[-63.73,47.95],[-62.73,48.33],[-61.37,48.76],[-59.99,49.18],[-58.59,49.58],[-57.16,49.97],[-55.72,50.33],[-55.72,50.33],[-55.09,49.75],[-54.47,49.17],[-53.87,48.59],[-53.37,47.79],[-52.89,47],[-52.42,46.2],[-51.96,45.41],[-51.52,44.6],[-51.09,43.8],[-50.48,43.1],[-49.89,42.4],[-49.32,41.69],[-48.75,40.98],[-48.2,40.27],[-47.81,39.44],[-47.43,38.62],[-47.05,37.8],[-46.69,36.97],[-46.33,36.15],[-45.97,35.36],[-45.63,34.58],[-45.28,33.79],[-44.95,33.01],[-44.62,32.22],[-44.3,31.34],[-43.99,30.46],[-43.68,29.59],[-43.38,28.71],[-43.05,27.86],[-42.72,27.01],[-42.4,26.16],[-42.09,25.31],[-41.77,24.46],[-41.46,23.57],[-41.15,22.69],[-41.15,22.69],[-41.23,22.01],[-41.3,21.33],[-41.38,20.65],[-41.67,19.92],[-41.95,19.19],[-42.72,18.78],[-43.49,18.36],[-44.25,18.26],[-45.01,18.16],[-45.77,18.06],[-45.77,18.06],[-45.24,18.74],[-45.21,18.78]]]}},{"type":"Feature","properties":{"ma":250,"type":"gpml:TopologicalClosedPlateBoundary","name":"Alexander Plate","pid":16111,"deforming":false},"geometry":{"type":"Polygon","coordinates":[[[-50.92,51.19],[-52.4,50.95],[-53.87,50.7],[-55.33,50.43],[-56.6,50.11],[-57.86,49.78],[-59.11,49.44],[-60.33,49.08],[-61.54,48.71],[-62.73,48.33],[-64.03,47.84],[-65.3,47.33],[-66.55,46.81],[-67.77,46.28],[-68.98,45.74],[-70.15,45.18],[-71.24,44.67],[-72.31,44.15],[-73.36,43.63],[-74.39,43.09],[-75.41,42.54],[-76.4,41.99],[-77.38,41.43],[-78.37,40.87],[-79.34,40.3],[-80.29,39.72],[-81.22,39.14],[-82.14,38.55],[-83.05,37.95],[-83.94,37.35],[-84.82,36.74],[-85.68,36.12],[-86.33,35.34],[-86.96,34.56],[-87.58,33.77],[-88.19,32.98],[-88.79,32.19],[-89.38,31.4],[-89.96,30.6],[-90.32,29.72],[-90.67,28.83],[-91.01,27.95],[-91.35,27.06],[-91.68,26.17],[-92.01,25.29],[-92.01,25.29],[-92.45,25.48],[-93.36,26],[-94.29,26.51],[-95.22,27.02],[-96.16,27.52],[-97.11,28.02],[-98.06,28.5],[-99.03,28.98],[-100,29.46],[-100.97,29.99],[-101.95,30.52],[-102.94,31.04],[-103.94,31.55],[-104.95,32.06],[-105.65,32.63],[-106.36,33.19],[-107.08,33.76],[-107.8,34.32],[-108.54,34.87],[-109.14,35.56],[-109.74,36.25],[-110.36,36.93],[-110.99,37.62],[-111.24,38.54],[-111.5,39.47],[-111.76,40.4],[-111.54,41.33],[-111.3,42.26],[-111.07,43.19],[-110.82,44.11],[-110.57,45.04],[-110.3,45.97],[-110.03,46.9],[-109.55,47.68],[-109.05,48.45],[-108.53,49.23],[-108,50],[-107.45,50.77],[-106.88,51.53],[-105.89,52.25],[-104.87,52.97],[-103.81,53.67],[-102.71,54.37],[-101.58,55.05],[-100.41,55.73],[-99.2,56.39],[-97.94,57.04],[-96.64,57.67],[-95.3,58.3],[-93.91,58.91],[-93.49,59],[-93.49,59],[-92.12,59.64],[-90.7,60.26],[-89.22,60.86],[-87.69,61.44],[-86.1,62.01],[-84.44,62.56],[-82.73,63.09],[-80.96,63.6],[-79.12,64.08],[-77.22,64.54],[-75.26,64.98],[-73.23,65.38],[-71.14,65.76],[-68.99,66.12],[-66.79,66.44],[-64.53,66.72],[-64.53,66.72],[-63.92,65.9],[-63.35,65.06],[-62.81,64.23],[-62.3,63.4],[-61.83,62.56],[-60.98,61.91],[-60.17,61.25],[-59.4,60.58],[-58.66,59.91],[-57.86,59.17],[-57.1,58.42],[-56.37,57.67],[-55.4,56.95],[-54.46,56.21],[-53.56,55.48],[-52.69,54.73],[-51.82,53.91],[-50.99,53.08],[-50.19,52.24],[-49.41,51.41],[-50.92,51.19]]]}}]}