{"type": "FeatureCollection", "features": [{"type": "Feature", "id": "knmi2026qmut", "properties": {"time": "2026-08-21T03:50:39.0000", "lat": 53.378, "lon": 6.667, "depth": 3.0, "mag": 2.75655436993489, "mag_type": "MLn", "catalog": null, "contributor": "KNMI", "location": "Zandeweer", "event_type": "induced or triggered event", "status": "reviewed", "mode": "manual"}, "geometry": {"type": "Point", "coordinates": [6.667, 53.378, 3.0]}}, {"type": "Feature", "id": "knmi2026pdho", "properties": {"time": "2026-08-01T22:26:50.399999", "lat": 53.117, "lon": 6.951, "depth": 3.0, "mag": 1.440433077332287, "mag_type": "MLn", "catalog": null, "contributor": "KNMI", "location": "Veendam", "event_type": "induced or triggered event", "status": "reviewed", "mode": "manual"}, "geometry": {"type": "Point", "coordinates": [6.951, 53.117, 3.0]}}, {"type": "Feature", "id": "knmi2026oruu", "properties": {"time": "2026-07-26T17:08:19.899999", "lat": 53.176, "lon": 6.801, "depth": 3.0, "mag": 1.5795457875180572, "mag_type": "MLn", "catalog": null, "contributor": "KNMI", "location": "Sappemeer", "event_type": "induced or triggered event", "status": "reviewed", "mode": "manual"}, "geometry": {"type": "Point", "coordinates": [6.801, 53.176, 3.0]}}, {"type": "Feature", "id": "knmi2026oiez", "properties": {"time": "2026-07-21T12:17:01.6", "lat": 52.573, "lon": 4.957, "depth": 3.0, "mag": 1.7200219547217117, "mag_type": "MLn", "catalog": null, "contributor": "KNMI", "location": "Noordbeemster", "event_type": "induced or triggered event", "status": "reviewed", "mode": "manual"}, "geometry": {"type": "Point", "coordinates": [4.957, 52.573, 3.0]}}, {"type": "Feature", "id": "knmi2026mlbv", "properties": {"time": "2026-06-24T21:59:57.1", "lat": 53.312, "lon": 6.888, "depth": 3.0, "mag": 1.3798966264661987, "mag_type": "MLn", "catalog": null, "contributor": "KNMI", "location": "Meedhuizen", "event_type": "induced or triggered event", "status": "reviewed", "mode": "manual"}, "geometry": {"type": "Point", "coordinates": [6.888, 53.312, 3.0]}}, {"type": "Feature", "id": "knmi2026lvwb", "properties": {"time": "2026-06-16T16:12:59.0000", "lat": 53.297, "lon": 6.771, "depth": 3.0, "mag": 1.1646477427410964, "mag_type": "MLn", "catalog": null, "contributor": "KNMI", "location": "Garrelsweer", "event_type": "induced or triggered event", "status": "reviewed", "mode": "manual"}, "geometry": {"type": "Point", "coordinates": [6.771, 53.297, 3.0]}}, {"type": "Feature", "id": "knmi2026lfmr", "properties": {"time": "2026-06-07T19:36:59.5", "lat": 53.29, "lon": 6.993, "depth": 3.0, "mag": 0.9182573543235235, "mag_type": "MLn", "catalog": null, "contributor": "KNMI", "location": "Farmsum", "event_type": "induced or triggered event", "status": "reviewed", "mode": "manual"}, "geometry": {"type": "Point", "coordinates": [6.993, 53.29, 3.0]}}, {"type": "Feature", "id": "knmi2026jdvw", "properties": {"time": "2026-05-11T04:16:45.7", "lat": 53.322, "lon": 6.823, "depth": 3.0, "mag": 1.8768624035746089, "mag_type": "MLn", "catalog": null, "contributor": "KNMI", "location": "Appingedam", "event_type": "induced or triggered event", "status": "reviewed", "mode": "manual"}, "geometry": {"type": "Point", "coordinates": [6.823, 53.322, 3.0]}}, {"type": "Feature", "id": "knmi2026ixdq", "properties": {"time": "2026-05-07T12:14:38.5", "lat": 53.397, "lon": 6.676, "depth": 3.0, "mag": 1.8000572239199595, "mag_type": "MLn", "catalog": null, "contributor": "KNMI", "location": "Uithuizen", "event_type": "induced or triggered event", "status": "reviewed", "mode": "manual"}, "geometry": {"type": "Point", "coordinates": [6.676, 53.397, 3.0]}}, {"type": "Feature", "id": "knmi2026isce", "properties": {"time": "2026-05-04T17:50:06.299999", "lat": 53.41, "lon": 6.699, "depth": 3.0, "mag": 1.0953307708438123, "mag_type": "MLn", "catalog": null, "contributor": "KNMI", "location": "Uithuizen", "event_type": "induced or triggered event", "status": "reviewed", "mode": "manual"}, "geometry": {"type": "Point", "coordinates": [6.699, 53.41, 3.0]}}, {"type": "Feature", "id": "knmi2026isas", "properties": {"time": "2026-05-04T17:06:08.3", "lat": 53.229, "lon": 6.672, "depth": 3.0, "mag": 0.31880761773417776, "mag_type": "MLn", "catalog": null, "contributor": "KNMI", "location": "Meerstad", "event_type": "induced or triggered event", "status": "reviewed", "mode": "manual"}, "geometry": {"type": "Point", "coordinates": [6.672, 53.229, 3.0]}}, {"type": "Feature", "id": "knmi2026hqow", "properties": {"time": "2026-04-19T16:26:25.0000", "lat": 53.213, "lon": 6.703, "depth": 3.0, "mag": 0.909342713458315, "mag_type": "MLn", "catalog": null, "contributor": "KNMI", "location": "Harkstede", "event_type": "induced or triggered event", "status": "reviewed", "mode": "manual"}, "geometry": {"type": "Point", "coordinates": [6.703, 53.213, 3.0]}}, {"type": "Feature", "id": "knmi2026fbwn", "properties": {"time": "2026-03-14T04:12:04.7", "lat": 52.953, "lon": 6.57, "depth": 3.0, "mag": 1.3041280703279614, "mag_type": "MLn", "catalog": null, "contributor": "KNMI", "location": "Geelbroek", "event_type": "induced or triggered event", "status": "reviewed", "mode": "manual"}, "geometry": {"type": "Point", "coordinates": [6.57, 52.953, 3.0]}}, {"type": "Feature", "id": "knmi2026fbqr", "properties": {"time": "2026-03-14T01:14:28.6", "lat": 52.955, "lon": 6.569, "depth": 3.0, "mag": 2.986534980529741, "mag_type": "MLn", "catalog": null, "contributor": "KNMI", "location": "Geelbroek", "event_type": "induced or triggered event", "status": "reviewed", "mode": "manual"}, "geometry": {"type": "Point", "coordinates": [6.569, 52.955, 3.0]}}, {"type": "Feature", "id": "knmi2026equv", "properties": {"time": "2026-03-08T02:50:11.4", "lat": 53.134, "lon": 6.18, "depth": 3.0, "mag": 1.4760329179460219, "mag_type": "MLn", "catalog": null, "contributor": "KNMI", "location": "Marum", "event_type": "induced or triggered event", "status": "reviewed", "mode": "manual"}, "geometry": {"type": "Point", "coordinates": [6.18, 53.134, 3.0]}}, {"type": "Feature", "id": "knmi2026dhqk", "properties": {"time": "2026-02-16T20:50:17.3", "lat": 53.437, "lon": 6.635, "depth": 3.0, "mag": 0.9321775709922613, "mag_type": "MLn", "catalog": null, "contributor": "KNMI", "location": "Usquert", "event_type": "induced or triggered event", "status": "reviewed", "mode": "manual"}, "geometry": {"type": "Point", "coordinates": [6.635, 53.437, 3.0]}}, {"type": "Feature", "id": "knmi2026cfiv", "properties": {"time": "2026-02-01T09:12:23.699999", "lat": 53.294, "lon": 6.807, "depth": 3.0, "mag": 0.4734238355392994, "mag_type": "MLn", "catalog": null, "contributor": "KNMI", "location": "Overschild", "event_type": "induced or triggered event", "status": "reviewed", "mode": "manual"}, "geometry": {"type": "Point", "coordinates": [6.807, 53.294, 3.0]}}, {"type": "Feature", "id": "knmi2026ceed", "properties": {"time": "2026-01-31T17:41:53.799999", "lat": 53.296, "lon": 6.759, "depth": 3.0, "mag": 0.8956360819675199, "mag_type": "MLn", "catalog": null, "contributor": "KNMI", "location": "Ten Post", "event_type": "induced or triggered event", "status": "reviewed", "mode": "manual"}, "geometry": {"type": "Point", "coordinates": [6.759, 53.296, 3.0]}}, {"type": "Feature", "id": "knmi2026ccub", "properties": {"time": "2026-01-30T23:28:52.299999", "lat": 53.304, "lon": 6.758, "depth": 3.0, "mag": 1.0890928805852036, "mag_type": "MLn", "catalog": null, "contributor": "KNMI", "location": "Garrelsweer", "event_type": "induced or triggered event", "status": "reviewed", "mode": "manual"}, "geometry": {"type": "Point", "coordinates": [6.758, 53.304, 3.0]}}, {"type": "Feature", "id": "knmi2026abdf", "properties": {"time": "2026-01-01T14:45:28.3", "lat": 53.349, "lon": 6.768, "depth": 3.0, "mag": 1.2495124530540256, "mag_type": "MLn", "catalog": null, "contributor": "KNMI", "location": "Zeerijp", "event_type": "induced or triggered event", "status": "reviewed", "mode": "manual"}, "geometry": {"type": "Point", "coordinates": [6.768, 53.349, 3.0]}}, {"type": "Feature", "id": "knmi2025yyfn", "properties": {"time": "2025-12-21T18:54:21.8", "lat": 53.292, "lon": 6.775, "depth": 3.0, "mag": 0.606155687342375, "mag_type": "MLn", "catalog": null, "contributor": "KNMI", "location": "Garrelsweer", "event_type": "induced or triggered event", "status": "reviewed", "mode": "manual"}, "geometry": {"type": "Point", "coordinates": [6.775, 53.292, 3.0]}}, {"type": "Feature", "id": "knmi2025ypjf", "properties": {"time": "2025-12-16T22:33:47.299999", "lat": 53.226, "lon": 6.745, "depth": 3.0, "mag": 0.477822151799945, "mag_type": "MLn", "catalog": null, "contributor": "KNMI", "location": "Woudbloem", "event_type": "induced or triggered event", "status": "reviewed", "mode": "manual"}, "geometry": {"type": "Point", "coordinates": [6.745, 53.226, 3.0]}}, {"type": "Feature", "id": "knmi2025yooy", "properties": {"time": "2025-12-16T12:18:23.199999", "lat": 53.228, "lon": 6.745, "depth": 3.0, "mag": 1.9899087631666885, "mag_type": "MLn", "catalog": null, "contributor": "KNMI", "location": "Woudbloem", "event_type": "induced or triggered event", "status": "reviewed", "mode": "manual"}, "geometry": {"type": "Point", "coordinates": [6.745, 53.228, 3.0]}}, {"type": "Feature", "id": "knmi2025xjir", "properties": {"time": "2025-11-29T09:55:42.0000", "lat": 53.336, "lon": 6.64, "depth": 3.0, "mag": 1.5828085509037624, "mag_type": "MLn", "catalog": null, "contributor": "KNMI", "location": "Westerwijtwerd", "event_type": "induced or triggered event", "status": "reviewed", "mode": "manual"}, "geometry": {"type": "Point", "coordinates": [6.64, 53.336, 3.0]}}, {"type": "Feature", "id": "knmi2025wsaa", "properties": {"time": "2025-11-19T22:14:13.8", "lat": 53.347, "lon": 6.773, "depth": 3.0, "mag": 0.9753981734485221, "mag_type": "MLn", "catalog": null, "contributor": "KNMI", "location": "Zeerijp", "event_type": "induced or triggered event", "status": "reviewed", "mode": "manual"}, "geometry": {"type": "Point", "coordinates": [6.773, 53.347, 3.0]}}, {"type": "Feature", "id": "knmi2025wqyb", "properties": {"time": "2025-11-19T08:07:00.5", "lat": 53.298, "lon": 6.772, "depth": 3.0, "mag": 0.7800716698216509, "mag_type": "MLn", "catalog": null, "contributor": "KNMI", "location": "Garrelsweer", "event_type": "induced or triggered event", "status": "reviewed", "mode": "manual"}, "geometry": {"type": "Point", "coordinates": [6.772, 53.298, 3.0]}}, {"type": "Feature", "id": "knmi2025whpr", "properties": {"time": "2025-11-14T05:39:24.0000", "lat": 53.344, "lon": 6.778, "depth": 3.0, "mag": 2.0798187528413368, "mag_type": "MLn", "catalog": null, "contributor": "KNMI", "location": "Zeerijp", "event_type": "induced or triggered event", "status": "reviewed", "mode": "manual"}, "geometry": {"type": "Point", "coordinates": [6.778, 53.344, 3.0]}}, {"type": "Feature", "id": "knmi2025whfa", "properties": {"time": "2025-11-14T00:16:40.299999", "lat": 53.348, "lon": 6.774, "depth": 3.0, "mag": 3.4415605210494786, "mag_type": "MLn", "catalog": null, "contributor": "KNMI", "location": "Zeerijp", "event_type": "induced or triggered event", "status": "reviewed", "mode": "manual"}, "geometry": {"type": "Point", "coordinates": [6.774, 53.348, 3.0]}}, {"type": "Feature", "id": "knmi2025vdyl", "properties": {"time": "2025-10-29T00:00:25.5", "lat": 53.324, "lon": 6.758, "depth": 3.0, "mag": 1.119804273942268, "mag_type": "MLn", "catalog": null, "contributor": "KNMI", "location": "Loppersum", "event_type": "induced or triggered event", "status": "reviewed", "mode": "manual"}, "geometry": {"type": "Point", "coordinates": [6.758, 53.324, 3.0]}}, {"type": "Feature", "id": "knmi2025upjf", "properties": {"time": "2025-10-21T00:24:40.899999", "lat": 53.312, "lon": 6.782, "depth": 3.0, "mag": 1.6098644406104023, "mag_type": "MLn", "catalog": null, "contributor": "KNMI", "location": "Wirdum", "event_type": "induced or triggered event", "status": "reviewed", "mode": "manual"}, "geometry": {"type": "Point", "coordinates": [6.782, 53.312, 3.0]}}, {"type": "Feature", "id": "knmi2025shxa", "properties": {"time": "2025-09-18T11:14:11.4", "lat": 53.237, "lon": 6.644, "depth": 3.0, "mag": 0.9145779036004691, "mag_type": "MLn", "catalog": null, "contributor": "KNMI", "location": "Garmerwolde", "event_type": "induced or triggered event", "status": "reviewed", "mode": "manual"}, "geometry": {"type": "Point", "coordinates": [6.644, 53.237, 3.0]}}, {"type": "Feature", "id": "knmi2025rrzs", "properties": {"time": "2025-09-09T18:24:35.6", "lat": 53.257, "lon": 3.83, "depth": 10.0, "mag": 2.9233895227463655, "mag_type": "MLn", "catalog": null, "contributor": "KNMI", "location": "Noordzee", "event_type": "earthquake", "status": "reviewed", "mode": "manual"}, "geometry": {"type": "Point", "coordinates": [3.83, 53.257, 10.0]}}, {"type": "Feature", "id": "knmi2025ptyt", "properties": {"time": "2025-08-13T09:07:56.1", "lat": 53.33, "lon": 6.823, "depth": 3.0, "mag": 0.7300697091660963, "mag_type": "MLn", "catalog": null, "contributor": "KNMI", "location": "Oosterwijtwerd", "event_type": "induced or triggered event", "status": "reviewed", "mode": "manual"}, "geometry": {"type": "Point", "coordinates": [6.823, 53.33, 3.0]}}, {"type": "Feature", "id": "knmi2025poxj", "properties": {"time": "2025-08-10T14:44:19.699999", "lat": 53.137, "lon": 6.222, "depth": 3.0, "mag": 1.2390213686530782, "mag_type": "MLn", "catalog": null, "contributor": "KNMI", "location": "Marum", "event_type": "induced or triggered event", "status": "confirmed", "mode": "manual"}, "geometry": {"type": "Point", "coordinates": [6.222, 53.137, 3.0]}}, {"type": "Feature", "id": "knmi2025optj", "properties": {"time": "2025-07-27T20:19:10.5", "lat": 54.586, "lon": 4.008, "depth": 10.0, "mag": 3.235242708525533, "mag_type": "MLn", "catalog": null, "contributor": "KNMI", "location": "Noordzee", "event_type": "earthquake", "status": "reviewed", "mode": "manual"}, "geometry": {"type": "Point", "coordinates": [4.008, 54.586, 10.0]}}, {"type": "Feature", "id": "knmi2025oprh", "properties": {"time": "2025-07-27T19:15:37.6", "lat": 54.546, "lon": 3.86, "depth": 10.0, "mag": 3.1743794434695944, "mag_type": "MLn", "catalog": null, "contributor": "KNMI", "location": "Noordzee", "event_type": "earthquake", "status": "reviewed", "mode": "manual"}, "geometry": {"type": "Point", "coordinates": [3.86, 54.546, 10.0]}}, {"type": "Feature", "id": "knmi2025ohqk", "properties": {"time": "2025-07-23T09:45:00.8", "lat": 53.298, "lon": 6.763, "depth": 3.0, "mag": 1.1147689058686183, "mag_type": "MLn", "catalog": null, "contributor": "KNMI", "location": "Garrelsweer", "event_type": "induced or triggered event", "status": "reviewed", "mode": "manual"}, "geometry": {"type": "Point", "coordinates": [6.763, 53.298, 3.0]}}, {"type": "Feature", "id": "knmi2025npqp", "properties": {"time": "2025-07-13T13:23:01.199999", "lat": 53.379, "lon": 6.675, "depth": 3.0, "mag": 1.1031705750593106, "mag_type": "MLn", "catalog": null, "contributor": "KNMI", "location": "Zandeweer", "event_type": "induced or triggered event", "status": "reviewed", "mode": "manual"}, "geometry": {"type": "Point", "coordinates": [6.675, 53.379, 3.0]}}, {"type": "Feature", "id": "knmi2025lnal", "properties": {"time": "2025-06-13T15:52:41.5", "lat": 53.329, "lon": 6.708, "depth": 3.0, "mag": 1.4064161591447544, "mag_type": "MLn", "catalog": null, "contributor": "KNMI", "location": "Loppersum", "event_type": "induced or triggered event", "status": "reviewed", "mode": "manual"}, "geometry": {"type": "Point", "coordinates": [6.708, 53.329, 3.0]}}, {"type": "Feature", "id": "knmi2025kfqr", "properties": {"time": "2025-05-26T09:27:33.2", "lat": 53.222, "lon": 6.836, "depth": 3.0, "mag": 1.3591394928879947, "mag_type": "MLn", "catalog": null, "contributor": "KNMI", "location": "Schildwolde", "event_type": "induced or triggered event", "status": "reviewed", "mode": "manual"}, "geometry": {"type": "Point", "coordinates": [6.836, 53.222, 3.0]}}, {"type": "Feature", "id": "knmi2025jrxk", "properties": {"time": "2025-05-18T20:57:23.699999", "lat": 53.402, "lon": 6.557, "depth": 3.0, "mag": 2.0696582394966723, "mag_type": "MLn", "catalog": null, "contributor": "KNMI", "location": "Warffum", "event_type": "induced or triggered event", "status": "reviewed", "mode": "manual"}, "geometry": {"type": "Point", "coordinates": [6.557, 53.402, 3.0]}}, {"type": "Feature", "id": "knmi2025jksi", "properties": {"time": "2025-05-14T22:26:14.8", "lat": 53.392, "lon": 6.723, "depth": 3.0, "mag": 1.152567189795288, "mag_type": "MLn", "catalog": null, "contributor": "KNMI", "location": "Oldenzijl", "event_type": "induced or triggered event", "status": "reviewed", "mode": "manual"}, "geometry": {"type": "Point", "coordinates": [6.723, 53.392, 3.0]}}, {"type": "Feature", "id": "knmi2025jcgt", "properties": {"time": "2025-05-10T07:30:22.8", "lat": 53.276, "lon": 6.998, "depth": 3.0, "mag": 0.35516664349981425, "mag_type": "MLn", "catalog": null, "contributor": "KNMI", "location": "Woldendorp", "event_type": "induced or triggered event", "status": "reviewed", "mode": "manual"}, "geometry": {"type": "Point", "coordinates": [6.998, 53.276, 3.0]}}, {"type": "Feature", "id": "knmi2025jbzk", "properties": {"time": "2025-05-10T03:47:13.8", "lat": 53.298, "lon": 7.032, "depth": 3.0, "mag": 0.7063929475502013, "mag_type": "MLn", "catalog": null, "contributor": "KNMI", "location": "Termunterzijl", "event_type": "induced or triggered event", "status": "reviewed", "mode": "manual"}, "geometry": {"type": "Point", "coordinates": [7.032, 53.298, 3.0]}}, {"type": "Feature", "id": "knmi2025iwis", "properties": {"time": "2025-05-07T01:41:20.399999", "lat": 53.33, "lon": 6.636, "depth": 3.0, "mag": 0.09383327632420288, "mag_type": "MLn", "catalog": null, "contributor": "KNMI", "location": "Middelstum", "event_type": "induced or triggered event", "status": "reviewed", "mode": "manual"}, "geometry": {"type": "Point", "coordinates": [6.636, 53.33, 3.0]}}, {"type": "Feature", "id": "knmi2025inzc", "properties": {"time": "2025-05-02T11:44:37.2", "lat": 53.31, "lon": 6.701, "depth": 3.0, "mag": 0.8946730892285512, "mag_type": "MLn", "catalog": null, "contributor": "KNMI", "location": "Stedum", "event_type": "induced or triggered event", "status": "reviewed", "mode": "manual"}, "geometry": {"type": "Point", "coordinates": [6.701, 53.31, 3.0]}}, {"type": "Feature", "id": "knmi2025ihxj", "properties": {"time": "2025-04-29T04:02:14.8", "lat": 53.306, "lon": 6.679, "depth": 3.0, "mag": 0.18318771212883347, "mag_type": "MLn", "catalog": null, "contributor": "KNMI", "location": "Stedum", "event_type": "induced or triggered event", "status": "reviewed", "mode": "manual"}, "geometry": {"type": "Point", "coordinates": [6.679, 53.306, 3.0]}}, {"type": "Feature", "id": "knmi2025hnpn", "properties": {"time": "2025-04-18T01:21:21.399999", "lat": 53.294, "lon": 6.96, "depth": 3.0, "mag": 1.0482564184336634, "mag_type": "MLn", "catalog": null, "contributor": "KNMI", "location": "Farmsum", "event_type": "induced or triggered event", "status": "reviewed", "mode": "manual"}, "geometry": {"type": "Point", "coordinates": [6.96, 53.294, 3.0]}}, {"type": "Feature", "id": "knmi2025hldw", "properties": {"time": "2025-04-16T17:12:19.699999", "lat": 52.953, "lon": 6.562, "depth": 3.0, "mag": 1.4803005412400942, "mag_type": "MLn", "catalog": null, "contributor": "KNMI", "location": "Assen", "event_type": "induced or triggered event", "status": "reviewed", "mode": "manual"}, "geometry": {"type": "Point", "coordinates": [6.562, 52.953, 3.0]}}, {"type": "Feature", "id": "knmi2025gjkd", "properties": {"time": "2025-04-01T12:33:31.5", "lat": 52.981, "lon": 8.334, "depth": 4.0, "mag": 3.480531374774529, "mag_type": "MLn", "catalog": null, "contributor": "KNMI", "location": "Dötlingen (Duitsland)", "event_type": "induced or triggered event", "status": "reviewed", "mode": "manual"}, "geometry": {"type": "Point", "coordinates": [8.334, 52.981, 4.0]}}, {"type": "Feature", "id": "knmi2025gdos", "properties": {"time": "2025-03-29T08:02:51.6", "lat": 53.417, "lon": 6.538, "depth": 3.0, "mag": 0.755166509114672, "mag_type": "MLn", "catalog": null, "contributor": "KNMI", "location": "Den Andel", "event_type": "induced or triggered event", "status": "reviewed", "mode": "manual"}, "geometry": {"type": "Point", "coordinates": [6.538, 53.417, 3.0]}}, {"type": "Feature", "id": "knmi2025fxmk", "properties": {"time": "2025-03-26T00:04:45.7", "lat": 53.258, "lon": 6.604, "depth": 3.0, "mag": 0.2844651533959353, "mag_type": "MLn", "catalog": null, "contributor": "KNMI", "location": "Zuidwolde", "event_type": "induced or triggered event", "status": "reviewed", "mode": "manual"}, "geometry": {"type": "Point", "coordinates": [6.604, 53.258, 3.0]}}, {"type": "Feature", "id": "knmi2025fmlm", "properties": {"time": "2025-03-19T23:06:34.1", "lat": 53.26, "lon": 6.614, "depth": 3.0, "mag": 0.1722751544356801, "mag_type": "MLn", "catalog": null, "contributor": "KNMI", "location": "Zuidwolde", "event_type": "induced or triggered event", "status": "reviewed", "mode": "manual"}, "geometry": {"type": "Point", "coordinates": [6.614, 53.26, 3.0]}}, {"type": "Feature", "id": "knmi2025fkfg", "properties": {"time": "2025-03-18T17:42:02.5", "lat": 53.242, "lon": 6.93, "depth": 3.0, "mag": 0.6673758640791182, "mag_type": "MLn", "catalog": null, "contributor": "KNMI", "location": "Wagenborgen", "event_type": "induced or triggered event", "status": "reviewed", "mode": "manual"}, "geometry": {"type": "Point", "coordinates": [6.93, 53.242, 3.0]}}, {"type": "Feature", "id": "knmi2025fdpl", "properties": {"time": "2025-03-15T02:53:56.214156", "lat": 53.33981704711914, "lon": 6.717747688293457, "depth": 3.0, "mag": 0.3412175023974189, "mag_type": "MLn", "catalog": null, "contributor": "KNMI", "location": "Westeremden", "event_type": "induced or triggered event", "status": "reviewed", "mode": "manual"}, "geometry": {"type": "Point", "coordinates": [6.717747688293457, 53.33981704711914, 3.0]}}, {"type": "Feature", "id": "knmi2025dxte", "properties": {"time": "2025-02-25T16:25:36.399999", "lat": 53.335, "lon": 6.801, "depth": 3.0, "mag": 0.44094298367967166, "mag_type": "MLn", "catalog": null, "contributor": "KNMI", "location": "Oosterwijtwerd", "event_type": "induced or triggered event", "status": "reviewed", "mode": "manual"}, "geometry": {"type": "Point", "coordinates": [6.801, 53.335, 3.0]}}, {"type": "Feature", "id": "knmi2025dank", "properties": {"time": "2025-02-12T23:22:28.5", "lat": 53.397, "lon": 6.579, "depth": 3.0, "mag": 2.150062149378652, "mag_type": "MLn", "catalog": null, "contributor": "KNMI", "location": "Usquert", "event_type": "induced or triggered event", "status": "reviewed", "mode": "manual"}, "geometry": {"type": "Point", "coordinates": [6.579, 53.397, 3.0]}}, {"type": "Feature", "id": "knmi2025bxgz", "properties": {"time": "2025-01-27T23:11:03.399999", "lat": 53.179, "lon": 6.611, "depth": 3.0, "mag": 0.6124648989615183, "mag_type": "MLn", "catalog": null, "contributor": "KNMI", "location": "Haren", "event_type": "induced or triggered event", "status": "reviewed", "mode": "manual"}, "geometry": {"type": "Point", "coordinates": [6.611, 53.179, 3.0]}}, {"type": "Feature", "id": "knmi2025buzy", "properties": {"time": "2025-01-26T17:22:03.299999", "lat": 52.604, "lon": 6.802, "depth": 3.3, "mag": 1.2752221297181847, "mag_type": "MLn", "catalog": null, "contributor": "KNMI", "location": "Emlichheim (Duitsland)", "event_type": "induced or triggered event", "status": "reviewed", "mode": "manual"}, "geometry": {"type": "Point", "coordinates": [6.802, 52.604, 3.3]}}, {"type": "Feature", "id": "knmi2025buel", "properties": {"time": "2025-01-26T06:29:37.399999", "lat": 52.606, "lon": 6.801, "depth": 3.3, "mag": 1.855335281331243, "mag_type": "MLn", "catalog": null, "contributor": "KNMI", "location": "Emlichheim (Duitsland)", "event_type": "induced or triggered event", "status": "preliminary", "mode": "manual"}, "geometry": {"type": "Point", "coordinates": [6.801, 52.606, 3.3]}}, {"type": "Feature", "id": "knmi2025avqw", "properties": {"time": "2025-01-12T20:22:50.899999", "lat": 53.375, "lon": 6.666, "depth": 3.0, "mag": 0.278418768, "mag_type": "MLn", "catalog": null, "contributor": "KNMI", "location": "Kantens", "event_type": "induced or triggered event", "status": "reviewed", "mode": "manual"}, "geometry": {"type": "Point", "coordinates": [6.666, 53.375, 3.0]}}, {"type": "Feature", "id": "knmi2024yonw", "properties": {"time": "2024-12-15T11:46:10.699999", "lat": 53.224, "lon": 6.687, "depth": 3.0, "mag": 1.090494982, "mag_type": "MLn", "catalog": null, "contributor": "KNMI", "location": "Harkstede", "event_type": "induced or triggered event", "status": "reviewed", "mode": "manual"}, "geometry": {"type": "Point", "coordinates": [6.687, 53.224, 3.0]}}, {"type": "Feature", "id": "knmi2024ykmm", "properties": {"time": "2024-12-13T06:32:07.2", "lat": 53.357, "lon": 6.662, "depth": 3.0, "mag": 1.130792834, "mag_type": "MLn", "catalog": null, "contributor": "KNMI", "location": "Middelstum", "event_type": "induced or triggered event", "status": "reviewed", "mode": "manual"}, "geometry": {"type": "Point", "coordinates": [6.662, 53.357, 3.0]}}, {"type": "Feature", "id": "knmi2024xtte", "properties": {"time": "2024-12-04T02:35:23.1", "lat": 53.071, "lon": 6.806, "depth": 3.0, "mag": 1.374793478, "mag_type": "MLn", "catalog": null, "contributor": "KNMI", "location": "Nieuw Annerveen", "event_type": "induced or triggered event", "status": "reviewed", "mode": "manual"}, "geometry": {"type": "Point", "coordinates": [6.806, 53.071, 3.0]}}, {"type": "Feature", "id": "knmi2024xbdd", "properties": {"time": "2024-11-23T22:03:14.4", "lat": 53.397, "lon": 6.805, "depth": 3.0, "mag": 0.8992026825, "mag_type": "MLn", "catalog": null, "contributor": "KNMI", "location": "Spijk", "event_type": "induced or triggered event", "status": "reviewed", "mode": "manual"}, "geometry": {"type": "Point", "coordinates": [6.805, 53.397, 3.0]}}, {"type": "Feature", "id": "knmi2024vzxv", "properties": {"time": "2024-11-09T00:40:57.2", "lat": 53.313, "lon": 6.873, "depth": 3.0, "mag": 0.3836539644, "mag_type": "MLn", "catalog": null, "contributor": "KNMI", "location": "Appingedam", "event_type": "induced or triggered event", "status": "reviewed", "mode": "manual"}, "geometry": {"type": "Point", "coordinates": [6.873, 53.313, 3.0]}}, {"type": "Feature", "id": "knmi2024vkpd", "properties": {"time": "2024-10-31T15:15:25.6", "lat": 53.362, "lon": 6.707, "depth": 3.0, "mag": 2.19072852, "mag_type": "MLn", "catalog": null, "contributor": "KNMI", "location": "Garsthuizen", "event_type": "induced or triggered event", "status": "reviewed", "mode": "manual"}, "geometry": {"type": "Point", "coordinates": [6.707, 53.362, 3.0]}}, {"type": "Feature", "id": "knmi2024vijz", "properties": {"time": "2024-10-30T10:22:29.5", "lat": 53.385, "lon": 6.648, "depth": 3.0, "mag": 1.080186661, "mag_type": "MLn", "catalog": null, "contributor": "KNMI", "location": "Rottum", "event_type": "induced or triggered event", "status": "reviewed", "mode": "manual"}, "geometry": {"type": "Point", "coordinates": [6.648, 53.385, 3.0]}}, {"type": "Feature", "id": "knmi2024utaf", "properties": {"time": "2024-10-22T00:24:36.799999", "lat": 53.332, "lon": 6.726, "depth": 3.0, "mag": 0.2871223141, "mag_type": "MLn", "catalog": null, "contributor": "KNMI", "location": "Loppersum", "event_type": "induced or triggered event", "status": "reviewed", "mode": "manual"}, "geometry": {"type": "Point", "coordinates": [6.726, 53.332, 3.0]}}, {"type": "Feature", "id": "knmi2024uroj", "properties": {"time": "2024-10-21T05:17:09.9", "lat": 53.136, "lon": 6.608, "depth": 3.0, "mag": 0.8770936201, "mag_type": "MLn", "catalog": null, "contributor": "KNMI", "location": "Eelde", "event_type": "induced or triggered event", "status": "reviewed", "mode": "manual"}, "geometry": {"type": "Point", "coordinates": [6.608, 53.136, 3.0]}}, {"type": "Feature", "id": "knmi2024uofd", "properties": {"time": "2024-10-19T09:12:35.399999", "lat": 53.406, "lon": 6.627, "depth": 3.0, "mag": 1.708257101, "mag_type": "MLn", "catalog": null, "contributor": "KNMI", "location": "Usquert", "event_type": "induced or triggered event", "status": "reviewed", "mode": "manual"}, "geometry": {"type": "Point", "coordinates": [6.627, 53.406, 3.0]}}, {"type": "Feature", "id": "knmi2024tztn", "properties": {"time": "2024-10-11T11:26:22.1", "lat": 53.387, "lon": 6.646, "depth": 3.0, "mag": 0.9030135079, "mag_type": "MLn", "catalog": null, "contributor": "KNMI", "location": "Rottum", "event_type": "induced or triggered event", "status": "reviewed", "mode": "manual"}, "geometry": {"type": "Point", "coordinates": [6.646, 53.387, 3.0]}}, {"type": "Feature", "id": "knmi2024twxx", "properties": {"time": "2024-10-09T22:14:33.6", "lat": 53.407, "lon": 6.583, "depth": 3.0, "mag": 0.7078607481, "mag_type": "MLn", "catalog": null, "contributor": "KNMI", "location": "Usquert", "event_type": "induced or triggered event", "status": "reviewed", "mode": "manual"}, "geometry": {"type": "Point", "coordinates": [6.583, 53.407, 3.0]}}, {"type": "Feature", "id": "knmi2024svqn", "properties": {"time": "2024-09-24T23:50:53.6", "lat": 53.313, "lon": 6.871, "depth": 3.0, "mag": 0.8063624049, "mag_type": "MLn", "catalog": null, "contributor": "KNMI", "location": "Appingedam", "event_type": "induced or triggered event", "status": "reviewed", "mode": "manual"}, "geometry": {"type": "Point", "coordinates": [6.871, 53.313, 3.0]}}, {"type": "Feature", "id": "knmi2024pwvl", "properties": {"time": "2024-08-13T22:51:30.399999", "lat": 52.638, "lon": 6.85, "depth": 3.0, "mag": 1.807543947, "mag_type": "MLn", "catalog": null, "contributor": "KNMI", "location": "Emlichheim (Duitsland)", "event_type": "induced or triggered event", "status": "reviewed", "mode": "manual"}, "geometry": {"type": "Point", "coordinates": [6.85, 52.638, 3.0]}}, {"type": "Feature", "id": "knmi2024ppdv", "properties": {"time": "2024-08-09T18:00:20.5", "lat": 53.376, "lon": 6.663, "depth": 3.0, "mag": 1.724134386, "mag_type": "MLn", "catalog": null, "contributor": "KNMI", "location": "Kantens", "event_type": "induced or triggered event", "status": "final", "mode": "manual"}, "geometry": {"type": "Point", "coordinates": [6.663, 53.376, 3.0]}}, {"type": "Feature", "id": "knmi2024ocyw", "properties": {"time": "2024-07-19T20:19:49.0000", "lat": 53.379, "lon": 6.651, "depth": 3.0, "mag": 0.6216680882, "mag_type": "MLn", "catalog": null, "contributor": "KNMI", "location": "Kantens", "event_type": "induced or triggered event", "status": "reviewed", "mode": "manual"}, "geometry": {"type": "Point", "coordinates": [6.651, 53.379, 3.0]}}, {"type": "Feature", "id": "knmi2024neyq", "properties": {"time": "2024-07-06T16:57:40.6", "lat": 53.336, "lon": 6.632, "depth": 3.0, "mag": 0.4812969746, "mag_type": "MLn", "catalog": null, "contributor": "KNMI", "location": "Middelstum", "event_type": "induced or triggered event", "status": "reviewed", "mode": "manual"}, "geometry": {"type": "Point", "coordinates": [6.632, 53.336, 3.0]}}, {"type": "Feature", "id": "knmi2024negg", "properties": {"time": "2024-07-06T07:39:58.0000", "lat": 53.324, "lon": 6.732, "depth": 3.0, "mag": 0.4303161712, "mag_type": "MLn", "catalog": null, "contributor": "KNMI", "location": "Loppersum", "event_type": "induced or triggered event", "status": "reviewed", "mode": "manual"}, "geometry": {"type": "Point", "coordinates": [6.732, 53.324, 3.0]}}, {"type": "Feature", "id": "knmi2024jshd", "properties": {"time": "2024-05-18T01:52:34.2", "lat": 53.365, "lon": 6.74, "depth": 3.0, "mag": 0.7546155079, "mag_type": "MLn", "catalog": null, "contributor": "KNMI", "location": "Garsthuizen", "event_type": "induced or triggered event", "status": "reviewed", "mode": "manual"}, "geometry": {"type": "Point", "coordinates": [6.74, 53.365, 3.0]}}, {"type": "Feature", "id": "knmi2024jktu", "properties": {"time": "2024-05-13T23:11:10.5", "lat": 53.223, "lon": 6.699, "depth": 3.0, "mag": 0.4243705007, "mag_type": "MLn", "catalog": null, "contributor": "KNMI", "location": "Harkstede", "event_type": "induced or triggered event", "status": "reviewed", "mode": "manual"}, "geometry": {"type": "Point", "coordinates": [6.699, 53.223, 3.0]}}, {"type": "Feature", "id": "knmi2024jibl", "properties": {"time": "2024-05-12T11:38:16.199999", "lat": 53.255, "lon": 6.878, "depth": 3.0, "mag": 0.8333683584, "mag_type": "MLn", "catalog": null, "contributor": "KNMI", "location": "Siddeburen", "event_type": "induced or triggered event", "status": "reviewed", "mode": "manual"}, "geometry": {"type": "Point", "coordinates": [6.878, 53.255, 3.0]}}, {"type": "Feature", "id": "knmi2024ivvz", "properties": {"time": "2024-05-05T19:14:45.2", "lat": 53.357, "lon": 6.783, "depth": 3.0, "mag": 0.2670014974, "mag_type": "MLn", "catalog": null, "contributor": "KNMI", "location": "'t Zandt", "event_type": "induced or triggered event", "status": "reviewed", "mode": "manual"}, "geometry": {"type": "Point", "coordinates": [6.783, 53.357, 3.0]}}, {"type": "Feature", "id": "knmi2024ilgq", "properties": {"time": "2024-04-30T00:08:03.5", "lat": 53.302, "lon": 6.309, "depth": 3.0, "mag": 0.7343914166, "mag_type": "MLn", "catalog": null, "contributor": "KNMI", "location": "Kommerzijl", "event_type": "induced or triggered event", "status": "reviewed", "mode": "manual"}, "geometry": {"type": "Point", "coordinates": [6.309, 53.302, 3.0]}}, {"type": "Feature", "id": "knmi2024ilea", "properties": {"time": "2024-04-29T22:48:45.799999", "lat": 53.302, "lon": 6.316, "depth": 3.0, "mag": 1.821907099, "mag_type": "MLn", "catalog": null, "contributor": "KNMI", "location": "Kommerzijl", "event_type": "induced or triggered event", "status": "reviewed", "mode": "manual"}, "geometry": {"type": "Point", "coordinates": [6.316, 53.302, 3.0]}}, {"type": "Feature", "id": "knmi2024ikia", "properties": {"time": "2024-04-29T11:42:14.599999", "lat": 53.409, "lon": 6.58, "depth": 3.0, "mag": 1.525260765, "mag_type": "MLn", "catalog": null, "contributor": "KNMI", "location": "Usquert", "event_type": "induced or triggered event", "status": "reviewed", "mode": "manual"}, "geometry": {"type": "Point", "coordinates": [6.58, 53.409, 3.0]}}, {"type": "Feature", "id": "knmi2024hjci", "properties": {"time": "2024-04-14T14:08:51.1", "lat": 53.244, "lon": 6.698, "depth": 3.0, "mag": 1.619769662, "mag_type": "MLn", "catalog": null, "contributor": "KNMI", "location": "Lageland", "event_type": "induced or triggered event", "status": "final", "mode": "manual"}, "geometry": {"type": "Point", "coordinates": [6.698, 53.244, 3.0]}}, {"type": "Feature", "id": "knmi2024hdfz", "properties": {"time": "2024-04-11T09:10:24.5", "lat": 53.353, "lon": 6.74, "depth": 3.0, "mag": 2.058841518, "mag_type": "MLn", "catalog": null, "contributor": "KNMI", "location": "Zeerijp", "event_type": "induced or triggered event", "status": "reviewed", "mode": "manual"}, "geometry": {"type": "Point", "coordinates": [6.74, 53.353, 3.0]}}, {"type": "Feature", "id": "knmi2024gxdc", "properties": {"time": "2024-04-08T00:54:43.7", "lat": 53.357, "lon": 6.735, "depth": 3.0, "mag": 0.3255072018, "mag_type": "MLn", "catalog": null, "contributor": "KNMI", "location": "Zeerijp", "event_type": "induced or triggered event", "status": "reviewed", "mode": "manual"}, "geometry": {"type": "Point", "coordinates": [6.735, 53.357, 3.0]}}, {"type": "Feature", "id": "knmi2024gqwc", "properties": {"time": "2024-04-04T14:32:45.1", "lat": 53.244, "lon": 6.722, "depth": 3.0, "mag": 0.5603919922, "mag_type": "MLn", "catalog": null, "contributor": "KNMI", "location": "Lageland", "event_type": "induced or triggered event", "status": "reviewed", "mode": "manual"}, "geometry": {"type": "Point", "coordinates": [6.722, 53.244, 3.0]}}, {"type": "Feature", "id": "knmi2024gkuf", "properties": {"time": "2024-04-01T06:46:39.2", "lat": 53.317, "lon": 6.742, "depth": 3.0, "mag": 0.2426194609, "mag_type": "MLn", "catalog": null, "contributor": "KNMI", "location": "Garrelsweer", "event_type": "induced or triggered event", "status": "reviewed", "mode": "manual"}, "geometry": {"type": "Point", "coordinates": [6.742, 53.317, 3.0]}}, {"type": "Feature", "id": "knmi2024fvuq", "properties": {"time": "2024-03-24T01:57:06.299999", "lat": 52.638, "lon": 6.85, "depth": 3.0, "mag": 2.140112322, "mag_type": "MLn", "catalog": null, "contributor": "KNMI", "location": "Emlichheim (Duitsland)", "event_type": "induced or triggered event", "status": "reviewed", "mode": "manual"}, "geometry": {"type": "Point", "coordinates": [6.85, 52.638, 3.0]}}, {"type": "Feature", "id": "knmi2024fnnr", "properties": {"time": "2024-03-19T13:21:09.699999", "lat": 53.272, "lon": 6.835, "depth": 3.0, "mag": 0.8089714384, "mag_type": "MLn", "catalog": null, "contributor": "KNMI", "location": "Steendam", "event_type": "induced or triggered event", "status": "reviewed", "mode": "manual"}, "geometry": {"type": "Point", "coordinates": [6.835, 53.272, 3.0]}}, {"type": "Feature", "id": "knmi2024fcoi", "properties": {"time": "2024-03-13T13:10:52.1", "lat": 53.341, "lon": 6.704, "depth": 3.0, "mag": 0.4658725855, "mag_type": "MLn", "catalog": null, "contributor": "KNMI", "location": "Westeremden", "event_type": "induced or triggered event", "status": "reviewed", "mode": "manual"}, "geometry": {"type": "Point", "coordinates": [6.704, 53.341, 3.0]}}, {"type": "Feature", "id": "knmi2024etjw", "properties": {"time": "2024-03-08T12:42:18.0000", "lat": 53.403, "lon": 6.627, "depth": 3.0, "mag": 0.978273665, "mag_type": "MLn", "catalog": null, "contributor": "KNMI", "location": "Usquert", "event_type": "induced or triggered event", "status": "reviewed", "mode": "manual"}, "geometry": {"type": "Point", "coordinates": [6.627, 53.403, 3.0]}}, {"type": "Feature", "id": "knmi2024eour", "properties": {"time": "2024-03-06T00:29:52.2", "lat": 53.31, "lon": 6.714, "depth": 3.0, "mag": 0.3731711479, "mag_type": "MLn", "catalog": null, "contributor": "KNMI", "location": "Stedum", "event_type": "induced or triggered event", "status": "reviewed", "mode": "manual"}, "geometry": {"type": "Point", "coordinates": [6.714, 53.31, 3.0]}}, {"type": "Feature", "id": "knmi2024enys", "properties": {"time": "2024-03-05T13:23:37.299999", "lat": 53.275, "lon": 7.0, "depth": 3.0, "mag": 0.48442332, "mag_type": "MLn", "catalog": null, "contributor": "KNMI", "location": "Woldendorp", "event_type": "induced or triggered event", "status": "reviewed", "mode": "manual"}, "geometry": {"type": "Point", "coordinates": [7.0, 53.275, 3.0]}}, {"type": "Feature", "id": "knmi2024czvb", "properties": {"time": "2024-02-12T14:06:46.0000", "lat": 53.321, "lon": 6.828, "depth": 3.0, "mag": 0.294741117, "mag_type": "MLn", "catalog": null, "contributor": "KNMI", "location": "Appingedam", "event_type": "induced or triggered event", "status": "reviewed", "mode": "manual"}, "geometry": {"type": "Point", "coordinates": [6.828, 53.321, 3.0]}}, {"type": "Feature", "id": "knmi2024czuf", "properties": {"time": "2024-02-12T13:41:37.1", "lat": 53.321, "lon": 6.831, "depth": 3.0, "mag": 1.138381438, "mag_type": "MLn", "catalog": null, "contributor": "KNMI", "location": "Appingedam", "event_type": "induced or triggered event", "status": "reviewed", "mode": "manual"}, "geometry": {"type": "Point", "coordinates": [6.831, 53.321, 3.0]}}, {"type": "Feature", "id": "knmi2024cxmb", "properties": {"time": "2024-02-11T07:17:13.599999", "lat": 53.372, "lon": 6.679, "depth": 3.0, "mag": 0.4486644273, "mag_type": "MLn", "catalog": null, "contributor": "KNMI", "location": "Eppenhuizen", "event_type": "induced or triggered event", "status": "reviewed", "mode": "manual"}, "geometry": {"type": "Point", "coordinates": [6.679, 53.372, 3.0]}}], "metadata": {"created": "2026-09-06T13:15:04.286935", "url": "/fdsnws/event/1/query?format=json&limit=100&minmagnitude=0.01&minlongitude=1.6&minlatitude=52.10&maxlongitude=9.15&maxlatitude=54.6", "sender": "KNMI", "source": "SeisComP", "count": 100}}